<?xml version="1.0" encoding="UTF-8"?>
<gpx xmlns="http://www.topografix.com/GPX/1/1" xmlns:gpxtpx="http://www.garmin.com/xmlschemas/TrackPointExtension/v1" xmlns:xsi="http://www.w3.org/2001/XMLSchema-instance" xsi:schemaLocation="http://www.topografix.com/GPX/1/1 http://www.topografix.com/GPX/1/1/gpx.xsd" version="1.1" creator="gpx.py -- https://github.com/tkrajina/gpxpy">
  <trk>
    <name>gpx from keep</name>
    <type>Run</type>
    <trkseg>
      <trkpt lat="36.028036390232465" lon="119.41420833154231">
        <ele>64.31787109375</ele>
        <time>2023-01-28T12:12:09Z</time>
      </trkpt>
      <trkpt lat="36.02797537436261" lon="119.41417028874059">
        <ele>61.5362548828125</ele>
        <time>2023-01-28T12:12:12Z</time>
      </trkpt>
      <trkpt lat="36.02785142802147" lon="119.41420234444483">
        <ele>58.00103759765625</ele>
        <time>2023-01-28T12:12:18Z</time>
      </trkpt>
      <trkpt lat="36.027724451699974" lon="119.41419534953836">
        <ele>56.83050537109375</ele>
        <time>2023-01-28T12:12:24Z</time>
      </trkpt>
      <trkpt lat="36.02763738933253" lon="119.41409022240296">
        <ele>61.17596435546875</ele>
        <time>2023-01-28T12:12:30Z</time>
      </trkpt>
      <trkpt lat="36.02751443481999" lon="119.41411226482653">
        <ele>61.53076171875</ele>
        <time>2023-01-28T12:12:36Z</time>
      </trkpt>
      <trkpt lat="36.02718649535158" lon="119.4140932768811">
        <ele>55.53607177734375</ele>
        <time>2023-01-28T12:12:51Z</time>
      </trkpt>
      <trkpt lat="36.02703756877467" lon="119.41414335870635">
        <ele>59.739501953125</ele>
        <time>2023-01-28T12:13:00Z</time>
      </trkpt>
      <trkpt lat="36.02670565139563" lon="119.4141514063679">
        <ele>59.7330322265625</ele>
        <time>2023-01-28T12:13:18Z</time>
      </trkpt>
      <trkpt lat="36.02647670249463" lon="119.41414942943888">
        <ele>59.84405517578125</ele>
        <time>2023-01-28T12:13:33Z</time>
      </trkpt>
      <trkpt lat="36.026413746050316" lon="119.41418648479335">
        <ele>62.12884521484375</ele>
        <time>2023-01-28T12:13:36Z</time>
      </trkpt>
      <trkpt lat="36.02613078444147" lon="119.41415247215015">
        <ele>59.7708740234375</ele>
        <time>2023-01-28T12:13:51Z</time>
      </trkpt>
      <trkpt lat="36.026052792971946" lon="119.41414046524974">
        <ele>63.13800048828125</ele>
        <time>2023-01-28T12:13:54Z</time>
      </trkpt>
      <trkpt lat="36.025715916080216" lon="119.41419857874071">
        <ele>61.3419189453125</ele>
        <time>2023-01-28T12:14:12Z</time>
      </trkpt>
      <trkpt lat="36.02542495789497" lon="119.41416656958071">
        <ele>59.1187744140625</ele>
        <time>2023-01-28T12:14:27Z</time>
      </trkpt>
      <trkpt lat="36.02509908014694" lon="119.41422668453907">
        <ele>48.43328857421875</ele>
        <time>2023-01-28T12:14:48Z</time>
      </trkpt>
      <trkpt lat="36.0250290624132" lon="119.41418363617782">
        <ele>52.91900634765625</ele>
        <time>2023-01-28T12:14:51Z</time>
      </trkpt>
      <trkpt lat="36.02497606911306" lon="119.4141766329801">
        <ele>55.51593017578125</ele>
        <time>2023-01-28T12:14:54Z</time>
      </trkpt>
      <trkpt lat="36.02490112336896" lon="119.41422370281536">
        <ele>53.6629638671875</ele>
        <time>2023-01-28T12:15:00Z</time>
      </trkpt>
      <trkpt lat="36.024584221605544" lon="119.41425578025296">
        <ele>52.4541015625</ele>
        <time>2023-01-28T12:15:21Z</time>
      </trkpt>
      <trkpt lat="36.02432926692226" lon="119.41423878658179">
        <ele>52.3929443359375</ele>
        <time>2023-01-28T12:15:36Z</time>
      </trkpt>
      <trkpt lat="36.02408835086056" lon="119.41427486076827">
        <ele>52.51800537109375</ele>
        <time>2023-01-28T12:15:45Z</time>
      </trkpt>
      <trkpt lat="36.023922527515055" lon="119.41427451398815">
        <ele>57.79266357421875</ele>
        <time>2023-01-28T12:15:51Z</time>
      </trkpt>
      <trkpt lat="36.02348264226647" lon="119.41446618017837">
        <ele>0.0</ele>
        <time>2023-01-28T12:16:18Z</time>
      </trkpt>
      <trkpt lat="36.02315080533363" lon="119.41457436050712">
        <ele>0.0</ele>
        <time>2023-01-28T12:16:24Z</time>
      </trkpt>
      <trkpt lat="36.02262490974351" lon="119.41455339160058">
        <ele>58.06982421875</ele>
        <time>2023-01-28T12:16:54Z</time>
      </trkpt>
      <trkpt lat="36.0225719251776" lon="119.41455740285063">
        <ele>59.215087890625</ele>
        <time>2023-01-28T12:17:07Z</time>
      </trkpt>
      <trkpt lat="36.02252390416445" lon="119.41451735519149">
        <ele>54.02197265625</ele>
        <time>2023-01-28T12:17:13Z</time>
      </trkpt>
      <trkpt lat="36.02234592600314" lon="119.41449334336677">
        <ele>52.09423828125</ele>
        <time>2023-01-28T12:17:22Z</time>
      </trkpt>
      <trkpt lat="36.02220897281448" lon="119.41451238388291">
        <ele>51.5740966796875</ele>
        <time>2023-01-28T12:17:31Z</time>
      </trkpt>
      <trkpt lat="36.0221479772779" lon="119.41450037483071">
        <ele>53.79010009765625</ele>
        <time>2023-01-28T12:17:34Z</time>
      </trkpt>
      <trkpt lat="36.02209600368864" lon="119.41451840449992">
        <ele>53.4432373046875</ele>
        <time>2023-01-28T12:17:37Z</time>
      </trkpt>
      <trkpt lat="36.021776091949164" lon="119.41453646423268">
        <ele>47.9061279296875</ele>
        <time>2023-01-28T12:17:55Z</time>
      </trkpt>
      <trkpt lat="36.021559190228245" lon="119.41459656821873">
        <ele>48.82611083984375</ele>
        <time>2023-01-28T12:18:07Z</time>
      </trkpt>
      <trkpt lat="36.02141242918602" lon="119.41484992284043">
        <ele>0.0</ele>
        <time>2023-01-28T12:18:34Z</time>
      </trkpt>
      <trkpt lat="36.021055345243504" lon="119.41464468859353">
        <ele>54.2459716796875</ele>
        <time>2023-01-28T12:18:40Z</time>
      </trkpt>
      <trkpt lat="36.020856432398894" lon="119.41469577891108">
        <ele>52.21502685546875</ele>
        <time>2023-01-28T12:18:55Z</time>
      </trkpt>
      <trkpt lat="36.020538539048005" lon="119.41473686934">
        <ele>55.565185546875</ele>
        <time>2023-01-28T12:19:25Z</time>
      </trkpt>
      <trkpt lat="36.020434575238525" lon="119.41475190106394">
        <ele>56.46856689453125</ele>
        <time>2023-01-28T12:19:37Z</time>
      </trkpt>
      <trkpt lat="36.01982088770896" lon="119.41496125079948">
        <ele>0.0</ele>
        <time>2023-01-28T12:20:04Z</time>
      </trkpt>
      <trkpt lat="36.02013779477308" lon="119.41493718288241">
        <ele>0.0</ele>
        <time>2023-01-28T12:20:10Z</time>
      </trkpt>
      <trkpt lat="36.02026526621042" lon="119.41492362571003">
        <ele>0.0</ele>
        <time>2023-01-28T12:20:16Z</time>
      </trkpt>
      <trkpt lat="36.02012055015752" lon="119.41496397262821">
        <ele>0.0</ele>
        <time>2023-01-28T12:20:22Z</time>
      </trkpt>
      <trkpt lat="36.02012992425552" lon="119.41509239349881">
        <ele>81.2379150390625</ele>
        <time>2023-01-28T12:20:25Z</time>
      </trkpt>
      <trkpt lat="36.02013985675841" lon="119.41501328531814">
        <ele>76.25201416015625</ele>
        <time>2023-01-28T12:20:28Z</time>
      </trkpt>
      <trkpt lat="36.02014580605018" lon="119.41495320357103">
        <ele>80.66943359375</ele>
        <time>2023-01-28T12:20:52Z</time>
      </trkpt>
      <trkpt lat="36.020091638248175" lon="119.41473191276232">
        <ele>65.75335693359375</ele>
        <time>2023-01-28T12:21:37Z</time>
      </trkpt>
      <trkpt lat="36.02003868864937" lon="119.4147789816048">
        <ele>66.65087890625</ele>
        <time>2023-01-28T12:21:40Z</time>
      </trkpt>
      <trkpt lat="36.0197837801221" lon="119.4148190638209">
        <ele>65.8096923828125</ele>
        <time>2023-01-28T12:21:55Z</time>
      </trkpt>
      <trkpt lat="36.01972678677825" lon="119.41481105947668">
        <ele>69.0452880859375</ele>
        <time>2023-01-28T12:21:58Z</time>
      </trkpt>
      <trkpt lat="36.019658729385654" lon="119.41472094659666">
        <ele>65.91693115234375</ele>
        <time>2023-01-28T12:22:04Z</time>
      </trkpt>
      <trkpt lat="36.01962544662752" lon="119.41435847025487">
        <ele>61.22393798828125</ele>
        <time>2023-01-28T12:22:19Z</time>
      </trkpt>
      <trkpt lat="36.019594347004826" lon="119.41422329661523">
        <ele>60.14886474609375</ele>
        <time>2023-01-28T12:22:25Z</time>
      </trkpt>
      <trkpt lat="36.01960417787088" lon="119.4140100181529">
        <ele>57.88812255859375</ele>
        <time>2023-01-28T12:22:34Z</time>
      </trkpt>
      <trkpt lat="36.01973300447504" lon="119.41247107880282">
        <ele>50.5682373046875</ele>
        <time>2023-01-28T12:23:49Z</time>
      </trkpt>
      <trkpt lat="36.01971194990365" lon="119.41238697984132">
        <ele>54.02557373046875</ele>
        <time>2023-01-28T12:23:52Z</time>
      </trkpt>
      <trkpt lat="36.01971389946137" lon="119.41231589429424">
        <ele>57.555908203125</ele>
        <time>2023-01-28T12:23:55Z</time>
      </trkpt>
      <trkpt lat="36.01969085642181" lon="119.41224681422914">
        <ele>57.33843994140625</ele>
        <time>2023-01-28T12:23:58Z</time>
      </trkpt>
      <trkpt lat="36.019708771452954" lon="119.41213067388425">
        <ele>56.283935546875</ele>
        <time>2023-01-28T12:24:04Z</time>
      </trkpt>
      <trkpt lat="36.01969573566273" lon="119.41207460883814">
        <ele>55.07366943359375</ele>
        <time>2023-01-28T12:24:07Z</time>
      </trkpt>
      <trkpt lat="36.019707695614315" lon="119.41202054353307">
        <ele>57.23077392578125</ele>
        <time>2023-01-28T12:24:10Z</time>
      </trkpt>
      <trkpt lat="36.019650541995155" lon="119.41177626299543">
        <ele>58.8402099609375</ele>
        <time>2023-01-28T12:24:25Z</time>
      </trkpt>
      <trkpt lat="36.01966428566338" lon="119.41139782362228">
        <ele>56.91107177734375</ele>
        <time>2023-01-28T12:24:43Z</time>
      </trkpt>
      <trkpt lat="36.01964524849739" lon="119.41133475357795">
        <ele>56.0140380859375</ele>
        <time>2023-01-28T12:24:46Z</time>
      </trkpt>
      <trkpt lat="36.0194716872035" lon="119.4103897186125">
        <ele>0.0</ele>
        <time>2023-01-28T12:26:10Z</time>
      </trkpt>
      <trkpt lat="36.019483474104945" lon="119.41004334354724">
        <ele>0.0</ele>
        <time>2023-01-28T12:26:16Z</time>
      </trkpt>
      <trkpt lat="36.019594693279934" lon="119.41014994657826">
        <ele>78.70050048828125</ele>
        <time>2023-01-28T12:26:25Z</time>
      </trkpt>
      <trkpt lat="36.019651516698275" lon="119.4101784697071">
        <ele>50.474609375</ele>
        <time>2023-01-28T12:26:34Z</time>
      </trkpt>
      <trkpt lat="36.01966238308396" lon="119.40996023483676">
        <ele>54.877685546875</ele>
        <time>2023-01-28T12:27:16Z</time>
      </trkpt>
      <trkpt lat="36.01964434205258" lon="119.40988415604195">
        <ele>54.12054443359375</ele>
        <time>2023-01-28T12:27:22Z</time>
      </trkpt>
      <trkpt lat="36.01979793172608" lon="119.40923546311176">
        <ele>61.31585693359375</ele>
        <time>2023-01-28T12:28:22Z</time>
      </trkpt>
      <trkpt lat="36.01980688469534" lon="119.40915538034973">
        <ele>57.15631103515625</ele>
        <time>2023-01-28T12:28:28Z</time>
      </trkpt>
      <trkpt lat="36.01979185073703" lon="119.4090883138457">
        <ele>57.74755859375</ele>
        <time>2023-01-28T12:28:34Z</time>
      </trkpt>
      <trkpt lat="36.01960090546844" lon="119.40910735458121">
        <ele>55.217041015625</ele>
        <time>2023-01-28T12:28:49Z</time>
      </trkpt>
      <trkpt lat="36.019565937589704" lon="119.40915040228587">
        <ele>54.95111083984375</ele>
        <time>2023-01-28T12:28:52Z</time>
      </trkpt>
      <trkpt lat="36.0195951054627" lon="119.40945871569525">
        <ele>57.8634033203125</ele>
        <time>2023-01-28T12:29:10Z</time>
      </trkpt>
      <trkpt lat="36.01966115938386" lon="119.40957883313281">
        <ele>56.0467529296875</ele>
        <time>2023-01-28T12:29:19Z</time>
      </trkpt>
      <trkpt lat="36.019376390369814" lon="119.40986116170983">
        <ele>0.0</ele>
        <time>2023-01-28T12:30:10Z</time>
      </trkpt>
      <trkpt lat="36.019417395703655" lon="119.40988618362536">
        <ele>0.0</ele>
        <time>2023-01-28T12:30:16Z</time>
      </trkpt>
      <trkpt lat="36.01946721205104" lon="119.41009415594186">
        <ele>0.0</ele>
        <time>2023-01-28T12:30:25Z</time>
      </trkpt>
      <trkpt lat="36.01875650889806" lon="119.40981918678642">
        <ele>67.89013671875</ele>
        <time>2023-01-28T12:30:37Z</time>
      </trkpt>
      <trkpt lat="36.01849151903044" lon="119.40973212472684">
        <ele>62.9573974609375</ele>
        <time>2023-01-28T12:30:55Z</time>
      </trkpt>
      <trkpt lat="36.018287560362246" lon="119.40972213708544">
        <ele>59.0185546875</ele>
        <time>2023-01-28T12:31:07Z</time>
      </trkpt>
      <trkpt lat="36.018211566241675" lon="119.4097021245828">
        <ele>58.1990966796875</ele>
        <time>2023-01-28T12:31:13Z</time>
      </trkpt>
      <trkpt lat="36.01800961531835" lon="119.40970615144231">
        <ele>54.80926513671875</ele>
        <time>2023-01-28T12:31:25Z</time>
      </trkpt>
      <trkpt lat="36.01671097594134" lon="119.40980840462802">
        <ele>0.0</ele>
        <time>2023-01-28T12:32:13Z</time>
      </trkpt>
      <trkpt lat="36.01710993024661" lon="119.4098874435449">
        <ele>0.0</ele>
        <time>2023-01-28T12:32:22Z</time>
      </trkpt>
      <trkpt lat="36.017015849506" lon="119.40971327028332">
        <ele>76.253173828125</ele>
        <time>2023-01-28T12:32:25Z</time>
      </trkpt>
      <trkpt lat="36.0169678664759" lon="119.40972328618331">
        <ele>73.61767578125</ele>
        <time>2023-01-28T12:32:28Z</time>
      </trkpt>
      <trkpt lat="36.01692286519316" lon="119.40970327020264">
        <ele>70.3837890625</ele>
        <time>2023-01-28T12:32:31Z</time>
      </trkpt>
      <trkpt lat="36.01682488788968" lon="119.4097032811936">
        <ele>66.75146484375</ele>
        <time>2023-01-28T12:32:37Z</time>
      </trkpt>
      <trkpt lat="36.01674492280946" lon="119.4097313196107">
        <ele>64.14288330078125</ele>
        <time>2023-01-28T12:32:43Z</time>
      </trkpt>
      <trkpt lat="36.01643696199485" lon="119.40967629635762">
        <ele>61.03338623046875</ele>
        <time>2023-01-28T12:32:58Z</time>
      </trkpt>
      <trkpt lat="36.016101064982536" lon="119.4097193792109">
        <ele>62.47637939453125</ele>
        <time>2023-01-28T12:33:22Z</time>
      </trkpt>
      <trkpt lat="36.015822112101226" lon="119.40968937897476">
        <ele>64.83526611328125</ele>
        <time>2023-01-28T12:33:43Z</time>
      </trkpt>
      <trkpt lat="36.015776114007096" lon="119.40967436839009">
        <ele>65.16741943359375</ele>
        <time>2023-01-28T12:33:46Z</time>
      </trkpt>
      <trkpt lat="36.01569414060392" lon="119.40968739122981">
        <ele>63.7919921875</ele>
        <time>2023-01-28T12:33:52Z</time>
      </trkpt>
      <trkpt lat="36.01551415959083" lon="119.40964837051449">
        <ele>57.902099609375</ele>
        <time>2023-01-28T12:34:10Z</time>
      </trkpt>
      <trkpt lat="36.014195527538746" lon="119.40975462980249">
        <ele>0.0</ele>
        <time>2023-01-28T12:35:52Z</time>
      </trkpt>
      <trkpt lat="36.014003500820564" lon="119.40963252320874">
        <ele>59.914794921875</ele>
        <time>2023-01-28T12:36:07Z</time>
      </trkpt>
      <trkpt lat="36.01368958710869" lon="119.40965558251015">
        <ele>63.507080078125</ele>
        <time>2023-01-28T12:36:28Z</time>
      </trkpt>
      <trkpt lat="36.01354061879591" lon="119.40965059397934">
        <ele>61.0892333984375</ele>
        <time>2023-01-28T12:36:40Z</time>
      </trkpt>
      <trkpt lat="36.01335568684452" lon="119.40969365983032">
        <ele>65.79595947265625</ele>
        <time>2023-01-28T12:36:58Z</time>
      </trkpt>
      <trkpt lat="36.0132656972388" lon="119.4096756510284">
        <ele>66.1021728515625</ele>
        <time>2023-01-28T12:37:04Z</time>
      </trkpt>
      <trkpt lat="36.0124788900302" lon="119.40969275712223">
        <ele>0.0</ele>
        <time>2023-01-28T12:38:14Z</time>
      </trkpt>
      <trkpt lat="36.01228601654153" lon="119.40983192528209">
        <ele>0.0</ele>
        <time>2023-01-28T12:38:26Z</time>
      </trkpt>
      <trkpt lat="36.0121898747021" lon="119.40955064098642">
        <ele>59.67041015625</ele>
        <time>2023-01-28T12:38:32Z</time>
      </trkpt>
      <trkpt lat="36.01209589251342" lon="119.40954364423416">
        <ele>60.38470458984375</ele>
        <time>2023-01-28T12:38:44Z</time>
      </trkpt>
      <trkpt lat="36.01196793325798" lon="119.40956267838811">
        <ele>59.935791015625</ele>
        <time>2023-01-28T12:39:23Z</time>
      </trkpt>
      <trkpt lat="36.01149211895705" lon="119.40969186674475">
        <ele>74.1612548828125</ele>
        <time>2023-01-28T12:40:11Z</time>
      </trkpt>
      <trkpt lat="36.011369129483455" lon="119.4096608480122">
        <ele>75.184326171875</ele>
        <time>2023-01-28T12:40:20Z</time>
      </trkpt>
      <trkpt lat="36.011218176866244" lon="119.40968188696999">
        <ele>84.725341796875</ele>
        <time>2023-01-28T12:40:29Z</time>
      </trkpt>
      <trkpt lat="36.01107124149037" lon="119.40973395810272">
        <ele>85.78515625</ele>
        <time>2023-01-28T12:40:38Z</time>
      </trkpt>
      <trkpt lat="36.01094625535819" lon="119.40970794477407">
        <ele>89.22406005859375</ele>
        <time>2023-01-28T12:40:44Z</time>
      </trkpt>
      <trkpt lat="36.01092819431748" lon="119.40959582944247">
        <ele>72.107177734375</ele>
        <time>2023-01-28T12:40:50Z</time>
      </trkpt>
      <trkpt lat="36.01096215919928" lon="119.40954877659833">
        <ele>71.1671142578125</ele>
        <time>2023-01-28T12:40:56Z</time>
      </trkpt>
      <trkpt lat="36.010782215554194" lon="119.40957382284618">
        <ele>71.3175048828125</ele>
        <time>2023-01-28T12:41:14Z</time>
      </trkpt>
      <trkpt lat="36.01063329261981" lon="119.40964691586676">
        <ele>75.0789794921875</ele>
        <time>2023-01-28T12:41:23Z</time>
      </trkpt>
      <trkpt lat="36.01056129891045" lon="119.40962890509438">
        <ele>77.0745849609375</ele>
        <time>2023-01-28T12:41:26Z</time>
      </trkpt>
      <trkpt lat="36.01045734350089" lon="119.40966395341596">
        <ele>79.1517333984375</ele>
        <time>2023-01-28T12:41:32Z</time>
      </trkpt>
      <trkpt lat="36.01042132163079" lon="119.4096119030104">
        <ele>75.5281982421875</ele>
        <time>2023-01-28T12:41:35Z</time>
      </trkpt>
      <trkpt lat="36.0102594170567" lon="119.4097110249562">
        <ele>81.36065673828125</ele>
        <time>2023-01-28T12:41:47Z</time>
      </trkpt>
      <trkpt lat="36.01020943396869" lon="119.40972004002474">
        <ele>80.9671630859375</ele>
        <time>2023-01-28T12:41:50Z</time>
      </trkpt>
      <trkpt lat="36.010157427951356" lon="119.4096890132817">
        <ele>82.6939697265625</ele>
        <time>2023-01-28T12:41:53Z</time>
      </trkpt>
      <trkpt lat="36.010021452039254" lon="119.4096760148868">
        <ele>82.01416015625</ele>
        <time>2023-01-28T12:42:02Z</time>
      </trkpt>
      <trkpt lat="36.009970435963346" lon="119.40962797031274">
        <ele>84.01910400390625</ele>
        <time>2023-01-28T12:42:05Z</time>
      </trkpt>
      <trkpt lat="36.0098364631116" lon="119.40962097801372">
        <ele>83.70556640625</ele>
        <time>2023-01-28T12:42:14Z</time>
      </trkpt>
      <trkpt lat="36.00979142841352" lon="119.40954290164603">
        <ele>77.432373046875</ele>
        <time>2023-01-28T12:42:20Z</time>
      </trkpt>
      <trkpt lat="36.00842171380153" lon="119.40948399389868">
        <ele>68.4249267578125</ele>
        <time>2023-01-28T12:44:11Z</time>
      </trkpt>
      <trkpt lat="36.00836873767098" lon="119.40950402061522">
        <ele>70.3050537109375</ele>
        <time>2023-01-28T12:44:14Z</time>
      </trkpt>
      <trkpt lat="36.00816078447115" lon="119.40950104081763">
        <ele>69.07464599609375</ele>
        <time>2023-01-28T12:44:29Z</time>
      </trkpt>
      <trkpt lat="36.00818980423038" lon="119.40954708542603">
        <ele>67.14520263671875</ele>
        <time>2023-01-28T12:44:32Z</time>
      </trkpt>
      <trkpt lat="36.00806185028982" lon="119.40957512896775">
        <ele>64.67138671875</ele>
        <time>2023-01-28T12:44:44Z</time>
      </trkpt>
      <trkpt lat="36.008006848664756" lon="119.40955010906839">
        <ele>65.028076171875</ele>
        <time>2023-01-28T12:44:50Z</time>
      </trkpt>
      <trkpt lat="36.00772794272748" lon="119.40960019251462">
        <ele>73.02459716796875</ele>
        <time>2023-01-28T12:45:11Z</time>
      </trkpt>
      <trkpt lat="36.00760498188824" lon="119.40961822511925">
        <ele>77.39227294921875</ele>
        <time>2023-01-28T12:45:20Z</time>
      </trkpt>
      <trkpt lat="36.007384028839404" lon="119.4096102415312">
        <ele>80.5738525390625</ele>
        <time>2023-01-28T12:45:38Z</time>
      </trkpt>
      <trkpt lat="36.00723903662039" lon="119.40956521080525">
        <ele>82.4288330078125</ele>
        <time>2023-01-28T12:45:50Z</time>
      </trkpt>
      <trkpt lat="36.00718402463107" lon="119.40952217218552">
        <ele>84.3614501953125</ele>
        <time>2023-01-28T12:45:56Z</time>
      </trkpt>
      <trkpt lat="36.00694707422212" lon="119.40951218835535">
        <ele>85.70745849609375</ele>
        <time>2023-01-28T12:46:14Z</time>
      </trkpt>
      <trkpt lat="36.00672410503279" lon="119.40947517492475">
        <ele>81.69378662109375</ele>
        <time>2023-01-28T12:46:32Z</time>
      </trkpt>
      <trkpt lat="36.006105453510614" lon="119.409825610977">
        <ele>124.4493408203125</ele>
        <time>2023-01-28T12:47:23Z</time>
      </trkpt>
      <trkpt lat="36.00603045807042" lon="119.40980359613168">
        <ele>123.3487548828125</ele>
        <time>2023-01-28T12:47:26Z</time>
      </trkpt>
      <trkpt lat="36.00600942243087" lon="119.40973452573535">
        <ele>108.1290283203125</ele>
        <time>2023-01-28T12:47:29Z</time>
      </trkpt>
      <trkpt lat="36.00593043914323" lon="119.4097315314345">
        <ele>109.419921875</ele>
        <time>2023-01-28T12:47:35Z</time>
      </trkpt>
      <trkpt lat="36.005797494305284" lon="119.40977258953268">
        <ele>110.5333251953125</ele>
        <time>2023-01-28T12:47:44Z</time>
      </trkpt>
      <trkpt lat="36.00565349220725" lon="119.40971154145375">
        <ele>99.67938232421875</ele>
        <time>2023-01-28T12:47:56Z</time>
      </trkpt>
      <trkpt lat="36.005588475298474" lon="119.40965649101781">
        <ele>93.72845458984375</ele>
        <time>2023-01-28T12:48:02Z</time>
      </trkpt>
      <trkpt lat="36.0055095083554" lon="119.40968152608987">
        <ele>96.0889892578125</ele>
        <time>2023-01-28T12:48:08Z</time>
      </trkpt>
      <trkpt lat="36.00538152138815" lon="119.40965251003142">
        <ele>96.174560546875</ele>
        <time>2023-01-28T12:48:20Z</time>
      </trkpt>
      <trkpt lat="36.00512053253157" lon="119.40956644939857">
        <ele>85.87451171875</ele>
        <time>2023-01-28T12:48:44Z</time>
      </trkpt>
      <trkpt lat="36.00491953803071" lon="119.40949439699789">
        <ele>80.48394775390625</ele>
        <time>2023-01-28T12:49:02Z</time>
      </trkpt>
      <trkpt lat="36.00425878307419" lon="119.40965063382187">
        <ele>95.11822509765625</ele>
        <time>2023-01-28T12:49:47Z</time>
      </trkpt>
      <trkpt lat="36.00426774031397" lon="119.4095805596228">
        <ele>88.512939453125</ele>
        <time>2023-01-28T12:49:50Z</time>
      </trkpt>
      <trkpt lat="36.004250709625985" lon="119.4095204990165">
        <ele>80.27655029296875</ele>
        <time>2023-01-28T12:49:56Z</time>
      </trkpt>
      <trkpt lat="36.00417671025809" lon="119.4094914771712">
        <ele>78.5413818359375</ele>
        <time>2023-01-28T12:50:05Z</time>
      </trkpt>
      <trkpt lat="36.004152687177495" lon="119.40944142800797">
        <ele>70.55987548828125</ele>
        <time>2023-01-28T12:50:08Z</time>
      </trkpt>
      <trkpt lat="36.00385874173728" lon="119.40941643509115">
        <ele>74.1917724609375</ele>
        <time>2023-01-28T12:50:38Z</time>
      </trkpt>
      <trkpt lat="36.00373878645303" lon="119.40944547855881">
        <ele>75.2808837890625</ele>
        <time>2023-01-28T12:50:47Z</time>
      </trkpt>
      <trkpt lat="36.00350182138841" lon="119.40940946787107">
        <ele>77.24468994140625</ele>
        <time>2023-01-28T12:51:11Z</time>
      </trkpt>
      <trkpt lat="36.00330195854081" lon="119.40956665330106">
        <ele>0.0</ele>
        <time>2023-01-28T12:51:38Z</time>
      </trkpt>
      <trkpt lat="36.00325789631658" lon="119.40944052729746">
        <ele>0.0</ele>
        <time>2023-01-28T12:51:41Z</time>
      </trkpt>
      <trkpt lat="36.00317929999494" lon="119.40920694231617">
        <ele>0.0</ele>
        <time>2023-01-28T12:51:59Z</time>
      </trkpt>
      <trkpt lat="36.00318100780711" lon="119.40946249448074">
        <ele>0.0</ele>
        <time>2023-01-28T12:52:08Z</time>
      </trkpt>
      <trkpt lat="36.00329918448746" lon="119.4097157057659">
        <ele>0.0</ele>
        <time>2023-01-28T12:52:17Z</time>
      </trkpt>
      <trkpt lat="36.00316406028082" lon="119.40962408593467">
        <ele>0.0</ele>
        <time>2023-01-28T12:52:26Z</time>
      </trkpt>
      <trkpt lat="36.00317076832334" lon="119.40967883293189">
        <ele>0.0</ele>
        <time>2023-01-28T12:52:32Z</time>
      </trkpt>
      <trkpt lat="36.00314843986626" lon="119.40973355722181">
        <ele>0.0</ele>
        <time>2023-01-28T12:52:41Z</time>
      </trkpt>
      <trkpt lat="36.00324401972891" lon="119.40964874550104">
        <ele>0.0</ele>
        <time>2023-01-28T12:53:11Z</time>
      </trkpt>
      <trkpt lat="36.00315807432063" lon="119.40970781703932">
        <ele>0.0</ele>
        <time>2023-01-28T12:53:50Z</time>
      </trkpt>
      <trkpt lat="36.003157200755936" lon="119.40992204333143">
        <ele>0.0</ele>
        <time>2023-01-28T12:54:05Z</time>
      </trkpt>
      <trkpt lat="36.003207402102376" lon="119.41005087357713">
        <ele>0.0</ele>
        <time>2023-01-28T12:54:17Z</time>
      </trkpt>
      <trkpt lat="36.00332326718038" lon="119.41009821270075">
        <ele>0.0</ele>
        <time>2023-01-28T12:54:38Z</time>
      </trkpt>
      <trkpt lat="36.00323638712735" lon="119.41013269575443">
        <ele>0.0</ele>
        <time>2023-01-28T12:54:41Z</time>
      </trkpt>
      <trkpt lat="36.00318700234673" lon="119.4112194656662">
        <ele>0.0</ele>
        <time>2023-01-28T12:56:09Z</time>
      </trkpt>
      <trkpt lat="36.00303317127" lon="119.41142171375147">
        <ele>0.0</ele>
        <time>2023-01-28T12:56:18Z</time>
      </trkpt>
      <trkpt lat="36.00299331262025" lon="119.41161994674748">
        <ele>0.0</ele>
        <time>2023-01-28T12:56:42Z</time>
      </trkpt>
      <trkpt lat="36.0031013999793" lon="119.41178712911817">
        <ele>0.0</ele>
        <time>2023-01-28T12:56:51Z</time>
      </trkpt>
      <trkpt lat="36.00320659271009" lon="119.41210449087497">
        <ele>75.22650146484375</ele>
        <time>2023-01-28T12:57:04Z</time>
      </trkpt>
      <trkpt lat="36.00317763211891" lon="119.41215154999252">
        <ele>69.26153564453125</ele>
        <time>2023-01-28T12:57:10Z</time>
      </trkpt>
      <trkpt lat="36.00319467898049" lon="119.41222463511063">
        <ele>71.05963134765625</ele>
        <time>2023-01-28T12:57:16Z</time>
      </trkpt>
      <trkpt lat="36.00325314982055" lon="119.41290445258855">
        <ele>0.0</ele>
        <time>2023-01-28T12:58:28Z</time>
      </trkpt>
      <trkpt lat="36.003274441481544" lon="119.4133069504404">
        <ele>0.0</ele>
        <time>2023-01-28T12:58:46Z</time>
      </trkpt>
      <trkpt lat="36.00343137914625" lon="119.41456555634342">
        <ele>75.96148681640625</ele>
        <time>2023-01-28T13:00:16Z</time>
      </trkpt>
      <trkpt lat="36.0033164801919" lon="119.41465769156771">
        <ele>71.34375</ele>
        <time>2023-01-28T13:00:19Z</time>
      </trkpt>
      <trkpt lat="36.00330554750508" lon="119.41473779957462">
        <ele>72.6070556640625</ele>
        <time>2023-01-28T13:00:25Z</time>
      </trkpt>
      <trkpt lat="36.00323371108581" lon="119.41491804921122">
        <ele>77.24224853515625</ele>
        <time>2023-01-28T13:00:37Z</time>
      </trkpt>
      <trkpt lat="36.00321379707997" lon="119.4150171850995">
        <ele>78.37579345703125</ele>
        <time>2023-01-28T13:00:43Z</time>
      </trkpt>
      <trkpt lat="36.003169847799995" lon="119.41506625638284">
        <ele>79.6419677734375</ele>
        <time>2023-01-28T13:00:49Z</time>
      </trkpt>
      <trkpt lat="36.003142024571225" lon="119.41527153860252">
        <ele>84.16510009765625</ele>
        <time>2023-01-28T13:01:10Z</time>
      </trkpt>
      <trkpt lat="36.00317420351365" lon="119.41549383993305">
        <ele>77.4791259765625</ele>
        <time>2023-01-28T13:01:28Z</time>
      </trkpt>
      <trkpt lat="36.003159404231795" lon="119.41572616324822">
        <ele>79.1795654296875</ele>
        <time>2023-01-28T13:01:46Z</time>
      </trkpt>
      <trkpt lat="36.003118959730756" lon="119.41635505376851">
        <ele>0.0</ele>
        <time>2023-01-28T13:02:28Z</time>
      </trkpt>
      <trkpt lat="36.00307406948991" lon="119.41646721915356">
        <ele>0.0</ele>
        <time>2023-01-28T13:02:46Z</time>
      </trkpt>
      <trkpt lat="36.00311216570955" lon="119.41658538460086">
        <ele>0.0</ele>
        <time>2023-01-28T13:03:28Z</time>
      </trkpt>
      <trkpt lat="36.003640420268106" lon="119.4170049344233">
        <ele>65.66400146484375</ele>
        <time>2023-01-28T13:03:37Z</time>
      </trkpt>
      <trkpt lat="36.003689420649" lon="119.41701794798831">
        <ele>63.7845458984375</ele>
        <time>2023-01-28T13:03:43Z</time>
      </trkpt>
      <trkpt lat="36.00381433757962" lon="119.41695884759908">
        <ele>62.06317138671875</ele>
        <time>2023-01-28T13:03:52Z</time>
      </trkpt>
      <trkpt lat="36.00388231891739" lon="119.41695583559654">
        <ele>62.9503173828125</ele>
        <time>2023-01-28T13:03:58Z</time>
      </trkpt>
      <trkpt lat="36.00389838081023" lon="119.41702793924567">
        <ele>63.94586181640625</ele>
        <time>2023-01-28T13:04:04Z</time>
      </trkpt>
      <trkpt lat="36.004251230662376" lon="119.4169537913487">
        <ele>65.41387939453125</ele>
        <time>2023-01-28T13:04:34Z</time>
      </trkpt>
      <trkpt lat="36.005605859919015" lon="119.41689455342163">
        <ele>0.0</ele>
        <time>2023-01-28T13:06:32Z</time>
      </trkpt>
      <trkpt lat="36.00569369833301" lon="119.41673831664845">
        <ele>0.0</ele>
        <time>2023-01-28T13:06:59Z</time>
      </trkpt>
      <trkpt lat="36.00600267024949" lon="119.41678735316839">
        <ele>0.0</ele>
        <time>2023-01-28T13:07:05Z</time>
      </trkpt>
      <trkpt lat="36.00652953172764" lon="119.41677026945212">
        <ele>63.0283203125</ele>
        <time>2023-01-28T13:07:51Z</time>
      </trkpt>
      <trkpt lat="36.00658942236473" lon="119.41666410913594">
        <ele>65.0906982421875</ele>
        <time>2023-01-28T13:07:54Z</time>
      </trkpt>
      <trkpt lat="36.0066693758832" lon="119.41663305537604">
        <ele>66.6416015625</ele>
        <time>2023-01-28T13:08:00Z</time>
      </trkpt>
      <trkpt lat="36.006741359956145" lon="119.41663404875602">
        <ele>67.69793701171875</ele>
        <time>2023-01-28T13:08:06Z</time>
      </trkpt>
      <trkpt lat="36.006810308935236" lon="119.4165949847418">
        <ele>66.47515869140625</ele>
        <time>2023-01-28T13:08:12Z</time>
      </trkpt>
      <trkpt lat="36.00693726586137" lon="119.4165799488915">
        <ele>69.13763427734375</ele>
        <time>2023-01-28T13:08:24Z</time>
      </trkpt>
      <trkpt lat="36.00742419147443" lon="119.41662395781528">
        <ele>0.0</ele>
        <time>2023-01-28T13:09:12Z</time>
      </trkpt>
      <trkpt lat="36.00770706998187" lon="119.41656183671113">
        <ele>63.0943603515625</ele>
        <time>2023-01-28T13:09:24Z</time>
      </trkpt>
      <trkpt lat="36.007748015840704" lon="119.41651176017561">
        <ele>65.6751708984375</ele>
        <time>2023-01-28T13:09:30Z</time>
      </trkpt>
      <trkpt lat="36.007925919182355" lon="119.41644965122428">
        <ele>67.3272705078125</ele>
        <time>2023-01-28T13:09:45Z</time>
      </trkpt>
      <trkpt lat="36.00800592004865" lon="119.41647167382371">
        <ele>66.8997802734375</ele>
        <time>2023-01-28T13:09:51Z</time>
      </trkpt>
      <trkpt lat="36.00809586797601" lon="119.41643661354544">
        <ele>66.86297607421875</ele>
        <time>2023-01-28T13:10:00Z</time>
      </trkpt>
      <trkpt lat="36.008202736015804" lon="119.41631542855528">
        <ele>65.99285888671875</ele>
        <time>2023-01-28T13:10:12Z</time>
      </trkpt>
      <trkpt lat="36.00825271553668" lon="119.41630540869359">
        <ele>65.2705078125</ele>
        <time>2023-01-28T13:10:18Z</time>
      </trkpt>
      <trkpt lat="36.00831874513212" lon="119.41635647409001">
        <ele>64.54962158203125</ele>
        <time>2023-01-28T13:10:24Z</time>
      </trkpt>
      <trkpt lat="36.00854770761982" lon="119.41637447416373">
        <ele>0.0</ele>
        <time>2023-01-28T13:10:57Z</time>
      </trkpt>
      <trkpt lat="36.00950035593654" lon="119.4162271578506">
        <ele>63.20733642578125</ele>
        <time>2023-01-28T13:12:20Z</time>
      </trkpt>
      <trkpt lat="36.00949041100367" lon="119.41628724435724">
        <ele>59.938232421875</ele>
        <time>2023-01-28T13:12:23Z</time>
      </trkpt>
      <trkpt lat="36.00969233578509" lon="119.4162551761636">
        <ele>67.45721435546875</ele>
        <time>2023-01-28T13:12:41Z</time>
      </trkpt>
      <trkpt lat="36.00974835704613" lon="119.41629422543016">
        <ele>71.15631103515625</ele>
        <time>2023-01-28T13:12:47Z</time>
      </trkpt>
      <trkpt lat="36.00989130084901" lon="119.41626817237442">
        <ele>68.51446533203125</ele>
        <time>2023-01-28T13:12:59Z</time>
      </trkpt>
      <trkpt lat="36.01009517260886" lon="119.41617601877665">
        <ele>63.9698486328125</ele>
        <time>2023-01-28T13:13:17Z</time>
      </trkpt>
      <trkpt lat="36.01018215322037" lon="119.41617701044878">
        <ele>63.9007568359375</ele>
        <time>2023-01-28T13:13:23Z</time>
      </trkpt>
      <trkpt lat="36.01122286279642" lon="119.41612181588718">
        <ele>0.0</ele>
        <time>2023-01-28T13:14:41Z</time>
      </trkpt>
      <trkpt lat="36.011314769092145" lon="119.41603868828892">
        <ele>0.0</ele>
        <time>2023-01-28T13:15:02Z</time>
      </trkpt>
      <trkpt lat="36.012498338875346" lon="119.41585930400669">
        <ele>0.0</ele>
        <time>2023-01-28T13:16:32Z</time>
      </trkpt>
      <trkpt lat="36.01260524182381" lon="119.41577517456074">
        <ele>0.0</ele>
        <time>2023-01-28T13:16:44Z</time>
      </trkpt>
      <trkpt lat="36.012880169344456" lon="119.41576512979148">
        <ele>51.31756591796875</ele>
        <time>2023-01-28T13:17:02Z</time>
      </trkpt>
      <trkpt lat="36.01295016508161" lon="119.41577914148874">
        <ele>66.40155029296875</ele>
        <time>2023-01-28T13:17:11Z</time>
      </trkpt>
      <trkpt lat="36.0132420424489" lon="119.41571501953261">
        <ele>66.28375244140625</ele>
        <time>2023-01-28T13:17:32Z</time>
      </trkpt>
      <trkpt lat="36.01344498248159" lon="119.41569997590473">
        <ele>64.250732421875</ele>
        <time>2023-01-28T13:17:44Z</time>
      </trkpt>
      <trkpt lat="36.01355897480646" lon="119.41572199376168">
        <ele>63.53070068359375</ele>
        <time>2023-01-28T13:17:50Z</time>
      </trkpt>
      <trkpt lat="36.01372589674163" lon="119.41567591103396">
        <ele>63.11456298828125</ele>
        <time>2023-01-28T13:17:59Z</time>
      </trkpt>
      <trkpt lat="36.01434484714852" lon="119.41578599495251">
        <ele>0.0</ele>
        <time>2023-01-28T13:18:41Z</time>
      </trkpt>
      <trkpt lat="36.015012639058114" lon="119.41572383362022">
        <ele>0.0</ele>
        <time>2023-01-28T13:20:39Z</time>
      </trkpt>
      <trkpt lat="36.01555462491506" lon="119.41585395446323">
        <ele>59.54937744140625</ele>
        <time>2023-01-28T13:21:00Z</time>
      </trkpt>
      <trkpt lat="36.01549264876329" lon="119.41586497681915">
        <ele>58.15899658203125</ele>
        <time>2023-01-28T13:21:03Z</time>
      </trkpt>
      <trkpt lat="36.015616624321865" lon="119.41586996992999">
        <ele>53.29815673828125</ele>
        <time>2023-01-28T13:21:12Z</time>
      </trkpt>
      <trkpt lat="36.01590945760497" lon="119.41575477631523">
        <ele>64.9315185546875</ele>
        <time>2023-01-28T13:21:33Z</time>
      </trkpt>
      <trkpt lat="36.01599542568538" lon="119.41574074715565">
        <ele>64.09490966796875</ele>
        <time>2023-01-28T13:21:39Z</time>
      </trkpt>
      <trkpt lat="36.01712087641505" lon="119.41540015026351">
        <ele>0.0</ele>
        <time>2023-01-28T13:22:48Z</time>
      </trkpt>
      <trkpt lat="36.017264891063874" lon="119.41545721258049">
        <ele>0.0</ele>
        <time>2023-01-28T13:22:51Z</time>
      </trkpt>
      <trkpt lat="36.01749106221189" lon="119.41562168359054">
        <ele>65.63580322265625</ele>
        <time>2023-01-28T13:23:04Z</time>
      </trkpt>
      <trkpt lat="36.017366007422574" lon="119.41562242940796">
        <ele>66.375244140625</ele>
        <time>2023-01-28T13:23:07Z</time>
      </trkpt>
      <trkpt lat="36.017565911014756" lon="119.41556332523652">
        <ele>70.25958251953125</ele>
        <time>2023-01-28T13:23:25Z</time>
      </trkpt>
      <trkpt lat="36.01761490136859" lon="119.41556532251316">
        <ele>70.1280517578125</ele>
        <time>2023-01-28T13:23:31Z</time>
      </trkpt>
      <trkpt lat="36.01789976348326" lon="119.41548017312326">
        <ele>71.61785888671875</ele>
        <time>2023-01-28T13:23:52Z</time>
      </trkpt>
      <trkpt lat="36.01817863993612" lon="119.41541004543862">
        <ele>68.2679443359375</ele>
        <time>2023-01-28T13:24:07Z</time>
      </trkpt>
      <trkpt lat="36.0183145589233" lon="119.41535094914721">
        <ele>61.52764892578125</ele>
        <time>2023-01-28T13:24:16Z</time>
      </trkpt>
      <trkpt lat="36.01851550823492" lon="119.41534591975969">
        <ele>62.265869140625</ele>
        <time>2023-01-28T13:24:34Z</time>
      </trkpt>
      <trkpt lat="36.01870948937196" lon="119.41537694056778">
        <ele>63.15087890625</ele>
        <time>2023-01-28T13:24:46Z</time>
      </trkpt>
      <trkpt lat="36.0189743937027" lon="119.41533585459955">
        <ele>63.617431640625</ele>
        <time>2023-01-28T13:25:01Z</time>
      </trkpt>
      <trkpt lat="36.01926832991902" lon="119.41534082850376">
        <ele>68.62567138671875</ele>
        <time>2023-01-28T13:25:22Z</time>
      </trkpt>
      <trkpt lat="36.01934128206709" lon="119.41530376961552">
        <ele>66.70123291015625</ele>
        <time>2023-01-28T13:25:28Z</time>
      </trkpt>
      <trkpt lat="36.01940228554022" lon="119.41532479154797">
        <ele>69.95623779296875</ele>
        <time>2023-01-28T13:25:31Z</time>
      </trkpt>
      <trkpt lat="36.019453255341546" lon="119.41530275569264">
        <ele>68.72247314453125</ele>
        <time>2023-01-28T13:25:34Z</time>
      </trkpt>
      <trkpt lat="36.020372930266106" lon="119.41516746822735">
        <ele>38.15924072265625</ele>
        <time>2023-01-28T13:26:13Z</time>
      </trkpt>
      <trkpt lat="36.02029590990696" lon="119.41512141428085">
        <ele>55.6011962890625</ele>
        <time>2023-01-28T13:26:16Z</time>
      </trkpt>
      <trkpt lat="36.02033888259145" lon="119.41510038093278">
        <ele>58.13763427734375</ele>
        <time>2023-01-28T13:26:22Z</time>
      </trkpt>
      <trkpt lat="36.02052582120982" lon="119.41507833011154">
        <ele>56.14520263671875</ele>
        <time>2023-01-28T13:26:34Z</time>
      </trkpt>
      <trkpt lat="36.02085067855177" lon="119.41499618262665">
        <ele>63.03692626953125</ele>
        <time>2023-01-28T13:26:58Z</time>
      </trkpt>
      <trkpt lat="36.02097666262678" lon="119.4150121901416">
        <ele>61.4193115234375</ele>
        <time>2023-01-28T13:27:07Z</time>
      </trkpt>
      <trkpt lat="36.02102063354328" lon="119.41498915410757">
        <ele>63.3638916015625</ele>
        <time>2023-01-28T13:27:10Z</time>
      </trkpt>
      <trkpt lat="36.02115959076707" lon="119.41497612095996">
        <ele>62.83367919921875</ele>
        <time>2023-01-28T13:27:22Z</time>
      </trkpt>
      <trkpt lat="36.02123358766018" lon="119.41499313563753">
        <ele>58.88385009765625</ele>
        <time>2023-01-28T13:27:28Z</time>
      </trkpt>
      <trkpt lat="36.021343522841335" lon="119.41494505848424">
        <ele>60.98016357421875</ele>
        <time>2023-01-28T13:27:34Z</time>
      </trkpt>
      <trkpt lat="36.02146651004593" lon="119.4149640703392">
        <ele>56.3079833984375</ele>
        <time>2023-01-28T13:27:43Z</time>
      </trkpt>
      <trkpt lat="36.02163845311571" lon="119.41494302271649">
        <ele>58.85400390625</ele>
        <time>2023-01-28T13:27:55Z</time>
      </trkpt>
      <trkpt lat="36.02183136517001" lon="119.41488992966363">
        <ele>60.20892333984375</ele>
        <time>2023-01-28T13:28:07Z</time>
      </trkpt>
      <trkpt lat="36.02189735975911" lon="119.41490193842081">
        <ele>59.455810546875</ele>
        <time>2023-01-28T13:28:13Z</time>
      </trkpt>
      <trkpt lat="36.02228907420097" lon="119.41466157290826">
        <ele>0.0</ele>
        <time>2023-01-28T13:28:49Z</time>
      </trkpt>
      <trkpt lat="36.022413976078134" lon="119.41457544446206">
        <ele>0.0</ele>
        <time>2023-01-28T13:29:07Z</time>
      </trkpt>
      <trkpt lat="36.023838675733714" lon="119.41461033122124">
        <ele>60.68609619140625</ele>
        <time>2023-01-28T13:30:37Z</time>
      </trkpt>
      <trkpt lat="36.02420458014171" lon="119.4145962715692">
        <ele>58.73638916015625</ele>
        <time>2023-01-28T13:31:16Z</time>
      </trkpt>
      <trkpt lat="36.02449548176421" lon="119.41455718713931">
        <ele>60.08343505859375</ele>
        <time>2023-01-28T13:31:28Z</time>
      </trkpt>
      <trkpt lat="36.02463044023863" lon="119.41454415475445">
        <ele>59.15863037109375</ele>
        <time>2023-01-28T13:31:34Z</time>
      </trkpt>
      <trkpt lat="36.02493240041673" lon="119.41458117001105">
        <ele>61.96075439453125</ele>
        <time>2023-01-28T13:31:46Z</time>
      </trkpt>
      <trkpt lat="36.024990360553666" lon="119.41454811969672">
        <ele>62.47930908203125</ele>
        <time>2023-01-28T13:31:49Z</time>
      </trkpt>
      <trkpt lat="36.02529330766307" lon="119.41456911359606">
        <ele>58.181396484375</ele>
        <time>2023-01-28T13:32:01Z</time>
      </trkpt>
      <trkpt lat="36.026307935763676" lon="119.41439577091312">
        <ele>74.47784423828125</ele>
        <time>2023-01-28T13:32:46Z</time>
      </trkpt>
      <trkpt lat="36.026353023628275" lon="119.41451892841853">
        <ele>64.14080810546875</ele>
        <time>2023-01-28T13:32:49Z</time>
      </trkpt>
      <trkpt lat="36.02639803252037" lon="119.41454295519026">
        <ele>63.1234130859375</ele>
        <time>2023-01-28T13:32:52Z</time>
      </trkpt>
      <trkpt lat="36.02666897018971" lon="119.41454292480299">
        <ele>61.400634765625</ele>
        <time>2023-01-28T13:33:07Z</time>
      </trkpt>
      <trkpt lat="36.026974898217425" lon="119.41454088783803">
        <ele>64.76983642578125</ele>
        <time>2023-01-28T13:33:22Z</time>
      </trkpt>
      <trkpt lat="36.0270318642679" lon="119.41451484698162">
        <ele>63.0474853515625</ele>
        <time>2023-01-28T13:33:25Z</time>
      </trkpt>
      <trkpt lat="36.02711287852628" lon="119.41455589226479">
        <ele>61.93280029296875</ele>
        <time>2023-01-28T13:33:31Z</time>
      </trkpt>
      <trkpt lat="36.02714694396096" lon="119.41464700945939">
        <ele>63.2608642578125</ele>
        <time>2023-01-28T13:33:37Z</time>
      </trkpt>
      <trkpt lat="36.027206953588504" lon="119.41467604139308">
        <ele>68.17486572265625</ele>
        <time>2023-01-28T13:33:46Z</time>
      </trkpt>
      <trkpt lat="36.02741891940903" lon="119.41469404164208">
        <ele>61.19573974609375</ele>
        <time>2023-01-28T13:34:04Z</time>
      </trkpt>
      <trkpt lat="36.027586936728056" lon="119.4147631150547">
        <ele>57.56878662109375</ele>
        <time>2023-01-28T13:34:13Z</time>
      </trkpt>
      <trkpt lat="36.02773487350168" lon="119.41472705029449">
        <ele>60.09234619140625</ele>
        <time>2023-01-28T13:34:22Z</time>
      </trkpt>
      <trkpt lat="36.027841854586285" lon="119.41473404765586">
        <ele>59.9635009765625</ele>
        <time>2023-01-28T13:34:28Z</time>
      </trkpt>
      <trkpt lat="36.02811375482861" lon="119.41468795570023">
        <ele>57.4541015625</ele>
        <time>2023-01-28T13:34:49Z</time>
      </trkpt>
      <trkpt lat="36.02817876579965" lon="119.41471999115019">
        <ele>61.03643798828125</ele>
        <time>2023-01-28T13:34:55Z</time>
      </trkpt>
      <trkpt lat="36.02818981603512" lon="119.41478507690888">
        <ele>58.10302734375</ele>
        <time>2023-01-28T13:35:01Z</time>
      </trkpt>
      <trkpt lat="36.0282022179599" lon="119.41527674043765">
        <ele>63.716796875</ele>
        <time>2023-01-28T13:35:25Z</time>
      </trkpt>
      <trkpt lat="36.028169308446564" lon="119.41537587985316">
        <ele>68.1639404296875</ele>
        <time>2023-01-28T13:35:28Z</time>
      </trkpt>
      <trkpt lat="36.02818957653566" lon="119.41569832287223">
        <ele>71.9307861328125</ele>
        <time>2023-01-28T13:35:46Z</time>
      </trkpt>
      <trkpt lat="36.02818062564419" lon="119.41575340052303">
        <ele>70.28643798828125</ele>
        <time>2023-01-28T13:35:49Z</time>
      </trkpt>
      <trkpt lat="36.02806877690687" lon="119.41589961736045">
        <ele>68.42572021484375</ele>
        <time>2023-01-28T13:36:01Z</time>
      </trkpt>
      <trkpt lat="36.02818283030261" lon="119.41599173392423">
        <ele>68.93902587890625</ele>
        <time>2023-01-28T13:36:13Z</time>
      </trkpt>
      <trkpt lat="36.02847780159603" lon="119.41603676429168">
        <ele>70.8663330078125</ele>
        <time>2023-01-28T13:36:37Z</time>
      </trkpt>
      <trkpt lat="36.02857975905404" lon="119.41601472182577">
        <ele>72.246337890625</ele>
        <time>2023-01-28T13:36:43Z</time>
      </trkpt>
      <trkpt lat="36.02885652268666" lon="119.41581440993384">
        <ele>65.6556396484375</ele>
        <time>2023-01-28T13:37:01Z</time>
      </trkpt>
      <trkpt lat="36.02909931038898" lon="119.41563112770888">
        <ele>65.136474609375</ele>
        <time>2023-01-28T13:37:16Z</time>
      </trkpt>
      <trkpt lat="36.02917323308443" lon="119.41556002099618">
        <ele>64.2952880859375</ele>
        <time>2023-01-28T13:37:22Z</time>
      </trkpt>
      <trkpt lat="36.029344118537196" lon="119.41547087886015">
        <ele>63.76312255859375</ele>
        <time>2023-01-28T13:37:34Z</time>
      </trkpt>
      <trkpt lat="36.029545049621625" lon="119.41544381910776">
        <ele>71.15789794921875</ele>
        <time>2023-01-28T13:37:46Z</time>
      </trkpt>
      <trkpt lat="36.0296910017864" lon="119.41542677932661">
        <ele>71.32489013671875</ele>
        <time>2023-01-28T13:37:55Z</time>
      </trkpt>
      <trkpt lat="36.02974899689401" lon="119.41543678659174">
        <ele>70.6446533203125</ele>
        <time>2023-01-28T13:38:01Z</time>
      </trkpt>
      <trkpt lat="36.02996105811967" lon="119.41556694232973">
        <ele>75.0911865234375</ele>
        <time>2023-01-28T13:38:25Z</time>
      </trkpt>
      <trkpt lat="36.03004911529325" lon="119.41565805868944">
        <ele>67.396728515625</ele>
        <time>2023-01-28T13:38:37Z</time>
      </trkpt>
      <trkpt lat="36.03010013003034" lon="119.41568909607855">
        <ele>73.50482177734375</ele>
        <time>2023-01-28T13:38:43Z</time>
      </trkpt>
      <trkpt lat="36.03015408012048" lon="119.4156450288547">
        <ele>72.16937255859375</ele>
        <time>2023-01-28T13:38:49Z</time>
      </trkpt>
      <trkpt lat="36.030143014653774" lon="119.4155649191531">
        <ele>69.24420166015625</ele>
        <time>2023-01-28T13:38:55Z</time>
      </trkpt>
      <trkpt lat="36.0301888513251" lon="119.4153836643438">
        <ele>66.283935546875</ele>
        <time>2023-01-28T13:39:07Z</time>
      </trkpt>
      <trkpt lat="36.0301346932911" lon="119.41517939125166">
        <ele>62.95025634765625</ele>
        <time>2023-01-28T13:39:19Z</time>
      </trkpt>
      <trkpt lat="36.030148538782456" lon="119.41499614127933">
        <ele>61.21575927734375</ele>
        <time>2023-01-28T13:39:31Z</time>
      </trkpt>
      <trkpt lat="36.03023253020407" lon="119.41500914944297">
        <ele>59.79351806640625</ele>
        <time>2023-01-28T13:39:37Z</time>
      </trkpt>
      <trkpt lat="36.0304234633432" lon="119.41498109016412">
        <ele>61.1458740234375</ele>
        <time>2023-01-28T13:39:52Z</time>
      </trkpt>
      <trkpt lat="36.03048346520198" lon="119.41500010912154">
        <ele>58.97930908203125</ele>
        <time>2023-01-28T13:39:58Z</time>
      </trkpt>
      <trkpt lat="36.030529486772174" lon="119.41503915675098">
        <ele>57.235107421875</ele>
        <time>2023-01-28T13:40:04Z</time>
      </trkpt>
      <trkpt lat="36.03058048084415" lon="119.4150461605157">
        <ele>58.98193359375</ele>
        <time>2023-01-28T13:40:10Z</time>
      </trkpt>
      <trkpt lat="36.03061547693915" lon="119.41505116336668">
        <ele>57.74139404296875</ele>
        <time>2023-01-28T13:40:52Z</time>
      </trkpt>
    </trkseg>
  </trk>
</gpx>