<?xml version="1.0" encoding="UTF-8"?>
<gpx xmlns="http://www.topografix.com/GPX/1/1" xmlns:gpxtpx="http://www.garmin.com/xmlschemas/TrackPointExtension/v1" xmlns:xsi="http://www.w3.org/2001/XMLSchema-instance" xsi:schemaLocation="http://www.topografix.com/GPX/1/1 http://www.topografix.com/GPX/1/1/gpx.xsd" version="1.1" creator="gpx.py -- https://github.com/tkrajina/gpxpy">
  <trk>
    <name>gpx from keep</name>
    <type>Run</type>
    <trkseg>
      <trkpt lat="31.112290422868764" lon="121.36420006690683">
        <ele>6.57989501953125</ele>
        <time>2024-07-10T12:42:26Z</time>
      </trkpt>
      <trkpt lat="31.112399629399057" lon="121.36416885904337">
        <ele>11.306953658349812</ele>
        <time>2024-07-10T12:42:35Z</time>
      </trkpt>
      <trkpt lat="31.112500472669858" lon="121.36408373345262">
        <ele>11.679538768716156</ele>
        <time>2024-07-10T12:42:47Z</time>
      </trkpt>
      <trkpt lat="31.112492465031703" lon="121.3640162074477">
        <ele>10.759597964584827</ele>
        <time>2024-07-10T12:42:50Z</time>
      </trkpt>
      <trkpt lat="31.112515115291572" lon="121.36396049396217">
        <ele>7.173852405510843</ele>
        <time>2024-07-10T12:42:53Z</time>
      </trkpt>
      <trkpt lat="31.112723348889375" lon="121.36388870562898">
        <ele>6.545427106320858</ele>
        <time>2024-07-10T12:43:05Z</time>
      </trkpt>
      <trkpt lat="31.112782390415262" lon="121.36382892801966">
        <ele>6.580714028328657</ele>
        <time>2024-07-10T12:43:08Z</time>
      </trkpt>
      <trkpt lat="31.112909679187254" lon="121.36383813107412">
        <ele>9.420580723322928</ele>
        <time>2024-07-10T12:43:14Z</time>
      </trkpt>
      <trkpt lat="31.113096665534943" lon="121.3637755897543">
        <ele>8.30909776315093</ele>
        <time>2024-07-10T12:43:23Z</time>
      </trkpt>
      <trkpt lat="31.11327632478694" lon="121.36365331971913">
        <ele>7.773061020299792</ele>
        <time>2024-07-10T12:43:32Z</time>
      </trkpt>
      <trkpt lat="31.11339832027711" lon="121.36370822577078">
        <ele>6.153867710381746</ele>
        <time>2024-07-10T12:43:38Z</time>
      </trkpt>
      <trkpt lat="31.113438051459628" lon="121.36364234695031">
        <ele>5.315593478269875</ele>
        <time>2024-07-10T12:43:41Z</time>
      </trkpt>
      <trkpt lat="31.113598911173735" lon="121.36356419903446">
        <ele>7.044872189871967</ele>
        <time>2024-07-10T12:43:50Z</time>
      </trkpt>
      <trkpt lat="31.113739506763128" lon="121.36351479866103">
        <ele>6.02415238134563</ele>
        <time>2024-07-10T12:44:02Z</time>
      </trkpt>
      <trkpt lat="31.113878114827386" lon="121.36351102984953">
        <ele>6.901578013785183</ele>
        <time>2024-07-10T12:44:14Z</time>
      </trkpt>
      <trkpt lat="31.11403894059022" lon="121.36334734587788">
        <ele>9.584954703226686</ele>
        <time>2024-07-10T12:44:33Z</time>
      </trkpt>
      <trkpt lat="31.11418527603664" lon="121.36327938843621">
        <ele>9.787589087150991</ele>
        <time>2024-07-10T12:44:42Z</time>
      </trkpt>
      <trkpt lat="31.11425892396495" lon="121.3633186922522">
        <ele>10.237214802764356</ele>
        <time>2024-07-10T12:44:45Z</time>
      </trkpt>
      <trkpt lat="31.114301600501904" lon="121.36325902367098">
        <ele>10.819690234027803</ele>
        <time>2024-07-10T12:44:48Z</time>
      </trkpt>
      <trkpt lat="31.114576165749458" lon="121.36313740296094">
        <ele>9.314146469347179</ele>
        <time>2024-07-10T12:45:03Z</time>
      </trkpt>
      <trkpt lat="31.11484231964309" lon="121.36302816448519">
        <ele>10.029863242991269</ele>
        <time>2024-07-10T12:45:18Z</time>
      </trkpt>
      <trkpt lat="31.114989454718415" lon="121.36292014301594">
        <ele>7.8707231087610126</ele>
        <time>2024-07-10T12:45:30Z</time>
      </trkpt>
      <trkpt lat="31.115229800165192" lon="121.36290571983093">
        <ele>6.570134162902832</ele>
        <time>2024-07-10T12:45:42Z</time>
      </trkpt>
      <trkpt lat="31.115310725862468" lon="121.36284240918528">
        <ele>8.076593131758273</ele>
        <time>2024-07-10T12:45:48Z</time>
      </trkpt>
      <trkpt lat="31.11545818630102" lon="121.36278258133265">
        <ele>7.811948009766638</ele>
        <time>2024-07-10T12:45:57Z</time>
      </trkpt>
      <trkpt lat="31.115511905746743" lon="121.36277586907372">
        <ele>7.268361625261605</ele>
        <time>2024-07-10T12:46:00Z</time>
      </trkpt>
      <trkpt lat="31.115676349797134" lon="121.36270531609563">
        <ele>8.114361488260329</ele>
        <time>2024-07-10T12:46:12Z</time>
      </trkpt>
      <trkpt lat="31.11584285996007" lon="121.36267072256324">
        <ele>6.341261079534888</ele>
        <time>2024-07-10T12:46:21Z</time>
      </trkpt>
      <trkpt lat="31.11589409714803" lon="121.36264464077438">
        <ele>6.930048014968634</ele>
        <time>2024-07-10T12:46:24Z</time>
      </trkpt>
      <trkpt lat="31.116038056734194" lon="121.36250953525712">
        <ele>8.170648774132133</ele>
        <time>2024-07-10T12:46:33Z</time>
      </trkpt>
      <trkpt lat="31.116139816352977" lon="121.36251276636698">
        <ele>7.8136102724820375</ele>
        <time>2024-07-10T12:46:37Z</time>
      </trkpt>
      <trkpt lat="31.116197614675517" lon="121.36249512541768">
        <ele>6.806893010623753</ele>
        <time>2024-07-10T12:46:40Z</time>
      </trkpt>
      <trkpt lat="31.11629656447277" lon="121.36241356029352">
        <ele>5.904521005228162</ele>
        <time>2024-07-10T12:46:47Z</time>
      </trkpt>
      <trkpt lat="31.11655996729764" lon="121.36232804437414">
        <ele>5.338953547179699</ele>
        <time>2024-07-10T12:47:05Z</time>
      </trkpt>
      <trkpt lat="31.11679166538844" lon="121.36222185992588">
        <ele>7.579732475802302</ele>
        <time>2024-07-10T12:47:29Z</time>
      </trkpt>
      <trkpt lat="31.116838662045115" lon="121.3621775419643">
        <ele>8.818530129268765</ele>
        <time>2024-07-10T12:47:35Z</time>
      </trkpt>
      <trkpt lat="31.116967574820876" lon="121.36212850126573">
        <ele>8.39704320486635</ele>
        <time>2024-07-10T12:47:47Z</time>
      </trkpt>
      <trkpt lat="31.117005647095745" lon="121.36216498839651">
        <ele>8.192649660632014</ele>
        <time>2024-07-10T12:47:50Z</time>
      </trkpt>
      <trkpt lat="31.117089873683906" lon="121.36215331132024">
        <ele>7.601219558157027</ele>
        <time>2024-07-10T12:47:56Z</time>
      </trkpt>
      <trkpt lat="31.11715217236182" lon="121.3620974840924">
        <ele>7.478314509615302</ele>
        <time>2024-07-10T12:48:02Z</time>
      </trkpt>
      <trkpt lat="31.11734328313308" lon="121.36206072037258">
        <ele>6.19516858831048</ele>
        <time>2024-07-10T12:48:14Z</time>
      </trkpt>
      <trkpt lat="31.11734859215142" lon="121.36193730456793">
        <ele>8.080157802440226</ele>
        <time>2024-07-10T12:48:20Z</time>
      </trkpt>
      <trkpt lat="31.117310435876703" lon="121.36180046014393">
        <ele>8.855976498685777</ele>
        <time>2024-07-10T12:48:29Z</time>
      </trkpt>
      <trkpt lat="31.11725421642611" lon="121.3617913154418">
        <ele>8.363558115437627</ele>
        <time>2024-07-10T12:48:32Z</time>
      </trkpt>
      <trkpt lat="31.117074454746152" lon="121.36186732602424">
        <ele>8.394876484759152</ele>
        <time>2024-07-10T12:48:45Z</time>
      </trkpt>
      <trkpt lat="31.116956900389326" lon="121.36188850015307">
        <ele>9.179233036004007</ele>
        <time>2024-07-10T12:48:51Z</time>
      </trkpt>
      <trkpt lat="31.11670660779647" lon="121.36199433007262">
        <ele>6.817141694016755</ele>
        <time>2024-07-10T12:49:06Z</time>
      </trkpt>
      <trkpt lat="31.116630846406686" lon="121.36198245363921">
        <ele>5.8657949566841125</ele>
        <time>2024-07-10T12:49:09Z</time>
      </trkpt>
      <trkpt lat="31.11651162044607" lon="121.36208452445423">
        <ele>9.22196046449244</ele>
        <time>2024-07-10T12:49:15Z</time>
      </trkpt>
      <trkpt lat="31.116448500957922" lon="121.36209952651772">
        <ele>10.817993870005012</ele>
        <time>2024-07-10T12:49:18Z</time>
      </trkpt>
      <trkpt lat="31.116170676370086" lon="121.36220880346892">
        <ele>10.790267148986459</ele>
        <time>2024-07-10T12:49:33Z</time>
      </trkpt>
      <trkpt lat="31.116071901472576" lon="121.36227249832943">
        <ele>10.631921420805156</ele>
        <time>2024-07-10T12:49:39Z</time>
      </trkpt>
      <trkpt lat="31.11593764017969" lon="121.3622851467884">
        <ele>10.192843990400434</ele>
        <time>2024-07-10T12:49:45Z</time>
      </trkpt>
      <trkpt lat="31.11572381476115" lon="121.36240438582075">
        <ele>9.704022966325283</ele>
        <time>2024-07-10T12:49:57Z</time>
      </trkpt>
      <trkpt lat="31.115659752954365" lon="121.36246190680572">
        <ele>9.151039606891572</ele>
        <time>2024-07-10T12:50:00Z</time>
      </trkpt>
      <trkpt lat="31.11559529082804" lon="121.36247600297253">
        <ele>10.268679158762097</ele>
        <time>2024-07-10T12:50:03Z</time>
      </trkpt>
      <trkpt lat="31.11535470510551" lon="121.36259635911014">
        <ele>8.27082484960556</ele>
        <time>2024-07-10T12:50:12Z</time>
      </trkpt>
      <trkpt lat="31.11527564972221" lon="121.36261756930595">
        <ele>8.007060922682285</ele>
        <time>2024-07-10T12:50:15Z</time>
      </trkpt>
      <trkpt lat="31.115114389436208" lon="121.36272097060947">
        <ele>5.945627679117024</ele>
        <time>2024-07-10T12:50:21Z</time>
      </trkpt>
      <trkpt lat="31.115022847456842" lon="121.36275949060295">
        <ele>7.645155009813607</ele>
        <time>2024-07-10T12:50:24Z</time>
      </trkpt>
      <trkpt lat="31.11484709447574" lon="121.36278159468627">
        <ele>8.07710107602179</ele>
        <time>2024-07-10T12:50:30Z</time>
      </trkpt>
      <trkpt lat="31.11458056034113" lon="121.36287020089485">
        <ele>5.493347152136266</ele>
        <time>2024-07-10T12:50:42Z</time>
      </trkpt>
      <trkpt lat="31.114499329060507" lon="121.36292500993635">
        <ele>7.684712245129049</ele>
        <time>2024-07-10T12:50:45Z</time>
      </trkpt>
      <trkpt lat="31.11437769534249" lon="121.36293572498991">
        <ele>9.302922859787941</ele>
        <time>2024-07-10T12:50:49Z</time>
      </trkpt>
      <trkpt lat="31.114256099551937" lon="121.36299847916783">
        <ele>12.94510671403259</ele>
        <time>2024-07-10T12:50:53Z</time>
      </trkpt>
      <trkpt lat="31.114194317551707" lon="121.36313298851762">
        <ele>11.98909498564899</ele>
        <time>2024-07-10T12:50:57Z</time>
      </trkpt>
      <trkpt lat="31.114038799644636" lon="121.36308386342512">
        <ele>14.15604210831225</ele>
        <time>2024-07-10T12:51:00Z</time>
      </trkpt>
      <trkpt lat="31.113972576527704" lon="121.36309947525926">
        <ele>19.214002939872444</ele>
        <time>2024-07-10T12:51:03Z</time>
      </trkpt>
      <trkpt lat="31.113833890818718" lon="121.36301885844938">
        <ele>15.022442269138992</ele>
        <time>2024-07-10T12:51:09Z</time>
      </trkpt>
      <trkpt lat="31.113775059214202" lon="121.36311243708617">
        <ele>15.613419273868203</ele>
        <time>2024-07-10T12:51:15Z</time>
      </trkpt>
      <trkpt lat="31.11384237933732" lon="121.3632080630718">
        <ele>16.823349645361304</ele>
        <time>2024-07-10T12:51:18Z</time>
      </trkpt>
      <trkpt lat="31.113852587160316" lon="121.36330897077484">
        <ele>14.79341277293861</ele>
        <time>2024-07-10T12:51:24Z</time>
      </trkpt>
      <trkpt lat="31.113898368526204" lon="121.36337383289771">
        <ele>13.824059498496354</ele>
        <time>2024-07-10T12:51:27Z</time>
      </trkpt>
      <trkpt lat="31.113891954370708" lon="121.36344912213357">
        <ele>12.82207808829844</ele>
        <time>2024-07-10T12:51:30Z</time>
      </trkpt>
      <trkpt lat="31.113923002800696" lon="121.36354899773855">
        <ele>6.726871800608933</ele>
        <time>2024-07-10T12:51:39Z</time>
      </trkpt>
      <trkpt lat="31.113775284146143" lon="121.3636339835018">
        <ele>6.860499490983784</ele>
        <time>2024-07-10T12:51:45Z</time>
      </trkpt>
      <trkpt lat="31.11372141839965" lon="121.36358361355644">
        <ele>5.609173187986016</ele>
        <time>2024-07-10T12:51:48Z</time>
      </trkpt>
      <trkpt lat="31.113752202291135" lon="121.36351259337746">
        <ele>4.723661155439913</ele>
        <time>2024-07-10T12:51:51Z</time>
      </trkpt>
      <trkpt lat="31.11357791060154" lon="121.36356819592883">
        <ele>7.039555938914418</ele>
        <time>2024-07-10T12:52:00Z</time>
      </trkpt>
      <trkpt lat="31.113497081544246" lon="121.36357101679069">
        <ele>6.862174473702908</ele>
        <time>2024-07-10T12:52:03Z</time>
      </trkpt>
      <trkpt lat="31.113336135380013" lon="121.3636414611815">
        <ele>6.600173109211028</ele>
        <time>2024-07-10T12:52:09Z</time>
      </trkpt>
      <trkpt lat="31.1132581820851" lon="121.36369840212167">
        <ele>4.368261957541108</ele>
        <time>2024-07-10T12:52:12Z</time>
      </trkpt>
      <trkpt lat="31.113229339578194" lon="121.36364705822493">
        <ele>5.605662041343749</ele>
        <time>2024-07-10T12:52:15Z</time>
      </trkpt>
      <trkpt lat="31.11319595181924" lon="121.36369500848353">
        <ele>8.394701766781509</ele>
        <time>2024-07-10T12:52:18Z</time>
      </trkpt>
      <trkpt lat="31.112850833000273" lon="121.36381610964787">
        <ele>5.536965662613511</ele>
        <time>2024-07-10T12:52:39Z</time>
      </trkpt>
      <trkpt lat="31.112774834693365" lon="121.36378351322459">
        <ele>5.935627077706158</ele>
        <time>2024-07-10T12:52:42Z</time>
      </trkpt>
      <trkpt lat="31.112700795924756" lon="121.36383380110729">
        <ele>2.2442661030218005</ele>
        <time>2024-07-10T12:52:45Z</time>
      </trkpt>
      <trkpt lat="31.11256237040555" lon="121.36387314768584">
        <ele>2.8371347030624747</ele>
        <time>2024-07-10T12:52:48Z</time>
      </trkpt>
      <trkpt lat="31.112456088515447" lon="121.36385650740543">
        <ele>6.448777005076408</ele>
        <time>2024-07-10T12:52:51Z</time>
      </trkpt>
      <trkpt lat="31.112461020166627" lon="121.36405380592313">
        <ele>10.099886666983366</ele>
        <time>2024-07-10T12:52:55Z</time>
      </trkpt>
      <trkpt lat="31.112379343181768" lon="121.36417728664344">
        <ele>9.664615904912353</ele>
        <time>2024-07-10T12:53:01Z</time>
      </trkpt>
      <trkpt lat="31.11224733153748" lon="121.36418326076786">
        <ele>11.075781924650073</ele>
        <time>2024-07-10T12:53:05Z</time>
      </trkpt>
      <trkpt lat="31.112205748794302" lon="121.36414390629864">
        <ele>10.556432011537254</ele>
        <time>2024-07-10T12:53:11Z</time>
      </trkpt>
      <trkpt lat="31.112216242340395" lon="121.36419671227173">
        <ele>8.962693313136697</ele>
        <time>2024-07-10T12:53:23Z</time>
      </trkpt>
      <trkpt lat="31.11225043350773" lon="121.3642418961367">
        <ele>7.832940408028662</ele>
        <time>2024-07-10T12:53:26Z</time>
      </trkpt>
      <trkpt lat="31.11229698148743" lon="121.36436027504739">
        <ele>4.752447385340929</ele>
        <time>2024-07-10T12:53:32Z</time>
      </trkpt>
      <trkpt lat="31.11227170132804" lon="121.36459907836372">
        <ele>5.7560232654213905</ele>
        <time>2024-07-10T12:53:47Z</time>
      </trkpt>
      <trkpt lat="31.112363940957596" lon="121.36472928588468">
        <ele>9.41917236149311</ele>
        <time>2024-07-10T12:53:56Z</time>
      </trkpt>
      <trkpt lat="31.112339260505504" lon="121.36492419475381">
        <ele>5.875410107895732</ele>
        <time>2024-07-10T12:54:05Z</time>
      </trkpt>
      <trkpt lat="31.11228105986057" lon="121.36496001200415">
        <ele>8.311255098320544</ele>
        <time>2024-07-10T12:54:11Z</time>
      </trkpt>
      <trkpt lat="31.1122485611509" lon="121.36491684159634">
        <ele>9.412069044075906</ele>
        <time>2024-07-10T12:54:23Z</time>
      </trkpt>
      <trkpt lat="31.112346499512423" lon="121.36486091512039">
        <ele>12.585953721776605</ele>
        <time>2024-07-10T12:54:26Z</time>
      </trkpt>
      <trkpt lat="31.112306233851598" lon="121.36491455973234">
        <ele>12.267712675966322</ele>
        <time>2024-07-10T12:54:32Z</time>
      </trkpt>
      <trkpt lat="31.11237994425542" lon="121.36493905127838">
        <ele>12.968000318855047</ele>
        <time>2024-07-10T12:54:35Z</time>
      </trkpt>
      <trkpt lat="31.112351256644917" lon="121.36488991510579">
        <ele>12.162770063616335</ele>
        <time>2024-07-10T12:54:38Z</time>
      </trkpt>
      <trkpt lat="31.112351256644917" lon="121.36488991510579">
        <ele>12.162770063616335</ele>
        <time>2024-07-10T12:54:39Z</time>
      </trkpt>
    </trkseg>
  </trk>
</gpx>