<?xml version="1.0" encoding="UTF-8"?>
<gpx xmlns="http://www.topografix.com/GPX/1/1" xmlns:gpxtpx="http://www.garmin.com/xmlschemas/TrackPointExtension/v1" xmlns:xsi="http://www.w3.org/2001/XMLSchema-instance" xsi:schemaLocation="http://www.topografix.com/GPX/1/1 http://www.topografix.com/GPX/1/1/gpx.xsd" version="1.1" creator="gpx.py -- https://github.com/tkrajina/gpxpy">
  <trk>
    <name>gpx from keep</name>
    <type>Run</type>
    <trkseg>
      <trkpt lat="36.03008058486188" lon="119.40165418548547">
        <ele>59.1199951171875</ele>
        <time>2023-05-29T11:06:15Z</time>
      </trkpt>
      <trkpt lat="36.030047519949456" lon="119.40131799303451">
        <ele>61.3572998046875</ele>
        <time>2023-05-29T11:06:27Z</time>
      </trkpt>
      <trkpt lat="36.03001949423284" lon="119.40116090670932">
        <ele>60.7645263671875</ele>
        <time>2023-05-29T11:06:33Z</time>
      </trkpt>
      <trkpt lat="36.02984847568071" lon="119.40086376046797">
        <ele>61.95245361328125</ele>
        <time>2023-05-29T11:06:45Z</time>
      </trkpt>
      <trkpt lat="36.02971346656685" lon="119.40064465682318">
        <ele>61.40777587890625</ele>
        <time>2023-05-29T11:06:54Z</time>
      </trkpt>
      <trkpt lat="36.029459490626664" lon="119.40044758078734">
        <ele>67.2574462890625</ele>
        <time>2023-05-29T11:07:06Z</time>
      </trkpt>
      <trkpt lat="36.02925152215239" lon="119.4003505534652">
        <ele>68.9630126953125</ele>
        <time>2023-05-29T11:07:15Z</time>
      </trkpt>
      <trkpt lat="36.02900657151145" lon="119.40030855919778">
        <ele>69.1551513671875</ele>
        <time>2023-05-29T11:07:24Z</time>
      </trkpt>
      <trkpt lat="36.028707644108685" lon="119.40033260520559">
        <ele>69.52459716796875</ele>
        <time>2023-05-29T11:07:36Z</time>
      </trkpt>
      <trkpt lat="36.02843073168855" lon="119.40047571106163">
        <ele>68.786865234375</ele>
        <time>2023-05-29T11:07:48Z</time>
      </trkpt>
      <trkpt lat="36.028169815098664" lon="119.40061081199624">
        <ele>67.995361328125</ele>
        <time>2023-05-29T11:08:03Z</time>
      </trkpt>
      <trkpt lat="36.02793389908748" lon="119.40077592743609">
        <ele>71.46337890625</ele>
        <time>2023-05-29T11:08:15Z</time>
      </trkpt>
      <trkpt lat="36.02775796099357" lon="119.40089101009505">
        <ele>67.74658203125</ele>
        <time>2023-05-29T11:08:24Z</time>
      </trkpt>
      <trkpt lat="36.02753903085434" lon="119.40099309109621">
        <ele>67.96356201171875</ele>
        <time>2023-05-29T11:08:39Z</time>
      </trkpt>
      <trkpt lat="36.02738904902556" lon="119.40090806088804">
        <ele>64.99981689453125</ele>
        <time>2023-05-29T11:08:48Z</time>
      </trkpt>
      <trkpt lat="36.0273190528639" lon="119.40084303304324">
        <ele>64.49322509765625</ele>
        <time>2023-05-29T11:08:51Z</time>
      </trkpt>
      <trkpt lat="36.027007100470065" lon="119.40071199684112">
        <ele>66.93310546875</ele>
        <time>2023-05-29T11:09:03Z</time>
      </trkpt>
      <trkpt lat="36.0266711719548" lon="119.40068001731358">
        <ele>68.00726318359375</ele>
        <time>2023-05-29T11:09:18Z</time>
      </trkpt>
      <trkpt lat="36.02661018724269" lon="119.40068702793178">
        <ele>67.65667724609375</ele>
        <time>2023-05-29T11:09:21Z</time>
      </trkpt>
      <trkpt lat="36.02656319535528" lon="119.40067202513534">
        <ele>67.2796630859375</ele>
        <time>2023-05-29T11:09:24Z</time>
      </trkpt>
      <trkpt lat="36.02628226376435" lon="119.40069306799177">
        <ele>67.8900146484375</ele>
        <time>2023-05-29T11:09:36Z</time>
      </trkpt>
      <trkpt lat="36.02600233633889" lon="119.4007381237409">
        <ele>66.92425537109375</ele>
        <time>2023-05-29T11:09:48Z</time>
      </trkpt>
      <trkpt lat="36.025698409576194" lon="119.40075616762901">
        <ele>65.691162109375</ele>
        <time>2023-05-29T11:10:00Z</time>
      </trkpt>
      <trkpt lat="36.025478459289424" lon="119.40075118961708">
        <ele>66.0904541015625</ele>
        <time>2023-05-29T11:10:09Z</time>
      </trkpt>
      <trkpt lat="36.02540947133773" lon="119.4007301859888">
        <ele>63.380859375</ele>
        <time>2023-05-29T11:10:12Z</time>
      </trkpt>
      <trkpt lat="36.025277500992075" lon="119.40072619864486">
        <ele>65.48150634765625</ele>
        <time>2023-05-29T11:10:18Z</time>
      </trkpt>
      <trkpt lat="36.02504054132216" lon="119.40064718270203">
        <ele>65.15875244140625</ele>
        <time>2023-05-29T11:10:27Z</time>
      </trkpt>
      <trkpt lat="36.02493155755608" lon="119.40059716819039">
        <ele>65.318115234375</ele>
        <time>2023-05-29T11:10:36Z</time>
      </trkpt>
      <trkpt lat="36.0248835652696" lon="119.40057816345168">
        <ele>66.41412353515625</ele>
        <time>2023-05-29T11:11:06Z</time>
      </trkpt>
      <trkpt lat="36.02468659658056" lon="119.40049714262136">
        <ele>68.1502685546875</ele>
        <time>2023-05-29T11:11:21Z</time>
      </trkpt>
      <trkpt lat="36.02450361512901" lon="119.40035708980855">
        <ele>66.819580078125</ele>
        <time>2023-05-29T11:11:39Z</time>
      </trkpt>
      <trkpt lat="36.02443061917469" lon="119.40027905761244">
        <ele>65.0511474609375</ele>
        <time>2023-05-29T11:11:45Z</time>
      </trkpt>
      <trkpt lat="36.02414565316817" lon="119.40007798710249">
        <ele>61.131103515625</ele>
        <time>2023-05-29T11:11:57Z</time>
      </trkpt>
      <trkpt lat="36.0239896654867" lon="119.39991992563614">
        <ele>61.5870361328125</ele>
        <time>2023-05-29T11:12:06Z</time>
      </trkpt>
      <trkpt lat="36.023922675263194" lon="119.3998809138793">
        <ele>63.4603271484375</ele>
        <time>2023-05-29T11:12:13Z</time>
      </trkpt>
      <trkpt lat="36.023685688728115" lon="119.39958179552501">
        <ele>63.1505126953125</ele>
        <time>2023-05-29T11:12:42Z</time>
      </trkpt>
      <trkpt lat="36.023639686960564" lon="119.39948575521257">
        <ele>60.29351806640625</ele>
        <time>2023-05-29T11:12:48Z</time>
      </trkpt>
      <trkpt lat="36.023714682176866" lon="119.3995827927456">
        <ele>56.19873046875</ele>
        <time>2023-05-29T11:13:22Z</time>
      </trkpt>
      <trkpt lat="36.02383967256277" lon="119.39972584742227">
        <ele>54.26416015625</ele>
        <time>2023-05-29T11:13:48Z</time>
      </trkpt>
      <trkpt lat="36.023836671608954" lon="119.39971384194898">
        <ele>58.3206787109375</ele>
        <time>2023-05-29T11:14:27Z</time>
      </trkpt>
      <trkpt lat="36.02391067172441" lon="119.3998368935787">
        <ele>58.60107421875</ele>
        <time>2023-05-29T11:14:33Z</time>
      </trkpt>
      <trkpt lat="36.024150655393065" lon="119.4000999976499">
        <ele>58.1090087890625</ele>
        <time>2023-05-29T11:14:45Z</time>
      </trkpt>
      <trkpt lat="36.024417620390096" lon="119.40026805340325">
        <ele>58.75830078125</ele>
        <time>2023-05-29T11:14:57Z</time>
      </trkpt>
      <trkpt lat="36.02448761125214" lon="119.40031106774258">
        <ele>59.1661376953125</ele>
        <time>2023-05-29T11:15:00Z</time>
      </trkpt>
      <trkpt lat="36.024670593434934" lon="119.40045712334543">
        <ele>59.712158203125</ele>
        <time>2023-05-29T11:15:09Z</time>
      </trkpt>
      <trkpt lat="36.02488155633174" lon="119.40052413500334">
        <ele>57.93927001953125</ele>
        <time>2023-05-29T11:15:18Z</time>
      </trkpt>
      <trkpt lat="36.02502453914534" lon="119.40061416682809">
        <ele>55.8197021484375</ele>
        <time>2023-05-29T11:15:24Z</time>
      </trkpt>
      <trkpt lat="36.0253614753207" lon="119.40069117031875">
        <ele>61.28466796875</ele>
        <time>2023-05-29T11:15:36Z</time>
      </trkpt>
      <trkpt lat="36.02565242236285" lon="119.4007681793082">
        <ele>59.4171142578125</ele>
        <time>2023-05-29T11:15:48Z</time>
      </trkpt>
      <trkpt lat="36.025929358441715" lon="119.40076714766512">
        <ele>59.572265625</ele>
        <time>2023-05-29T11:16:00Z</time>
      </trkpt>
      <trkpt lat="36.02620928019595" lon="119.40069107511006">
        <ele>61.6103515625</ele>
        <time>2023-05-29T11:16:12Z</time>
      </trkpt>
      <trkpt lat="36.026427225200365" lon="119.40066403610442">
        <ele>60.3822021484375</ele>
        <time>2023-05-29T11:16:21Z</time>
      </trkpt>
      <trkpt lat="36.02671316301581" lon="119.40068401475138">
        <ele>62.19659423828125</ele>
        <time>2023-05-29T11:16:33Z</time>
      </trkpt>
      <trkpt lat="36.02671316301581" lon="119.40068401475138">
        <ele>62.19659423828125</ele>
        <time>2023-05-29T11:16:36Z</time>
      </trkpt>
      <trkpt lat="36.02674515619722" lon="119.40068701277418">
        <ele>61.97174072265625</ele>
        <time>2023-05-29T11:17:30Z</time>
      </trkpt>
      <trkpt lat="36.027049103607666" lon="119.4007820300686">
        <ele>62.6053466796875</ele>
        <time>2023-05-29T11:17:42Z</time>
      </trkpt>
      <trkpt lat="36.02737104937309" lon="119.40088805189771">
        <ele>63.040771484375</ele>
        <time>2023-05-29T11:17:54Z</time>
      </trkpt>
      <trkpt lat="36.027660018094544" lon="119.40107012048442">
        <ele>61.537109375</ele>
        <time>2023-05-29T11:18:06Z</time>
      </trkpt>
      <trkpt lat="36.027913000898316" lon="119.40127320697813">
        <ele>59.64398193359375</ele>
        <time>2023-05-29T11:18:18Z</time>
      </trkpt>
      <trkpt lat="36.02795000526801" lon="119.40133523838071">
        <ele>59.9925537109375</ele>
        <time>2023-05-29T11:18:21Z</time>
      </trkpt>
      <trkpt lat="36.027955050958724" lon="119.40155436515461">
        <ele>60.4849853515625</ele>
        <time>2023-05-29T11:18:30Z</time>
      </trkpt>
      <trkpt lat="36.02799505941194" lon="119.40163440785476">
        <ele>60.8271484375</ele>
        <time>2023-05-29T11:18:33Z</time>
      </trkpt>
      <trkpt lat="36.028005078664755" lon="119.40173046383929">
        <ele>61.54071044921875</ele>
        <time>2023-05-29T11:18:36Z</time>
      </trkpt>
      <trkpt lat="36.028075100348936" lon="119.40189455474417">
        <ele>63.9039306640625</ele>
        <time>2023-05-29T11:18:42Z</time>
      </trkpt>
      <trkpt lat="36.02824213170755" lon="119.4021847143638">
        <ele>62.3275146484375</ele>
        <time>2023-05-29T11:18:54Z</time>
      </trkpt>
      <trkpt lat="36.02842816012943" lon="119.40246587085772">
        <ele>60.8570556640625</ele>
        <time>2023-05-29T11:19:06Z</time>
      </trkpt>
      <trkpt lat="36.028519178653525" lon="119.40261595715756">
        <ele>62.18023681640625</ele>
        <time>2023-05-29T11:19:12Z</time>
      </trkpt>
      <trkpt lat="36.02854419894376" lon="119.40271301744393">
        <ele>62.579345703125</ele>
        <time>2023-05-29T11:19:18Z</time>
      </trkpt>
      <trkpt lat="36.02868923383102" lon="119.4029601642332">
        <ele>62.93798828125</ele>
        <time>2023-05-29T11:19:30Z</time>
      </trkpt>
      <trkpt lat="36.02874228294946" lon="119.40317430236308">
        <ele>62.87445068359375</ele>
        <time>2023-05-29T11:19:42Z</time>
      </trkpt>
      <trkpt lat="36.02876434666209" lon="119.40340645902815">
        <ele>61.77227783203125</ele>
        <time>2023-05-29T11:19:51Z</time>
      </trkpt>
      <trkpt lat="36.028748430896115" lon="119.40366864421118">
        <ele>62.155517578125</ele>
        <time>2023-05-29T11:20:00Z</time>
      </trkpt>
      <trkpt lat="36.028726463697815" lon="119.40375670915118">
        <ele>64.9844970703125</ele>
        <time>2023-05-29T11:20:03Z</time>
      </trkpt>
      <trkpt lat="36.0287254888136" lon="119.40383476500243">
        <ele>64.14105224609375</ele>
        <time>2023-05-29T11:20:06Z</time>
      </trkpt>
      <trkpt lat="36.02870452106715" lon="119.40391982849482">
        <ele>65.03594970703125</ele>
        <time>2023-05-29T11:20:09Z</time>
      </trkpt>
      <trkpt lat="36.028667548468626" lon="119.40397787459976">
        <ele>64.56341552734375</ele>
        <time>2023-05-29T11:20:12Z</time>
      </trkpt>
      <trkpt lat="36.02835868881697" lon="119.40418706204336">
        <ele>64.8338623046875</ele>
        <time>2023-05-29T11:20:27Z</time>
      </trkpt>
      <trkpt lat="36.02813582073884" lon="119.40442326255001">
        <ele>60.404541015625</ele>
        <time>2023-05-29T11:20:39Z</time>
      </trkpt>
      <trkpt lat="36.02798591204078" lon="119.40458540167324">
        <ele>60.18756103515625</ele>
        <time>2023-05-29T11:20:48Z</time>
      </trkpt>
      <trkpt lat="36.02794994953158" lon="119.40466746818056">
        <ele>58.35284423828125</ele>
        <time>2023-05-29T11:20:54Z</time>
      </trkpt>
      <trkpt lat="36.027868005504054" lon="119.40477055639099">
        <ele>58.5745849609375</ele>
        <time>2023-05-29T11:21:03Z</time>
      </trkpt>
      <trkpt lat="36.02772917779578" lon="119.40514886710945">
        <ele>60.5625</ele>
        <time>2023-05-29T11:21:18Z</time>
      </trkpt>
      <trkpt lat="36.02765132152905" lon="119.40547413610449">
        <ele>60.9208984375</ele>
        <time>2023-05-29T11:21:27Z</time>
      </trkpt>
      <trkpt lat="36.027567426268774" lon="119.40568832017523">
        <ele>61.6702880859375</ele>
        <time>2023-05-29T11:21:36Z</time>
      </trkpt>
      <trkpt lat="36.02750345433663" lon="119.40572135452183">
        <ele>62.04376220703125</ele>
        <time>2023-05-29T11:21:42Z</time>
      </trkpt>
      <trkpt lat="36.02742446034986" lon="119.40569133869306">
        <ele>62.13427734375</ele>
        <time>2023-05-29T11:21:45Z</time>
      </trkpt>
      <trkpt lat="36.02734745187354" lon="119.4056262940036">
        <ele>60.02801513671875</ele>
        <time>2023-05-29T11:21:48Z</time>
      </trkpt>
      <trkpt lat="36.02725243341565" lon="119.4055252222743">
        <ele>59.18304443359375</ele>
        <time>2023-05-29T11:21:54Z</time>
      </trkpt>
      <trkpt lat="36.02714136077857" lon="119.40527403249197">
        <ele>59.6693115234375</ele>
        <time>2023-05-29T11:22:03Z</time>
      </trkpt>
      <trkpt lat="36.02711732836085" lon="119.40517495640384">
        <ele>61.7984619140625</ele>
        <time>2023-05-29T11:22:06Z</time>
      </trkpt>
      <trkpt lat="36.02711326292798" lon="119.40499881817352">
        <ele>62.585693359375</ele>
        <time>2023-05-29T11:22:12Z</time>
      </trkpt>
      <trkpt lat="36.027143218951025" lon="119.40489873679643">
        <ele>62.82232666015625</ele>
        <time>2023-05-29T11:22:15Z</time>
      </trkpt>
      <trkpt lat="36.027131155378136" lon="119.40471659762629">
        <ele>61.7230224609375</ele>
        <time>2023-05-29T11:22:21Z</time>
      </trkpt>
      <trkpt lat="36.0270511089278" lon="119.40453446797396">
        <ele>61.3040771484375</ele>
        <time>2023-05-29T11:22:27Z</time>
      </trkpt>
      <trkpt lat="36.02691307867903" lon="119.40435634970183">
        <ele>60.71807861328125</ele>
        <time>2023-05-29T11:22:33Z</time>
      </trkpt>
      <trkpt lat="36.02673810724326" lon="119.40432234400095">
        <ele>61.0025634765625</ele>
        <time>2023-05-29T11:22:39Z</time>
      </trkpt>
      <trkpt lat="36.02657814472436" lon="119.4043243634505">
        <ele>61.45684814453125</ele>
        <time>2023-05-29T11:22:45Z</time>
      </trkpt>
      <trkpt lat="36.02655113555533" lon="119.40427933303216">
        <ele>63.36322021484375</ele>
        <time>2023-05-29T11:22:48Z</time>
      </trkpt>
      <trkpt lat="36.02652902248258" lon="119.40392407566118">
        <ele>60.07281494140625</ele>
        <time>2023-05-29T11:23:03Z</time>
      </trkpt>
      <trkpt lat="36.0265278945424" lon="119.40351778738135">
        <ele>55.56500244140625</ele>
        <time>2023-05-29T11:23:18Z</time>
      </trkpt>
      <trkpt lat="36.026516867846986" lon="119.40342172179339">
        <ele>58.28076171875</ele>
        <time>2023-05-29T11:23:21Z</time>
      </trkpt>
      <trkpt lat="36.02646386858263" lon="119.40338370143701">
        <ele>56.95733642578125</ele>
        <time>2023-05-29T11:23:27Z</time>
      </trkpt>
      <trkpt lat="36.02646386858263" lon="119.40338370143701">
        <ele>56.95733642578125</ele>
        <time>2023-05-29T11:23:33Z</time>
      </trkpt>
      <trkpt lat="36.02638587632954" lon="119.40334968672568">
        <ele>64.44879150390625</ele>
        <time>2023-05-29T11:27:01Z</time>
      </trkpt>
      <trkpt lat="36.026387908732296" lon="119.40345876196746">
        <ele>64.04833984375</ele>
        <time>2023-05-29T11:27:07Z</time>
      </trkpt>
      <trkpt lat="36.026419933532615" lon="119.40356383170993">
        <ele>63.5118408203125</ele>
        <time>2023-05-29T11:27:13Z</time>
      </trkpt>
      <trkpt lat="36.02642004463117" lon="119.40391508140262">
        <ele>66.119384765625</ele>
        <time>2023-05-29T11:27:25Z</time>
      </trkpt>
      <trkpt lat="36.026434176473025" lon="119.40432037663693">
        <ele>67.20458984375</ele>
        <time>2023-05-29T11:27:37Z</time>
      </trkpt>
      <trkpt lat="36.0263963189966" lon="119.40470166863325">
        <ele>68.3956298828125</ele>
        <time>2023-05-29T11:27:49Z</time>
      </trkpt>
      <trkpt lat="36.02641738847969" lon="119.4049058237311">
        <ele>68.4757080078125</ele>
        <time>2023-05-29T11:27:55Z</time>
      </trkpt>
      <trkpt lat="36.026567462841584" lon="119.40519603480406">
        <ele>67.4459228515625</ele>
        <time>2023-05-29T11:28:07Z</time>
      </trkpt>
      <trkpt lat="36.026663501276836" lon="119.40535314941202">
        <ele>66.69464111328125</ele>
        <time>2023-05-29T11:28:13Z</time>
      </trkpt>
      <trkpt lat="36.02668253327573" lon="119.40544622221309">
        <ele>68.18145751953125</ele>
        <time>2023-05-29T11:28:16Z</time>
      </trkpt>
      <trkpt lat="36.02676558007137" lon="119.40561234787393">
        <ele>68.31256103515625</ele>
        <time>2023-05-29T11:28:22Z</time>
      </trkpt>
      <trkpt lat="36.026950649816044" lon="119.4058885550037">
        <ele>65.0548095703125</ele>
        <time>2023-05-29T11:28:31Z</time>
      </trkpt>
      <trkpt lat="36.027126751528634" lon="119.40622682025082">
        <ele>66.2183837890625</ele>
        <time>2023-05-29T11:28:43Z</time>
      </trkpt>
      <trkpt lat="36.027186761356624" lon="119.4062818605085">
        <ele>68.07757568359375</ele>
        <time>2023-05-29T11:28:46Z</time>
      </trkpt>
      <trkpt lat="36.027230788016034" lon="119.40636692853317">
        <ele>70.0048828125</ele>
        <time>2023-05-29T11:28:49Z</time>
      </trkpt>
      <trkpt lat="36.0272528226897" lon="119.40645800463398">
        <ele>70.401611328125</ele>
        <time>2023-05-29T11:28:52Z</time>
      </trkpt>
      <trkpt lat="36.027396871956405" lon="119.4066441505345">
        <ele>67.244384765625</ele>
        <time>2023-05-29T11:29:01Z</time>
      </trkpt>
      <trkpt lat="36.02758789652379" lon="119.40679626300076">
        <ele>66.64849853515625</ele>
        <time>2023-05-29T11:29:10Z</time>
      </trkpt>
      <trkpt lat="36.0277449507292" lon="119.40699342088628">
        <ele>67.1719970703125</ele>
        <time>2023-05-29T11:29:19Z</time>
      </trkpt>
      <trkpt lat="36.027925990336" lon="119.40716755742903">
        <ele>65.21484375</ele>
        <time>2023-05-29T11:29:28Z</time>
      </trkpt>
      <trkpt lat="36.028031047817464" lon="119.40733970239627">
        <ele>65.31390380859375</ele>
        <time>2023-05-29T11:29:34Z</time>
      </trkpt>
      <trkpt lat="36.028242111037876" lon="119.40757089189248">
        <ele>65.31658935546875</ele>
        <time>2023-05-29T11:29:46Z</time>
      </trkpt>
      <trkpt lat="36.028484121836065" lon="119.40770599072668">
        <ele>63.24725341796875</ele>
        <time>2023-05-29T11:29:58Z</time>
      </trkpt>
      <trkpt lat="36.028548108619496" lon="119.40770898635567">
        <ele>63.31683349609375</ele>
        <time>2023-05-29T11:30:01Z</time>
      </trkpt>
      <trkpt lat="36.028717121023185" lon="119.40781206423476">
        <ele>66.39837646484375</ele>
        <time>2023-05-29T11:30:07Z</time>
      </trkpt>
      <trkpt lat="36.028806110583645" lon="119.4078320731216">
        <ele>65.44573974609375</ele>
        <time>2023-05-29T11:30:10Z</time>
      </trkpt>
      <trkpt lat="36.028972112646606" lon="119.40791213022082">
        <ele>67.36663818359375</ele>
        <time>2023-05-29T11:30:16Z</time>
      </trkpt>
      <trkpt lat="36.02922408206926" lon="119.40796615326285">
        <ele>67.14605712890625</ele>
        <time>2023-05-29T11:30:28Z</time>
      </trkpt>
      <trkpt lat="36.029293053576716" lon="119.40794112173717">
        <ele>63.105712890625</ele>
        <time>2023-05-29T11:30:37Z</time>
      </trkpt>
      <trkpt lat="36.029539017860095" lon="119.4079821331493">
        <ele>67.11944580078125</ele>
        <time>2023-05-29T11:30:49Z</time>
      </trkpt>
      <trkpt lat="36.02971096014407" lon="119.40794607957794">
        <ele>67.57568359375</ele>
        <time>2023-05-29T11:30:55Z</time>
      </trkpt>
      <trkpt lat="36.029779927139764" lon="119.40791203953802">
        <ele>65.2076416015625</ele>
        <time>2023-05-29T11:30:58Z</time>
      </trkpt>
      <trkpt lat="36.02990588261363" lon="119.40788099600782">
        <ele>66.92718505859375</ele>
        <time>2023-05-29T11:31:07Z</time>
      </trkpt>
      <trkpt lat="36.02995984363884" lon="119.4078279398288">
        <ele>66.15606689453125</ele>
        <time>2023-05-29T11:31:13Z</time>
      </trkpt>
      <trkpt lat="36.0299987967927" lon="119.40775186386352">
        <ele>64.3822021484375</ele>
        <time>2023-05-29T11:31:19Z</time>
      </trkpt>
      <trkpt lat="36.0301946954579" lon="119.40763773510075">
        <ele>67.1407470703125</ele>
        <time>2023-05-29T11:31:34Z</time>
      </trkpt>
      <trkpt lat="36.03032964582514" lon="119.40759968452515">
        <ele>68.30718994140625</ele>
        <time>2023-05-29T11:31:40Z</time>
      </trkpt>
      <trkpt lat="36.030503522760334" lon="119.40742850660938">
        <ele>64.90728759765625</ele>
        <time>2023-05-29T11:31:49Z</time>
      </trkpt>
      <trkpt lat="36.030635372825216" lon="119.4071772623298">
        <ele>58.48974609375</ele>
        <time>2023-05-29T11:32:01Z</time>
      </trkpt>
      <trkpt lat="36.03065033932958" lon="119.40711320271247">
        <ele>57.92572021484375</ele>
        <time>2023-05-29T11:32:04Z</time>
      </trkpt>
      <trkpt lat="36.030748267939465" lon="119.40700809717102">
        <ele>55.83990478515625</ele>
        <time>2023-05-29T11:32:10Z</time>
      </trkpt>
      <trkpt lat="36.03082814192647" lon="119.40677287887704">
        <ele>58.1173095703125</ele>
        <time>2023-05-29T11:32:19Z</time>
      </trkpt>
      <trkpt lat="36.030876099327486" lon="119.4067028117489">
        <ele>57.9833984375</ele>
        <time>2023-05-29T11:32:22Z</time>
      </trkpt>
      <trkpt lat="36.0309209933637" lon="119.40648761881411">
        <ele>57.5291748046875</ele>
        <time>2023-05-29T11:32:31Z</time>
      </trkpt>
      <trkpt lat="36.03096395062703" lon="119.4064125490665">
        <ele>53.77703857421875</ele>
        <time>2023-05-29T11:32:37Z</time>
      </trkpt>
      <trkpt lat="36.0309548804028" lon="119.40624540667199">
        <ele>56.23626708984375</ele>
        <time>2023-05-29T11:32:49Z</time>
      </trkpt>
      <trkpt lat="36.030972735049914" lon="119.40591012177578">
        <ele>55.57879638671875</ele>
        <time>2023-05-29T11:33:10Z</time>
      </trkpt>
      <trkpt lat="36.03097670361785" lon="119.40583605970318">
        <ele>55.6265869140625</ele>
        <time>2023-05-29T11:33:13Z</time>
      </trkpt>
      <trkpt lat="36.030916576393565" lon="119.4054857792035">
        <ele>61.23297119140625</ele>
        <time>2023-05-29T11:33:25Z</time>
      </trkpt>
      <trkpt lat="36.030811449116335" lon="119.40509347757086">
        <ele>61.00079345703125</ele>
        <time>2023-05-29T11:33:43Z</time>
      </trkpt>
      <trkpt lat="36.03078642780106" lon="119.40502142376158">
        <ele>61.56817626953125</ele>
        <time>2023-05-29T11:33:46Z</time>
      </trkpt>
      <trkpt lat="36.03074741586969" lon="119.40496538430938">
        <ele>61.9984130859375</ele>
        <time>2023-05-29T11:33:49Z</time>
      </trkpt>
      <trkpt lat="36.03059133363166" lon="119.40464115173546">
        <ele>61.2080078125</ele>
        <time>2023-05-29T11:34:01Z</time>
      </trkpt>
      <trkpt lat="36.0305423115142" lon="119.40454708579821">
        <ele>62.042236328125</ele>
        <time>2023-05-29T11:34:04Z</time>
      </trkpt>
      <trkpt lat="36.03033928088177" lon="119.40432494186794">
        <ele>59.7413330078125</ele>
        <time>2023-05-29T11:34:16Z</time>
      </trkpt>
      <trkpt lat="36.03022127694922" lon="119.40423388758522">
        <ele>59.95172119140625</ele>
        <time>2023-05-29T11:34:22Z</time>
      </trkpt>
      <trkpt lat="36.030169281778676" lon="119.40421287790618">
        <ele>60.79949951171875</ele>
        <time>2023-05-29T11:34:25Z</time>
      </trkpt>
      <trkpt lat="36.029987269085304" lon="119.40404977874972">
        <ele>66.03643798828125</ele>
        <time>2023-05-29T11:34:34Z</time>
      </trkpt>
      <trkpt lat="36.02970230037402" lon="119.4039457352335">
        <ele>65.39556884765625</ele>
        <time>2023-05-29T11:34:49Z</time>
      </trkpt>
      <trkpt lat="36.029397364857836" lon="119.40392875719068">
        <ele>65.6781005859375</ele>
        <time>2023-05-29T11:35:10Z</time>
      </trkpt>
      <trkpt lat="36.029093405586586" lon="119.40383872655576">
        <ele>67.8505859375</ele>
        <time>2023-05-29T11:35:25Z</time>
      </trkpt>
      <trkpt lat="36.028982426586204" lon="119.40382472898442">
        <ele>70.996337890625</ele>
        <time>2023-05-29T11:35:31Z</time>
      </trkpt>
      <trkpt lat="36.02894042249739" lon="119.40378170295337">
        <ele>70.56207275390625</ele>
        <time>2023-05-29T11:35:34Z</time>
      </trkpt>
      <trkpt lat="36.02894037555024" lon="119.40363259722642">
        <ele>69.09332275390625</ele>
        <time>2023-05-29T11:35:40Z</time>
      </trkpt>
      <trkpt lat="36.02902130886405" lon="119.40347647878961">
        <ele>61.75604248046875</ele>
        <time>2023-05-29T11:35:49Z</time>
      </trkpt>
      <trkpt lat="36.02927218291509" lon="119.40324829328549">
        <ele>60.0489501953125</ele>
        <time>2023-05-29T11:36:04Z</time>
      </trkpt>
      <trkpt lat="36.02942812135552" lon="119.40316021583827">
        <ele>57.19854736328125</ele>
        <time>2023-05-29T11:36:13Z</time>
      </trkpt>
      <trkpt lat="36.02946409890655" lon="119.40311117861532">
        <ele>58.08465576171875</ele>
        <time>2023-05-29T11:36:16Z</time>
      </trkpt>
      <trkpt lat="36.02964002308989" lon="119.40298707549475">
        <ele>58.418212890625</ele>
        <time>2023-05-29T11:36:25Z</time>
      </trkpt>
      <trkpt lat="36.02975095790208" lon="119.40284496864247">
        <ele>57.76837158203125</ele>
        <time>2023-05-29T11:36:34Z</time>
      </trkpt>
      <trkpt lat="36.02977793027711" lon="119.40276691424975">
        <ele>57.01849365234375</ele>
        <time>2023-05-29T11:36:37Z</time>
      </trkpt>
      <trkpt lat="36.029962842324935" lon="119.40259778337845">
        <ele>56.95953369140625</ele>
        <time>2023-05-29T11:36:46Z</time>
      </trkpt>
      <trkpt lat="36.03003278928366" lon="119.4024566848992">
        <ele>56.5234375</ele>
        <time>2023-05-29T11:36:52Z</time>
      </trkpt>
      <trkpt lat="36.0300936907564" lon="119.40212046664524">
        <ele>58.866455078125</ele>
        <time>2023-05-29T11:37:07Z</time>
      </trkpt>
      <trkpt lat="36.03011466247397" lon="119.40202340444591">
        <ele>61.15130615234375</ele>
        <time>2023-05-29T11:37:10Z</time>
      </trkpt>
      <trkpt lat="36.03011464414794" lon="119.40194635732219">
        <ele>62.50140380859375</ele>
        <time>2023-05-29T11:37:13Z</time>
      </trkpt>
      <trkpt lat="36.030134623361484" lon="119.40187731313377">
        <ele>62.04693603515625</ele>
        <time>2023-05-29T11:37:16Z</time>
      </trkpt>
      <trkpt lat="36.030115555605505" lon="119.40155812485936">
        <ele>61.22747802734375</ele>
        <time>2023-05-29T11:37:28Z</time>
      </trkpt>
      <trkpt lat="36.030007507918015" lon="119.40121493867258">
        <ele>65.30963134765625</ele>
        <time>2023-05-29T11:37:43Z</time>
      </trkpt>
      <trkpt lat="36.02994747719267" lon="119.40099081948664">
        <ele>64.7581787109375</ele>
        <time>2023-05-29T11:37:58Z</time>
      </trkpt>
      <trkpt lat="36.02982746985793" lon="119.40080673164394">
        <ele>65.912353515625</ele>
        <time>2023-05-29T11:38:16Z</time>
      </trkpt>
      <trkpt lat="36.02977147661583" lon="119.40077371996327">
        <ele>69.32672119140625</ele>
        <time>2023-05-29T11:38:22Z</time>
      </trkpt>
      <trkpt lat="36.029698467163975" lon="119.40062864993386">
        <ele>67.80499267578125</ele>
        <time>2023-05-29T11:38:28Z</time>
      </trkpt>
      <trkpt lat="36.02947748649445" lon="119.40044757876606">
        <ele>70.47576904296875</ele>
        <time>2023-05-29T11:38:40Z</time>
      </trkpt>
      <trkpt lat="36.029211527221925" lon="119.40032554498126">
        <ele>72.6778564453125</ele>
        <time>2023-05-29T11:38:55Z</time>
      </trkpt>
      <trkpt lat="36.02915254076873" lon="119.40032555160649">
        <ele>74.42218017578125</ele>
        <time>2023-05-29T11:38:58Z</time>
      </trkpt>
      <trkpt lat="36.02910955475661" lon="119.40035056941066">
        <ele>75.40167236328125</ele>
        <time>2023-05-29T11:39:01Z</time>
      </trkpt>
      <trkpt lat="36.02879162235662" lon="119.40031758799887">
        <ele>79.7962646484375</ele>
        <time>2023-05-29T11:39:16Z</time>
      </trkpt>
      <trkpt lat="36.028662657409356" lon="119.40035061960458">
        <ele>76.34027099609375</ele>
        <time>2023-05-29T11:39:22Z</time>
      </trkpt>
      <trkpt lat="36.02837075095676" lon="119.40050773468442">
        <ele>78.32696533203125</ele>
        <time>2023-05-29T11:39:37Z</time>
      </trkpt>
      <trkpt lat="36.02806684035584" lon="119.40061982837338">
        <ele>81.52142333984375</ele>
        <time>2023-05-29T11:39:52Z</time>
      </trkpt>
      <trkpt lat="36.02781391624332" lon="119.40071891001162">
        <ele>78.7342529296875</ele>
        <time>2023-05-29T11:40:04Z</time>
      </trkpt>
      <trkpt lat="36.027761928737924" lon="119.40072191747204">
        <ele>79.8646240234375</ele>
        <time>2023-05-29T11:40:07Z</time>
      </trkpt>
      <trkpt lat="36.027540933973775" lon="119.4004628041528">
        <ele>68.68505859375</ele>
        <time>2023-05-29T11:40:25Z</time>
      </trkpt>
      <trkpt lat="36.02747393241807" lon="119.400361758834">
        <ele>69.66668701171875</ele>
        <time>2023-05-29T11:40:31Z</time>
      </trkpt>
      <trkpt lat="36.02742693679557" lon="119.40032274386094">
        <ele>68.35003662109375</ele>
        <time>2023-05-29T11:40:34Z</time>
      </trkpt>
      <trkpt lat="36.02731393884442" lon="119.40017367997133">
        <ele>69.155029296875</ele>
        <time>2023-05-29T11:40:40Z</time>
      </trkpt>
      <trkpt lat="36.02725594436979" lon="119.40012366106686">
        <ele>68.2904052734375</ele>
        <time>2023-05-29T11:40:43Z</time>
      </trkpt>
      <trkpt lat="36.027191955220424" lon="119.40009865559739">
        <ele>66.979248046875</ele>
        <time>2023-05-29T11:40:46Z</time>
      </trkpt>
      <trkpt lat="36.02714096006337" lon="119.40005363863236">
        <ele>65.4678955078125</ele>
        <time>2023-05-29T11:40:49Z</time>
      </trkpt>
      <trkpt lat="36.02702298265457" lon="119.40002363681755">
        <ele>67.5941162109375</ele>
        <time>2023-05-29T11:40:55Z</time>
      </trkpt>
      <trkpt lat="36.026825031049874" lon="119.40004266858448">
        <ele>70.78021240234375</ele>
        <time>2023-05-29T11:41:04Z</time>
      </trkpt>
      <trkpt lat="36.02669504911911" lon="119.39996364366985">
        <ele>70.5360107421875</ele>
        <time>2023-05-29T11:41:10Z</time>
      </trkpt>
      <trkpt lat="36.02657605522114" lon="119.39981658444538">
        <ele>71.9151611328125</ele>
        <time>2023-05-29T11:41:16Z</time>
      </trkpt>
      <trkpt lat="36.02644107634309" lon="119.3997455649804">
        <ele>69.8226318359375</ele>
        <time>2023-05-29T11:41:22Z</time>
      </trkpt>
      <trkpt lat="36.02622512616497" lon="119.399746589719">
        <ele>72.3006591796875</ele>
        <time>2023-05-29T11:41:31Z</time>
      </trkpt>
      <trkpt lat="36.026158135536114" lon="119.3997025759252">
        <ele>71.63653564453125</ele>
        <time>2023-05-29T11:41:37Z</time>
      </trkpt>
      <trkpt lat="36.026002154207916" lon="119.39957353157209">
        <ele>67.86187744140625</ele>
        <time>2023-05-29T11:41:55Z</time>
      </trkpt>
      <trkpt lat="36.02592716691954" lon="119.3995385233684">
        <ele>68.6446533203125</ele>
        <time>2023-05-29T11:42:01Z</time>
      </trkpt>
      <trkpt lat="36.02587317320091" lon="119.39949050674387">
        <ele>67.449951171875</ele>
        <time>2023-05-29T11:42:07Z</time>
      </trkpt>
      <trkpt lat="36.02573420215108" lon="119.39946651105564">
        <ele>66.5849609375</ele>
        <time>2023-05-29T11:42:19Z</time>
      </trkpt>
      <trkpt lat="36.02566321188134" lon="119.3994134941985">
        <ele>66.28253173828125</ele>
        <time>2023-05-29T11:42:25Z</time>
      </trkpt>
      <trkpt lat="36.02555722212909" lon="119.39929645184776">
        <ele>62.51806640625</ele>
        <time>2023-05-29T11:42:37Z</time>
      </trkpt>
      <trkpt lat="36.02534925555821" lon="119.39917141808965">
        <ele>67.150634765625</ele>
        <time>2023-05-29T11:42:49Z</time>
      </trkpt>
      <trkpt lat="36.02524727578431" lon="119.39914241641755">
        <ele>67.73095703125</ele>
        <time>2023-05-29T11:42:55Z</time>
      </trkpt>
      <trkpt lat="36.02496732109991" lon="119.39896436833172">
        <ele>72.49188232421875</ele>
        <time>2023-05-29T11:43:10Z</time>
      </trkpt>
      <trkpt lat="36.02487633360557" lon="119.3988813420755">
        <ele>67.9271240234375</ele>
        <time>2023-05-29T11:43:19Z</time>
      </trkpt>
      <trkpt lat="36.024740359296196" lon="119.39882433252114">
        <ele>67.12445068359375</ele>
        <time>2023-05-29T11:43:31Z</time>
      </trkpt>
      <trkpt lat="36.02468537186325" lon="119.39882333826259">
        <ele>67.4757080078125</ele>
        <time>2023-05-29T11:43:34Z</time>
      </trkpt>
      <trkpt lat="36.02437545067863" lon="119.39889840576586">
        <ele>71.9971923828125</ele>
        <time>2023-05-29T11:43:49Z</time>
      </trkpt>
      <trkpt lat="36.024323462353415" lon="119.39889541029031">
        <ele>71.8922119140625</ele>
        <time>2023-05-29T11:43:52Z</time>
      </trkpt>
      <trkpt lat="36.024314488278215" lon="119.39912151169814">
        <ele>69.7677001953125</ele>
        <time>2023-05-29T11:44:10Z</time>
      </trkpt>
      <trkpt lat="36.02433750312389" lon="119.39929758928707">
        <ele>70.62646484375</ele>
        <time>2023-05-29T11:44:22Z</time>
      </trkpt>
      <trkpt lat="36.02430554655096" lon="119.39958672829918">
        <ele>70.00408935546875</ele>
        <time>2023-05-29T11:44:37Z</time>
      </trkpt>
      <trkpt lat="36.02431658220093" lon="119.39986486175991">
        <ele>66.656982421875</ele>
        <time>2023-05-29T11:44:49Z</time>
      </trkpt>
      <trkpt lat="36.02427163014571" lon="119.40011699266792">
        <ele>65.139404296875</ele>
        <time>2023-05-29T11:45:04Z</time>
      </trkpt>
      <trkpt lat="36.02430264639257" lon="119.4002650647695">
        <ele>65.3624267578125</ele>
        <time>2023-05-29T11:45:13Z</time>
      </trkpt>
      <trkpt lat="36.02435664420613" lon="119.40032809125475">
        <ele>63.6282958984375</ele>
        <time>2023-05-29T11:45:19Z</time>
      </trkpt>
      <trkpt lat="36.02449762316265" lon="119.40039711132894">
        <ele>63.36737060546875</ele>
        <time>2023-05-29T11:45:31Z</time>
      </trkpt>
      <trkpt lat="36.024648609635726" lon="119.40052216010359">
        <ele>65.7020263671875</ele>
        <time>2023-05-29T11:45:40Z</time>
      </trkpt>
      <trkpt lat="36.024941557370084" lon="119.40060917347463">
        <ele>64.13043212890625</ele>
        <time>2023-05-29T11:45:55Z</time>
      </trkpt>
      <trkpt lat="36.025199515318505" lon="119.40070619659632">
        <ele>64.85589599609375</ele>
        <time>2023-05-29T11:46:07Z</time>
      </trkpt>
      <trkpt lat="36.02531349854741" lon="119.4007582119392">
        <ele>64.072021484375</ele>
        <time>2023-05-29T11:46:13Z</time>
      </trkpt>
      <trkpt lat="36.025415472874755" lon="119.40074619397963">
        <ele>63.82525634765625</ele>
        <time>2023-05-29T11:46:19Z</time>
      </trkpt>
      <trkpt lat="36.02570041352498" lon="119.40078018044181">
        <ele>61.97283935546875</ele>
        <time>2023-05-29T11:46:31Z</time>
      </trkpt>
      <trkpt lat="36.02603432970667" lon="119.40074212231467">
        <ele>60.94525146484375</ele>
        <time>2023-05-29T11:46:46Z</time>
      </trkpt>
      <trkpt lat="36.026359246594154" lon="119.40069606096368">
        <ele>62.44305419921875</ele>
        <time>2023-05-29T11:47:04Z</time>
      </trkpt>
      <trkpt lat="36.026572191851415" lon="119.40066401982412">
        <ele>65.1690673828125</ele>
        <time>2023-05-29T11:47:13Z</time>
      </trkpt>
      <trkpt lat="36.026879131896806" lon="119.4007230171571">
        <ele>63.35400390625</ele>
        <time>2023-05-29T11:47:25Z</time>
      </trkpt>
      <trkpt lat="36.027170084315784" lon="119.40082804156741">
        <ele>60.4227294921875</ele>
        <time>2023-05-29T11:47:40Z</time>
      </trkpt>
      <trkpt lat="36.027239071441244" lon="119.40084404257317">
        <ele>60.5341796875</ele>
        <time>2023-05-29T11:47:46Z</time>
      </trkpt>
      <trkpt lat="36.027493040265554" lon="119.40098709292654">
        <ele>65.4276123046875</ele>
        <time>2023-05-29T11:48:01Z</time>
      </trkpt>
      <trkpt lat="36.02763202000654" lon="119.40104711075676">
        <ele>64.5128173828125</ele>
        <time>2023-05-29T11:48:07Z</time>
      </trkpt>
      <trkpt lat="36.027728016979104" lon="119.40114315390026">
        <ele>65.5238037109375</ele>
        <time>2023-05-29T11:48:13Z</time>
      </trkpt>
      <trkpt lat="36.027938008652576" lon="119.40133824145407">
        <ele>63.77301025390625</ele>
        <time>2023-05-29T11:48:34Z</time>
      </trkpt>
      <trkpt lat="36.02806901800423" lon="119.40152333416538">
        <ele>67.03759765625</ele>
        <time>2023-05-29T11:48:52Z</time>
      </trkpt>
      <trkpt lat="36.02809402604396" lon="119.40158636838086">
        <ele>66.48944091796875</ele>
        <time>2023-05-29T11:48:55Z</time>
      </trkpt>
      <trkpt lat="36.02823802739975" lon="119.40174044365698">
        <ele>61.53753662109375</ele>
        <time>2023-05-29T11:49:04Z</time>
      </trkpt>
      <trkpt lat="36.02829002182904" lon="119.40176845458882">
        <ele>59.08038330078125</ele>
        <time>2023-05-29T11:49:07Z</time>
      </trkpt>
      <trkpt lat="36.02833502457836" lon="119.40182548381298">
        <ele>58.16998291015625</ele>
        <time>2023-05-29T11:49:10Z</time>
      </trkpt>
      <trkpt lat="36.02838001863544" lon="119.40184449022685">
        <ele>58.20703125</ele>
        <time>2023-05-29T11:49:13Z</time>
      </trkpt>
      <trkpt lat="36.028613028820985" lon="119.4021126279795">
        <ele>60.43731689453125</ele>
        <time>2023-05-29T11:49:28Z</time>
      </trkpt>
      <trkpt lat="36.02866103077513" lon="119.40216565548745">
        <ele>61.63006591796875</ele>
        <time>2023-05-29T11:49:31Z</time>
      </trkpt>
      <trkpt lat="36.02877101439859" lon="119.40220166557286">
        <ele>60.5743408203125</ele>
        <time>2023-05-29T11:49:37Z</time>
      </trkpt>
      <trkpt lat="36.02891897349198" lon="119.40217363149888">
        <ele>58.529052734375</ele>
        <time>2023-05-29T11:49:43Z</time>
      </trkpt>
      <trkpt lat="36.029155876390924" lon="119.40199749617699">
        <ele>60.142822265625</ele>
        <time>2023-05-29T11:49:55Z</time>
      </trkpt>
      <trkpt lat="36.02921486451507" lon="119.40200449384261">
        <ele>60.6378173828125</ele>
        <time>2023-05-29T11:50:04Z</time>
      </trkpt>
      <trkpt lat="36.029257861828526" lon="119.40203450743279">
        <ele>62.1744384765625</ele>
        <time>2023-05-29T11:50:10Z</time>
      </trkpt>
      <trkpt lat="36.02932383781805" lon="119.40199747731356">
        <ele>62.32574462890625</ele>
        <time>2023-05-29T11:50:16Z</time>
      </trkpt>
      <trkpt lat="36.02933882463085" lon="119.40195645055624">
        <ele>62.544189453125</ele>
        <time>2023-05-29T11:50:19Z</time>
      </trkpt>
    </trkseg>
  </trk>
</gpx>