<?xml version="1.0" encoding="UTF-8"?>
<gpx xmlns="http://www.topografix.com/GPX/1/1" xmlns:gpxtpx="http://www.garmin.com/xmlschemas/TrackPointExtension/v1" xmlns:xsi="http://www.w3.org/2001/XMLSchema-instance" xsi:schemaLocation="http://www.topografix.com/GPX/1/1 http://www.topografix.com/GPX/1/1/gpx.xsd" version="1.1" creator="gpx.py -- https://github.com/tkrajina/gpxpy">
  <trk>
    <name>gpx from keep</name>
    <type>Run</type>
    <trkseg>
      <trkpt lat="30.52237472673543" lon="114.39221870408956">
        <ele>31.92962646484375</ele>
        <time>2022-08-02T13:08:44Z</time>
      </trkpt>
      <trkpt lat="30.5223327250998" lon="114.3922937270017">
        <ele>24.88995361328125</ele>
        <time>2022-08-02T13:08:52Z</time>
      </trkpt>
      <trkpt lat="30.522225743629633" lon="114.3923717566502">
        <ele>24.28472900390625</ele>
        <time>2022-08-02T13:08:58Z</time>
      </trkpt>
      <trkpt lat="30.522106742935364" lon="114.39257382098289">
        <ele>21.82281494140625</ele>
        <time>2022-08-02T13:09:07Z</time>
      </trkpt>
      <trkpt lat="30.522066722785407" lon="114.3927548744797">
        <ele>23.241943359375</ele>
        <time>2022-08-02T13:09:13Z</time>
      </trkpt>
      <trkpt lat="30.522111666827623" lon="114.39299794016843">
        <ele>22.8951416015625</ele>
        <time>2022-08-02T13:09:22Z</time>
      </trkpt>
      <trkpt lat="30.5221916223935" lon="114.39311496771906">
        <ele>20.8184814453125</ele>
        <time>2022-08-02T13:09:28Z</time>
      </trkpt>
      <trkpt lat="30.522315568272525" lon="114.39320898511592">
        <ele>23.49261474609375</ele>
        <time>2022-08-02T13:09:34Z</time>
      </trkpt>
      <trkpt lat="30.522388542249196" lon="114.3932279844962">
        <ele>23.1741943359375</ele>
        <time>2022-08-02T13:09:37Z</time>
      </trkpt>
      <trkpt lat="30.522661454952004" lon="114.39323496277032">
        <ele>23.89715576171875</ele>
        <time>2022-08-02T13:09:49Z</time>
      </trkpt>
      <trkpt lat="30.52293836866498" lon="114.39322693613948">
        <ele>25.54168701171875</ele>
        <time>2022-08-02T13:09:58Z</time>
      </trkpt>
      <trkpt lat="30.523220281665715" lon="114.39321290725695">
        <ele>28.6156005859375</ele>
        <time>2022-08-02T13:10:10Z</time>
      </trkpt>
      <trkpt lat="30.523351246373476" lon="114.393173884039">
        <ele>28.5206298828125</ele>
        <time>2022-08-02T13:10:16Z</time>
      </trkpt>
      <trkpt lat="30.523586207820067" lon="114.39295479876901">
        <ele>26.26422119140625</ele>
        <time>2022-08-02T13:10:28Z</time>
      </trkpt>
      <trkpt lat="30.523618209239704" lon="114.39288677634428">
        <ele>25.94500732421875</ele>
        <time>2022-08-02T13:10:31Z</time>
      </trkpt>
      <trkpt lat="30.523620236765137" lon="114.39272573058716">
        <ele>28.06500244140625</ele>
        <time>2022-08-02T13:10:37Z</time>
      </trkpt>
      <trkpt lat="30.523551298906103" lon="114.39250567635473">
        <ele>27.81866455078125</ele>
        <time>2022-08-02T13:10:46Z</time>
      </trkpt>
      <trkpt lat="30.523441360074095" lon="114.39236764935809">
        <ele>23.1273193359375</ele>
        <time>2022-08-02T13:10:55Z</time>
      </trkpt>
      <trkpt lat="30.523379389446664" lon="114.39231764173829">
        <ele>21.7606201171875</ele>
        <time>2022-08-02T13:10:58Z</time>
      </trkpt>
      <trkpt lat="30.523244439851762" lon="114.39227864344853">
        <ele>20.297607421875</ele>
        <time>2022-08-02T13:11:04Z</time>
      </trkpt>
      <trkpt lat="30.52295053107449" lon="114.39228767145696">
        <ele>23.2861328125</ele>
        <time>2022-08-02T13:11:16Z</time>
      </trkpt>
      <trkpt lat="30.522656626554653" lon="114.39227469379318">
        <ele>24.2611083984375</ele>
        <time>2022-08-02T13:11:28Z</time>
      </trkpt>
      <trkpt lat="30.52241170213866" lon="114.39228371751811">
        <ele>18.79669189453125</ele>
        <time>2022-08-02T13:11:40Z</time>
      </trkpt>
      <trkpt lat="30.52223873836792" lon="114.39237775708808">
        <ele>18.50421142578125</ele>
        <time>2022-08-02T13:11:49Z</time>
      </trkpt>
      <trkpt lat="30.522134746965957" lon="114.39250479989154">
        <ele>21.36553955078125</ele>
        <time>2022-08-02T13:11:55Z</time>
      </trkpt>
      <trkpt lat="30.522069737049833" lon="114.39266985053885">
        <ele>23.42877197265625</ele>
        <time>2022-08-02T13:12:01Z</time>
      </trkpt>
      <trkpt lat="30.52209868814975" lon="114.39289591173304">
        <ele>22.01220703125</ele>
        <time>2022-08-02T13:12:10Z</time>
      </trkpt>
      <trkpt lat="30.522177634779993" lon="114.39306595439604">
        <ele>24.989013671875</ele>
        <time>2022-08-02T13:12:16Z</time>
      </trkpt>
      <trkpt lat="30.522295579170535" lon="114.39317997810821">
        <ele>25.972412109375</ele>
        <time>2022-08-02T13:12:22Z</time>
      </trkpt>
      <trkpt lat="30.522357554231455" lon="114.39321398296006">
        <ele>24.79156494140625</ele>
        <time>2022-08-02T13:12:25Z</time>
      </trkpt>
      <trkpt lat="30.522433527888612" lon="114.39322898086816">
        <ele>25.18890380859375</ele>
        <time>2022-08-02T13:12:28Z</time>
      </trkpt>
      <trkpt lat="30.522770424438367" lon="114.3932099456656">
        <ele>28.2840576171875</ele>
        <time>2022-08-02T13:12:43Z</time>
      </trkpt>
      <trkpt lat="30.52301634635755" lon="114.39321192477789">
        <ele>25.30718994140625</ele>
        <time>2022-08-02T13:12:55Z</time>
      </trkpt>
      <trkpt lat="30.523266268999837" lon="114.39320089960778">
        <ele>28.72235107421875</ele>
        <time>2022-08-02T13:13:07Z</time>
      </trkpt>
      <trkpt lat="30.5234002353308" lon="114.39314587135134">
        <ele>29.8544921875</ele>
        <time>2022-08-02T13:13:14Z</time>
      </trkpt>
      <trkpt lat="30.5235012161428" lon="114.39306683901329">
        <ele>29.835205078125</ele>
        <time>2022-08-02T13:13:20Z</time>
      </trkpt>
      <trkpt lat="30.523600215800418" lon="114.39288177648257">
        <ele>23.05401611328125</ele>
        <time>2022-08-02T13:13:29Z</time>
      </trkpt>
      <trkpt lat="30.523613237735518" lon="114.39273273315456">
        <ele>24.37701416015625</ele>
        <time>2022-08-02T13:13:35Z</time>
      </trkpt>
      <trkpt lat="30.523595263834327" lon="114.39261970344472">
        <ele>24.68536376953125</ele>
        <time>2022-08-02T13:13:39Z</time>
      </trkpt>
      <trkpt lat="30.523505326729655" lon="114.39243566168994">
        <ele>23.1044921875</ele>
        <time>2022-08-02T13:13:50Z</time>
      </trkpt>
      <trkpt lat="30.523386386642912" lon="114.3923206419055">
        <ele>21.98193359375</ele>
        <time>2022-08-02T13:13:56Z</time>
      </trkpt>
      <trkpt lat="30.52324243831402" lon="114.39228964646038">
        <ele>22.162841796875</ele>
        <time>2022-08-02T13:14:02Z</time>
      </trkpt>
      <trkpt lat="30.52302550263833" lon="114.39231167111201">
        <ele>22.37872314453125</ele>
        <time>2022-08-02T13:14:11Z</time>
      </trkpt>
      <trkpt lat="30.522733595530152" lon="114.3923086958471">
        <ele>20.40728759765625</ele>
        <time>2022-08-02T13:14:23Z</time>
      </trkpt>
      <trkpt lat="30.522497677163344" lon="114.39227270717033">
        <ele>20.68780517578125</ele>
        <time>2022-08-02T13:14:33Z</time>
      </trkpt>
      <trkpt lat="30.52236471598646" lon="114.39228872291459">
        <ele>22.02911376953125</ele>
        <time>2022-08-02T13:14:39Z</time>
      </trkpt>
      <trkpt lat="30.522242738073178" lon="114.39237275542708">
        <ele>20.1688232421875</ele>
        <time>2022-08-02T13:14:45Z</time>
      </trkpt>
      <trkpt lat="30.52212774673487" lon="114.39251780399837">
        <ele>20.2890625</ele>
        <time>2022-08-02T13:14:51Z</time>
      </trkpt>
      <trkpt lat="30.52209172488863" lon="114.39269885665614">
        <ele>21.16827392578125</ele>
        <time>2022-08-02T13:14:57Z</time>
      </trkpt>
      <trkpt lat="30.522093691782054" lon="114.392883908724">
        <ele>21.7225341796875</ele>
        <time>2022-08-02T13:15:03Z</time>
      </trkpt>
      <trkpt lat="30.52216964206932" lon="114.39303694654079">
        <ele>21.4388427734375</ele>
        <time>2022-08-02T13:15:09Z</time>
      </trkpt>
      <trkpt lat="30.52230257680304" lon="114.39318097779784">
        <ele>23.89410400390625</ele>
        <time>2022-08-02T13:15:15Z</time>
      </trkpt>
      <trkpt lat="30.522396540979486" lon="114.39321998137063">
        <ele>23.67498779296875</ele>
        <time>2022-08-02T13:15:18Z</time>
      </trkpt>
      <trkpt lat="30.52247051620837" lon="114.39322897763552">
        <ele>25.07098388671875</ele>
        <time>2022-08-02T13:15:21Z</time>
      </trkpt>
      <trkpt lat="30.52268645635918" lon="114.39317594274252">
        <ele>24.8668212890625</ele>
        <time>2022-08-02T13:15:30Z</time>
      </trkpt>
      <trkpt lat="30.522975363430408" lon="114.393185920505">
        <ele>22.42169189453125</ele>
        <time>2022-08-02T13:15:42Z</time>
      </trkpt>
      <trkpt lat="30.52330426029787" lon="114.39317988995181">
        <ele>23.58306884765625</ele>
        <time>2022-08-02T13:15:51Z</time>
      </trkpt>
      <trkpt lat="30.523383239592427" lon="114.39315287493471">
        <ele>25.996826171875</ele>
        <time>2022-08-02T13:15:55Z</time>
      </trkpt>
      <trkpt lat="30.523481231046805" lon="114.39301482544849">
        <ele>25.24273681640625</ele>
        <time>2022-08-02T13:16:03Z</time>
      </trkpt>
      <trkpt lat="30.52354522114556" lon="114.39295280177079">
        <ele>25.03521728515625</ele>
        <time>2022-08-02T13:16:06Z</time>
      </trkpt>
      <trkpt lat="30.52359821866917" lon="114.39286877293335">
        <ele>28.43426513671875</ele>
        <time>2022-08-02T13:16:09Z</time>
      </trkpt>
      <trkpt lat="30.5236182257204" lon="114.39279174929628">
        <ele>28.69915771484375</ele>
        <time>2022-08-02T13:16:12Z</time>
      </trkpt>
      <trkpt lat="30.523606257063584" lon="114.39263770742537">
        <ele>27.59161376953125</ele>
        <time>2022-08-02T13:16:18Z</time>
      </trkpt>
      <trkpt lat="30.523543301440277" lon="114.39250567705372">
        <ele>24.7255859375</ele>
        <time>2022-08-02T13:16:24Z</time>
      </trkpt>
      <trkpt lat="30.52338039069861" lon="114.39230963957618">
        <ele>24.73626708984375</ele>
        <time>2022-08-02T13:16:30Z</time>
      </trkpt>
      <trkpt lat="30.52329142477904" lon="114.39227963959968">
        <ele>23.7408447265625</ele>
        <time>2022-08-02T13:16:33Z</time>
      </trkpt>
      <trkpt lat="30.52306249703773" lon="114.39228065986582">
        <ele>23.60443115234375</ele>
        <time>2022-08-02T13:16:42Z</time>
      </trkpt>
      <trkpt lat="30.52289255455239" lon="114.39226166983056">
        <ele>23.33233642578125</ele>
        <time>2022-08-02T13:16:48Z</time>
      </trkpt>
      <trkpt lat="30.522825573155906" lon="114.39227467902741">
        <ele>22.93536376953125</ele>
        <time>2022-08-02T13:16:51Z</time>
      </trkpt>
      <trkpt lat="30.522693615063996" lon="114.39227369030301">
        <ele>20.28411865234375</ele>
        <time>2022-08-02T13:17:00Z</time>
      </trkpt>
      <trkpt lat="30.52253665716661" lon="114.3923117138367">
        <ele>23.07611083984375</ele>
        <time>2022-08-02T13:17:06Z</time>
      </trkpt>
      <trkpt lat="30.522475678390144" lon="114.39230171657631">
        <ele>21.80316162109375</ele>
        <time>2022-08-02T13:17:09Z</time>
      </trkpt>
      <trkpt lat="30.522354710704978" lon="114.39233173493264">
        <ele>19.40478515625</ele>
        <time>2022-08-02T13:17:15Z</time>
      </trkpt>
      <trkpt lat="30.522222734567986" lon="114.39242377060859">
        <ele>19.8077392578125</ele>
        <time>2022-08-02T13:17:21Z</time>
      </trkpt>
      <trkpt lat="30.522121741354702" lon="114.39255681505732">
        <ele>22.92388916015625</ele>
        <time>2022-08-02T13:17:27Z</time>
      </trkpt>
      <trkpt lat="30.522105716356293" lon="114.39272186183796">
        <ele>19.81005859375</ele>
        <time>2022-08-02T13:17:34Z</time>
      </trkpt>
      <trkpt lat="30.52212667590778" lon="114.39291591504532">
        <ele>21.626953125</ele>
        <time>2022-08-02T13:17:40Z</time>
      </trkpt>
      <trkpt lat="30.522158650341005" lon="114.39300793898838">
        <ele>23.1058349609375</ele>
        <time>2022-08-02T13:17:43Z</time>
      </trkpt>
      <trkpt lat="30.52221961908094" lon="114.39308095516714">
        <ele>24.6243896484375</ele>
        <time>2022-08-02T13:17:46Z</time>
      </trkpt>
      <trkpt lat="30.52236256009616" lon="114.39316696834304">
        <ele>24.53662109375</ele>
        <time>2022-08-02T13:17:52Z</time>
      </trkpt>
      <trkpt lat="30.52248551682527" lon="114.39319496603156">
        <ele>26.78955078125</ele>
        <time>2022-08-02T13:17:58Z</time>
      </trkpt>
      <trkpt lat="30.52276143250376" lon="114.39317693649082">
        <ele>26.3421630859375</ele>
        <time>2022-08-02T13:18:10Z</time>
      </trkpt>
      <trkpt lat="30.52308932769399" lon="114.39318390994184">
        <ele>26.08319091796875</ele>
        <time>2022-08-02T13:18:22Z</time>
      </trkpt>
      <trkpt lat="30.52326227422684" lon="114.393175892417">
        <ele>27.65020751953125</ele>
        <time>2022-08-02T13:18:31Z</time>
      </trkpt>
      <trkpt lat="30.52342723663853" lon="114.39308485080976">
        <ele>28.51226806640625</ele>
        <time>2022-08-02T13:18:40Z</time>
      </trkpt>
      <trkpt lat="30.523526222627687" lon="114.3929798112841">
        <ele>26.97760009765625</ele>
        <time>2022-08-02T13:18:43Z</time>
      </trkpt>
      <trkpt lat="30.52358722232639" lon="114.39286777360834">
        <ele>25.315673828125</ele>
        <time>2022-08-02T13:18:49Z</time>
      </trkpt>
      <trkpt lat="30.523610228430655" lon="114.39279074971286">
        <ele>25.32696533203125</ele>
        <time>2022-08-02T13:18:52Z</time>
      </trkpt>
      <trkpt lat="30.523594264883187" lon="114.39261570243606">
        <ele>25.051025390625</ele>
        <time>2022-08-02T13:18:58Z</time>
      </trkpt>
      <trkpt lat="30.523490335497407" lon="114.39241465744146">
        <ele>23.767333984375</ele>
        <time>2022-08-02T13:19:07Z</time>
      </trkpt>
      <trkpt lat="30.52335939225935" lon="114.39233564816519">
        <ele>21.861572265625</ele>
        <time>2022-08-02T13:19:13Z</time>
      </trkpt>
      <trkpt lat="30.523057491733482" lon="114.39231566935345">
        <ele>18.2647705078125</ele>
        <time>2022-08-02T13:19:25Z</time>
      </trkpt>
      <trkpt lat="30.522907543093094" lon="114.39229567728019">
        <ele>19.44036865234375</ele>
        <time>2022-08-02T13:19:31Z</time>
      </trkpt>
      <trkpt lat="30.522686608810357" lon="114.39231670202788">
        <ele>20.88433837890625</ele>
        <time>2022-08-02T13:19:40Z</time>
      </trkpt>
      <trkpt lat="30.522483677241603" lon="114.39229471406718">
        <ele>20.42474365234375</ele>
        <time>2022-08-02T13:19:46Z</time>
      </trkpt>
      <trkpt lat="30.522288726856665" lon="114.3923557469579">
        <ele>20.89892578125</ele>
        <time>2022-08-02T13:19:52Z</time>
      </trkpt>
      <trkpt lat="30.522210739310616" lon="114.3924187703344">
        <ele>21.07122802734375</ele>
        <time>2022-08-02T13:19:55Z</time>
      </trkpt>
      <trkpt lat="30.522153741537622" lon="114.39250179742608">
        <ele>20.1805419921875</ele>
        <time>2022-08-02T13:19:58Z</time>
      </trkpt>
      <trkpt lat="30.52211273588295" lon="114.39260182809033">
        <ele>20.6551513671875</ele>
        <time>2022-08-02T13:20:01Z</time>
      </trkpt>
      <trkpt lat="30.52209770158901" lon="114.39281989011421">
        <ele>24.02911376953125</ele>
        <time>2022-08-02T13:20:07Z</time>
      </trkpt>
      <trkpt lat="30.52212867340762" lon="114.39292691804606">
        <ele>21.84637451171875</ele>
        <time>2022-08-02T13:20:10Z</time>
      </trkpt>
      <trkpt lat="30.522231613829515" lon="114.39308995678829">
        <ele>23.22894287109375</ele>
        <time>2022-08-02T13:20:16Z</time>
      </trkpt>
      <trkpt lat="30.522312576671958" lon="114.39316197120924">
        <ele>23.41259765625</ele>
        <time>2022-08-02T13:20:19Z</time>
      </trkpt>
      <trkpt lat="30.522610483394295" lon="114.39315694367228">
        <ele>22.83624267578125</ele>
        <time>2022-08-02T13:20:28Z</time>
      </trkpt>
      <trkpt lat="30.522895394139063" lon="114.39315191727204">
        <ele>22.33551025390625</ele>
        <time>2022-08-02T13:20:37Z</time>
      </trkpt>
      <trkpt lat="30.523220287836523" lon="114.3931738954847">
        <ele>24.043701171875</ele>
        <time>2022-08-02T13:20:46Z</time>
      </trkpt>
      <trkpt lat="30.52340523278679" lon="114.39315187271266">
        <ele>21.71942138671875</ele>
        <time>2022-08-02T13:20:55Z</time>
      </trkpt>
      <trkpt lat="30.52350721391515" lon="114.3930688390806">
        <ele>14.12225341796875</ele>
        <time>2022-08-02T13:21:01Z</time>
      </trkpt>
      <trkpt lat="30.523613218235457" lon="114.39284376448431">
        <ele>22.95513916015625</ele>
        <time>2022-08-02T13:21:14Z</time>
      </trkpt>
      <trkpt lat="30.523609247059316" lon="114.39268772097248">
        <ele>26.8585205078125</ele>
        <time>2022-08-02T13:21:20Z</time>
      </trkpt>
      <trkpt lat="30.523500323935533" lon="114.39245866823974">
        <ele>26.57061767578125</ele>
        <time>2022-08-02T13:21:29Z</time>
      </trkpt>
      <trkpt lat="30.523451350729342" lon="114.39239965689129">
        <ele>26.197998046875</ele>
        <time>2022-08-02T13:21:32Z</time>
      </trkpt>
      <trkpt lat="30.523399373760768" lon="114.392365652504">
        <ele>26.93218994140625</ele>
        <time>2022-08-02T13:21:35Z</time>
      </trkpt>
      <trkpt lat="30.52320944188475" lon="114.39232465840968">
        <ele>21.9246826171875</ele>
        <time>2022-08-02T13:21:44Z</time>
      </trkpt>
      <trkpt lat="30.523024499821606" lon="114.39232767535346">
        <ele>21.37066650390625</ele>
        <time>2022-08-02T13:21:53Z</time>
      </trkpt>
      <trkpt lat="30.522967521371662" lon="114.39230967566121">
        <ele>20.83929443359375</ele>
        <time>2022-08-02T13:21:56Z</time>
      </trkpt>
      <trkpt lat="30.522836557696845" lon="114.39233569386109">
        <ele>22.765869140625</ele>
        <time>2022-08-02T13:22:02Z</time>
      </trkpt>
      <trkpt lat="30.52277858072222" lon="114.39231169269289">
        <ele>20.83331298828125</ele>
        <time>2022-08-02T13:22:05Z</time>
      </trkpt>
      <trkpt lat="30.522517660228498" lon="114.39232671939084">
        <ele>20.69964599609375</ele>
        <time>2022-08-02T13:22:17Z</time>
      </trkpt>
      <trkpt lat="30.52246068057365" lon="114.39231472125483">
        <ele>20.8565673828125</ele>
        <time>2022-08-02T13:22:20Z</time>
      </trkpt>
      <trkpt lat="30.52231271366829" lon="114.39238475246088">
        <ele>16.236083984375</ele>
        <time>2022-08-02T13:22:29Z</time>
      </trkpt>
      <trkpt lat="30.522181736097327" lon="114.39248379015622">
        <ele>17.305908203125</ele>
        <time>2022-08-02T13:22:38Z</time>
      </trkpt>
      <trkpt lat="30.52210872366846" lon="114.39267584879147">
        <ele>19.10693359375</ele>
        <time>2022-08-02T13:22:47Z</time>
      </trkpt>
      <trkpt lat="30.52210370109295" lon="114.39281188732139">
        <ele>21.4307861328125</ele>
        <time>2022-08-02T13:22:53Z</time>
      </trkpt>
      <trkpt lat="30.522138656648607" lon="114.39300794073573">
        <ele>24.64794921875</ele>
        <time>2022-08-02T13:23:05Z</time>
      </trkpt>
      <trkpt lat="30.522213614969314" lon="114.39311796669134">
        <ele>23.45074462890625</ele>
        <time>2022-08-02T13:23:11Z</time>
      </trkpt>
      <trkpt lat="30.522262595648186" lon="114.39314196958087">
        <ele>23.7349853515625</ele>
        <time>2022-08-02T13:23:14Z</time>
      </trkpt>
      <trkpt lat="30.52246252996793" lon="114.39315795690304">
        <ele>23.28607177734375</ele>
        <time>2022-08-02T13:23:23Z</time>
      </trkpt>
      <trkpt lat="30.522586493536483" lon="114.39314094097404">
        <ele>24.04095458984375</ele>
        <time>2022-08-02T13:23:29Z</time>
      </trkpt>
      <trkpt lat="30.52269545942769" lon="114.39313893085222">
        <ele>29.2510986328125</ele>
        <time>2022-08-02T13:23:35Z</time>
      </trkpt>
      <trkpt lat="30.522977363591288" lon="114.39318091882343">
        <ele>26.118896484375</ele>
        <time>2022-08-02T13:23:56Z</time>
      </trkpt>
      <trkpt lat="30.52327527666687" lon="114.3931348789807">
        <ele>27.14288330078125</ele>
        <time>2022-08-02T13:24:11Z</time>
      </trkpt>
      <trkpt lat="30.52340924152413" lon="114.39308985386606">
        <ele>29.9554443359375</ele>
        <time>2022-08-02T13:24:17Z</time>
      </trkpt>
      <trkpt lat="30.523568216224128" lon="114.39293879570307">
        <ele>23.989501953125</ele>
        <time>2022-08-02T13:24:30Z</time>
      </trkpt>
      <trkpt lat="30.523618223967297" lon="114.39280175212288">
        <ele>24.663818359375</ele>
        <time>2022-08-02T13:24:39Z</time>
      </trkpt>
      <trkpt lat="30.52361325103007" lon="114.39265871259892">
        <ele>22.69287109375</ele>
        <time>2022-08-02T13:24:48Z</time>
      </trkpt>
      <trkpt lat="30.5235702906364" lon="114.39251767792133">
        <ele>21.6796875</ele>
        <time>2022-08-02T13:24:57Z</time>
      </trkpt>
      <trkpt lat="30.523414369593" lon="114.39236265040806">
        <ele>23.26287841796875</ele>
        <time>2022-08-02T13:25:09Z</time>
      </trkpt>
      <trkpt lat="30.52317845856592" lon="114.39228965205227">
        <ele>21.5582275390625</ele>
        <time>2022-08-02T13:25:24Z</time>
      </trkpt>
      <trkpt lat="30.522908539240774" lon="114.39231368185315">
        <ele>21.52197265625</ele>
        <time>2022-08-02T13:25:36Z</time>
      </trkpt>
      <trkpt lat="30.522594638262266" lon="114.39231470954715">
        <ele>19.78924560546875</ele>
        <time>2022-08-02T13:25:51Z</time>
      </trkpt>
      <trkpt lat="30.522342712151463" lon="114.39234373910703">
        <ele>18.9580078125</ele>
        <time>2022-08-02T13:26:03Z</time>
      </trkpt>
      <trkpt lat="30.52227972485308" lon="114.39238075429343">
        <ele>18.80328369140625</ele>
        <time>2022-08-02T13:26:06Z</time>
      </trkpt>
      <trkpt lat="30.52215173133697" lon="114.39255981324965">
        <ele>16.1444091796875</ele>
        <time>2022-08-02T13:26:15Z</time>
      </trkpt>
      <trkpt lat="30.52210772128091" lon="114.39269085303643">
        <ele>18.86334228515625</ele>
        <time>2022-08-02T13:26:21Z</time>
      </trkpt>
      <trkpt lat="30.522105700113034" lon="114.39281388771352">
        <ele>19.9185791015625</ele>
        <time>2022-08-02T13:26:27Z</time>
      </trkpt>
      <trkpt lat="30.5222046293821" lon="114.39304694642803">
        <ele>21.390869140625</ele>
        <time>2022-08-02T13:26:39Z</time>
      </trkpt>
      <trkpt lat="30.52230858322387" lon="114.39312896167438">
        <ele>22.28369140625</ele>
        <time>2022-08-02T13:26:45Z</time>
      </trkpt>
      <trkpt lat="30.522353559757725" lon="114.3931869751504">
        <ele>22.9405517578125</ele>
        <time>2022-08-02T13:26:48Z</time>
      </trkpt>
      <trkpt lat="30.522633474215223" lon="114.39316894526728">
        <ele>21.06256103515625</ele>
        <time>2022-08-02T13:27:03Z</time>
      </trkpt>
      <trkpt lat="30.522825412278358" lon="114.39317693089913">
        <ele>25.06488037109375</ele>
        <time>2022-08-02T13:27:12Z</time>
      </trkpt>
      <trkpt lat="30.523131317110863" lon="114.39316690115558">
        <ele>28.35467529296875</ele>
        <time>2022-08-02T13:27:28Z</time>
      </trkpt>
      <trkpt lat="30.523352252293318" lon="114.39313487225307">
        <ele>30.1866455078125</ele>
        <time>2022-08-02T13:27:37Z</time>
      </trkpt>
      <trkpt lat="30.523407238588664" lon="114.39311186058296">
        <ele>30.6053466796875</ele>
        <time>2022-08-02T13:27:40Z</time>
      </trkpt>
      <trkpt lat="30.523470228585243" lon="114.39305083699644">
        <ele>27.59661865234375</ele>
        <time>2022-08-02T13:27:46Z</time>
      </trkpt>
      <trkpt lat="30.52357523811607" lon="114.39279875503146">
        <ele>25.79034423828125</ele>
        <time>2022-08-02T13:27:58Z</time>
      </trkpt>
      <trkpt lat="30.523577263705345" lon="114.39265171381362">
        <ele>26.3004150390625</ele>
        <time>2022-08-02T13:28:04Z</time>
      </trkpt>
      <trkpt lat="30.52353929839875" lon="114.39252868359385">
        <ele>21.80511474609375</ele>
        <time>2022-08-02T13:28:10Z</time>
      </trkpt>
      <trkpt lat="30.523491325837337" lon="114.3924636703584">
        <ele>21.771240234375</ele>
        <time>2022-08-02T13:28:13Z</time>
      </trkpt>
      <trkpt lat="30.523546712739172" lon="114.3924218386406">
        <ele>0.0</ele>
        <time>2022-08-02T13:28:15Z</time>
      </trkpt>
      <trkpt lat="30.523258430691754" lon="114.3923026484229">
        <ele>26.34661865234375</ele>
        <time>2022-08-02T13:28:22Z</time>
      </trkpt>
      <trkpt lat="30.522966519140365" lon="114.39232267912158">
        <ele>24.8636474609375</ele>
        <time>2022-08-02T13:28:37Z</time>
      </trkpt>
      <trkpt lat="30.522683608778934" lon="114.39232170358802">
        <ele>19.3621826171875</ele>
        <time>2022-08-02T13:28:52Z</time>
      </trkpt>
      <trkpt lat="30.52240069853367" lon="114.3923197277946">
        <ele>23.42218017578125</ele>
        <time>2022-08-02T13:29:13Z</time>
      </trkpt>
      <trkpt lat="30.52222873843493" lon="114.39239376216676">
        <ele>21.59429931640625</ele>
        <time>2022-08-02T13:29:22Z</time>
      </trkpt>
      <trkpt lat="30.52212774150711" lon="114.39254581155433">
        <ele>23.72760009765625</ele>
        <time>2022-08-02T13:29:28Z</time>
      </trkpt>
      <trkpt lat="30.522102729723706" lon="114.39265284296184">
        <ele>23.156005859375</ele>
        <time>2022-08-02T13:29:31Z</time>
      </trkpt>
      <trkpt lat="30.522137687407916" lon="114.39282888917536">
        <ele>19.19415283203125</ele>
        <time>2022-08-02T13:29:37Z</time>
      </trkpt>
      <trkpt lat="30.52221263181423" lon="114.39301693690824">
        <ele>21.29510498046875</ele>
        <time>2022-08-02T13:29:43Z</time>
      </trkpt>
      <trkpt lat="30.522348561811345" lon="114.39318397468284">
        <ele>20.99517822265625</ele>
        <time>2022-08-02T13:29:55Z</time>
      </trkpt>
      <trkpt lat="30.522568486048932" lon="114.39322396755611">
        <ele>15.18377685546875</ele>
        <time>2022-08-02T13:30:11Z</time>
      </trkpt>
      <trkpt lat="30.522866394412986" lon="114.39320793667287">
        <ele>24.78643798828125</ele>
        <time>2022-08-02T13:30:32Z</time>
      </trkpt>
      <trkpt lat="30.523004348580287" lon="114.39322192885626">
        <ele>22.95599365234375</ele>
        <time>2022-08-02T13:30:41Z</time>
      </trkpt>
      <trkpt lat="30.523304260139085" lon="114.39318089025303">
        <ele>21.7623291015625</ele>
        <time>2022-08-02T13:31:02Z</time>
      </trkpt>
      <trkpt lat="30.52346321972455" lon="114.39311885777664">
        <ele>22.61480712890625</ele>
        <time>2022-08-02T13:31:14Z</time>
      </trkpt>
      <trkpt lat="30.52357120988151" lon="114.39297080473065">
        <ele>21.4908447265625</ele>
        <time>2022-08-02T13:31:26Z</time>
      </trkpt>
      <trkpt lat="30.523611247867024" lon="114.39267971858014">
        <ele>22.13055419921875</ele>
        <time>2022-08-02T13:31:41Z</time>
      </trkpt>
      <trkpt lat="30.523594272426276" lon="114.39257469124617">
        <ele>23.8033447265625</ele>
        <time>2022-08-02T13:31:47Z</time>
      </trkpt>
      <trkpt lat="30.523483339826043" lon="114.39240365514966">
        <ele>25.45001220703125</ele>
        <time>2022-08-02T13:31:59Z</time>
      </trkpt>
      <trkpt lat="30.523440359616103" lon="114.39237165049363">
        <ele>25.8223876953125</ele>
        <time>2022-08-02T13:32:02Z</time>
      </trkpt>
      <trkpt lat="30.523184455682525" lon="114.39229465281956">
        <ele>31.66015625</ele>
        <time>2022-08-02T13:32:10Z</time>
      </trkpt>
      <trkpt lat="30.522889544855122" lon="114.39231568403198">
        <ele>27.19219970703125</ele>
        <time>2022-08-02T13:32:24Z</time>
      </trkpt>
      <trkpt lat="30.522564652059454" lon="114.39229270647341">
        <ele>23.81463623046875</ele>
        <time>2022-08-02T13:32:39Z</time>
      </trkpt>
      <trkpt lat="30.522314723913638" lon="114.39232873764702">
        <ele>30.03302001953125</ele>
        <time>2022-08-02T13:32:48Z</time>
      </trkpt>
      <trkpt lat="30.522192746330372" lon="114.39241177005742">
        <ele>26.27911376953125</ele>
        <time>2022-08-02T13:32:55Z</time>
      </trkpt>
      <trkpt lat="30.52210973811591" lon="114.39259482644098">
        <ele>24.5865478515625</ele>
        <time>2022-08-02T13:33:04Z</time>
      </trkpt>
      <trkpt lat="30.52209169982976" lon="114.39284089660825">
        <ele>25.40087890625</ele>
        <time>2022-08-02T13:33:12Z</time>
      </trkpt>
      <trkpt lat="30.5221506580377" lon="114.39297693063172">
        <ele>25.430419921875</ele>
        <time>2022-08-02T13:33:18Z</time>
      </trkpt>
      <trkpt lat="30.522345560699467" lon="114.39319697886712">
        <ele>23.0933837890625</ele>
        <time>2022-08-02T13:33:30Z</time>
      </trkpt>
      <trkpt lat="30.522468515118746" lon="114.39323998115248">
        <ele>22.85455322265625</ele>
        <time>2022-08-02T13:33:36Z</time>
      </trkpt>
      <trkpt lat="30.522739431248887" lon="114.39322895413318">
        <ele>23.2010498046875</ele>
        <time>2022-08-02T13:33:48Z</time>
      </trkpt>
      <trkpt lat="30.523028339579216" lon="114.39323092949043">
        <ele>24.3280029296875</ele>
        <time>2022-08-02T13:34:01Z</time>
      </trkpt>
      <trkpt lat="30.52332624811678" lon="114.39321289799557">
        <ele>29.28582763671875</ele>
        <time>2022-08-02T13:34:16Z</time>
      </trkpt>
      <trkpt lat="30.523451219502235" lon="114.39314386629634">
        <ele>30.249267578125</ele>
        <time>2022-08-02T13:34:22Z</time>
      </trkpt>
      <trkpt lat="30.52360020540981" lon="114.39294279406562">
        <ele>29.71868896484375</ele>
        <time>2022-08-02T13:34:37Z</time>
      </trkpt>
      <trkpt lat="30.523628211752065" lon="114.39285376602547">
        <ele>28.47991943359375</ele>
        <time>2022-08-02T13:34:43Z</time>
      </trkpt>
      <trkpt lat="30.523635240262696" lon="114.39267971648317">
        <ele>29.165283203125</ele>
        <time>2022-08-02T13:34:52Z</time>
      </trkpt>
      <trkpt lat="30.52360327887154" lon="114.39252467692344">
        <ele>25.0269775390625</ele>
        <time>2022-08-02T13:34:58Z</time>
      </trkpt>
      <trkpt lat="30.52350034332874" lon="114.392357641586">
        <ele>25.02783203125</ele>
        <time>2022-08-02T13:35:07Z</time>
      </trkpt>
      <trkpt lat="30.523447369876408" lon="114.39230763320394">
        <ele>24.1392822265625</ele>
        <time>2022-08-02T13:35:10Z</time>
      </trkpt>
      <trkpt lat="30.523383395655312" lon="114.39227963156131">
        <ele>24.73480224609375</ele>
        <time>2022-08-02T13:35:13Z</time>
      </trkpt>
      <trkpt lat="30.52308349475049" lon="114.39225865237216">
        <ele>25.5723876953125</ele>
        <time>2022-08-02T13:35:25Z</time>
      </trkpt>
      <trkpt lat="30.52276659795191" lon="114.39224367622421">
        <ele>24.3543701171875</ele>
        <time>2022-08-02T13:35:37Z</time>
      </trkpt>
      <trkpt lat="30.522450697955527" lon="114.39224270357754">
        <ele>22.76470947265625</ele>
        <time>2022-08-02T13:35:52Z</time>
      </trkpt>
      <trkpt lat="30.522303736814365" lon="114.39228072618063">
        <ele>20.40582275390625</ele>
        <time>2022-08-02T13:36:01Z</time>
      </trkpt>
      <trkpt lat="30.522144758023018" lon="114.39242977901212">
        <ele>22.68292236328125</ele>
        <time>2022-08-02T13:36:10Z</time>
      </trkpt>
      <trkpt lat="30.522096759889006" lon="114.39249980186939">
        <ele>22.85211181640625</ele>
        <time>2022-08-02T13:36:13Z</time>
      </trkpt>
      <trkpt lat="30.522041750774424" lon="114.39264284553674">
        <ele>22.408935546875</ele>
        <time>2022-08-02T13:36:19Z</time>
      </trkpt>
      <trkpt lat="30.522030740897" lon="114.39271686699603">
        <ele>21.58734130859375</ele>
        <time>2022-08-02T13:36:22Z</time>
      </trkpt>
      <trkpt lat="30.522102672672414" lon="114.39297993569971">
        <ele>20.3857421875</ele>
        <time>2022-08-02T13:36:34Z</time>
      </trkpt>
      <trkpt lat="30.52213565065138" lon="114.3930499533409">
        <ele>21.35626220703125</ele>
        <time>2022-08-02T13:36:37Z</time>
      </trkpt>
      <trkpt lat="30.52227958168343" lon="114.39319598433143">
        <ele>17.4266357421875</ele>
        <time>2022-08-02T13:36:46Z</time>
      </trkpt>
      <trkpt lat="30.522504503752945" lon="114.3932399780072">
        <ele>17.3099365234375</ele>
        <time>2022-08-02T13:36:58Z</time>
      </trkpt>
      <trkpt lat="30.522634465047197" lon="114.3932249620931">
        <ele>19.88446044921875</ele>
        <time>2022-08-02T13:37:04Z</time>
      </trkpt>
      <trkpt lat="30.522935371026247" lon="114.39321793367228">
        <ele>20.2230224609375</ele>
        <time>2022-08-02T13:37:20Z</time>
      </trkpt>
      <trkpt lat="30.52316130349066" lon="114.39319290636561">
        <ele>20.04498291015625</ele>
        <time>2022-08-02T13:37:32Z</time>
      </trkpt>
      <trkpt lat="30.523285262670584" lon="114.39320289855226">
        <ele>20.283447265625</ele>
        <time>2022-08-02T13:37:41Z</time>
      </trkpt>
      <trkpt lat="30.52339123243845" lon="114.39318188295293">
        <ele>20.387939453125</ele>
        <time>2022-08-02T13:37:47Z</time>
      </trkpt>
      <trkpt lat="30.523445220921385" lon="114.39314686771915">
        <ele>22.0325927734375</ele>
        <time>2022-08-02T13:37:50Z</time>
      </trkpt>
      <trkpt lat="30.52352920956984" lon="114.39305283243144">
        <ele>22.3016357421875</ele>
        <time>2022-08-02T13:37:56Z</time>
      </trkpt>
      <trkpt lat="30.523586223850035" lon="114.39286077169425">
        <ele>23.964111328125</ele>
        <time>2022-08-02T13:38:05Z</time>
      </trkpt>
      <trkpt lat="30.523622221824983" lon="114.39280675318851">
        <ele>20.74066162109375</ele>
        <time>2022-08-02T13:38:08Z</time>
      </trkpt>
      <trkpt lat="30.52362824374415" lon="114.39267271515692">
        <ele>17.41180419921875</ele>
        <time>2022-08-02T13:38:14Z</time>
      </trkpt>
      <trkpt lat="30.523586281270834" lon="114.3925406827273">
        <ele>19.67291259765625</ele>
        <time>2022-08-02T13:38:20Z</time>
      </trkpt>
      <trkpt lat="30.523463347314003" lon="114.39239765531593">
        <ele>20.2918701171875</ele>
        <time>2022-08-02T13:38:29Z</time>
      </trkpt>
      <trkpt lat="30.523305417389622" lon="114.39229464224739">
        <ele>23.08343505859375</ele>
        <time>2022-08-02T13:38:38Z</time>
      </trkpt>
      <trkpt lat="30.52295453514938" lon="114.39226066415668">
        <ele>22.770751953125</ele>
        <time>2022-08-02T13:39:05Z</time>
      </trkpt>
      <trkpt lat="30.522712609852785" lon="114.39226968761369">
        <ele>26.62774658203125</ele>
        <time>2022-08-02T13:39:17Z</time>
      </trkpt>
      <trkpt lat="30.52263763612259" lon="114.39225669082677">
        <ele>28.0926513671875</ele>
        <time>2022-08-02T13:39:23Z</time>
      </trkpt>
      <trkpt lat="30.522325731453627" lon="114.39227272219803">
        <ele>23.546142578125</ele>
        <time>2022-08-02T13:39:44Z</time>
      </trkpt>
      <trkpt lat="30.522219751543904" lon="114.39234074907137">
        <ele>22.1942138671875</ele>
        <time>2022-08-02T13:39:50Z</time>
      </trkpt>
      <trkpt lat="30.522131757929284" lon="114.39245178598813">
        <ele>21.59234619140625</ele>
        <time>2022-08-02T13:39:56Z</time>
      </trkpt>
      <trkpt lat="30.52206475046742" lon="114.39260483310395">
        <ele>21.498779296875</ele>
        <time>2022-08-02T13:40:02Z</time>
      </trkpt>
      <trkpt lat="30.52204874186536" lon="114.39267985514121">
        <ele>20.35614013671875</ele>
        <time>2022-08-02T13:40:05Z</time>
      </trkpt>
      <trkpt lat="30.52205372511519" lon="114.39276487842419">
        <ele>21.505126953125</ele>
        <time>2022-08-02T13:40:08Z</time>
      </trkpt>
      <trkpt lat="30.52210268092815" lon="114.39293092147379">
        <ele>18.5540771484375</ele>
        <time>2022-08-02T13:40:11Z</time>
      </trkpt>
      <trkpt lat="30.52214765497485" lon="114.39300093790055">
        <ele>17.77996826171875</ele>
        <time>2022-08-02T13:40:14Z</time>
      </trkpt>
      <trkpt lat="30.522326566695238" lon="114.39319698052714">
        <ele>19.533935546875</ele>
        <time>2022-08-02T13:40:23Z</time>
      </trkpt>
      <trkpt lat="30.52255048907191" lon="114.39324097429235">
        <ele>21.36175537109375</ele>
        <time>2022-08-02T13:40:32Z</time>
      </trkpt>
      <trkpt lat="30.522872388276923" lon="114.39323494433528">
        <ele>28.8585205078125</ele>
        <time>2022-08-02T13:40:44Z</time>
      </trkpt>
      <trkpt lat="30.523175292765746" lon="114.39323291725432">
        <ele>28.76739501953125</ele>
        <time>2022-08-02T13:40:56Z</time>
      </trkpt>
      <trkpt lat="30.52344422027744" lon="114.393152869605">
        <ele>30.52716064453125</ele>
        <time>2022-08-02T13:41:08Z</time>
      </trkpt>
      <trkpt lat="30.52355521696703" lon="114.39295880263917">
        <ele>26.35546875</ele>
        <time>2022-08-02T13:41:20Z</time>
      </trkpt>
      <trkpt lat="30.523602247838497" lon="114.39269572380479">
        <ele>24.98388671875</ele>
        <time>2022-08-02T13:41:32Z</time>
      </trkpt>
      <trkpt lat="30.523532310578712" lon="114.39247566997845">
        <ele>22.73773193359375</ele>
        <time>2022-08-02T13:41:44Z</time>
      </trkpt>
      <trkpt lat="30.523391384668393" lon="114.39232264198807">
        <ele>22.953369140625</ele>
        <time>2022-08-02T13:41:53Z</time>
      </trkpt>
      <trkpt lat="30.523088489011393" lon="114.3922796573364">
        <ele>23.99700927734375</ele>
        <time>2022-08-02T13:42:09Z</time>
      </trkpt>
      <trkpt lat="30.522776589432617" lon="114.39227068227916">
        <ele>21.5396728515625</ele>
        <time>2022-08-02T13:42:27Z</time>
      </trkpt>
      <trkpt lat="30.52249467554239" lon="114.39228571078225">
        <ele>25.11199951171875</ele>
        <time>2022-08-02T13:42:39Z</time>
      </trkpt>
      <trkpt lat="30.522386711214285" lon="114.39227771815588">
        <ele>26.2484130859375</ele>
        <time>2022-08-02T13:42:45Z</time>
      </trkpt>
      <trkpt lat="30.522262741298274" lon="114.39232374089055">
        <ele>22.9676513671875</ele>
        <time>2022-08-02T13:42:51Z</time>
      </trkpt>
      <trkpt lat="30.5221747516242" lon="114.39241377215829">
        <ele>22.3729248046875</ele>
        <time>2022-08-02T13:42:57Z</time>
      </trkpt>
      <trkpt lat="30.522105744916548" lon="114.39256481862525">
        <ele>21.77020263671875</ele>
        <time>2022-08-02T13:43:03Z</time>
      </trkpt>
      <trkpt lat="30.52208872979457" lon="114.39267685081568">
        <ele>22.4776611328125</ele>
        <time>2022-08-02T13:43:06Z</time>
      </trkpt>
      <trkpt lat="30.522093704420936" lon="114.39281088791171">
        <ele>22.48968505859375</ele>
        <time>2022-08-02T13:43:09Z</time>
      </trkpt>
      <trkpt lat="30.522127670675143" lon="114.39294492334228">
        <ele>21.263916015625</ele>
        <time>2022-08-02T13:43:12Z</time>
      </trkpt>
      <trkpt lat="30.522195631891986" lon="114.39304894780395">
        <ele>20.328369140625</ele>
        <time>2022-08-02T13:43:15Z</time>
      </trkpt>
      <trkpt lat="30.522343563547885" lon="114.39318297481832">
        <ele>19.87353515625</ele>
        <time>2022-08-02T13:43:21Z</time>
      </trkpt>
      <trkpt lat="30.52240553908207" lon="114.39321397876637">
        <ele>20.47607421875</ele>
        <time>2022-08-02T13:43:24Z</time>
      </trkpt>
      <trkpt lat="30.522729435663454" lon="114.39322095257985">
        <ele>18.9439697265625</ele>
        <time>2022-08-02T13:43:36Z</time>
      </trkpt>
      <trkpt lat="30.522920373729036" lon="114.39323093892645">
        <ele>19.34466552734375</ele>
        <time>2022-08-02T13:43:42Z</time>
      </trkpt>
      <trkpt lat="30.522966362011093" lon="114.39321292944919">
        <ele>21.26806640625</ele>
        <time>2022-08-02T13:43:45Z</time>
      </trkpt>
      <trkpt lat="30.52303533393047" lon="114.39325293557131">
        <ele>18.020263671875</ele>
        <time>2022-08-02T13:43:53Z</time>
      </trkpt>
      <trkpt lat="30.52314030258841" lon="114.393240922744">
        <ele>15.91912841796875</ele>
        <time>2022-08-02T13:44:00Z</time>
      </trkpt>
    </trkseg>
  </trk>
</gpx>