<?xml version="1.0" encoding="UTF-8"?>
<gpx xmlns="http://www.topografix.com/GPX/1/1" xmlns:gpxtpx="http://www.garmin.com/xmlschemas/TrackPointExtension/v1" xmlns:xsi="http://www.w3.org/2001/XMLSchema-instance" xsi:schemaLocation="http://www.topografix.com/GPX/1/1 http://www.topografix.com/GPX/1/1/gpx.xsd" version="1.1" creator="gpx.py -- https://github.com/tkrajina/gpxpy">
  <trk>
    <name>gpx from keep</name>
    <type>Run</type>
    <trkseg>
      <trkpt lat="30.52218421005336" lon="114.392309103558">
        <ele>16.3</ele>
        <time>2020-09-10T13:39:24Z</time>
      </trkpt>
      <trkpt lat="30.522171892372544" lon="114.3924047686525">
        <ele>14.89</ele>
        <time>2020-09-10T13:39:30Z</time>
      </trkpt>
      <trkpt lat="30.52208129692513" lon="114.39264065087451">
        <ele>16.42</ele>
        <time>2020-09-10T13:39:39Z</time>
      </trkpt>
      <trkpt lat="30.522070768963367" lon="114.39273482562851">
        <ele>15.25</ele>
        <time>2020-09-10T13:39:42Z</time>
      </trkpt>
      <trkpt lat="30.52214587603435" lon="114.39301692939266">
        <ele>17.48</ele>
        <time>2020-09-10T13:39:51Z</time>
      </trkpt>
      <trkpt lat="30.52220074611375" lon="114.39310003100083">
        <ele>17.78</ele>
        <time>2020-09-10T13:39:54Z</time>
      </trkpt>
      <trkpt lat="30.522421883958287" lon="114.39320961883953">
        <ele>19.06</ele>
        <time>2020-09-10T13:40:03Z</time>
      </trkpt>
      <trkpt lat="30.52252228107379" lon="114.39323592531059">
        <ele>20.98</ele>
        <time>2020-09-10T13:40:06Z</time>
      </trkpt>
      <trkpt lat="30.522807877193117" lon="114.39325089795679">
        <ele>20.3</ele>
        <time>2020-09-10T13:40:15Z</time>
      </trkpt>
      <trkpt lat="30.52310135024834" lon="114.3932525870687">
        <ele>21.61</ele>
        <time>2020-09-10T13:40:24Z</time>
      </trkpt>
      <trkpt lat="30.523371225397167" lon="114.39326405886423">
        <ele>20.18</ele>
        <time>2020-09-10T13:40:33Z</time>
      </trkpt>
      <trkpt lat="30.523459272225892" lon="114.39324724403552">
        <ele>20.24</ele>
        <time>2020-09-10T13:40:36Z</time>
      </trkpt>
      <trkpt lat="30.52354316141005" lon="114.39319818073493">
        <ele>21.57</ele>
        <time>2020-09-10T13:40:39Z</time>
      </trkpt>
      <trkpt lat="30.52365337021946" lon="114.39301921314454">
        <ele>19.75</ele>
        <time>2020-09-10T13:40:45Z</time>
      </trkpt>
      <trkpt lat="30.52369609437959" lon="114.39290784367618">
        <ele>21.4</ele>
        <time>2020-09-10T13:40:48Z</time>
      </trkpt>
      <trkpt lat="30.523710962927346" lon="114.39273106718808">
        <ele>18.6</ele>
        <time>2020-09-10T13:40:54Z</time>
      </trkpt>
      <trkpt lat="30.52366078345232" lon="114.3925649938586">
        <ele>17.46</ele>
        <time>2020-09-10T13:41:00Z</time>
      </trkpt>
      <trkpt lat="30.52355264479701" lon="114.39240445229221">
        <ele>18.11</ele>
        <time>2020-09-10T13:41:06Z</time>
      </trkpt>
      <trkpt lat="30.523389193604476" lon="114.39227770986611">
        <ele>18.94</ele>
        <time>2020-09-10T13:41:15Z</time>
      </trkpt>
      <trkpt lat="30.523053445061006" lon="114.39221152408392">
        <ele>15.91</ele>
        <time>2020-09-10T13:41:45Z</time>
      </trkpt>
      <trkpt lat="30.52285185359992" lon="114.39221307540632">
        <ele>19.13</ele>
        <time>2020-09-10T13:41:57Z</time>
      </trkpt>
      <trkpt lat="30.522735408307753" lon="114.39216607365884">
        <ele>21.1</ele>
        <time>2020-09-10T13:42:03Z</time>
      </trkpt>
      <trkpt lat="30.522562138976355" lon="114.39220453449059">
        <ele>18.11</ele>
        <time>2020-09-10T13:42:15Z</time>
      </trkpt>
      <trkpt lat="30.522427496051506" lon="114.39219725319911">
        <ele>16.41</ele>
        <time>2020-09-10T13:42:21Z</time>
      </trkpt>
      <trkpt lat="30.522248381483546" lon="114.39231272421367">
        <ele>19.74</ele>
        <time>2020-09-10T13:42:27Z</time>
      </trkpt>
      <trkpt lat="30.52213779221923" lon="114.39244806014379">
        <ele>19.31</ele>
        <time>2020-09-10T13:42:33Z</time>
      </trkpt>
      <trkpt lat="30.52205060446554" lon="114.39271647090357">
        <ele>20.18</ele>
        <time>2020-09-10T13:42:42Z</time>
      </trkpt>
      <trkpt lat="30.522055115442576" lon="114.39280550425238">
        <ele>20.05</ele>
        <time>2020-09-10T13:42:45Z</time>
      </trkpt>
      <trkpt lat="30.522118356591744" lon="114.39297789925625">
        <ele>19.15</ele>
        <time>2020-09-10T13:42:51Z</time>
      </trkpt>
      <trkpt lat="30.522173643247346" lon="114.39304647703673">
        <ele>18.96</ele>
        <time>2020-09-10T13:42:54Z</time>
      </trkpt>
      <trkpt lat="30.52232306164727" lon="114.39316121654642">
        <ele>18.76</ele>
        <time>2020-09-10T13:43:00Z</time>
      </trkpt>
      <trkpt lat="30.522495003989132" lon="114.39324932896432">
        <ele>18.36</ele>
        <time>2020-09-10T13:43:06Z</time>
      </trkpt>
      <trkpt lat="30.522751864580766" lon="114.39324197586143">
        <ele>12.26</ele>
        <time>2020-09-10T13:43:15Z</time>
      </trkpt>
      <trkpt lat="30.52283819072051" lon="114.39322230028813">
        <ele>15.25</ele>
        <time>2020-09-10T13:43:18Z</time>
      </trkpt>
      <trkpt lat="30.523182756581093" lon="114.3932339217833">
        <ele>18.16</ele>
        <time>2020-09-10T13:43:30Z</time>
      </trkpt>
      <trkpt lat="30.523455354030133" lon="114.39321265494485">
        <ele>18.05</ele>
        <time>2020-09-10T13:43:39Z</time>
      </trkpt>
      <trkpt lat="30.523587936258785" lon="114.3930897920056">
        <ele>19.02</ele>
        <time>2020-09-10T13:43:45Z</time>
      </trkpt>
      <trkpt lat="30.52369246141084" lon="114.39285287925325">
        <ele>19.94</ele>
        <time>2020-09-10T13:43:54Z</time>
      </trkpt>
      <trkpt lat="30.523694727314894" lon="114.39275035232332">
        <ele>20.26</ele>
        <time>2020-09-10T13:43:57Z</time>
      </trkpt>
      <trkpt lat="30.523659180875313" lon="114.39255408100544">
        <ele>19.27</ele>
        <time>2020-09-10T13:44:03Z</time>
      </trkpt>
      <trkpt lat="30.52361978171623" lon="114.39247398019567">
        <ele>16.46</ele>
        <time>2020-09-10T13:44:06Z</time>
      </trkpt>
      <trkpt lat="30.52348943222708" lon="114.39235328918627">
        <ele>18.87</ele>
        <time>2020-09-10T13:44:12Z</time>
      </trkpt>
      <trkpt lat="30.52333003915762" lon="114.39226101576845">
        <ele>19.49</ele>
        <time>2020-09-10T13:44:18Z</time>
      </trkpt>
      <trkpt lat="30.52316114846269" lon="114.39222188630349">
        <ele>18.64</ele>
        <time>2020-09-10T13:44:24Z</time>
      </trkpt>
      <trkpt lat="30.522831705074033" lon="114.39222014734705">
        <ele>19.5</ele>
        <time>2020-09-10T13:44:36Z</time>
      </trkpt>
      <trkpt lat="30.522596892004067" lon="114.39221611736102">
        <ele>18.97</ele>
        <time>2020-09-10T13:44:45Z</time>
      </trkpt>
      <trkpt lat="30.522270360006335" lon="114.39230557224252">
        <ele>22.9</ele>
        <time>2020-09-10T13:44:57Z</time>
      </trkpt>
      <trkpt lat="30.52215069462053" lon="114.39241517147259">
        <ele>21.43</ele>
        <time>2020-09-10T13:45:03Z</time>
      </trkpt>
      <trkpt lat="30.522070440563613" lon="114.39265655509506">
        <ele>17.07</ele>
        <time>2020-09-10T13:45:12Z</time>
      </trkpt>
      <trkpt lat="30.522142793543683" lon="114.39296401549576">
        <ele>16.48</ele>
        <time>2020-09-10T13:45:24Z</time>
      </trkpt>
      <trkpt lat="30.52229214180392" lon="114.39312065601256">
        <ele>15.65</ele>
        <time>2020-09-10T13:45:33Z</time>
      </trkpt>
      <trkpt lat="30.522503958765082" lon="114.39322684300211">
        <ele>16.72</ele>
        <time>2020-09-10T13:45:42Z</time>
      </trkpt>
      <trkpt lat="30.52278993085903" lon="114.39326712231149">
        <ele>13.99</ele>
        <time>2020-09-10T13:45:54Z</time>
      </trkpt>
      <trkpt lat="30.523086260902467" lon="114.3932559380198">
        <ele>17.43</ele>
        <time>2020-09-10T13:46:06Z</time>
      </trkpt>
      <trkpt lat="30.523398869307776" lon="114.3932371916626">
        <ele>14.42</ele>
        <time>2020-09-10T13:46:18Z</time>
      </trkpt>
      <trkpt lat="30.523586370919997" lon="114.3931096272314">
        <ele>17.06</ele>
        <time>2020-09-10T13:46:27Z</time>
      </trkpt>
      <trkpt lat="30.523664133081663" lon="114.39294603385747">
        <ele>18.15</ele>
        <time>2020-09-10T13:46:33Z</time>
      </trkpt>
      <trkpt lat="30.52369198059475" lon="114.39276440602461">
        <ele>17.3</ele>
        <time>2020-09-10T13:46:39Z</time>
      </trkpt>
      <trkpt lat="30.523637196176804" lon="114.39253491608255">
        <ele>18.99</ele>
        <time>2020-09-10T13:46:48Z</time>
      </trkpt>
      <trkpt lat="30.523496418978844" lon="114.39233916545805">
        <ele>17.11</ele>
        <time>2020-09-10T13:46:57Z</time>
      </trkpt>
      <trkpt lat="30.523361024319517" lon="114.392239169914">
        <ele>18.83</ele>
        <time>2020-09-10T13:47:03Z</time>
      </trkpt>
      <trkpt lat="30.523131408071816" lon="114.39222136630278">
        <ele>16.62</ele>
        <time>2020-09-10T13:47:12Z</time>
      </trkpt>
      <trkpt lat="30.523065649813017" lon="114.3922313392097">
        <ele>16.46</ele>
        <time>2020-09-10T13:47:15Z</time>
      </trkpt>
      <trkpt lat="30.522896513291872" lon="114.39221003440812">
        <ele>19.19</ele>
        <time>2020-09-10T13:47:21Z</time>
      </trkpt>
      <trkpt lat="30.522640923361024" lon="114.39222020823046">
        <ele>20.7</ele>
        <time>2020-09-10T13:47:33Z</time>
      </trkpt>
      <trkpt lat="30.52244017513326" lon="114.39219284198825">
        <ele>25.58</ele>
        <time>2020-09-10T13:47:39Z</time>
      </trkpt>
      <trkpt lat="30.522322044811304" lon="114.39223475445083">
        <ele>24.24</ele>
        <time>2020-09-10T13:47:45Z</time>
      </trkpt>
      <trkpt lat="30.522281456622803" lon="114.39233336946555">
        <ele>20.09</ele>
        <time>2020-09-10T13:47:51Z</time>
      </trkpt>
      <trkpt lat="30.52218270198954" lon="114.3924027180665">
        <ele>21.37</ele>
        <time>2020-09-10T13:47:54Z</time>
      </trkpt>
      <trkpt lat="30.522113024302385" lon="114.39254310515707">
        <ele>16.47</ele>
        <time>2020-09-10T13:48:00Z</time>
      </trkpt>
      <trkpt lat="30.522102613479134" lon="114.39271026904002">
        <ele>14.88</ele>
        <time>2020-09-10T13:48:06Z</time>
      </trkpt>
      <trkpt lat="30.522192013344632" lon="114.3930037357141">
        <ele>16.46</ele>
        <time>2020-09-10T13:48:18Z</time>
      </trkpt>
      <trkpt lat="30.52223779229682" lon="114.39306605131382">
        <ele>15.52</ele>
        <time>2020-09-10T13:48:21Z</time>
      </trkpt>
      <trkpt lat="30.522477172687232" lon="114.39320210661064">
        <ele>16.8</ele>
        <time>2020-09-10T13:48:33Z</time>
      </trkpt>
      <trkpt lat="30.5227517918072" lon="114.39323022276668">
        <ele>15.63</ele>
        <time>2020-09-10T13:48:45Z</time>
      </trkpt>
      <trkpt lat="30.523043995384455" lon="114.39323417247964">
        <ele>17.78</ele>
        <time>2020-09-10T13:48:57Z</time>
      </trkpt>
      <trkpt lat="30.523322191920677" lon="114.39325120570169">
        <ele>18.93</ele>
        <time>2020-09-10T13:49:09Z</time>
      </trkpt>
      <trkpt lat="30.52342129032711" lon="114.39324065247214">
        <ele>19.4</ele>
        <time>2020-09-10T13:49:12Z</time>
      </trkpt>
      <trkpt lat="30.523529161014853" lon="114.39315463933676">
        <ele>18.36</ele>
        <time>2020-09-10T13:49:18Z</time>
      </trkpt>
      <trkpt lat="30.52360406032744" lon="114.39302156398685">
        <ele>17.27</ele>
        <time>2020-09-10T13:49:24Z</time>
      </trkpt>
      <trkpt lat="30.523687787764743" lon="114.3926674506021">
        <ele>18.35</ele>
        <time>2020-09-10T13:49:36Z</time>
      </trkpt>
      <trkpt lat="30.523631835684455" lon="114.39249042444881">
        <ele>20.35</ele>
        <time>2020-09-10T13:49:45Z</time>
      </trkpt>
      <trkpt lat="30.52355652457389" lon="114.39236071082362">
        <ele>21.16</ele>
        <time>2020-09-10T13:49:51Z</time>
      </trkpt>
      <trkpt lat="30.523380265883155" lon="114.39224510137768">
        <ele>19.72</ele>
        <time>2020-09-10T13:50:00Z</time>
      </trkpt>
      <trkpt lat="30.523155380276428" lon="114.39218715724981">
        <ele>18.92</ele>
        <time>2020-09-10T13:50:09Z</time>
      </trkpt>
      <trkpt lat="30.522831923485136" lon="114.39221335557019">
        <ele>17.97</ele>
        <time>2020-09-10T13:50:24Z</time>
      </trkpt>
      <trkpt lat="30.52254599294194" lon="114.39222208915389">
        <ele>15.35</ele>
        <time>2020-09-10T13:50:36Z</time>
      </trkpt>
      <trkpt lat="30.52248379802595" lon="114.3922461957406">
        <ele>16.63</ele>
        <time>2020-09-10T13:50:39Z</time>
      </trkpt>
      <trkpt lat="30.522334717589576" lon="114.3922500974387">
        <ele>19.34</ele>
        <time>2020-09-10T13:50:45Z</time>
      </trkpt>
      <trkpt lat="30.522261962914026" lon="114.39227563444874">
        <ele>21.19</ele>
        <time>2020-09-10T13:50:48Z</time>
      </trkpt>
      <trkpt lat="30.522155891392327" lon="114.39240120779291">
        <ele>20.74</ele>
        <time>2020-09-10T13:50:54Z</time>
      </trkpt>
      <trkpt lat="30.522116719306727" lon="114.39247907836413">
        <ele>19.13</ele>
        <time>2020-09-10T13:50:57Z</time>
      </trkpt>
      <trkpt lat="30.522076273832923" lon="114.39271278982108">
        <ele>16.48</ele>
        <time>2020-09-10T13:51:06Z</time>
      </trkpt>
      <trkpt lat="30.522100909022438" lon="114.39290394990111">
        <ele>17.55</ele>
        <time>2020-09-10T13:51:12Z</time>
      </trkpt>
      <trkpt lat="30.52213232919667" lon="114.39298842195905">
        <ele>18.17</ele>
        <time>2020-09-10T13:51:15Z</time>
      </trkpt>
      <trkpt lat="30.522182168172943" lon="114.39306705240969">
        <ele>16.31</ele>
        <time>2020-09-10T13:51:18Z</time>
      </trkpt>
      <trkpt lat="30.522409283773346" lon="114.39320931881775">
        <ele>16.0</ele>
        <time>2020-09-10T13:51:27Z</time>
      </trkpt>
      <trkpt lat="30.522602464575428" lon="114.39324768804421">
        <ele>16.23</ele>
        <time>2020-09-10T13:51:36Z</time>
      </trkpt>
      <trkpt lat="30.52287427643245" lon="114.39324512613514">
        <ele>15.62</ele>
        <time>2020-09-10T13:51:48Z</time>
      </trkpt>
      <trkpt lat="30.52302147391811" lon="114.39322882117277">
        <ele>19.28</ele>
        <time>2020-09-10T13:51:54Z</time>
      </trkpt>
      <trkpt lat="30.52333447992425" lon="114.3932422732934">
        <ele>18.21</ele>
        <time>2020-09-10T13:52:09Z</time>
      </trkpt>
      <trkpt lat="30.523399299193663" lon="114.39323669152894">
        <ele>19.28</ele>
        <time>2020-09-10T13:52:12Z</time>
      </trkpt>
      <trkpt lat="30.523525779319133" lon="114.39314757749351">
        <ele>18.07</ele>
        <time>2020-09-10T13:52:18Z</time>
      </trkpt>
      <trkpt lat="30.52365112095746" lon="114.39293751167685">
        <ele>17.02</ele>
        <time>2020-09-10T13:52:27Z</time>
      </trkpt>
      <trkpt lat="30.52368629724078" lon="114.39279288352637">
        <ele>17.07</ele>
        <time>2020-09-10T13:52:33Z</time>
      </trkpt>
      <trkpt lat="30.52367593194977" lon="114.39255801195962">
        <ele>16.47</ele>
        <time>2020-09-10T13:52:42Z</time>
      </trkpt>
      <trkpt lat="30.523585103469266" lon="114.39239754033488">
        <ele>16.07</ele>
        <time>2020-09-10T13:52:51Z</time>
      </trkpt>
      <trkpt lat="30.52347912255706" lon="114.39231243854285">
        <ele>15.57</ele>
        <time>2020-09-10T13:52:57Z</time>
      </trkpt>
      <trkpt lat="30.52321968318418" lon="114.39223978071665">
        <ele>16.73</ele>
        <time>2020-09-10T13:53:09Z</time>
      </trkpt>
      <trkpt lat="30.523025282337105" lon="114.39224367261862">
        <ele>14.81</ele>
        <time>2020-09-10T13:53:18Z</time>
      </trkpt>
      <trkpt lat="30.52274041630729" lon="114.39222894006134">
        <ele>14.52</ele>
        <time>2020-09-10T13:53:30Z</time>
      </trkpt>
      <trkpt lat="30.522607012725967" lon="114.39221880801853">
        <ele>16.6</ele>
        <time>2020-09-10T13:53:36Z</time>
      </trkpt>
      <trkpt lat="30.522377933657534" lon="114.392231642416">
        <ele>19.95</ele>
        <time>2020-09-10T13:53:45Z</time>
      </trkpt>
      <trkpt lat="30.52226545445755" lon="114.39228208612055">
        <ele>20.09</ele>
        <time>2020-09-10T13:53:51Z</time>
      </trkpt>
      <trkpt lat="30.52212788449752" lon="114.39245815283219">
        <ele>17.61</ele>
        <time>2020-09-10T13:54:00Z</time>
      </trkpt>
      <trkpt lat="30.522076207630267" lon="114.39260128057391">
        <ele>19.38</ele>
        <time>2020-09-10T13:54:06Z</time>
      </trkpt>
      <trkpt lat="30.52205520376117" lon="114.3927558312121">
        <ele>18.61</ele>
        <time>2020-09-10T13:54:12Z</time>
      </trkpt>
      <trkpt lat="30.52216780765167" lon="114.3930229508764">
        <ele>16.3</ele>
        <time>2020-09-10T13:54:24Z</time>
      </trkpt>
      <trkpt lat="30.522213367154567" lon="114.39306153081567">
        <ele>16.79</ele>
        <time>2020-09-10T13:54:27Z</time>
      </trkpt>
      <trkpt lat="30.522297750422247" lon="114.39319939671184">
        <ele>16.06</ele>
        <time>2020-09-10T13:54:39Z</time>
      </trkpt>
      <trkpt lat="30.522606129312635" lon="114.39326762327808">
        <ele>14.51</ele>
        <time>2020-09-10T13:55:09Z</time>
      </trkpt>
      <trkpt lat="30.522798910144857" lon="114.3933061225446">
        <ele>9.77</ele>
        <time>2020-09-10T13:55:27Z</time>
      </trkpt>
      <trkpt lat="30.52312669185569" lon="114.39330079965356">
        <ele>11.52</ele>
        <time>2020-09-10T13:55:57Z</time>
      </trkpt>
      <trkpt lat="30.52337289701503" lon="114.39327085064559">
        <ele>10.55</ele>
        <time>2020-09-10T13:56:21Z</time>
      </trkpt>
      <trkpt lat="30.52354416254027" lon="114.3931181196578">
        <ele>11.07</ele>
        <time>2020-09-10T13:56:45Z</time>
      </trkpt>
      <trkpt lat="30.52366059036017" lon="114.39284963854696">
        <ele>15.35</ele>
        <time>2020-09-10T13:57:09Z</time>
      </trkpt>
      <trkpt lat="30.523673905843847" lon="114.3927023598236">
        <ele>15.79</ele>
        <time>2020-09-10T13:57:21Z</time>
      </trkpt>
      <trkpt lat="30.523664857952014" lon="114.39262656998432">
        <ele>16.6</ele>
        <time>2020-09-10T13:57:27Z</time>
      </trkpt>
      <trkpt lat="30.52358836762575" lon="114.39241513492685">
        <ele>18.96</ele>
        <time>2020-09-10T13:57:45Z</time>
      </trkpt>
      <trkpt lat="30.523517115374208" lon="114.39232299113127">
        <ele>19.92</ele>
        <time>2020-09-10T13:57:57Z</time>
      </trkpt>
      <trkpt lat="30.523353387144635" lon="114.39225152317947">
        <ele>20.6</ele>
        <time>2020-09-10T13:58:15Z</time>
      </trkpt>
      <trkpt lat="30.523187625878933" lon="114.39220983303147">
        <ele>18.95</ele>
        <time>2020-09-10T13:58:33Z</time>
      </trkpt>
      <trkpt lat="30.523042766405293" lon="114.39221767574094">
        <ele>17.53</ele>
        <time>2020-09-10T13:58:48Z</time>
      </trkpt>
      <trkpt lat="30.522983771176484" lon="114.3921976307684">
        <ele>17.86</ele>
        <time>2020-09-10T13:58:54Z</time>
      </trkpt>
      <trkpt lat="30.522872366597184" lon="114.39222507845155">
        <ele>18.5</ele>
        <time>2020-09-10T13:59:06Z</time>
      </trkpt>
      <trkpt lat="30.52259305129453" lon="114.39221323662527">
        <ele>17.67</ele>
        <time>2020-09-10T13:59:36Z</time>
      </trkpt>
      <trkpt lat="30.522309718234023" lon="114.39221112736188">
        <ele>17.45</ele>
        <time>2020-09-10T14:00:06Z</time>
      </trkpt>
      <trkpt lat="30.522249393894633" lon="114.3921949334023">
        <ele>17.39</ele>
        <time>2020-09-10T14:00:12Z</time>
      </trkpt>
      <trkpt lat="30.52220933461705" lon="114.39215686363329">
        <ele>18.22</ele>
        <time>2020-09-10T14:00:18Z</time>
      </trkpt>
      <trkpt lat="30.52221292938387" lon="114.39209164657616">
        <ele>20.3</ele>
        <time>2020-09-10T14:00:27Z</time>
      </trkpt>
      <trkpt lat="30.522180706501704" lon="114.39199508150568">
        <ele>20.61</ele>
        <time>2020-09-10T14:00:36Z</time>
      </trkpt>
      <trkpt lat="30.522118987377638" lon="114.39195845222558">
        <ele>18.88</ele>
        <time>2020-09-10T14:00:45Z</time>
      </trkpt>
      <trkpt lat="30.521928882694397" lon="114.39198856094842">
        <ele>23.9</ele>
        <time>2020-09-10T14:01:03Z</time>
      </trkpt>
      <trkpt lat="30.521883717821947" lon="114.3920122373346">
        <ele>24.63</ele>
        <time>2020-09-10T14:01:09Z</time>
      </trkpt>
      <trkpt lat="30.52182619627814" lon="114.39200786645495">
        <ele>23.72</ele>
        <time>2020-09-10T14:01:15Z</time>
      </trkpt>
      <trkpt lat="30.521767956990388" lon="114.39197040694143">
        <ele>22.47</ele>
        <time>2020-09-10T14:01:21Z</time>
      </trkpt>
      <trkpt lat="30.52165578019716" lon="114.39198847216662">
        <ele>23.39</ele>
        <time>2020-09-10T14:01:33Z</time>
      </trkpt>
      <trkpt lat="30.521494602198338" lon="114.39196051560235">
        <ele>21.86</ele>
        <time>2020-09-10T14:01:51Z</time>
      </trkpt>
      <trkpt lat="30.52114041445494" lon="114.3919411421562">
        <ele>7.81</ele>
        <time>2020-09-10T14:02:30Z</time>
      </trkpt>
      <trkpt lat="30.521150171137908" lon="114.391969349473">
        <ele>13.97</ele>
        <time>2020-09-10T14:02:33Z</time>
      </trkpt>
    </trkseg>
  </trk>
</gpx>