<?xml version="1.0" encoding="UTF-8"?>
<gpx xmlns="http://www.topografix.com/GPX/1/1" xmlns:gpxtpx="http://www.garmin.com/xmlschemas/TrackPointExtension/v1" xmlns:xsi="http://www.w3.org/2001/XMLSchema-instance" xsi:schemaLocation="http://www.topografix.com/GPX/1/1 http://www.topografix.com/GPX/1/1/gpx.xsd" version="1.1" creator="gpx.py -- https://github.com/tkrajina/gpxpy">
  <trk>
    <name>gpx from keep</name>
    <type>Run</type>
    <trkseg>
      <trkpt lat="36.03010257003426" lon="119.40161015696476">
        <ele>69.95172119140625</ele>
        <time>2023-06-20T10:15:56Z</time>
      </trkpt>
      <trkpt lat="36.03009554067093" lon="119.40146807442588">
        <ele>66.7618408203125</ele>
        <time>2023-06-20T10:16:02Z</time>
      </trkpt>
      <trkpt lat="36.029969486004816" lon="119.40106185662273">
        <ele>65.5272216796875</ele>
        <time>2023-06-20T10:16:14Z</time>
      </trkpt>
      <trkpt lat="36.02985646859853" lon="119.40083574422916">
        <ele>64.40234375</ele>
        <time>2023-06-20T10:16:23Z</time>
      </trkpt>
      <trkpt lat="36.02961447780083" lon="119.40057963319933">
        <ele>65.0445556640625</ele>
        <time>2023-06-20T10:16:35Z</time>
      </trkpt>
      <trkpt lat="36.02947548899022" lon="119.40045958529709">
        <ele>67.1123046875</ele>
        <time>2023-06-20T10:16:41Z</time>
      </trkpt>
      <trkpt lat="36.02926951901128" lon="119.40035655456333">
        <ele>67.1446533203125</ele>
        <time>2023-06-20T10:16:50Z</time>
      </trkpt>
      <trkpt lat="36.028996580209004" lon="119.40034758054065">
        <ele>70.22265625</ele>
        <time>2023-06-20T10:17:02Z</time>
      </trkpt>
      <trkpt lat="36.028864612504975" lon="119.4003596016018">
        <ele>71.0726318359375</ele>
        <time>2023-06-20T10:17:08Z</time>
      </trkpt>
      <trkpt lat="36.02866867124293" lon="119.40044166645933">
        <ele>74.389404296875</ele>
        <time>2023-06-20T10:17:17Z</time>
      </trkpt>
      <trkpt lat="36.02838374436559" lon="119.40048672213705">
        <ele>70.30999755859375</ele>
        <time>2023-06-20T10:17:29Z</time>
      </trkpt>
      <trkpt lat="36.02805084014638" lon="119.40059781841606">
        <ele>72.85394287109375</ele>
        <time>2023-06-20T10:17:44Z</time>
      </trkpt>
      <trkpt lat="36.027820915906474" lon="119.40072591301032">
        <ele>73.048583984375</ele>
        <time>2023-06-20T10:17:56Z</time>
      </trkpt>
      <trkpt lat="36.02763694772054" lon="119.40066790239514">
        <ele>70.943359375</ele>
        <time>2023-06-20T10:18:05Z</time>
      </trkpt>
      <trkpt lat="36.027329045345276" lon="119.40081501661356">
        <ele>74.278564453125</ele>
        <time>2023-06-20T10:18:20Z</time>
      </trkpt>
      <trkpt lat="36.02729006027882" lon="119.4008470384897">
        <ele>72.6297607421875</ele>
        <time>2023-06-20T10:18:23Z</time>
      </trkpt>
      <trkpt lat="36.02727907222458" lon="119.40089706717983">
        <ele>69.3026123046875</ele>
        <time>2023-06-20T10:18:29Z</time>
      </trkpt>
    </trkseg>
  </trk>
</gpx>