<?xml version="1.0" encoding="UTF-8"?>
<gpx xmlns="http://www.topografix.com/GPX/1/1" xmlns:gpxtpx="http://www.garmin.com/xmlschemas/TrackPointExtension/v1" xmlns:xsi="http://www.w3.org/2001/XMLSchema-instance" xsi:schemaLocation="http://www.topografix.com/GPX/1/1 http://www.topografix.com/GPX/1/1/gpx.xsd" version="1.1" creator="gpx.py -- https://github.com/tkrajina/gpxpy">
  <trk>
    <name>gpx from keep</name>
    <type>Run</type>
    <trkseg>
      <trkpt lat="36.03020157782162" lon="119.40174622672134">
        <ele>60.62945556640625</ele>
        <time>2023-06-06T13:02:48Z</time>
      </trkpt>
      <trkpt lat="36.030120567010506" lon="119.40161515789832">
        <ele>60.8306884765625</ele>
        <time>2023-06-06T13:02:54Z</time>
      </trkpt>
      <trkpt lat="36.03006153714501" lon="119.40141504743573">
        <ele>64.6131591796875</ele>
        <time>2023-06-06T13:03:00Z</time>
      </trkpt>
      <trkpt lat="36.030024506667665" lon="119.40122794415872">
        <ele>62.46649169921875</ele>
        <time>2023-06-06T13:03:06Z</time>
      </trkpt>
      <trkpt lat="36.02995548666305" lon="119.40104885092163">
        <ele>61.04498291015625</ele>
        <time>2023-06-06T13:03:12Z</time>
      </trkpt>
      <trkpt lat="36.02978446922949" lon="119.40074970547367">
        <ele>58.9996337890625</ele>
        <time>2023-06-06T13:03:24Z</time>
      </trkpt>
      <trkpt lat="36.029672470828054" lon="119.40061564589799">
        <ele>60.88018798828125</ele>
        <time>2023-06-06T13:03:30Z</time>
      </trkpt>
      <trkpt lat="36.029501485405724" lon="119.40047358974525">
        <ele>63.06689453125</ele>
        <time>2023-06-06T13:03:39Z</time>
      </trkpt>
      <trkpt lat="36.02941248321061" lon="119.40033852915336">
        <ele>63.623046875</ele>
        <time>2023-06-06T13:03:45Z</time>
      </trkpt>
      <trkpt lat="36.02930949334896" lon="119.40025549783215">
        <ele>63.47015380859375</ele>
        <time>2023-06-06T13:03:51Z</time>
      </trkpt>
      <trkpt lat="36.02896556689067" lon="119.4002215190045">
        <ele>65.61279296875</ele>
        <time>2023-06-06T13:04:06Z</time>
      </trkpt>
      <trkpt lat="36.02867564103201" lon="119.40026857571667">
        <ele>62.380126953125</ele>
        <time>2023-06-06T13:04:18Z</time>
      </trkpt>
      <trkpt lat="36.02846669946402" lon="119.40033263226734">
        <ele>61.9664306640625</ele>
        <time>2023-06-06T13:04:27Z</time>
      </trkpt>
      <trkpt lat="36.02819878515638" lon="119.40047673763908">
        <ele>63.09747314453125</ele>
        <time>2023-06-06T13:04:39Z</time>
      </trkpt>
      <trkpt lat="36.02794686704358" lon="119.40061483917385">
        <ele>63.9705810546875</ele>
        <time>2023-06-06T13:04:51Z</time>
      </trkpt>
      <trkpt lat="36.02788888748241" lon="119.4006548671157">
        <ele>62.43365478515625</ele>
        <time>2023-06-06T13:04:54Z</time>
      </trkpt>
      <trkpt lat="36.027840910038755" lon="119.40071890697996">
        <ele>62.20062255859375</ele>
        <time>2023-06-06T13:04:57Z</time>
      </trkpt>
      <trkpt lat="36.02766492779098" lon="119.40059185855702">
        <ele>62.40087890625</ele>
        <time>2023-06-06T13:05:06Z</time>
      </trkpt>
      <trkpt lat="36.027417943140485" lon="119.40034875836223">
        <ele>63.49005126953125</ele>
        <time>2023-06-06T13:05:21Z</time>
      </trkpt>
      <trkpt lat="36.02722494410558" lon="119.40007564027987">
        <ele>60.4359130859375</ele>
        <time>2023-06-06T13:05:33Z</time>
      </trkpt>
      <trkpt lat="36.0270759667184" lon="119.3999986183516">
        <ele>62.7298583984375</ele>
        <time>2023-06-06T13:05:39Z</time>
      </trkpt>
      <trkpt lat="36.02685701781954" lon="119.40000364544188">
        <ele>67.2698974609375</ele>
        <time>2023-06-06T13:05:48Z</time>
      </trkpt>
      <trkpt lat="36.026789028391576" lon="119.3999696361038">
        <ele>67.83770751953125</ele>
        <time>2023-06-06T13:05:51Z</time>
      </trkpt>
      <trkpt lat="36.02668103963743" lon="119.39987660213579">
        <ele>67.330078125</ele>
        <time>2023-06-06T13:05:57Z</time>
      </trkpt>
      <trkpt lat="36.02640408457683" lon="119.39974356816367">
        <ele>69.310791015625</ele>
        <time>2023-06-06T13:06:09Z</time>
      </trkpt>
      <trkpt lat="36.02611614930785" lon="119.39973259516329">
        <ele>67.7567138671875</ele>
        <time>2023-06-06T13:06:21Z</time>
      </trkpt>
      <trkpt lat="36.02597917958885" lon="119.39972360618374">
        <ele>64.48486328125</ele>
        <time>2023-06-06T13:06:27Z</time>
      </trkpt>
      <trkpt lat="36.02577021139335" lon="119.3996025714482">
        <ele>62.671630859375</ele>
        <time>2023-06-06T13:06:36Z</time>
      </trkpt>
      <trkpt lat="36.02552023445264" lon="119.399328470764">
        <ele>64.59942626953125</ele>
        <time>2023-06-06T13:06:51Z</time>
      </trkpt>
      <trkpt lat="36.02534825873521" lon="119.39919743000904">
        <ele>60.89190673828125</ele>
        <time>2023-06-06T13:07:00Z</time>
      </trkpt>
      <trkpt lat="36.0252252798468" lon="119.39913341482414">
        <ele>61.3607177734375</ele>
        <time>2023-06-06T13:07:06Z</time>
      </trkpt>
      <trkpt lat="36.024976319027914" lon="119.3989643673212">
        <ele>61.74346923828125</ele>
        <time>2023-06-06T13:07:18Z</time>
      </trkpt>
      <trkpt lat="36.02484134367106" lon="119.39890135475875">
        <ele>62.49322509765625</ele>
        <time>2023-06-06T13:07:24Z</time>
      </trkpt>
      <trkpt lat="36.02469937336303" lon="119.39887135758055">
        <ele>61.9991455078125</ele>
        <time>2023-06-06T13:07:30Z</time>
      </trkpt>
      <trkpt lat="36.02439644383762" lon="119.39887839465797">
        <ele>61.5032958984375</ele>
        <time>2023-06-06T13:07:45Z</time>
      </trkpt>
      <trkpt lat="36.02434846291355" lon="119.39895743474077">
        <ele>59.8577880859375</ele>
        <time>2023-06-06T13:07:51Z</time>
      </trkpt>
      <trkpt lat="36.024359470176634" lon="119.39905047479618">
        <ele>59.62310791015625</ele>
        <time>2023-06-06T13:07:57Z</time>
      </trkpt>
      <trkpt lat="36.02430352858232" lon="119.39944266046169">
        <ele>60.5789794921875</ele>
        <time>2023-06-06T13:08:12Z</time>
      </trkpt>
      <trkpt lat="36.024276554412886" lon="119.39959573584768">
        <ele>59.34130859375</ele>
        <time>2023-06-06T13:08:18Z</time>
      </trkpt>
      <trkpt lat="36.02424761712769" lon="119.39999493398588">
        <ele>62.197265625</ele>
        <time>2023-06-06T13:08:36Z</time>
      </trkpt>
      <trkpt lat="36.02426262621809" lon="119.40007797396684">
        <ele>60.3560791015625</ele>
        <time>2023-06-06T13:08:42Z</time>
      </trkpt>
      <trkpt lat="36.0242506398007" lon="119.4001480107548">
        <ele>62.587158203125</ele>
        <time>2023-06-06T13:08:48Z</time>
      </trkpt>
      <trkpt lat="36.02442463448182" lon="119.40036410231957">
        <ele>64.84832763671875</ele>
        <time>2023-06-06T13:09:09Z</time>
      </trkpt>
      <trkpt lat="36.02447762360286" lon="119.40037210053455">
        <ele>62.56243896484375</ele>
        <time>2023-06-06T13:09:15Z</time>
      </trkpt>
      <trkpt lat="36.0245816102035" lon="119.4004351217862">
        <ele>63.208984375</ele>
        <time>2023-06-06T13:09:24Z</time>
      </trkpt>
      <trkpt lat="36.02471958368239" lon="119.40046612257755">
        <ele>63.60009765625</ele>
        <time>2023-06-06T13:09:33Z</time>
      </trkpt>
      <trkpt lat="36.024795578036695" lon="119.40053515048606">
        <ele>64.00714111328125</ele>
        <time>2023-06-06T13:09:36Z</time>
      </trkpt>
      <trkpt lat="36.02492755953435" lon="119.40060317184195">
        <ele>65.2850341796875</ele>
        <time>2023-06-06T13:09:42Z</time>
      </trkpt>
      <trkpt lat="36.02521550586802" lon="119.40067417755772">
        <ele>63.4571533203125</ele>
        <time>2023-06-06T13:09:54Z</time>
      </trkpt>
      <trkpt lat="36.02554944112212" lon="119.40074117622589">
        <ele>62.9166259765625</ele>
        <time>2023-06-06T13:10:09Z</time>
      </trkpt>
      <trkpt lat="36.02576939067848" lon="119.40074215206745">
        <ele>65.35845947265625</ele>
        <time>2023-06-06T13:10:24Z</time>
      </trkpt>
      <trkpt lat="36.02593134921702" lon="119.40071912143348">
        <ele>66.0313720703125</ele>
        <time>2023-06-06T13:10:30Z</time>
      </trkpt>
      <trkpt lat="36.025979341630475" lon="119.40073812632322">
        <ele>66.560791015625</ele>
        <time>2023-06-06T13:10:36Z</time>
      </trkpt>
      <trkpt lat="36.026114304397424" lon="119.40070409278653">
        <ele>66.590087890625</ele>
        <time>2023-06-06T13:10:45Z</time>
      </trkpt>
      <trkpt lat="36.026172283856134" lon="119.40066406473503">
        <ele>66.632080078125</ele>
        <time>2023-06-06T13:10:51Z</time>
      </trkpt>
      <trkpt lat="36.02646421240538" lon="119.40064001906973">
        <ele>65.7445068359375</ele>
        <time>2023-06-06T13:11:06Z</time>
      </trkpt>
      <trkpt lat="36.02650820603354" lon="119.4006610253981">
        <ele>65.33587646484375</ele>
        <time>2023-06-06T13:11:09Z</time>
      </trkpt>
      <trkpt lat="36.02657218899193" lon="119.40064801123357">
        <ele>65.4178466796875</ele>
        <time>2023-06-06T13:11:15Z</time>
      </trkpt>
      <trkpt lat="36.026794147274586" lon="119.40070001427986">
        <ele>66.5631103515625</ele>
        <time>2023-06-06T13:11:31Z</time>
      </trkpt>
      <trkpt lat="36.02687013669679" lon="119.40073802628434">
        <ele>66.69122314453125</ele>
        <time>2023-06-06T13:11:34Z</time>
      </trkpt>
      <trkpt lat="36.02716007661513" lon="119.40077401325516">
        <ele>66.17584228515625</ele>
        <time>2023-06-06T13:11:46Z</time>
      </trkpt>
      <trkpt lat="36.027206074922205" lon="119.40082203424663">
        <ele>66.77484130859375</ele>
        <time>2023-06-06T13:11:49Z</time>
      </trkpt>
      <trkpt lat="36.02726806664783" lon="119.40085404479508">
        <ele>65.6383056640625</ele>
        <time>2023-06-06T13:11:52Z</time>
      </trkpt>
      <trkpt lat="36.027398039582785" lon="119.40086903842624">
        <ele>65.2451171875</ele>
        <time>2023-06-06T13:11:58Z</time>
      </trkpt>
      <trkpt lat="36.02746704122652" lon="119.4009610814195">
        <ele>66.16522216796875</ele>
        <time>2023-06-06T13:12:01Z</time>
      </trkpt>
      <trkpt lat="36.0275240360474" lon="119.40100209778609">
        <ele>66.8056640625</ele>
        <time>2023-06-06T13:12:04Z</time>
      </trkpt>
      <trkpt lat="36.027571042303656" lon="119.4010891411329">
        <ele>68.907958984375</ele>
        <time>2023-06-06T13:12:07Z</time>
      </trkpt>
      <trkpt lat="36.02768502445932" lon="119.40113115195956">
        <ele>64.9757080078125</ele>
        <time>2023-06-06T13:12:13Z</time>
      </trkpt>
      <trkpt lat="36.02784601258954" lon="119.40125520421861">
        <ele>65.94549560546875</ele>
        <time>2023-06-06T13:12:22Z</time>
      </trkpt>
      <trkpt lat="36.02789001363647" lon="119.4013092301801">
        <ele>65.8729248046875</ele>
        <time>2023-06-06T13:12:25Z</time>
      </trkpt>
      <trkpt lat="36.02791402404563" lon="119.40138527125598">
        <ele>69.44134521484375</ele>
        <time>2023-06-06T13:12:31Z</time>
      </trkpt>
      <trkpt lat="36.02795302335569" lon="119.40142428946501">
        <ele>65.63970947265625</ele>
        <time>2023-06-06T13:12:37Z</time>
      </trkpt>
      <trkpt lat="36.02802208408796" lon="119.40177148647898">
        <ele>61.45977783203125</ele>
        <time>2023-06-06T13:12:55Z</time>
      </trkpt>
      <trkpt lat="36.028112140505115" lon="119.40209867556726">
        <ele>61.62982177734375</ele>
        <time>2023-06-06T13:13:07Z</time>
      </trkpt>
      <trkpt lat="36.02814315247865" lon="119.40217672049474">
        <ele>61.1251220703125</ele>
        <time>2023-06-06T13:13:10Z</time>
      </trkpt>
      <trkpt lat="36.02822216021305" lon="119.40228077670491">
        <ele>62.3355712890625</ele>
        <time>2023-06-06T13:13:16Z</time>
      </trkpt>
      <trkpt lat="36.028317189786264" lon="119.40248189355464">
        <ele>62.54345703125</ele>
        <time>2023-06-06T13:13:25Z</time>
      </trkpt>
      <trkpt lat="36.02837219126788" lon="119.40253592202762">
        <ele>61.5675048828125</ele>
        <time>2023-06-06T13:13:28Z</time>
      </trkpt>
      <trkpt lat="36.02846121072069" lon="119.40268600914709">
        <ele>59.6317138671875</ele>
        <time>2023-06-06T13:13:34Z</time>
      </trkpt>
      <trkpt lat="36.02868921450636" lon="119.40289111833125">
        <ele>59.93023681640625</ele>
        <time>2023-06-06T13:13:46Z</time>
      </trkpt>
      <trkpt lat="36.02874624826683" lon="119.40305722281916">
        <ele>58.5185546875</ele>
        <time>2023-06-06T13:13:52Z</time>
      </trkpt>
      <trkpt lat="36.02876733814656" lon="119.40338044070525">
        <ele>57.20068359375</ele>
        <time>2023-06-06T13:14:04Z</time>
      </trkpt>
      <trkpt lat="36.02876639133116" lon="119.40355456191709">
        <ele>54.7015380859375</ele>
        <time>2023-06-06T13:14:10Z</time>
      </trkpt>
      <trkpt lat="36.02871550365578" lon="119.40387379412421">
        <ele>59.84332275390625</ele>
        <time>2023-06-06T13:14:22Z</time>
      </trkpt>
      <trkpt lat="36.02869452856356" lon="119.4039358411711">
        <ele>60.359375</ele>
        <time>2023-06-06T13:14:25Z</time>
      </trkpt>
      <trkpt lat="36.02863955948528" lon="119.40399188789794">
        <ele>59.2359619140625</ele>
        <time>2023-06-06T13:14:31Z</time>
      </trkpt>
      <trkpt lat="36.02852960219071" lon="119.40404493879099">
        <ele>59.78179931640625</ele>
        <time>2023-06-06T13:14:37Z</time>
      </trkpt>
      <trkpt lat="36.02832070462527" lon="119.40420808179506">
        <ele>59.46795654296875</ele>
        <time>2023-06-06T13:14:49Z</time>
      </trkpt>
      <trkpt lat="36.02820277943139" lon="119.40434819892081">
        <ele>59.8553466796875</ele>
        <time>2023-06-06T13:14:58Z</time>
      </trkpt>
      <trkpt lat="36.028168810380706" lon="119.40441525284538">
        <ele>58.00408935546875</ele>
        <time>2023-06-06T13:15:01Z</time>
      </trkpt>
      <trkpt lat="36.02806986031755" lon="119.40449332261495">
        <ele>59.22503662109375</ele>
        <time>2023-06-06T13:15:07Z</time>
      </trkpt>
      <trkpt lat="36.02798592127252" lon="119.40461142143815">
        <ele>59.716552734375</ele>
        <time>2023-06-06T13:15:13Z</time>
      </trkpt>
      <trkpt lat="36.02788801509138" lon="119.4048095842181">
        <ele>59.2462158203125</ele>
        <time>2023-06-06T13:15:22Z</time>
      </trkpt>
      <trkpt lat="36.02780208262542" lon="119.40493969473778">
        <ele>59.7391357421875</ele>
        <time>2023-06-06T13:15:28Z</time>
      </trkpt>
      <trkpt lat="36.02766425833585" lon="119.40532001058203">
        <ele>60.3671875</ele>
        <time>2023-06-06T13:15:43Z</time>
      </trkpt>
      <trkpt lat="36.027637333434534" lon="119.40549615550952">
        <ele>62.126220703125</ele>
        <time>2023-06-06T13:15:49Z</time>
      </trkpt>
      <trkpt lat="36.027580444351614" lon="119.40574036154638">
        <ele>62.85528564453125</ele>
        <time>2023-06-06T13:15:58Z</time>
      </trkpt>
      <trkpt lat="36.027458471174164" lon="119.40573737276505">
        <ele>61.3153076171875</ele>
        <time>2023-06-06T13:16:07Z</time>
      </trkpt>
      <trkpt lat="36.02739047382807" lon="119.40570535402782">
        <ele>59.21502685546875</ele>
        <time>2023-06-06T13:16:10Z</time>
      </trkpt>
      <trkpt lat="36.02720143563214" lon="119.40550120850583">
        <ele>57.042724609375</ele>
        <time>2023-06-06T13:16:22Z</time>
      </trkpt>
      <trkpt lat="36.027141387090595" lon="119.40534208692819">
        <ele>55.42578125</ele>
        <time>2023-06-06T13:16:28Z</time>
      </trkpt>
      <trkpt lat="36.02711131909105" lon="119.40514693489676">
        <ele>54.7340087890625</ele>
        <time>2023-06-06T13:16:34Z</time>
      </trkpt>
      <trkpt lat="36.02711427316098" lon="119.40502684000595">
        <ele>54.45489501953125</ele>
        <time>2023-06-06T13:16:37Z</time>
      </trkpt>
      <trkpt lat="36.02715720322768" lon="119.40486470883128">
        <ele>56.54815673828125</ele>
        <time>2023-06-06T13:16:43Z</time>
      </trkpt>
      <trkpt lat="36.02714512918786" lon="119.40465254709004">
        <ele>59.73651123046875</ele>
        <time>2023-06-06T13:16:52Z</time>
      </trkpt>
      <trkpt lat="36.02704009565373" lon="119.40448943522202">
        <ele>55.9833984375</ele>
        <time>2023-06-06T13:17:01Z</time>
      </trkpt>
      <trkpt lat="36.02693108143311" lon="119.40437636262097">
        <ele>56.25048828125</ele>
        <time>2023-06-06T13:17:07Z</time>
      </trkpt>
      <trkpt lat="36.0268710835221" lon="119.40434234397222">
        <ele>57.780029296875</ele>
        <time>2023-06-06T13:17:10Z</time>
      </trkpt>
      <trkpt lat="36.02673411536906" lon="119.40434336009662">
        <ele>62.575439453125</ele>
        <time>2023-06-06T13:17:16Z</time>
      </trkpt>
      <trkpt lat="36.02659613852891" lon="119.40431835696342">
        <ele>65.25006103515625</ele>
        <time>2023-06-06T13:17:22Z</time>
      </trkpt>
      <trkpt lat="36.026554130099434" lon="119.4042653223125">
        <ele>64.7877197265625</ele>
        <time>2023-06-06T13:17:28Z</time>
      </trkpt>
      <trkpt lat="36.02652209830862" lon="119.40414924030334">
        <ele>66.22808837890625</ele>
        <time>2023-06-06T13:17:34Z</time>
      </trkpt>
      <trkpt lat="36.026500020722786" lon="119.40389806016752">
        <ele>67.97686767578125</ele>
        <time>2023-06-06T13:17:43Z</time>
      </trkpt>
      <trkpt lat="36.02651999646483" lon="119.40383701408493">
        <ele>61.7535400390625</ele>
        <time>2023-06-06T13:17:49Z</time>
      </trkpt>
      <trkpt lat="36.02651297794747" lon="119.40377396981788">
        <ele>62.346435546875</ele>
        <time>2023-06-06T13:17:55Z</time>
      </trkpt>
      <trkpt lat="36.02653591272513" lon="119.40358283202498">
        <ele>63.86944580078125</ele>
        <time>2023-06-06T13:18:07Z</time>
      </trkpt>
      <trkpt lat="36.0265728707467" lon="119.4034737516376">
        <ele>62.09613037109375</ele>
        <time>2023-06-06T13:18:13Z</time>
      </trkpt>
      <trkpt lat="36.026562849724534" lon="119.40339669931355">
        <ele>61.4293212890625</ele>
        <time>2023-06-06T13:18:16Z</time>
      </trkpt>
      <trkpt lat="36.026500850178174" lon="119.40335067450509">
        <ele>62.03790283203125</ele>
        <time>2023-06-06T13:18:22Z</time>
      </trkpt>
      <trkpt lat="36.026388885532555" lon="119.40338270916531">
        <ele>64.46533203125</ele>
        <time>2023-06-06T13:18:31Z</time>
      </trkpt>
      <trkpt lat="36.02635590669226" lon="119.4034277440282">
        <ele>64.5391845703125</ele>
        <time>2023-06-06T13:18:34Z</time>
      </trkpt>
      <trkpt lat="36.026390951653525" lon="119.40360086095635">
        <ele>66.21624755859375</ele>
        <time>2023-06-06T13:18:46Z</time>
      </trkpt>
      <trkpt lat="36.02638198340515" lon="119.40369592905621">
        <ele>64.011962890625</ele>
        <time>2023-06-06T13:18:52Z</time>
      </trkpt>
      <trkpt lat="36.02638306909082" lon="119.40396412097016">
        <ele>65.8458251953125</ele>
        <time>2023-06-06T13:19:04Z</time>
      </trkpt>
      <trkpt lat="36.02636709442409" lon="119.40403017068253">
        <ele>63.72601318359375</ele>
        <time>2023-06-06T13:19:07Z</time>
      </trkpt>
      <trkpt lat="36.026409197684764" lon="119.40436541299724">
        <ele>68.8563232421875</ele>
        <time>2023-06-06T13:19:25Z</time>
      </trkpt>
      <trkpt lat="36.026366297265106" lon="119.40462161090001">
        <ele>65.2880859375</ele>
        <time>2023-06-06T13:19:37Z</time>
      </trkpt>
      <trkpt lat="36.02630037217857" lon="119.40478774549842">
        <ele>69.3486328125</ele>
        <time>2023-06-06T13:19:46Z</time>
      </trkpt>
      <trkpt lat="36.02629640269463" lon="119.40486880857915">
        <ele>66.8734130859375</ele>
        <time>2023-06-06T13:19:49Z</time>
      </trkpt>
      <trkpt lat="36.02632243589001" lon="119.40497488818728">
        <ele>66.37408447265625</ele>
        <time>2023-06-06T13:19:52Z</time>
      </trkpt>
      <trkpt lat="36.026415439896226" lon="119.40504293102671">
        <ele>63.25469970703125</ele>
        <time>2023-06-06T13:19:58Z</time>
      </trkpt>
      <trkpt lat="36.02649846765472" lon="119.40516701954255">
        <ele>60.27947998046875</ele>
        <time>2023-06-06T13:20:04Z</time>
      </trkpt>
      <trkpt lat="36.02655446888811" lon="119.40520404261827">
        <ele>57.8642578125</ele>
        <time>2023-06-06T13:20:07Z</time>
      </trkpt>
      <trkpt lat="36.02677753114291" lon="119.40549625204052">
        <ele>57.9852294921875</ele>
        <time>2023-06-06T13:20:22Z</time>
      </trkpt>
      <trkpt lat="36.02694662808673" lon="119.40583350969263">
        <ele>56.59820556640625</ele>
        <time>2023-06-06T13:20:37Z</time>
      </trkpt>
      <trkpt lat="36.02701169657383" lon="119.40603467046529">
        <ele>60.07403564453125</ele>
        <time>2023-06-06T13:20:46Z</time>
      </trkpt>
      <trkpt lat="36.027138755627604" lon="119.40624283255656">
        <ele>58.56378173828125</ele>
        <time>2023-06-06T13:20:58Z</time>
      </trkpt>
      <trkpt lat="36.0271807640284" lon="119.40628486375007">
        <ele>57.1785888671875</ele>
        <time>2023-06-06T13:21:01Z</time>
      </trkpt>
      <trkpt lat="36.02720278880759" lon="119.40635392049008">
        <ele>60.92083740234375</ele>
        <time>2023-06-06T13:21:04Z</time>
      </trkpt>
      <trkpt lat="36.02737885735838" lon="119.40660211578755">
        <ele>63.75189208984375</ele>
        <time>2023-06-06T13:21:22Z</time>
      </trkpt>
      <trkpt lat="36.027437865662314" lon="119.4066511520705">
        <ele>67.17999267578125</ele>
        <time>2023-06-06T13:21:28Z</time>
      </trkpt>
      <trkpt lat="36.02764584747744" lon="119.4067171867322">
        <ele>64.186279296875</ele>
        <time>2023-06-06T13:21:40Z</time>
      </trkpt>
      <trkpt lat="36.027753845681474" lon="119.4067682196043">
        <ele>63.79669189453125</ele>
        <time>2023-06-06T13:21:46Z</time>
      </trkpt>
      <trkpt lat="36.027925796660305" lon="119.40674718175492">
        <ele>64.90185546875</ele>
        <time>2023-06-06T13:21:58Z</time>
      </trkpt>
      <trkpt lat="36.02797481349098" lon="119.40680923107907">
        <ele>66.4454345703125</ele>
        <time>2023-06-06T13:22:04Z</time>
      </trkpt>
      <trkpt lat="36.028028773444326" lon="119.40674817107706">
        <ele>65.38214111328125</ele>
        <time>2023-06-06T13:22:10Z</time>
      </trkpt>
      <trkpt lat="36.02812975566153" lon="119.40676017033572">
        <ele>64.00152587890625</ele>
        <time>2023-06-06T13:22:16Z</time>
      </trkpt>
      <trkpt lat="36.02828378770738" lon="119.40690828439378">
        <ele>63.68463134765625</ele>
        <time>2023-06-06T13:22:34Z</time>
      </trkpt>
      <trkpt lat="36.02844276036806" lon="119.40692828439295">
        <ele>70.7412109375</ele>
        <time>2023-06-06T13:22:46Z</time>
      </trkpt>
      <trkpt lat="36.028677776802304" lon="119.4070803943839">
        <ele>67.672119140625</ele>
        <time>2023-06-06T13:23:04Z</time>
      </trkpt>
      <trkpt lat="36.02879979944538" lon="119.40718847838416">
        <ele>66.61309814453125</ele>
        <time>2023-06-06T13:23:10Z</time>
      </trkpt>
      <trkpt lat="36.02899577191112" lon="119.40722549000782">
        <ele>60.49798583984375</ele>
        <time>2023-06-06T13:23:19Z</time>
      </trkpt>
      <trkpt lat="36.029148769536405" lon="119.40729453574487">
        <ele>59.7413330078125</ele>
        <time>2023-06-06T13:23:28Z</time>
      </trkpt>
      <trkpt lat="36.029225753761814" lon="119.40729853075787">
        <ele>60.50531005859375</ele>
        <time>2023-06-06T13:23:31Z</time>
      </trkpt>
      <trkpt lat="36.0292987719051" lon="119.40737158943324">
        <ele>60.0020751953125</ele>
        <time>2023-06-06T13:23:37Z</time>
      </trkpt>
      <trkpt lat="36.029554711693464" lon="119.4073685579465">
        <ele>64.10491943359375</ele>
        <time>2023-06-06T13:23:52Z</time>
      </trkpt>
      <trkpt lat="36.02963370748727" lon="119.40739757572348">
        <ele>62.6544189453125</ele>
        <time>2023-06-06T13:23:55Z</time>
      </trkpt>
      <trkpt lat="36.02982055186509" lon="119.40735777617012">
        <ele>52.7384033203125</ele>
        <time>2023-06-06T13:24:04Z</time>
      </trkpt>
      <trkpt lat="36.02989960189732" lon="119.40730446059368">
        <ele>57.48883056640625</ele>
        <time>2023-06-06T13:24:07Z</time>
      </trkpt>
      <trkpt lat="36.02999752864953" lon="119.40719735209309">
        <ele>59.30352783203125</ele>
        <time>2023-06-06T13:24:16Z</time>
      </trkpt>
      <trkpt lat="36.030040441988234" lon="119.40703319909342">
        <ele>60.3074951171875</ele>
        <time>2023-06-06T13:24:28Z</time>
      </trkpt>
      <trkpt lat="36.030031415337916" lon="119.4069711444865">
        <ele>61.67718505859375</ele>
        <time>2023-06-06T13:24:31Z</time>
      </trkpt>
      <trkpt lat="36.03009529834619" lon="119.40674693819045">
        <ele>58.7603759765625</ele>
        <time>2023-06-06T13:24:43Z</time>
      </trkpt>
      <trkpt lat="36.030084270709786" lon="119.40667988042519">
        <ele>59.10333251953125</ele>
        <time>2023-06-06T13:24:46Z</time>
      </trkpt>
      <trkpt lat="36.0300912364718" lon="119.40660681564727">
        <ele>59.93951416015625</ele>
        <time>2023-06-06T13:24:49Z</time>
      </trkpt>
      <trkpt lat="36.030156176362546" lon="119.4065047194462">
        <ele>59.73388671875</ele>
        <time>2023-06-06T13:24:55Z</time>
      </trkpt>
      <trkpt lat="36.030181135071004" lon="119.40642364646156">
        <ele>60.61285400390625</ele>
        <time>2023-06-06T13:24:58Z</time>
      </trkpt>
      <trkpt lat="36.03022509448599" lon="119.40635358117582">
        <ele>59.382080078125</ele>
        <time>2023-06-06T13:25:04Z</time>
      </trkpt>
      <trkpt lat="36.0302580035708" lon="119.40615941168458">
        <ele>58.85137939453125</ele>
        <time>2023-06-06T13:25:13Z</time>
      </trkpt>
      <trkpt lat="36.03024997659467" lon="119.40609135497948">
        <ele>60.057861328125</ele>
        <time>2023-06-06T13:25:16Z</time>
      </trkpt>
      <trkpt lat="36.030272891503046" lon="119.40590019201021">
        <ele>61.95489501953125</ele>
        <time>2023-06-06T13:25:25Z</time>
      </trkpt>
      <trkpt lat="36.03021985640123" lon="119.40578510239409">
        <ele>60.75537109375</ele>
        <time>2023-06-06T13:25:31Z</time>
      </trkpt>
      <trkpt lat="36.0301918000651" lon="119.40562997792357">
        <ele>60.2911376953125</ele>
        <time>2023-06-06T13:25:37Z</time>
      </trkpt>
      <trkpt lat="36.030198708885855" lon="119.40540379352117">
        <ele>63.3553466796875</ele>
        <time>2023-06-06T13:25:49Z</time>
      </trkpt>
      <trkpt lat="36.03030356226961" lon="119.40508452750812">
        <ele>60.13311767578125</ele>
        <time>2023-06-06T13:26:10Z</time>
      </trkpt>
      <trkpt lat="36.03033452514758" lon="119.4050044611809">
        <ele>60.42230224609375</ele>
        <time>2023-06-06T13:26:16Z</time>
      </trkpt>
      <trkpt lat="36.030433439618804" lon="119.40483431772606">
        <ele>61.26806640625</ele>
        <time>2023-06-06T13:26:25Z</time>
      </trkpt>
      <trkpt lat="36.03055036633763" lon="119.40470620603134">
        <ele>60.70672607421875</ele>
        <time>2023-06-06T13:26:31Z</time>
      </trkpt>
      <trkpt lat="36.030578340186324" lon="119.40465116082436">
        <ele>61.4151611328125</ele>
        <time>2023-06-06T13:26:34Z</time>
      </trkpt>
      <trkpt lat="36.03044330126582" lon="119.4044530259771">
        <ele>59.4791259765625</ele>
        <time>2023-06-06T13:26:49Z</time>
      </trkpt>
      <trkpt lat="36.03029827866019" lon="119.4042909211847">
        <ele>62.7308349609375</ele>
        <time>2023-06-06T13:26:58Z</time>
      </trkpt>
      <trkpt lat="36.03013324816937" lon="119.40408779010296">
        <ele>64.19482421875</ele>
        <time>2023-06-06T13:27:10Z</time>
      </trkpt>
      <trkpt lat="36.0298652441411" lon="119.40388767508719">
        <ele>67.457275390625</ele>
        <time>2023-06-06T13:27:25Z</time>
      </trkpt>
      <trkpt lat="36.029687255454476" lon="119.40379562908686">
        <ele>68.88128662109375</ele>
        <time>2023-06-06T13:27:37Z</time>
      </trkpt>
      <trkpt lat="36.02943430970723" lon="119.40378364892015">
        <ele>70.23748779296875</ele>
        <time>2023-06-06T13:27:52Z</time>
      </trkpt>
      <trkpt lat="36.0293703358959" lon="119.40381968184359">
        <ele>70.445556640625</ele>
        <time>2023-06-06T13:27:58Z</time>
      </trkpt>
      <trkpt lat="36.02928534805995" lon="119.4037966749342">
        <ele>71.44293212890625</ele>
        <time>2023-06-06T13:28:04Z</time>
      </trkpt>
      <trkpt lat="36.02896942413197" lon="119.40380771827583">
        <ele>75.29498291015625</ele>
        <time>2023-06-06T13:28:19Z</time>
      </trkpt>
      <trkpt lat="36.02891142947558" lon="119.40378270692297">
        <ele>72.38690185546875</ele>
        <time>2023-06-06T13:28:25Z</time>
      </trkpt>
      <trkpt lat="36.02879547369937" lon="119.40383775929448">
        <ele>67.00054931640625</ele>
        <time>2023-06-06T13:28:37Z</time>
      </trkpt>
      <trkpt lat="36.028761466154734" lon="119.40378972876152">
        <ele>65.37493896484375</ele>
        <time>2023-06-06T13:28:40Z</time>
      </trkpt>
      <trkpt lat="36.02874741520306" lon="119.4036176083205">
        <ele>63.8896484375</ele>
        <time>2023-06-06T13:28:52Z</time>
      </trkpt>
      <trkpt lat="36.02875932650962" lon="119.4033354105643">
        <ele>62.3995361328125</ele>
        <time>2023-06-06T13:29:10Z</time>
      </trkpt>
      <trkpt lat="36.02871122483994" lon="119.40294615242793">
        <ele>60.138671875</ele>
        <time>2023-06-06T13:29:34Z</time>
      </trkpt>
      <trkpt lat="36.02849621376156" lon="119.40272703198337">
        <ele>60.9217529296875</ele>
        <time>2023-06-06T13:29:49Z</time>
      </trkpt>
      <trkpt lat="36.02824719446184" lon="119.40243787330427">
        <ele>60.08453369140625</ele>
        <time>2023-06-06T13:30:07Z</time>
      </trkpt>
      <trkpt lat="36.02815416009809" lon="119.40221774484309">
        <ele>59.182861328125</ele>
        <time>2023-06-06T13:30:19Z</time>
      </trkpt>
      <trkpt lat="36.02810712450817" lon="119.4020276323644">
        <ele>58.472412109375</ele>
        <time>2023-06-06T13:30:28Z</time>
      </trkpt>
      <trkpt lat="36.02806711701505" lon="119.40195759398695">
        <ele>55.778564453125</ele>
        <time>2023-06-06T13:30:31Z</time>
      </trkpt>
      <trkpt lat="36.02805110282565" lon="119.40188154955443">
        <ele>56.17535400390625</ele>
        <time>2023-06-06T13:30:34Z</time>
      </trkpt>
      <trkpt lat="36.027911071842496" lon="119.4016033989566">
        <ele>53.65081787109375</ele>
        <time>2023-06-06T13:30:52Z</time>
      </trkpt>
      <trkpt lat="36.027918003261654" lon="119.4012902161446">
        <ele>57.16424560546875</ele>
        <time>2023-06-06T13:31:04Z</time>
      </trkpt>
      <trkpt lat="36.027856997614066" lon="119.40119416827409">
        <ele>57.66094970703125</ele>
        <time>2023-06-06T13:31:10Z</time>
      </trkpt>
      <trkpt lat="36.027564025689784" lon="119.40099608995723">
        <ele>62.18878173828125</ele>
        <time>2023-06-06T13:31:25Z</time>
      </trkpt>
      <trkpt lat="36.02732304951654" lon="119.40083002548187">
        <ele>65.19403076171875</ele>
        <time>2023-06-06T13:31:37Z</time>
      </trkpt>
      <trkpt lat="36.02726005805452" lon="119.40079801508905">
        <ele>64.159423828125</ele>
        <time>2023-06-06T13:31:40Z</time>
      </trkpt>
      <trkpt lat="36.02708909091706" lon="119.40076301525119">
        <ele>64.1240234375</ele>
        <time>2023-06-06T13:31:49Z</time>
      </trkpt>
      <trkpt lat="36.027036096162036" lon="119.4007250006107">
        <ele>62.68109130859375</ele>
        <time>2023-06-06T13:31:52Z</time>
      </trkpt>
      <trkpt lat="36.02675315255881" lon="119.40067700649219">
        <ele>59.482666015625</ele>
        <time>2023-06-06T13:32:13Z</time>
      </trkpt>
      <trkpt lat="36.02662317637178" lon="119.40064300282577">
        <ele>59.866455078125</ele>
        <time>2023-06-06T13:32:19Z</time>
      </trkpt>
      <trkpt lat="36.02632325343217" lon="119.40068806069414">
        <ele>58.540771484375</ele>
        <time>2023-06-06T13:32:34Z</time>
      </trkpt>
      <trkpt lat="36.02618328942915" lon="119.40070908773826">
        <ele>60.335693359375</ele>
        <time>2023-06-06T13:32:40Z</time>
      </trkpt>
      <trkpt lat="36.02601132214939" lon="119.40067108657436">
        <ele>64.681396484375</ele>
        <time>2023-06-06T13:32:52Z</time>
      </trkpt>
      <trkpt lat="36.02593533981423" lon="119.40067209564506">
        <ele>64.629150390625</ele>
        <time>2023-06-06T13:32:55Z</time>
      </trkpt>
      <trkpt lat="36.025705398319765" lon="119.40070313816737">
        <ele>68.50164794921875</ele>
        <time>2023-06-06T13:33:04Z</time>
      </trkpt>
      <trkpt lat="36.02562041607393" lon="119.40069314231792">
        <ele>65.1700439453125</ele>
        <time>2023-06-06T13:33:07Z</time>
      </trkpt>
      <trkpt lat="36.02549544700833" lon="119.40070516282404">
        <ele>62.866455078125</ele>
        <time>2023-06-06T13:33:13Z</time>
      </trkpt>
      <trkpt lat="36.025206501861724" lon="119.40064016031157">
        <ele>65.7222900390625</ele>
        <time>2023-06-06T13:33:31Z</time>
      </trkpt>
      <trkpt lat="36.025133516355524" lon="119.4006271615442">
        <ele>65.4283447265625</ele>
        <time>2023-06-06T13:33:34Z</time>
      </trkpt>
      <trkpt lat="36.02519451213956" lon="119.40068218422059">
        <ele>63.8128662109375</ele>
        <time>2023-06-06T13:33:40Z</time>
      </trkpt>
      <trkpt lat="36.02530049116602" lon="119.40070118255896">
        <ele>63.658203125</ele>
        <time>2023-06-06T13:33:46Z</time>
      </trkpt>
      <trkpt lat="36.02534447869289" lon="119.400688170611">
        <ele>63.3880615234375</ele>
        <time>2023-06-06T13:33:49Z</time>
      </trkpt>
      <trkpt lat="36.025616422788985" lon="119.40072516004362">
        <ele>63.12078857421875</ele>
        <time>2023-06-06T13:34:07Z</time>
      </trkpt>
      <trkpt lat="36.02577838842504" lon="119.40074115051526">
        <ele>64.7135009765625</ele>
        <time>2023-06-06T13:34:19Z</time>
      </trkpt>
      <trkpt lat="36.025836379656" lon="119.40076615756351">
        <ele>65.1866455078125</ele>
        <time>2023-06-06T13:34:22Z</time>
      </trkpt>
      <trkpt lat="36.02589436631091" lon="119.4007661510516">
        <ele>63.41064453125</ele>
        <time>2023-06-06T13:34:25Z</time>
      </trkpt>
      <trkpt lat="36.026174289149246" lon="119.40069608173485">
        <ele>61.08673095703125</ele>
        <time>2023-06-06T13:34:43Z</time>
      </trkpt>
      <trkpt lat="36.02648021301039" lon="119.40066403015369">
        <ele>60.33575439453125</ele>
        <time>2023-06-06T13:34:58Z</time>
      </trkpt>
      <trkpt lat="36.02666316770754" lon="119.4006459999434">
        <ele>58.714599609375</ele>
        <time>2023-06-06T13:35:07Z</time>
      </trkpt>
      <trkpt lat="36.0267741502493" lon="119.40069101167319">
        <ele>58.5736083984375</ele>
        <time>2023-06-06T13:35:13Z</time>
      </trkpt>
      <trkpt lat="36.0268811270889" lon="119.4006990039722">
        <ele>57.75750732421875</ele>
        <time>2023-06-06T13:35:19Z</time>
      </trkpt>
      <trkpt lat="36.02719807881127" lon="119.40083304115736">
        <ele>62.34796142578125</ele>
        <time>2023-06-06T13:35:40Z</time>
      </trkpt>
      <trkpt lat="36.02732205818269" lon="119.40087505025417">
        <ele>64.59820556640625</ele>
        <time>2023-06-06T13:35:46Z</time>
      </trkpt>
      <trkpt lat="36.027623023645575" lon="119.40105511624095">
        <ele>64.4117431640625</ele>
        <time>2023-06-06T13:36:01Z</time>
      </trkpt>
      <trkpt lat="36.02780300476807" lon="119.40116815960695">
        <ele>58.88421630859375</ele>
        <time>2023-06-06T13:36:10Z</time>
      </trkpt>
      <trkpt lat="36.027944001228" lon="119.40130922411696">
        <ele>58.8099365234375</ele>
        <time>2023-06-06T13:36:19Z</time>
      </trkpt>
      <trkpt lat="36.02799704262145" lon="119.40156036396569">
        <ele>64.41259765625</ele>
        <time>2023-06-06T13:36:31Z</time>
      </trkpt>
      <trkpt lat="36.027991076680955" lon="119.40170745168174">
        <ele>62.7164306640625</ele>
        <time>2023-06-06T13:36:37Z</time>
      </trkpt>
      <trkpt lat="36.028111129118706" lon="119.4020506460612">
        <ele>63.02587890625</ele>
        <time>2023-06-06T13:36:52Z</time>
      </trkpt>
      <trkpt lat="36.0282151889575" lon="119.4023878450875">
        <ele>67.5030517578125</ele>
        <time>2023-06-06T13:37:10Z</time>
      </trkpt>
      <trkpt lat="36.02838423164413" lon="119.40269802561622">
        <ele>65.02337646484375</ele>
        <time>2023-06-06T13:37:34Z</time>
      </trkpt>
      <trkpt lat="36.02856123280127" lon="119.40285110621609">
        <ele>63.31683349609375</ele>
        <time>2023-06-06T13:37:52Z</time>
      </trkpt>
      <trkpt lat="36.02863222704129" lon="119.40288912340439">
        <ele>63.1202392578125</ele>
        <time>2023-06-06T13:37:58Z</time>
      </trkpt>
      <trkpt lat="36.02871322888209" lon="119.40296216287317">
        <ele>65.6162109375</ele>
        <time>2023-06-06T13:38:04Z</time>
      </trkpt>
      <trkpt lat="36.02875423929449" lon="119.40303220512108">
        <ele>65.43914794921875</ele>
        <time>2023-06-06T13:38:07Z</time>
      </trkpt>
      <trkpt lat="36.02873331880119" lon="119.40328938187328">
        <ele>62.73687744140625</ele>
        <time>2023-06-06T13:38:16Z</time>
      </trkpt>
      <trkpt lat="36.02874735751521" lon="119.40342947687951">
        <ele>62.680419921875</ele>
        <time>2023-06-06T13:38:22Z</time>
      </trkpt>
      <trkpt lat="36.02873644464706" lon="119.40370367035177">
        <ele>60.38818359375</ele>
        <time>2023-06-06T13:38:34Z</time>
      </trkpt>
      <trkpt lat="36.0287154972137" lon="119.40385377975491">
        <ele>58.7603759765625</ele>
        <time>2023-06-06T13:38:40Z</time>
      </trkpt>
      <trkpt lat="36.02866554435129" lon="119.40396386468065">
        <ele>59.31646728515625</ele>
        <time>2023-06-06T13:38:46Z</time>
      </trkpt>
      <trkpt lat="36.02839567460141" lon="119.40417004537194">
        <ele>58.07354736328125</ele>
        <time>2023-06-06T13:39:01Z</time>
      </trkpt>
      <trkpt lat="36.02814381890078" lon="119.40442326165194">
        <ele>58.1971435546875</ele>
        <time>2023-06-06T13:39:10Z</time>
      </trkpt>
      <trkpt lat="36.02806886370227" lon="119.40450232951747">
        <ele>56.740966796875</ele>
        <time>2023-06-06T13:39:13Z</time>
      </trkpt>
      <trkpt lat="36.027858026363084" lon="119.40482159685615">
        <ele>59.3135986328125</ele>
        <time>2023-06-06T13:39:25Z</time>
      </trkpt>
      <trkpt lat="36.027806074307335" lon="119.40491967870834">
        <ele>61.973876953125</ele>
        <time>2023-06-06T13:39:28Z</time>
      </trkpt>
      <trkpt lat="36.02777314120882" lon="119.40507880690586">
        <ele>58.2623291015625</ele>
        <time>2023-06-06T13:39:34Z</time>
      </trkpt>
      <trkpt lat="36.027691202138136" lon="119.40518990387372">
        <ele>62.368896484375</ele>
        <time>2023-06-06T13:39:40Z</time>
      </trkpt>
      <trkpt lat="36.02764627528411" lon="119.4053530390738">
        <ele>60.12176513671875</ele>
        <time>2023-06-06T13:39:49Z</time>
      </trkpt>
      <trkpt lat="36.027701322286056" lon="119.40550515562919">
        <ele>62.7554931640625</ele>
        <time>2023-06-06T13:40:01Z</time>
      </trkpt>
      <trkpt lat="36.02766841600777" lon="119.40572033517736">
        <ele>62.63427734375</ele>
        <time>2023-06-06T13:40:19Z</time>
      </trkpt>
      <trkpt lat="36.02782337188128" lon="119.40569930048774">
        <ele>60.76019287109375</ele>
        <time>2023-06-06T13:40:31Z</time>
      </trkpt>
      <trkpt lat="36.02790233879032" lon="119.40566226121535">
        <ele>59.75958251953125</ele>
        <time>2023-06-06T13:40:37Z</time>
      </trkpt>
      <trkpt lat="36.02802126501619" lon="119.40554615303974">
        <ele>61.83935546875</ele>
        <time>2023-06-06T13:40:49Z</time>
      </trkpt>
      <trkpt lat="36.02825810060067" lon="119.40526489992396">
        <ele>56.67022705078125</ele>
        <time>2023-06-06T13:41:07Z</time>
      </trkpt>
      <trkpt lat="36.02836502255897" lon="119.40512477673755">
        <ele>57.491455078125</ele>
        <time>2023-06-06T13:41:13Z</time>
      </trkpt>
      <trkpt lat="36.028498875807685" lon="119.40481251794654">
        <ele>61.38531494140625</ele>
        <time>2023-06-06T13:41:31Z</time>
      </trkpt>
      <trkpt lat="36.02871182980219" lon="119.40482050021639">
        <ele>60.4608154296875</ele>
        <time>2023-06-06T13:41:46Z</time>
      </trkpt>
      <trkpt lat="36.02877679413907" lon="119.40476344896094">
        <ele>62.265625</ele>
        <time>2023-06-06T13:41:52Z</time>
      </trkpt>
      <trkpt lat="36.028781771322784" lon="119.4047034023271">
        <ele>60.30694580078125</ele>
        <time>2023-06-06T13:41:55Z</time>
      </trkpt>
      <trkpt lat="36.028813737829005" lon="119.40463034295603">
        <ele>59.28082275390625</ele>
        <time>2023-06-06T13:41:58Z</time>
      </trkpt>
      <trkpt lat="36.0288336862182" lon="119.40449723986573">
        <ele>57.64605712890625</ele>
        <time>2023-06-06T13:42:04Z</time>
      </trkpt>
      <trkpt lat="36.028895625756704" lon="119.40436413306645">
        <ele>59.469970703125</ele>
        <time>2023-06-06T13:42:10Z</time>
      </trkpt>
      <trkpt lat="36.028959520664465" lon="119.40409692848905">
        <ele>57.2044677734375</ele>
        <time>2023-06-06T13:42:22Z</time>
      </trkpt>
      <trkpt lat="36.02898337724074" lon="119.40366961853549">
        <ele>57.560546875</ele>
        <time>2023-06-06T13:42:34Z</time>
      </trkpt>
      <trkpt lat="36.02896833080947" lon="119.4035085070566">
        <ele>57.60675048828125</ele>
        <time>2023-06-06T13:42:37Z</time>
      </trkpt>
      <trkpt lat="36.02900928377317" lon="119.40338441630028">
        <ele>57.25701904296875</ele>
        <time>2023-06-06T13:42:40Z</time>
      </trkpt>
      <trkpt lat="36.0292751734109" lon="119.40321827246781">
        <ele>57.0859375</ele>
        <time>2023-06-06T13:42:49Z</time>
      </trkpt>
      <trkpt lat="36.02944709992772" lon="119.40310117376909">
        <ele>61.00665283203125</ele>
        <time>2023-06-06T13:42:55Z</time>
      </trkpt>
      <trkpt lat="36.02966798498981" lon="119.40287399714538">
        <ele>60.24578857421875</ele>
        <time>2023-06-06T13:43:04Z</time>
      </trkpt>
      <trkpt lat="36.0298348595412" lon="119.40255176806288">
        <ele>58.6700439453125</ele>
        <time>2023-06-06T13:43:13Z</time>
      </trkpt>
      <trkpt lat="36.03002275347099" lon="119.40230759148511">
        <ele>60.4498291015625</ele>
        <time>2023-06-06T13:43:22Z</time>
      </trkpt>
      <trkpt lat="36.03010667610984" lon="119.40207243550675">
        <ele>61.42547607421875</ele>
        <time>2023-06-06T13:43:31Z</time>
      </trkpt>
      <trkpt lat="36.03014762247885" lon="119.40188631712952">
        <ele>59.513916015625</ele>
        <time>2023-06-06T13:43:37Z</time>
      </trkpt>
      <trkpt lat="36.030191600526685" lon="119.40183528133493">
        <ele>60.60498046875</ele>
        <time>2023-06-06T13:43:40Z</time>
      </trkpt>
      <trkpt lat="36.03032256700256" lon="119.40182025757849">
        <ele>59.26904296875</ele>
        <time>2023-06-06T13:43:46Z</time>
      </trkpt>
      <trkpt lat="36.030399543123934" lon="119.40179323268026">
        <ele>59.972412109375</ele>
        <time>2023-06-06T13:43:49Z</time>
      </trkpt>
      <trkpt lat="36.03048252522849" lon="119.40179822636678">
        <ele>62.26416015625</ele>
        <time>2023-06-06T13:43:52Z</time>
      </trkpt>
      <trkpt lat="36.03061652401381" lon="119.40192528815992">
        <ele>61.67755126953125</ele>
        <time>2023-06-06T13:44:04Z</time>
      </trkpt>
      <trkpt lat="36.03066054633945" lon="119.40206136651663">
        <ele>63.85430908203125</ele>
        <time>2023-06-06T13:44:10Z</time>
      </trkpt>
      <trkpt lat="36.03070855013787" lon="119.40212239882825">
        <ele>62.82568359375</ele>
        <time>2023-06-06T13:44:13Z</time>
      </trkpt>
    </trkseg>
  </trk>
</gpx>