<?xml version="1.0" encoding="UTF-8"?>
<gpx xmlns="http://www.topografix.com/GPX/1/1" xmlns:gpxtpx="http://www.garmin.com/xmlschemas/TrackPointExtension/v1" xmlns:xsi="http://www.w3.org/2001/XMLSchema-instance" xsi:schemaLocation="http://www.topografix.com/GPX/1/1 http://www.topografix.com/GPX/1/1/gpx.xsd" version="1.1" creator="gpx.py -- https://github.com/tkrajina/gpxpy">
  <trk>
    <name>gpx from keep</name>
    <type>Run</type>
    <trkseg>
      <trkpt lat="30.522201988342708" lon="114.39238642371296">
        <ele>20.82</ele>
        <time>2021-03-16T12:39:51Z</time>
      </trkpt>
      <trkpt lat="30.522183512147098" lon="114.39257379288026">
        <ele>20.44</ele>
        <time>2021-03-16T12:39:57Z</time>
      </trkpt>
      <trkpt lat="30.522149970800633" lon="114.39273958651818">
        <ele>20.68</ele>
        <time>2021-03-16T12:40:03Z</time>
      </trkpt>
      <trkpt lat="30.522156439490097" lon="114.39286130844698">
        <ele>20.47</ele>
        <time>2021-03-16T12:40:07Z</time>
      </trkpt>
      <trkpt lat="30.522209308344216" lon="114.39298183987913">
        <ele>18.74</ele>
        <time>2021-03-16T12:40:10Z</time>
      </trkpt>
      <trkpt lat="30.522291049946958" lon="114.39307039279393">
        <ele>18.58</ele>
        <time>2021-03-16T12:40:13Z</time>
      </trkpt>
      <trkpt lat="30.52237761227417" lon="114.39311936528482">
        <ele>17.57</ele>
        <time>2021-03-16T12:40:16Z</time>
      </trkpt>
      <trkpt lat="30.522506899911715" lon="114.39314679191519">
        <ele>16.96</ele>
        <time>2021-03-16T12:40:19Z</time>
      </trkpt>
      <trkpt lat="30.52285217561627" lon="114.39315772322409">
        <ele>18.27</ele>
        <time>2021-03-16T12:40:28Z</time>
      </trkpt>
      <trkpt lat="30.52314767561748" lon="114.39318879005953">
        <ele>22.8</ele>
        <time>2021-03-16T12:40:38Z</time>
      </trkpt>
      <trkpt lat="30.523465447652693" lon="114.39310040535457">
        <ele>30.05</ele>
        <time>2021-03-16T12:40:46Z</time>
      </trkpt>
      <trkpt lat="30.52355868496667" lon="114.39300054866727">
        <ele>26.3</ele>
        <time>2021-03-16T12:40:49Z</time>
      </trkpt>
      <trkpt lat="30.523627322560063" lon="114.39287292408588">
        <ele>24.64</ele>
        <time>2021-03-16T12:40:52Z</time>
      </trkpt>
      <trkpt lat="30.523635649784485" lon="114.39276312594473">
        <ele>22.65</ele>
        <time>2021-03-16T12:40:55Z</time>
      </trkpt>
      <trkpt lat="30.52362445183803" lon="114.39264466491358">
        <ele>22.97</ele>
        <time>2021-03-16T12:40:58Z</time>
      </trkpt>
      <trkpt lat="30.52358232265386" lon="114.39252202295334">
        <ele>22.45</ele>
        <time>2021-03-16T12:41:01Z</time>
      </trkpt>
      <trkpt lat="30.523510899677806" lon="114.39242686835169">
        <ele>21.75</ele>
        <time>2021-03-16T12:41:05Z</time>
      </trkpt>
      <trkpt lat="30.523401518929848" lon="114.39234261679297">
        <ele>22.04</ele>
        <time>2021-03-16T12:41:07Z</time>
      </trkpt>
      <trkpt lat="30.523282215304246" lon="114.39233175449291">
        <ele>22.09</ele>
        <time>2021-03-16T12:41:10Z</time>
      </trkpt>
      <trkpt lat="30.523065307675825" lon="114.39235024031721">
        <ele>21.27</ele>
        <time>2021-03-16T12:41:16Z</time>
      </trkpt>
      <trkpt lat="30.522753272077562" lon="114.39233840863952">
        <ele>22.92</ele>
        <time>2021-03-16T12:41:26Z</time>
      </trkpt>
      <trkpt lat="30.52245542940408" lon="114.39233851002004">
        <ele>22.75</ele>
        <time>2021-03-16T12:41:34Z</time>
      </trkpt>
      <trkpt lat="30.522345562817847" lon="114.39235731544109">
        <ele>23.29</ele>
        <time>2021-03-16T12:41:38Z</time>
      </trkpt>
      <trkpt lat="30.522254155398482" lon="114.39241449082421">
        <ele>22.39</ele>
        <time>2021-03-16T12:41:40Z</time>
      </trkpt>
      <trkpt lat="30.522186033709712" lon="114.39249516226275">
        <ele>23.14</ele>
        <time>2021-03-16T12:41:44Z</time>
      </trkpt>
      <trkpt lat="30.52213926024582" lon="114.39260998256907">
        <ele>23.48</ele>
        <time>2021-03-16T12:41:46Z</time>
      </trkpt>
      <trkpt lat="30.522126000929102" lon="114.39274105701297">
        <ele>23.33</ele>
        <time>2021-03-16T12:41:50Z</time>
      </trkpt>
      <trkpt lat="30.52213827245611" lon="114.392874612024">
        <ele>23.63</ele>
        <time>2021-03-16T12:41:52Z</time>
      </trkpt>
      <trkpt lat="30.522175188268214" lon="114.39298283029443">
        <ele>23.47</ele>
        <time>2021-03-16T12:41:56Z</time>
      </trkpt>
      <trkpt lat="30.52223964320572" lon="114.39308619718479">
        <ele>23.69</ele>
        <time>2021-03-16T12:41:58Z</time>
      </trkpt>
      <trkpt lat="30.522326899040404" lon="114.39315001358044">
        <ele>21.32</ele>
        <time>2021-03-16T12:42:02Z</time>
      </trkpt>
      <trkpt lat="30.522528760177146" lon="114.39318948305299">
        <ele>18.79</ele>
        <time>2021-03-16T12:42:08Z</time>
      </trkpt>
      <trkpt lat="30.522651017531203" lon="114.39317356830837">
        <ele>20.92</ele>
        <time>2021-03-16T12:42:11Z</time>
      </trkpt>
      <trkpt lat="30.522962941235118" lon="114.3931772978734">
        <ele>18.73</ele>
        <time>2021-03-16T12:42:20Z</time>
      </trkpt>
      <trkpt lat="30.52315375348088" lon="114.39317949758565">
        <ele>18.17</ele>
        <time>2021-03-16T12:42:26Z</time>
      </trkpt>
      <trkpt lat="30.523324648921896" lon="114.39319601115659">
        <ele>20.66</ele>
        <time>2021-03-16T12:42:33Z</time>
      </trkpt>
      <trkpt lat="30.523416713217635" lon="114.39316829344165">
        <ele>20.5</ele>
        <time>2021-03-16T12:42:35Z</time>
      </trkpt>
      <trkpt lat="30.52349724130249" lon="114.39311466896305">
        <ele>20.49</ele>
        <time>2021-03-16T12:42:38Z</time>
      </trkpt>
      <trkpt lat="30.523566173844983" lon="114.39303794846776">
        <ele>20.01</ele>
        <time>2021-03-16T12:42:42Z</time>
      </trkpt>
      <trkpt lat="30.523618897468133" lon="114.39292392825365">
        <ele>23.01</ele>
        <time>2021-03-16T12:42:44Z</time>
      </trkpt>
      <trkpt lat="30.523643918699904" lon="114.39280071577541">
        <ele>24.22</ele>
        <time>2021-03-16T12:42:48Z</time>
      </trkpt>
      <trkpt lat="30.52362418006938" lon="114.39267970410579">
        <ele>25.43</ele>
        <time>2021-03-16T12:42:50Z</time>
      </trkpt>
      <trkpt lat="30.523584475912543" lon="114.39257840772193">
        <ele>23.58</ele>
        <time>2021-03-16T12:42:53Z</time>
      </trkpt>
      <trkpt lat="30.523458683935786" lon="114.3924044027066">
        <ele>25.24</ele>
        <time>2021-03-16T12:42:59Z</time>
      </trkpt>
      <trkpt lat="30.523364430805998" lon="114.39235204943036">
        <ele>25.6</ele>
        <time>2021-03-16T12:43:02Z</time>
      </trkpt>
      <trkpt lat="30.523155713050866" lon="114.3923270238303">
        <ele>25.23</ele>
        <time>2021-03-16T12:43:09Z</time>
      </trkpt>
      <trkpt lat="30.522807089647632" lon="114.39232596513851">
        <ele>24.06</ele>
        <time>2021-03-16T12:43:21Z</time>
      </trkpt>
      <trkpt lat="30.522614951957934" lon="114.39234324053287">
        <ele>24.46</ele>
        <time>2021-03-16T12:43:27Z</time>
      </trkpt>
      <trkpt lat="30.522409330008973" lon="114.39234287137096">
        <ele>24.23</ele>
        <time>2021-03-16T12:43:32Z</time>
      </trkpt>
      <trkpt lat="30.522334982843958" lon="114.39235783562532">
        <ele>23.97</ele>
        <time>2021-03-16T12:43:36Z</time>
      </trkpt>
      <trkpt lat="30.522208137132978" lon="114.39246628459745">
        <ele>23.81</ele>
        <time>2021-03-16T12:43:41Z</time>
      </trkpt>
      <trkpt lat="30.52214856677108" lon="114.39255224739165">
        <ele>24.31</ele>
        <time>2021-03-16T12:43:45Z</time>
      </trkpt>
      <trkpt lat="30.522110160580468" lon="114.39265509453155">
        <ele>25.35</ele>
        <time>2021-03-16T12:43:48Z</time>
      </trkpt>
      <trkpt lat="30.52209235708044" lon="114.39276851437243">
        <ele>25.9</ele>
        <time>2021-03-16T12:43:51Z</time>
      </trkpt>
      <trkpt lat="30.522098850354535" lon="114.3928672002561">
        <ele>24.32</ele>
        <time>2021-03-16T12:43:53Z</time>
      </trkpt>
      <trkpt lat="30.52214860947694" lon="114.3929465208712">
        <ele>22.27</ele>
        <time>2021-03-16T12:43:57Z</time>
      </trkpt>
      <trkpt lat="30.52239335194213" lon="114.39315976584543">
        <ele>19.95</ele>
        <time>2021-03-16T12:44:05Z</time>
      </trkpt>
      <trkpt lat="30.522669540659503" lon="114.39318612152876">
        <ele>19.62</ele>
        <time>2021-03-16T12:44:15Z</time>
      </trkpt>
      <trkpt lat="30.522961856085125" lon="114.39319790330282">
        <ele>20.58</ele>
        <time>2021-03-16T12:44:24Z</time>
      </trkpt>
      <trkpt lat="30.523241889815345" lon="114.39320297336558">
        <ele>17.43</ele>
        <time>2021-03-16T12:44:32Z</time>
      </trkpt>
      <trkpt lat="30.52331301280878" lon="114.39321293566546">
        <ele>18.01</ele>
        <time>2021-03-16T12:44:35Z</time>
      </trkpt>
      <trkpt lat="30.523470408134468" lon="114.39314467698175">
        <ele>19.21</ele>
        <time>2021-03-16T12:44:42Z</time>
      </trkpt>
      <trkpt lat="30.523571758272823" lon="114.39301408216629">
        <ele>18.94</ele>
        <time>2021-03-16T12:44:47Z</time>
      </trkpt>
      <trkpt lat="30.52358805409753" lon="114.3929107949428">
        <ele>20.59</ele>
        <time>2021-03-16T12:44:51Z</time>
      </trkpt>
      <trkpt lat="30.52362477419288" lon="114.3928248021871">
        <ele>23.47</ele>
        <time>2021-03-16T12:44:53Z</time>
      </trkpt>
      <trkpt lat="30.523639676556954" lon="114.39264735984341">
        <ele>25.4</ele>
        <time>2021-03-16T12:45:00Z</time>
      </trkpt>
      <trkpt lat="30.523554899578155" lon="114.3924673687589">
        <ele>26.57</ele>
        <time>2021-03-16T12:45:05Z</time>
      </trkpt>
      <trkpt lat="30.52347109913084" lon="114.3923834371612">
        <ele>25.12</ele>
        <time>2021-03-16T12:45:09Z</time>
      </trkpt>
      <trkpt lat="30.523394177795485" lon="114.39234526637019">
        <ele>24.41</ele>
        <time>2021-03-16T12:45:11Z</time>
      </trkpt>
      <trkpt lat="30.52320738492288" lon="114.39233301516315">
        <ele>21.63</ele>
        <time>2021-03-16T12:45:18Z</time>
      </trkpt>
      <trkpt lat="30.523023986162183" lon="114.39234537923288">
        <ele>20.98</ele>
        <time>2021-03-16T12:45:23Z</time>
      </trkpt>
      <trkpt lat="30.522763522770692" lon="114.39234096926305">
        <ele>24.61</ele>
        <time>2021-03-16T12:45:32Z</time>
      </trkpt>
      <trkpt lat="30.522585483128676" lon="114.3923493722716">
        <ele>21.56</ele>
        <time>2021-03-16T12:45:39Z</time>
      </trkpt>
      <trkpt lat="30.522471035608355" lon="114.39232171555429">
        <ele>21.98</ele>
        <time>2021-03-16T12:45:42Z</time>
      </trkpt>
      <trkpt lat="30.522377524472958" lon="114.39232048565752">
        <ele>22.1</ele>
        <time>2021-03-16T12:45:44Z</time>
      </trkpt>
      <trkpt lat="30.52227252113591" lon="114.39235296463433">
        <ele>23.88</ele>
        <time>2021-03-16T12:45:47Z</time>
      </trkpt>
      <trkpt lat="30.52219302388259" lon="114.39241039002829">
        <ele>23.42</ele>
        <time>2021-03-16T12:45:50Z</time>
      </trkpt>
      <trkpt lat="30.52213325074764" lon="114.39248457973017">
        <ele>23.16</ele>
        <time>2021-03-16T12:45:54Z</time>
      </trkpt>
      <trkpt lat="30.522092652578884" lon="114.3927493593434">
        <ele>23.87</ele>
        <time>2021-03-16T12:46:02Z</time>
      </trkpt>
      <trkpt lat="30.522120059182843" lon="114.39294637096147">
        <ele>25.45</ele>
        <time>2021-03-16T12:46:08Z</time>
      </trkpt>
      <trkpt lat="30.522158860490325" lon="114.39303534417604">
        <ele>26.18</ele>
        <time>2021-03-16T12:46:12Z</time>
      </trkpt>
      <trkpt lat="30.522344575941872" lon="114.39317860102467">
        <ele>24.64</ele>
        <time>2021-03-16T12:46:20Z</time>
      </trkpt>
      <trkpt lat="30.522658433385246" lon="114.39319810473393">
        <ele>21.25</ele>
        <time>2021-03-16T12:46:32Z</time>
      </trkpt>
      <trkpt lat="30.522935514801542" lon="114.3931934722559">
        <ele>17.29</ele>
        <time>2021-03-16T12:46:41Z</time>
      </trkpt>
      <trkpt lat="30.523262884783392" lon="114.39322322860347">
        <ele>21.84</ele>
        <time>2021-03-16T12:46:53Z</time>
      </trkpt>
      <trkpt lat="30.523388013730212" lon="114.3932139655959">
        <ele>19.37</ele>
        <time>2021-03-16T12:47:00Z</time>
      </trkpt>
      <trkpt lat="30.523527823886667" lon="114.39314298308604">
        <ele>21.21</ele>
        <time>2021-03-16T12:47:06Z</time>
      </trkpt>
      <trkpt lat="30.523625927228622" lon="114.39300757020781">
        <ele>20.02</ele>
        <time>2021-03-16T12:47:11Z</time>
      </trkpt>
      <trkpt lat="30.523645144867945" lon="114.39291187496704">
        <ele>18.72</ele>
        <time>2021-03-16T12:47:14Z</time>
      </trkpt>
      <trkpt lat="30.52363675379736" lon="114.39260996575807">
        <ele>19.6</ele>
        <time>2021-03-16T12:47:23Z</time>
      </trkpt>
      <trkpt lat="30.52359739025416" lon="114.39251122005408">
        <ele>19.08</ele>
        <time>2021-03-16T12:47:27Z</time>
      </trkpt>
      <trkpt lat="30.52352677628528" lon="114.39241179433228">
        <ele>20.91</ele>
        <time>2021-03-16T12:47:30Z</time>
      </trkpt>
      <trkpt lat="30.523427198449138" lon="114.39233957588033">
        <ele>22.06</ele>
        <time>2021-03-16T12:47:32Z</time>
      </trkpt>
      <trkpt lat="30.523310718138813" lon="114.3923000860769">
        <ele>18.95</ele>
        <time>2021-03-16T12:47:35Z</time>
      </trkpt>
      <trkpt lat="30.52306699368445" lon="114.39226803159549">
        <ele>18.64</ele>
        <time>2021-03-16T12:47:42Z</time>
      </trkpt>
      <trkpt lat="30.52276333296568" lon="114.39229914832082">
        <ele>18.9</ele>
        <time>2021-03-16T12:47:50Z</time>
      </trkpt>
      <trkpt lat="30.522593656156072" lon="114.39231931436855">
        <ele>16.72</ele>
        <time>2021-03-16T12:47:57Z</time>
      </trkpt>
      <trkpt lat="30.522362171306984" lon="114.39230757234851">
        <ele>19.22</ele>
        <time>2021-03-16T12:48:06Z</time>
      </trkpt>
      <trkpt lat="30.522213212967507" lon="114.39240570871085">
        <ele>20.13</ele>
        <time>2021-03-16T12:48:11Z</time>
      </trkpt>
      <trkpt lat="30.522144962590968" lon="114.39249198161608">
        <ele>21.5</ele>
        <time>2021-03-16T12:48:14Z</time>
      </trkpt>
      <trkpt lat="30.522093484925854" lon="114.39267422962645">
        <ele>20.57</ele>
        <time>2021-03-16T12:48:20Z</time>
      </trkpt>
      <trkpt lat="30.522106927793875" lon="114.39285600727946">
        <ele>19.64</ele>
        <time>2021-03-16T12:48:27Z</time>
      </trkpt>
      <trkpt lat="30.52212984225801" lon="114.39295905425055">
        <ele>21.54</ele>
        <time>2021-03-16T12:48:30Z</time>
      </trkpt>
      <trkpt lat="30.522225167570532" lon="114.39310527226893">
        <ele>22.58</ele>
        <time>2021-03-16T12:48:35Z</time>
      </trkpt>
      <trkpt lat="30.522358788830772" lon="114.39319030404091">
        <ele>23.04</ele>
        <time>2021-03-16T12:48:41Z</time>
      </trkpt>
      <trkpt lat="30.522452717361723" lon="114.39322286218656">
        <ele>23.04</ele>
        <time>2021-03-16T12:48:44Z</time>
      </trkpt>
      <trkpt lat="30.52272701302708" lon="114.3932363444913">
        <ele>21.21</ele>
        <time>2021-03-16T12:48:54Z</time>
      </trkpt>
      <trkpt lat="30.523083792603728" lon="114.39322085879301">
        <ele>17.78</ele>
        <time>2021-03-16T12:49:05Z</time>
      </trkpt>
      <trkpt lat="30.523330782404337" lon="114.39325292611578">
        <ele>19.06</ele>
        <time>2021-03-16T12:49:15Z</time>
      </trkpt>
      <trkpt lat="30.523550594395292" lon="114.39316815279626">
        <ele>21.31</ele>
        <time>2021-03-16T12:49:24Z</time>
      </trkpt>
      <trkpt lat="30.523601366061936" lon="114.39308844158931">
        <ele>22.53</ele>
        <time>2021-03-16T12:49:26Z</time>
      </trkpt>
      <trkpt lat="30.523657353202562" lon="114.39281934060479">
        <ele>18.5</ele>
        <time>2021-03-16T12:49:35Z</time>
      </trkpt>
      <trkpt lat="30.52362988882558" lon="114.39254647914623">
        <ele>19.34</ele>
        <time>2021-03-16T12:49:44Z</time>
      </trkpt>
      <trkpt lat="30.523530237194098" lon="114.39241553529608">
        <ele>20.72</ele>
        <time>2021-03-16T12:49:50Z</time>
      </trkpt>
      <trkpt lat="30.523399666823664" lon="114.39233370446901">
        <ele>22.81</ele>
        <time>2021-03-16T12:49:57Z</time>
      </trkpt>
      <trkpt lat="30.523079555332785" lon="114.39229703633032">
        <ele>24.56</ele>
        <time>2021-03-16T12:50:09Z</time>
      </trkpt>
      <trkpt lat="30.522808781562585" lon="114.39229140608865">
        <ele>22.09</ele>
        <time>2021-03-16T12:50:20Z</time>
      </trkpt>
      <trkpt lat="30.522613752638303" lon="114.39230353014729">
        <ele>22.16</ele>
        <time>2021-03-16T12:50:30Z</time>
      </trkpt>
      <trkpt lat="30.522519038443146" lon="114.39220392452708">
        <ele>19.4</ele>
        <time>2021-03-16T12:50:41Z</time>
      </trkpt>
      <trkpt lat="30.52237548283899" lon="114.39231359386352">
        <ele>20.24</ele>
        <time>2021-03-16T12:50:59Z</time>
      </trkpt>
      <trkpt lat="30.52230478924019" lon="114.39234363204518">
        <ele>20.25</ele>
        <time>2021-03-16T12:51:02Z</time>
      </trkpt>
      <trkpt lat="30.522149071301826" lon="114.39248633011684">
        <ele>21.48</ele>
        <time>2021-03-16T12:51:09Z</time>
      </trkpt>
      <trkpt lat="30.522105321997557" lon="114.39257617385964">
        <ele>21.25</ele>
        <time>2021-03-16T12:51:12Z</time>
      </trkpt>
      <trkpt lat="30.522079105209237" lon="114.3926759901536">
        <ele>21.56</ele>
        <time>2021-03-16T12:51:14Z</time>
      </trkpt>
      <trkpt lat="30.522077685917743" lon="114.39280665445186">
        <ele>22.55</ele>
        <time>2021-03-16T12:51:17Z</time>
      </trkpt>
      <trkpt lat="30.52209835964682" lon="114.39290670063544">
        <ele>23.16</ele>
        <time>2021-03-16T12:51:20Z</time>
      </trkpt>
      <trkpt lat="30.52217781993209" lon="114.39307468443697">
        <ele>22.81</ele>
        <time>2021-03-16T12:51:26Z</time>
      </trkpt>
      <trkpt lat="30.522255247018492" lon="114.39314419237374">
        <ele>21.76</ele>
        <time>2021-03-16T12:51:29Z</time>
      </trkpt>
      <trkpt lat="30.522441868563657" lon="114.39322837368712">
        <ele>20.0</ele>
        <time>2021-03-16T12:51:35Z</time>
      </trkpt>
      <trkpt lat="30.52279221666662" lon="114.39324926759852">
        <ele>17.91</ele>
        <time>2021-03-16T12:51:47Z</time>
      </trkpt>
      <trkpt lat="30.52306570634791" lon="114.3932374232371">
        <ele>19.29</ele>
        <time>2021-03-16T12:51:56Z</time>
      </trkpt>
      <trkpt lat="30.523354609459687" lon="114.39323953248014">
        <ele>19.65</ele>
        <time>2021-03-16T12:52:06Z</time>
      </trkpt>
      <trkpt lat="30.52351971203086" lon="114.39320171177113">
        <ele>18.06</ele>
        <time>2021-03-16T12:52:11Z</time>
      </trkpt>
      <trkpt lat="30.523577809405143" lon="114.3931459468279">
        <ele>20.08</ele>
        <time>2021-03-16T12:52:14Z</time>
      </trkpt>
      <trkpt lat="30.52367269424813" lon="114.39290818387194">
        <ele>19.06</ele>
        <time>2021-03-16T12:52:23Z</time>
      </trkpt>
      <trkpt lat="30.523683979254955" lon="114.39280153580859">
        <ele>19.79</ele>
        <time>2021-03-16T12:52:26Z</time>
      </trkpt>
      <trkpt lat="30.523676640147976" lon="114.39272056458803">
        <ele>19.28</ele>
        <time>2021-03-16T12:52:29Z</time>
      </trkpt>
      <trkpt lat="30.523614783083495" lon="114.3925651941203">
        <ele>17.83</ele>
        <time>2021-03-16T12:52:35Z</time>
      </trkpt>
      <trkpt lat="30.523521597665045" lon="114.39241787594827">
        <ele>16.98</ele>
        <time>2021-03-16T12:52:41Z</time>
      </trkpt>
      <trkpt lat="30.523362380641014" lon="114.3923087681135">
        <ele>18.88</ele>
        <time>2021-03-16T12:52:48Z</time>
      </trkpt>
      <trkpt lat="30.523083608975256" lon="114.39231242033695">
        <ele>21.29</ele>
        <time>2021-03-16T12:52:56Z</time>
      </trkpt>
      <trkpt lat="30.522987998468892" lon="114.39231395117228">
        <ele>21.88</ele>
        <time>2021-03-16T12:52:59Z</time>
      </trkpt>
      <trkpt lat="30.522724249266627" lon="114.39228487476436">
        <ele>20.54</ele>
        <time>2021-03-16T12:53:09Z</time>
      </trkpt>
      <trkpt lat="30.52241730036217" lon="114.39230141048576">
        <ele>24.89</ele>
        <time>2021-03-16T12:53:20Z</time>
      </trkpt>
      <trkpt lat="30.522368233638492" lon="114.39231728486223">
        <ele>24.15</ele>
        <time>2021-03-16T12:53:24Z</time>
      </trkpt>
      <trkpt lat="30.522256893586455" lon="114.39232136643628">
        <ele>22.79</ele>
        <time>2021-03-16T12:53:29Z</time>
      </trkpt>
      <trkpt lat="30.522157378268826" lon="114.392430465447">
        <ele>23.54</ele>
        <time>2021-03-16T12:53:35Z</time>
      </trkpt>
      <trkpt lat="30.52207651060421" lon="114.39257135272675">
        <ele>24.74</ele>
        <time>2021-03-16T12:53:42Z</time>
      </trkpt>
      <trkpt lat="30.522051520443824" lon="114.39265677523873">
        <ele>26.35</ele>
        <time>2021-03-16T12:53:44Z</time>
      </trkpt>
      <trkpt lat="30.522038302231802" lon="114.39283501207709">
        <ele>27.04</ele>
        <time>2021-03-16T12:53:50Z</time>
      </trkpt>
      <trkpt lat="30.522143041162355" lon="114.39303880515806">
        <ele>23.11</ele>
        <time>2021-03-16T12:53:59Z</time>
      </trkpt>
      <trkpt lat="30.52220590548857" lon="114.39309718022739">
        <ele>21.62</ele>
        <time>2021-03-16T12:54:02Z</time>
      </trkpt>
      <trkpt lat="30.522447389935188" lon="114.39323397513708">
        <ele>23.01</ele>
        <time>2021-03-16T12:54:12Z</time>
      </trkpt>
      <trkpt lat="30.522780265538852" lon="114.39324494651478">
        <ele>17.81</ele>
        <time>2021-03-16T12:54:24Z</time>
      </trkpt>
      <trkpt lat="30.523146170897014" lon="114.39325361713642">
        <ele>18.27</ele>
        <time>2021-03-16T12:54:35Z</time>
      </trkpt>
      <trkpt lat="30.523464278091645" lon="114.39322952934762">
        <ele>16.48</ele>
        <time>2021-03-16T12:54:45Z</time>
      </trkpt>
      <trkpt lat="30.52356584104416" lon="114.39319575999455">
        <ele>15.09</ele>
        <time>2021-03-16T12:54:48Z</time>
      </trkpt>
      <trkpt lat="30.523603880159726" lon="114.39314814728854">
        <ele>17.7</ele>
        <time>2021-03-16T12:54:50Z</time>
      </trkpt>
      <trkpt lat="30.52368487155401" lon="114.39289627068645">
        <ele>19.12</ele>
        <time>2021-03-16T12:54:59Z</time>
      </trkpt>
      <trkpt lat="30.523693911190602" lon="114.39272433549905">
        <ele>17.86</ele>
        <time>2021-03-16T12:55:05Z</time>
      </trkpt>
      <trkpt lat="30.52364097099021" lon="114.39255527140028">
        <ele>18.82</ele>
        <time>2021-03-16T12:55:11Z</time>
      </trkpt>
      <trkpt lat="30.523553615817004" lon="114.39240876341658">
        <ele>22.05</ele>
        <time>2021-03-16T12:55:17Z</time>
      </trkpt>
      <trkpt lat="30.523445283899413" lon="114.39231947053675">
        <ele>23.47</ele>
        <time>2021-03-16T12:55:23Z</time>
      </trkpt>
      <trkpt lat="30.523361043035827" lon="114.39227636964358">
        <ele>22.52</ele>
        <time>2021-03-16T12:55:26Z</time>
      </trkpt>
      <trkpt lat="30.5230465732621" lon="114.39228947450202">
        <ele>23.15</ele>
        <time>2021-03-16T12:55:39Z</time>
      </trkpt>
      <trkpt lat="30.522747510855584" lon="114.39229075619721">
        <ele>24.31</ele>
        <time>2021-03-16T12:55:51Z</time>
      </trkpt>
      <trkpt lat="30.522451114507945" lon="114.39227512345528">
        <ele>21.31</ele>
        <time>2021-03-16T12:56:02Z</time>
      </trkpt>
      <trkpt lat="30.52225396047201" lon="114.39230819300275">
        <ele>22.05</ele>
        <time>2021-03-16T12:56:12Z</time>
      </trkpt>
      <trkpt lat="30.52213527665827" lon="114.39242445397326">
        <ele>22.17</ele>
        <time>2021-03-16T12:56:17Z</time>
      </trkpt>
      <trkpt lat="30.522062042387525" lon="114.39257950492947">
        <ele>21.16</ele>
        <time>2021-03-16T12:56:23Z</time>
      </trkpt>
      <trkpt lat="30.52204093879154" lon="114.3926927047118">
        <ele>23.35</ele>
        <time>2021-03-16T12:56:26Z</time>
      </trkpt>
      <trkpt lat="30.522055615697163" lon="114.39289156685342">
        <ele>25.58</ele>
        <time>2021-03-16T12:56:32Z</time>
      </trkpt>
      <trkpt lat="30.5221895822351" lon="114.39312642799705">
        <ele>22.16</ele>
        <time>2021-03-16T12:56:42Z</time>
      </trkpt>
      <trkpt lat="30.52232826674151" lon="114.39322501331803">
        <ele>21.35</ele>
        <time>2021-03-16T12:56:47Z</time>
      </trkpt>
      <trkpt lat="30.522408435048185" lon="114.39325714141494">
        <ele>21.48</ele>
        <time>2021-03-16T12:56:50Z</time>
      </trkpt>
      <trkpt lat="30.522734069940167" lon="114.39326537210417">
        <ele>21.25</ele>
        <time>2021-03-16T12:57:02Z</time>
      </trkpt>
      <trkpt lat="30.52304026431239" lon="114.3932721524995">
        <ele>18.93</ele>
        <time>2021-03-16T12:57:14Z</time>
      </trkpt>
      <trkpt lat="30.523352519639822" lon="114.39328275387369">
        <ele>14.14</ele>
        <time>2021-03-16T12:57:29Z</time>
      </trkpt>
      <trkpt lat="30.52357999349374" lon="114.3932056025216">
        <ele>16.66</ele>
        <time>2021-03-16T12:57:39Z</time>
      </trkpt>
      <trkpt lat="30.52366552134259" lon="114.39306595538248">
        <ele>19.69</ele>
        <time>2021-03-16T12:57:44Z</time>
      </trkpt>
      <trkpt lat="30.523661813147196" lon="114.39298886512677">
        <ele>19.73</ele>
        <time>2021-03-16T12:57:47Z</time>
      </trkpt>
      <trkpt lat="30.52369594147598" lon="114.39281051811268">
        <ele>16.62</ele>
        <time>2021-03-16T12:57:54Z</time>
      </trkpt>
      <trkpt lat="30.523696367722195" lon="114.39262437926654">
        <ele>15.2</ele>
        <time>2021-03-16T12:58:00Z</time>
      </trkpt>
      <trkpt lat="30.523557276277113" lon="114.3924105838766">
        <ele>18.85</ele>
        <time>2021-03-16T12:58:08Z</time>
      </trkpt>
      <trkpt lat="30.52342981856173" lon="114.39229729480489">
        <ele>18.58</ele>
        <time>2021-03-16T12:58:14Z</time>
      </trkpt>
      <trkpt lat="30.52336999126035" lon="114.39226844753061">
        <ele>18.14</ele>
        <time>2021-03-16T12:58:17Z</time>
      </trkpt>
      <trkpt lat="30.52331092346159" lon="114.39228012085282">
        <ele>18.26</ele>
        <time>2021-03-16T12:58:21Z</time>
      </trkpt>
      <trkpt lat="30.523028721688636" lon="114.39224077184436">
        <ele>20.92</ele>
        <time>2021-03-16T12:58:32Z</time>
      </trkpt>
      <trkpt lat="30.522746113949303" lon="114.39226133850842">
        <ele>23.75</ele>
        <time>2021-03-16T12:58:44Z</time>
      </trkpt>
      <trkpt lat="30.522430109798872" lon="114.39225583850657">
        <ele>17.93</ele>
        <time>2021-03-16T12:58:59Z</time>
      </trkpt>
      <trkpt lat="30.5222449578703" lon="114.39234010139313">
        <ele>21.85</ele>
        <time>2021-03-16T12:59:08Z</time>
      </trkpt>
      <trkpt lat="30.522136463214007" lon="114.3924523512737">
        <ele>22.19</ele>
        <time>2021-03-16T12:59:15Z</time>
      </trkpt>
      <trkpt lat="30.522073369554647" lon="114.39260958276358">
        <ele>22.7</ele>
        <time>2021-03-16T12:59:20Z</time>
      </trkpt>
      <trkpt lat="30.522066515337556" lon="114.39284712513015">
        <ele>22.25</ele>
        <time>2021-03-16T12:59:29Z</time>
      </trkpt>
      <trkpt lat="30.522078324245232" lon="114.3929270060619">
        <ele>23.07</ele>
        <time>2021-03-16T12:59:32Z</time>
      </trkpt>
      <trkpt lat="30.52221451265913" lon="114.39312726810492">
        <ele>22.72</ele>
        <time>2021-03-16T12:59:41Z</time>
      </trkpt>
      <trkpt lat="30.52234986516038" lon="114.39321748123669">
        <ele>21.03</ele>
        <time>2021-03-16T12:59:48Z</time>
      </trkpt>
      <trkpt lat="30.522603008439347" lon="114.39326404234906">
        <ele>17.71</ele>
        <time>2021-03-16T12:59:57Z</time>
      </trkpt>
      <trkpt lat="30.522856846081133" lon="114.39324430599831">
        <ele>20.68</ele>
        <time>2021-03-16T13:00:05Z</time>
      </trkpt>
      <trkpt lat="30.523194343490186" lon="114.3932627593255">
        <ele>21.92</ele>
        <time>2021-03-16T13:00:18Z</time>
      </trkpt>
      <trkpt lat="30.52334614322775" lon="114.39325582680996">
        <ele>19.65</ele>
        <time>2021-03-16T13:00:23Z</time>
      </trkpt>
      <trkpt lat="30.523494404928346" lon="114.39321496537575">
        <ele>19.87</ele>
        <time>2021-03-16T13:00:29Z</time>
      </trkpt>
      <trkpt lat="30.52356100035115" lon="114.39316273994906">
        <ele>19.96</ele>
        <time>2021-03-16T13:00:33Z</time>
      </trkpt>
      <trkpt lat="30.52366539284266" lon="114.39298743473447">
        <ele>18.59</ele>
        <time>2021-03-16T13:00:39Z</time>
      </trkpt>
      <trkpt lat="30.523698851432783" lon="114.39272517569707">
        <ele>19.07</ele>
        <time>2021-03-16T13:00:47Z</time>
      </trkpt>
      <trkpt lat="30.523655048371925" lon="114.39254357827151">
        <ele>20.49</ele>
        <time>2021-03-16T13:00:54Z</time>
      </trkpt>
      <trkpt lat="30.523502149787728" lon="114.39229973511434">
        <ele>24.18</ele>
        <time>2021-03-16T13:01:02Z</time>
      </trkpt>
      <trkpt lat="30.523425188515716" lon="114.39225460365853">
        <ele>25.61</ele>
        <time>2021-03-16T13:01:06Z</time>
      </trkpt>
      <trkpt lat="30.5231768737929" lon="114.39224403202316">
        <ele>24.29</ele>
        <time>2021-03-16T13:01:15Z</time>
      </trkpt>
      <trkpt lat="30.52289732674769" lon="114.39226743941659">
        <ele>24.36</ele>
        <time>2021-03-16T13:01:26Z</time>
      </trkpt>
      <trkpt lat="30.52256279873669" lon="114.3922461753761">
        <ele>22.17</ele>
        <time>2021-03-16T13:01:41Z</time>
      </trkpt>
      <trkpt lat="30.522344278071394" lon="114.39229445899903">
        <ele>23.24</ele>
        <time>2021-03-16T13:01:50Z</time>
      </trkpt>
      <trkpt lat="30.522211898554495" lon="114.39238694380408">
        <ele>21.77</ele>
        <time>2021-03-16T13:01:57Z</time>
      </trkpt>
      <trkpt lat="30.52215164301361" lon="114.39245091082745">
        <ele>21.65</ele>
        <time>2021-03-16T13:02:00Z</time>
      </trkpt>
      <trkpt lat="30.522111041604912" lon="114.39253169217513">
        <ele>23.22</ele>
        <time>2021-03-16T13:02:02Z</time>
      </trkpt>
      <trkpt lat="30.522081334501895" lon="114.3927154404936">
        <ele>24.18</ele>
        <time>2021-03-16T13:02:09Z</time>
      </trkpt>
      <trkpt lat="30.522082947666604" lon="114.39281388632683">
        <ele>23.58</ele>
        <time>2021-03-16T13:02:11Z</time>
      </trkpt>
      <trkpt lat="30.522123188030136" lon="114.39298382079095">
        <ele>24.66</ele>
        <time>2021-03-16T13:02:17Z</time>
      </trkpt>
      <trkpt lat="30.52216901542796" lon="114.39305590953856">
        <ele>23.53</ele>
        <time>2021-03-16T13:02:20Z</time>
      </trkpt>
      <trkpt lat="30.522319083885087" lon="114.39317085910253">
        <ele>21.27</ele>
        <time>2021-03-16T13:02:26Z</time>
      </trkpt>
      <trkpt lat="30.52257841701521" lon="114.39325895111978">
        <ele>20.44</ele>
        <time>2021-03-16T13:02:36Z</time>
      </trkpt>
      <trkpt lat="30.522899948423145" lon="114.3932525779811">
        <ele>21.61</ele>
        <time>2021-03-16T13:02:47Z</time>
      </trkpt>
      <trkpt lat="30.523039210132072" lon="114.39325447784896">
        <ele>22.4</ele>
        <time>2021-03-16T13:02:53Z</time>
      </trkpt>
      <trkpt lat="30.52331045037118" lon="114.39328746530595">
        <ele>19.83</ele>
        <time>2021-03-16T13:03:05Z</time>
      </trkpt>
      <trkpt lat="30.52349008017278" lon="114.39323736129286">
        <ele>17.09</ele>
        <time>2021-03-16T13:03:15Z</time>
      </trkpt>
      <trkpt lat="30.52355913111709" lon="114.39319226709713">
        <ele>19.97</ele>
        <time>2021-03-16T13:03:18Z</time>
      </trkpt>
      <trkpt lat="30.52360785536577" lon="114.39312766187932">
        <ele>23.28</ele>
        <time>2021-03-16T13:03:21Z</time>
      </trkpt>
      <trkpt lat="30.523671055195685" lon="114.39295474611586">
        <ele>24.84</ele>
        <time>2021-03-16T13:03:27Z</time>
      </trkpt>
      <trkpt lat="30.52368725662756" lon="114.392705180503">
        <ele>22.96</ele>
        <time>2021-03-16T13:03:36Z</time>
      </trkpt>
      <trkpt lat="30.523573961470486" lon="114.39243207942953">
        <ele>20.15</ele>
        <time>2021-03-16T13:03:48Z</time>
      </trkpt>
      <trkpt lat="30.52344494358918" lon="114.39231816019544">
        <ele>19.96</ele>
        <time>2021-03-16T13:03:54Z</time>
      </trkpt>
      <trkpt lat="30.523368663018005" lon="114.3922759995121">
        <ele>22.19</ele>
        <time>2021-03-16T13:03:57Z</time>
      </trkpt>
      <trkpt lat="30.523088989984416" lon="114.39227385022188">
        <ele>22.44</ele>
        <time>2021-03-16T13:04:09Z</time>
      </trkpt>
      <trkpt lat="30.522799920024294" lon="114.39228518450133">
        <ele>23.51</ele>
        <time>2021-03-16T13:04:20Z</time>
      </trkpt>
      <trkpt lat="30.52265280973802" lon="114.39228964633743">
        <ele>21.73</ele>
        <time>2021-03-16T13:04:27Z</time>
      </trkpt>
      <trkpt lat="30.52251705339174" lon="114.39226781124283">
        <ele>20.83</ele>
        <time>2021-03-16T13:04:32Z</time>
      </trkpt>
      <trkpt lat="30.52223668312372" lon="114.3923628273786">
        <ele>23.06</ele>
        <time>2021-03-16T13:04:44Z</time>
      </trkpt>
      <trkpt lat="30.522174193277905" lon="114.39240853962939">
        <ele>22.73</ele>
        <time>2021-03-16T13:04:48Z</time>
      </trkpt>
      <trkpt lat="30.52209080912012" lon="114.39256448086051">
        <ele>24.2</ele>
        <time>2021-03-16T13:04:53Z</time>
      </trkpt>
      <trkpt lat="30.522063982340185" lon="114.39274944949726">
        <ele>23.46</ele>
        <time>2021-03-16T13:04:59Z</time>
      </trkpt>
      <trkpt lat="30.522109144856636" lon="114.39292841629255">
        <ele>21.81</ele>
        <time>2021-03-16T13:05:05Z</time>
      </trkpt>
      <trkpt lat="30.522147166453696" lon="114.3930186598418">
        <ele>22.17</ele>
        <time>2021-03-16T13:05:09Z</time>
      </trkpt>
      <trkpt lat="30.522199763707153" lon="114.393089858329">
        <ele>22.34</ele>
        <time>2021-03-16T13:05:11Z</time>
      </trkpt>
      <trkpt lat="30.522402958371607" lon="114.39322905404293">
        <ele>21.41</ele>
        <time>2021-03-16T13:05:20Z</time>
      </trkpt>
      <trkpt lat="30.52270742497134" lon="114.3932453369484">
        <ele>18.56</ele>
        <time>2021-03-16T13:05:32Z</time>
      </trkpt>
      <trkpt lat="30.523038146933935" lon="114.3932409642948">
        <ele>21.38</ele>
        <time>2021-03-16T13:05:44Z</time>
      </trkpt>
      <trkpt lat="30.52337129238605" lon="114.39325129550227">
        <ele>20.4</ele>
        <time>2021-03-16T13:05:59Z</time>
      </trkpt>
      <trkpt lat="30.52349955404052" lon="114.39321100430939">
        <ele>21.79</ele>
        <time>2021-03-16T13:06:05Z</time>
      </trkpt>
      <trkpt lat="30.52355756374595" lon="114.39316513196945">
        <ele>23.88</ele>
        <time>2021-03-16T13:06:08Z</time>
      </trkpt>
      <trkpt lat="30.523587137317193" lon="114.39309431319872">
        <ele>24.1</ele>
        <time>2021-03-16T13:06:11Z</time>
      </trkpt>
      <trkpt lat="30.52359291927237" lon="114.39301751297224">
        <ele>23.68</ele>
        <time>2021-03-16T13:06:15Z</time>
      </trkpt>
      <trkpt lat="30.523641685026305" lon="114.39287019403218">
        <ele>20.52</ele>
        <time>2021-03-16T13:06:20Z</time>
      </trkpt>
      <trkpt lat="30.52365906708518" lon="114.39270821142645">
        <ele>19.9</ele>
        <time>2021-03-16T13:06:26Z</time>
      </trkpt>
      <trkpt lat="30.523643587228673" lon="114.39262430948826">
        <ele>19.96</ele>
        <time>2021-03-16T13:06:29Z</time>
      </trkpt>
      <trkpt lat="30.52351016332435" lon="114.39239981127032">
        <ele>22.11</ele>
        <time>2021-03-16T13:06:38Z</time>
      </trkpt>
      <trkpt lat="30.523353575544448" lon="114.39228736255325">
        <ele>22.91</ele>
        <time>2021-03-16T13:06:44Z</time>
      </trkpt>
      <trkpt lat="30.52305324961418" lon="114.39227365033213">
        <ele>22.45</ele>
        <time>2021-03-16T13:06:56Z</time>
      </trkpt>
      <trkpt lat="30.522792963430824" lon="114.39229998840588">
        <ele>24.83</ele>
        <time>2021-03-16T13:07:08Z</time>
      </trkpt>
      <trkpt lat="30.522619404852968" lon="114.39227009137393">
        <ele>23.68</ele>
        <time>2021-03-16T13:07:14Z</time>
      </trkpt>
      <trkpt lat="30.522471598087687" lon="114.392289607151">
        <ele>22.23</ele>
        <time>2021-03-16T13:07:20Z</time>
      </trkpt>
      <trkpt lat="30.522236085478774" lon="114.39241553117874">
        <ele>21.05</ele>
        <time>2021-03-16T13:07:32Z</time>
      </trkpt>
      <trkpt lat="30.52209212306356" lon="114.39262379640539">
        <ele>22.62</ele>
        <time>2021-03-16T13:07:41Z</time>
      </trkpt>
      <trkpt lat="30.522063785245496" lon="114.39276181274313">
        <ele>22.81</ele>
        <time>2021-03-16T13:07:47Z</time>
      </trkpt>
      <trkpt lat="30.52211469358343" lon="114.39296526595206">
        <ele>23.85</ele>
        <time>2021-03-16T13:07:56Z</time>
      </trkpt>
      <trkpt lat="30.522316535860003" lon="114.39317933134423">
        <ele>18.22</ele>
        <time>2021-03-16T13:08:09Z</time>
      </trkpt>
      <trkpt lat="30.522458295720394" lon="114.39321569027281">
        <ele>18.23</ele>
        <time>2021-03-16T13:08:15Z</time>
      </trkpt>
      <trkpt lat="30.522749809002406" lon="114.39321840966507">
        <ele>19.45</ele>
        <time>2021-03-16T13:08:27Z</time>
      </trkpt>
      <trkpt lat="30.523047336160424" lon="114.39323733329685">
        <ele>21.38</ele>
        <time>2021-03-16T13:08:38Z</time>
      </trkpt>
      <trkpt lat="30.523372535612435" lon="114.39322253792344">
        <ele>15.79</ele>
        <time>2021-03-16T13:08:53Z</time>
      </trkpt>
      <trkpt lat="30.523446444206755" lon="114.3932137452724">
        <ele>17.11</ele>
        <time>2021-03-16T13:08:56Z</time>
      </trkpt>
      <trkpt lat="30.523495395887085" lon="114.39317659526941">
        <ele>17.3</ele>
        <time>2021-03-16T13:08:59Z</time>
      </trkpt>
      <trkpt lat="30.523570279060195" lon="114.39305992422894">
        <ele>18.54</ele>
        <time>2021-03-16T13:09:05Z</time>
      </trkpt>
      <trkpt lat="30.52363997104064" lon="114.39281081844601">
        <ele>19.62</ele>
        <time>2021-03-16T13:09:14Z</time>
      </trkpt>
      <trkpt lat="30.52365282002399" lon="114.39263585247339">
        <ele>20.22</ele>
        <time>2021-03-16T13:09:21Z</time>
      </trkpt>
      <trkpt lat="30.523514811640375" lon="114.39234980815975">
        <ele>18.97</ele>
        <time>2021-03-16T13:09:32Z</time>
      </trkpt>
      <trkpt lat="30.523460040647226" lon="114.39230502669034">
        <ele>18.98</ele>
        <time>2021-03-16T13:09:35Z</time>
      </trkpt>
      <trkpt lat="30.52332549359101" lon="114.39228011078391">
        <ele>22.04</ele>
        <time>2021-03-16T13:09:41Z</time>
      </trkpt>
      <trkpt lat="30.523010333501503" lon="114.39229189530013">
        <ele>22.22</ele>
        <time>2021-03-16T13:09:56Z</time>
      </trkpt>
      <trkpt lat="30.522727851725502" lon="114.39229522745633">
        <ele>22.58</ele>
        <time>2021-03-16T13:10:08Z</time>
      </trkpt>
      <trkpt lat="30.5224212078704" lon="114.39229062764703">
        <ele>19.85</ele>
        <time>2021-03-16T13:10:21Z</time>
      </trkpt>
      <trkpt lat="30.522239386300637" lon="114.39237627088524">
        <ele>22.15</ele>
        <time>2021-03-16T13:10:33Z</time>
      </trkpt>
      <trkpt lat="30.522099943983136" lon="114.39258483615485">
        <ele>22.62</ele>
        <time>2021-03-16T13:10:47Z</time>
      </trkpt>
      <trkpt lat="30.52208121277859" lon="114.39275064973401">
        <ele>22.85</ele>
        <time>2021-03-16T13:10:56Z</time>
      </trkpt>
      <trkpt lat="30.52211169319368" lon="114.39292125439897">
        <ele>22.67</ele>
        <time>2021-03-16T13:11:05Z</time>
      </trkpt>
      <trkpt lat="30.522200560630864" lon="114.39307677488361">
        <ele>22.35</ele>
        <time>2021-03-16T13:11:15Z</time>
      </trkpt>
      <trkpt lat="30.522390553698028" lon="114.39320971900817">
        <ele>15.84</ele>
        <time>2021-03-16T13:11:26Z</time>
      </trkpt>
      <trkpt lat="30.522488559019667" lon="114.39322851351193">
        <ele>18.07</ele>
        <time>2021-03-16T13:11:32Z</time>
      </trkpt>
      <trkpt lat="30.52259229399424" lon="114.39320322638268">
        <ele>16.2</ele>
        <time>2021-03-16T13:11:38Z</time>
      </trkpt>
      <trkpt lat="30.52286730589223" lon="114.39320071447239">
        <ele>17.45</ele>
        <time>2021-03-16T13:11:56Z</time>
      </trkpt>
      <trkpt lat="30.52291290646782" lon="114.39320140444694">
        <ele>17.49</ele>
        <time>2021-03-16T13:11:59Z</time>
      </trkpt>
      <trkpt lat="30.523033350012955" lon="114.39325419780181">
        <ele>16.58</ele>
        <time>2021-03-16T13:12:08Z</time>
      </trkpt>
      <trkpt lat="30.523324484587278" lon="114.39326241864455">
        <ele>15.83</ele>
        <time>2021-03-16T13:12:27Z</time>
      </trkpt>
      <trkpt lat="30.523452205830374" lon="114.39322040700033">
        <ele>18.17</ele>
        <time>2021-03-16T13:12:36Z</time>
      </trkpt>
      <trkpt lat="30.523546501751873" lon="114.39315709990558">
        <ele>19.17</ele>
        <time>2021-03-16T13:12:41Z</time>
      </trkpt>
      <trkpt lat="30.52362602276475" lon="114.39298861522377">
        <ele>16.41</ele>
        <time>2021-03-16T13:12:50Z</time>
      </trkpt>
      <trkpt lat="30.5236551322691" lon="114.39285796075765">
        <ele>17.86</ele>
        <time>2021-03-16T13:12:56Z</time>
      </trkpt>
      <trkpt lat="30.523692766549253" lon="114.39274717149735">
        <ele>20.07</ele>
        <time>2021-03-16T13:13:02Z</time>
      </trkpt>
      <trkpt lat="30.52368666044228" lon="114.3925937612824">
        <ele>22.51</ele>
        <time>2021-03-16T13:13:12Z</time>
      </trkpt>
      <trkpt lat="30.52363755414094" lon="114.39244101147946">
        <ele>23.62</ele>
        <time>2021-03-16T13:13:20Z</time>
      </trkpt>
      <trkpt lat="30.523553653555833" lon="114.39235647972924">
        <ele>18.15</ele>
        <time>2021-03-16T13:13:27Z</time>
      </trkpt>
      <trkpt lat="30.523398574003398" lon="114.39227905017405">
        <ele>22.27</ele>
        <time>2021-03-16T13:13:36Z</time>
      </trkpt>
      <trkpt lat="30.523081625277104" lon="114.39225404507512">
        <ele>24.53</ele>
        <time>2021-03-16T13:13:54Z</time>
      </trkpt>
      <trkpt lat="30.52281001399805" lon="114.39225907762652">
        <ele>26.71</ele>
        <time>2021-03-16T13:14:12Z</time>
      </trkpt>
      <trkpt lat="30.522681790507765" lon="114.39224913560929">
        <ele>25.37</ele>
        <time>2021-03-16T13:14:20Z</time>
      </trkpt>
      <trkpt lat="30.52238974541839" lon="114.39232404653373">
        <ele>21.56</ele>
        <time>2021-03-16T13:14:41Z</time>
      </trkpt>
      <trkpt lat="30.522246516962348" lon="114.39242145268186">
        <ele>19.87</ele>
        <time>2021-03-16T13:14:48Z</time>
      </trkpt>
      <trkpt lat="30.52217580253474" lon="114.39249055110118">
        <ele>21.03</ele>
        <time>2021-03-16T13:14:50Z</time>
      </trkpt>
      <trkpt lat="30.52211873168922" lon="114.39257434331887">
        <ele>22.23</ele>
        <time>2021-03-16T13:14:53Z</time>
      </trkpt>
      <trkpt lat="30.52208504807271" lon="114.39277301558718">
        <ele>24.51</ele>
        <time>2021-03-16T13:15:00Z</time>
      </trkpt>
      <trkpt lat="30.52209298976474" lon="114.39286491968369">
        <ele>23.2</ele>
        <time>2021-03-16T13:15:03Z</time>
      </trkpt>
      <trkpt lat="30.522177870844086" lon="114.39303611429226">
        <ele>22.46</ele>
        <time>2021-03-16T13:15:08Z</time>
      </trkpt>
      <trkpt lat="30.522253893818146" lon="114.3930882476595">
        <ele>20.95</ele>
        <time>2021-03-16T13:15:12Z</time>
      </trkpt>
      <trkpt lat="30.52231598167275" lon="114.3931615966786">
        <ele>22.41</ele>
        <time>2021-03-16T13:15:15Z</time>
      </trkpt>
      <trkpt lat="30.5223894121281" lon="114.39320310727257">
        <ele>22.45</ele>
        <time>2021-03-16T13:15:18Z</time>
      </trkpt>
      <trkpt lat="30.522670147131926" lon="114.3932135387443">
        <ele>24.83</ele>
        <time>2021-03-16T13:15:27Z</time>
      </trkpt>
      <trkpt lat="30.522982581822255" lon="114.393221429403">
        <ele>28.75</ele>
        <time>2021-03-16T13:15:38Z</time>
      </trkpt>
      <trkpt lat="30.523316831887723" lon="114.39320888458147">
        <ele>25.68</ele>
        <time>2021-03-16T13:15:50Z</time>
      </trkpt>
      <trkpt lat="30.52346234950908" lon="114.39319321979605">
        <ele>22.15</ele>
        <time>2021-03-16T13:15:56Z</time>
      </trkpt>
      <trkpt lat="30.523577900904723" lon="114.39310988733835">
        <ele>21.09</ele>
        <time>2021-03-16T13:16:02Z</time>
      </trkpt>
      <trkpt lat="30.523613552595396" lon="114.39303082637943">
        <ele>20.85</ele>
        <time>2021-03-16T13:16:05Z</time>
      </trkpt>
      <trkpt lat="30.523649005643307" lon="114.39287253461374">
        <ele>21.63</ele>
        <time>2021-03-16T13:16:11Z</time>
      </trkpt>
      <trkpt lat="30.523644959783734" lon="114.39263513232025">
        <ele>20.87</ele>
        <time>2021-03-16T13:16:20Z</time>
      </trkpt>
      <trkpt lat="30.52353477390649" lon="114.39244397272249">
        <ele>19.19</ele>
        <time>2021-03-16T13:16:30Z</time>
      </trkpt>
      <trkpt lat="30.52348443047591" lon="114.39238865846745">
        <ele>18.92</ele>
        <time>2021-03-16T13:16:33Z</time>
      </trkpt>
      <trkpt lat="30.523216157642256" lon="114.3923016169075">
        <ele>24.34</ele>
        <time>2021-03-16T13:16:45Z</time>
      </trkpt>
      <trkpt lat="30.52293280339303" lon="114.39229442631485">
        <ele>25.1</ele>
        <time>2021-03-16T13:16:56Z</time>
      </trkpt>
      <trkpt lat="30.522599352765805" lon="114.39230463050065">
        <ele>25.22</ele>
        <time>2021-03-16T13:17:11Z</time>
      </trkpt>
      <trkpt lat="30.522370173447392" lon="114.39231639462047">
        <ele>23.61</ele>
        <time>2021-03-16T13:17:21Z</time>
      </trkpt>
      <trkpt lat="30.522312468556986" lon="114.39234042116998">
        <ele>22.49</ele>
        <time>2021-03-16T13:17:23Z</time>
      </trkpt>
      <trkpt lat="30.522214351521328" lon="114.39244212824235">
        <ele>20.75</ele>
        <time>2021-03-16T13:17:30Z</time>
      </trkpt>
      <trkpt lat="30.522123097254095" lon="114.39259786946658">
        <ele>20.8</ele>
        <time>2021-03-16T13:17:35Z</time>
      </trkpt>
      <trkpt lat="30.522093693308015" lon="114.392752420142">
        <ele>22.3</ele>
        <time>2021-03-16T13:17:41Z</time>
      </trkpt>
      <trkpt lat="30.522106343533377" lon="114.39283792253241">
        <ele>22.8</ele>
        <time>2021-03-16T13:17:45Z</time>
      </trkpt>
      <trkpt lat="30.52220421463921" lon="114.39305120814221">
        <ele>25.08</ele>
        <time>2021-03-16T13:17:53Z</time>
      </trkpt>
      <trkpt lat="30.52231147968844" lon="114.39315335452973">
        <ele>25.14</ele>
        <time>2021-03-16T13:17:59Z</time>
      </trkpt>
      <trkpt lat="30.522500402378604" lon="114.39319990592575">
        <ele>22.98</ele>
        <time>2021-03-16T13:18:09Z</time>
      </trkpt>
      <trkpt lat="30.522818553235517" lon="114.39319132222111">
        <ele>19.76</ele>
        <time>2021-03-16T13:18:23Z</time>
      </trkpt>
      <trkpt lat="30.52312743019777" lon="114.39320898546848">
        <ele>22.75</ele>
        <time>2021-03-16T13:18:36Z</time>
      </trkpt>
      <trkpt lat="30.523400900239157" lon="114.39319867151055">
        <ele>25.34</ele>
        <time>2021-03-16T13:18:45Z</time>
      </trkpt>
      <trkpt lat="30.523483546737694" lon="114.39318065639232">
        <ele>26.8</ele>
        <time>2021-03-16T13:18:48Z</time>
      </trkpt>
      <trkpt lat="30.523550582027678" lon="114.39311569899168">
        <ele>25.03</ele>
        <time>2021-03-16T13:18:50Z</time>
      </trkpt>
      <trkpt lat="30.523639800946473" lon="114.39289542066803">
        <ele>22.53</ele>
        <time>2021-03-16T13:18:56Z</time>
      </trkpt>
      <trkpt lat="30.52366417354491" lon="114.39277801972474">
        <ele>20.19</ele>
        <time>2021-03-16T13:18:59Z</time>
      </trkpt>
      <trkpt lat="30.523646645665224" lon="114.3926600988608">
        <ele>17.94</ele>
        <time>2021-03-16T13:19:03Z</time>
      </trkpt>
      <trkpt lat="30.52357830707231" lon="114.39254099794427">
        <ele>18.03</ele>
        <time>2021-03-16T13:19:05Z</time>
      </trkpt>
      <trkpt lat="30.523495122886214" lon="114.39244115216412">
        <ele>16.42</ele>
        <time>2021-03-16T13:19:08Z</time>
      </trkpt>
      <trkpt lat="30.523306319417415" lon="114.39234836873133">
        <ele>20.87</ele>
        <time>2021-03-16T13:19:14Z</time>
      </trkpt>
      <trkpt lat="30.523041947430723" lon="114.39230743922312">
        <ele>25.07</ele>
        <time>2021-03-16T13:19:23Z</time>
      </trkpt>
      <trkpt lat="30.522703614138837" lon="114.39230646050544">
        <ele>22.48</ele>
        <time>2021-03-16T13:19:38Z</time>
      </trkpt>
      <trkpt lat="30.52241174167629" lon="114.39230723203416">
        <ele>24.62</ele>
        <time>2021-03-16T13:19:50Z</time>
      </trkpt>
      <trkpt lat="30.522266773874836" lon="114.39236486777591">
        <ele>23.08</ele>
        <time>2021-03-16T13:19:56Z</time>
      </trkpt>
      <trkpt lat="30.522188772988663" lon="114.39244937025525">
        <ele>22.61</ele>
        <time>2021-03-16T13:19:59Z</time>
      </trkpt>
      <trkpt lat="30.522123750445132" lon="114.39256885185658">
        <ele>21.79</ele>
        <time>2021-03-16T13:20:03Z</time>
      </trkpt>
      <trkpt lat="30.522108754625318" lon="114.39279996255377">
        <ele>23.53</ele>
        <time>2021-03-16T13:20:09Z</time>
      </trkpt>
      <trkpt lat="30.522130323735286" lon="114.39288035356834">
        <ele>23.48</ele>
        <time>2021-03-16T13:20:11Z</time>
      </trkpt>
      <trkpt lat="30.5222136911098" lon="114.3930358640638">
        <ele>19.92</ele>
        <time>2021-03-16T13:20:17Z</time>
      </trkpt>
      <trkpt lat="30.5223288840587" lon="114.39312880799082">
        <ele>21.06</ele>
        <time>2021-03-16T13:20:23Z</time>
      </trkpt>
      <trkpt lat="30.522471017752654" lon="114.39318142119292">
        <ele>22.29</ele>
        <time>2021-03-16T13:20:29Z</time>
      </trkpt>
      <trkpt lat="30.52286235174236" lon="114.39318330991293">
        <ele>22.66</ele>
        <time>2021-03-16T13:20:42Z</time>
      </trkpt>
      <trkpt lat="30.523116383083757" lon="114.39317924768964">
        <ele>20.84</ele>
        <time>2021-03-16T13:20:47Z</time>
      </trkpt>
      <trkpt lat="30.52344719944521" lon="114.39319352994654">
        <ele>22.79</ele>
        <time>2021-03-16T13:20:59Z</time>
      </trkpt>
      <trkpt lat="30.52350584642272" lon="114.39317846571431">
        <ele>24.77</ele>
        <time>2021-03-16T13:21:02Z</time>
      </trkpt>
      <trkpt lat="30.52355013913609" lon="114.39314586693261">
        <ele>27.11</ele>
        <time>2021-03-16T13:21:06Z</time>
      </trkpt>
      <trkpt lat="30.523590012859266" lon="114.39307528818064">
        <ele>24.61</ele>
        <time>2021-03-16T13:21:08Z</time>
      </trkpt>
      <trkpt lat="30.523649338887395" lon="114.39275878474298">
        <ele>20.9</ele>
        <time>2021-03-16T13:21:20Z</time>
      </trkpt>
      <trkpt lat="30.523662255150548" lon="114.39265730805778">
        <ele>20.16</ele>
        <time>2021-03-16T13:21:23Z</time>
      </trkpt>
      <trkpt lat="30.523602470837133" lon="114.39255610179303">
        <ele>19.11</ele>
        <time>2021-03-16T13:21:29Z</time>
      </trkpt>
      <trkpt lat="30.523565805942116" lon="114.39249406570308">
        <ele>18.64</ele>
        <time>2021-03-16T13:21:33Z</time>
      </trkpt>
      <trkpt lat="30.523447361672662" lon="114.39239519034614">
        <ele>20.48</ele>
        <time>2021-03-16T13:21:39Z</time>
      </trkpt>
      <trkpt lat="30.523300236975064" lon="114.39233818609408">
        <ele>22.92</ele>
        <time>2021-03-16T13:21:45Z</time>
      </trkpt>
      <trkpt lat="30.52302857117369" lon="114.39232392359722">
        <ele>24.34</ele>
        <time>2021-03-16T13:21:56Z</time>
      </trkpt>
      <trkpt lat="30.52271005328748" lon="114.39230257946075">
        <ele>24.65</ele>
        <time>2021-03-16T13:22:11Z</time>
      </trkpt>
      <trkpt lat="30.522596017600726" lon="114.39232538594656">
        <ele>25.93</ele>
        <time>2021-03-16T13:22:17Z</time>
      </trkpt>
      <trkpt lat="30.522462104631785" lon="114.39231789459507">
        <ele>26.94</ele>
        <time>2021-03-16T13:22:23Z</time>
      </trkpt>
      <trkpt lat="30.52227782912841" lon="114.39238684347819">
        <ele>25.3</ele>
        <time>2021-03-16T13:22:32Z</time>
      </trkpt>
      <trkpt lat="30.522183245229247" lon="114.39250174399979">
        <ele>23.16</ele>
        <time>2021-03-16T13:22:39Z</time>
      </trkpt>
      <trkpt lat="30.52214574890222" lon="114.39268913329879">
        <ele>19.45</ele>
        <time>2021-03-16T13:22:47Z</time>
      </trkpt>
      <trkpt lat="30.522171472409777" lon="114.39291562264768">
        <ele>19.88</ele>
        <time>2021-03-16T13:22:56Z</time>
      </trkpt>
      <trkpt lat="30.52219347198662" lon="114.3929979141769">
        <ele>19.79</ele>
        <time>2021-03-16T13:22:59Z</time>
      </trkpt>
      <trkpt lat="30.52222747523419" lon="114.39305283846537">
        <ele>19.89</ele>
        <time>2021-03-16T13:23:02Z</time>
      </trkpt>
      <trkpt lat="30.52239757642146" lon="114.39313618962142">
        <ele>20.6</ele>
        <time>2021-03-16T13:23:11Z</time>
      </trkpt>
      <trkpt lat="30.522689449249782" lon="114.3931793796636">
        <ele>22.26</ele>
        <time>2021-03-16T13:23:24Z</time>
      </trkpt>
      <trkpt lat="30.52282323691103" lon="114.3931643250932">
        <ele>22.24</ele>
        <time>2021-03-16T13:23:29Z</time>
      </trkpt>
      <trkpt lat="30.52313526447424" lon="114.3931844189652">
        <ele>21.92</ele>
        <time>2021-03-16T13:23:41Z</time>
      </trkpt>
      <trkpt lat="30.523359567074344" lon="114.39318683858312">
        <ele>24.52</ele>
        <time>2021-03-16T13:23:50Z</time>
      </trkpt>
      <trkpt lat="30.52349704217079" lon="114.39311835993517">
        <ele>25.1</ele>
        <time>2021-03-16T13:23:56Z</time>
      </trkpt>
      <trkpt lat="30.523561089175427" lon="114.39289091984334">
        <ele>22.53</ele>
        <time>2021-03-16T13:24:05Z</time>
      </trkpt>
      <trkpt lat="30.523626874909404" lon="114.39274273063143">
        <ele>19.38</ele>
        <time>2021-03-16T13:24:11Z</time>
      </trkpt>
      <trkpt lat="30.523613547326377" lon="114.39266844119956">
        <ele>18.91</ele>
        <time>2021-03-16T13:24:14Z</time>
      </trkpt>
      <trkpt lat="30.523518656619355" lon="114.39245615598675">
        <ele>19.98</ele>
        <time>2021-03-16T13:24:24Z</time>
      </trkpt>
      <trkpt lat="30.523327780125108" lon="114.39235055920702">
        <ele>20.65</ele>
        <time>2021-03-16T13:24:32Z</time>
      </trkpt>
      <trkpt lat="30.52298364576667" lon="114.39234524938234">
        <ele>23.09</ele>
        <time>2021-03-16T13:24:47Z</time>
      </trkpt>
      <trkpt lat="30.522829315322095" lon="114.39234931114709">
        <ele>22.54</ele>
        <time>2021-03-16T13:24:53Z</time>
      </trkpt>
      <trkpt lat="30.522522048433945" lon="114.39233179796072">
        <ele>23.5</ele>
        <time>2021-03-16T13:25:05Z</time>
      </trkpt>
      <trkpt lat="30.522356025464465" lon="114.39236819824202">
        <ele>23.61</ele>
        <time>2021-03-16T13:25:14Z</time>
      </trkpt>
      <trkpt lat="30.522237711857375" lon="114.39244265827502">
        <ele>19.19</ele>
        <time>2021-03-16T13:25:21Z</time>
      </trkpt>
      <trkpt lat="30.522200524406816" lon="114.39249757282845">
        <ele>18.69</ele>
        <time>2021-03-16T13:25:23Z</time>
      </trkpt>
      <trkpt lat="30.522136832085586" lon="114.39274555814508">
        <ele>18.56</ele>
        <time>2021-03-16T13:25:32Z</time>
      </trkpt>
      <trkpt lat="30.52215643739028" lon="114.39289487726526">
        <ele>18.88</ele>
        <time>2021-03-16T13:25:38Z</time>
      </trkpt>
      <trkpt lat="30.52220533765805" lon="114.39297907917141">
        <ele>19.35</ele>
        <time>2021-03-16T13:25:41Z</time>
      </trkpt>
      <trkpt lat="30.522270725800542" lon="114.39305357846362">
        <ele>19.66</ele>
        <time>2021-03-16T13:25:44Z</time>
      </trkpt>
      <trkpt lat="30.52240662074859" lon="114.39315419431877">
        <ele>18.99</ele>
        <time>2021-03-16T13:25:50Z</time>
      </trkpt>
      <trkpt lat="30.522478688069842" lon="114.39318247143456">
        <ele>19.15</ele>
        <time>2021-03-16T13:25:53Z</time>
      </trkpt>
      <trkpt lat="30.522775901240415" lon="114.39318450061901">
        <ele>21.54</ele>
        <time>2021-03-16T13:26:06Z</time>
      </trkpt>
      <trkpt lat="30.522966681436458" lon="114.39317800804334">
        <ele>23.27</ele>
        <time>2021-03-16T13:26:15Z</time>
      </trkpt>
      <trkpt lat="30.523279180449983" lon="114.39320423352795">
        <ele>20.8</ele>
        <time>2021-03-16T13:26:27Z</time>
      </trkpt>
      <trkpt lat="30.523419855409177" lon="114.39317746584184">
        <ele>20.61</ele>
        <time>2021-03-16T13:26:33Z</time>
      </trkpt>
      <trkpt lat="30.523485207935764" lon="114.39314326654329">
        <ele>22.76</ele>
        <time>2021-03-16T13:26:36Z</time>
      </trkpt>
      <trkpt lat="30.52357820748882" lon="114.39292557887238">
        <ele>18.91</ele>
        <time>2021-03-16T13:26:45Z</time>
      </trkpt>
      <trkpt lat="30.523612631761022" lon="114.39272988732556">
        <ele>16.36</ele>
        <time>2021-03-16T13:26:52Z</time>
      </trkpt>
      <trkpt lat="30.523610738045587" lon="114.39262905088101">
        <ele>16.07</ele>
        <time>2021-03-16T13:26:54Z</time>
      </trkpt>
      <trkpt lat="30.52357966408102" lon="114.39252820458535">
        <ele>17.59</ele>
        <time>2021-03-16T13:26:57Z</time>
      </trkpt>
      <trkpt lat="30.523423157113974" lon="114.39237668561181">
        <ele>21.98</ele>
        <time>2021-03-16T13:27:03Z</time>
      </trkpt>
      <trkpt lat="30.523204883877874" lon="114.39232865403328">
        <ele>22.42</ele>
        <time>2021-03-16T13:27:09Z</time>
      </trkpt>
      <trkpt lat="30.5228857491403" lon="114.39232076341972">
        <ele>23.92</ele>
        <time>2021-03-16T13:27:18Z</time>
      </trkpt>
      <trkpt lat="30.522567245485494" lon="114.39231747400707">
        <ele>22.68</ele>
        <time>2021-03-16T13:27:30Z</time>
      </trkpt>
      <trkpt lat="30.52243267850878" lon="114.3922929081915">
        <ele>22.52</ele>
        <time>2021-03-16T13:27:36Z</time>
      </trkpt>
      <trkpt lat="30.522245817948566" lon="114.39242568379296">
        <ele>20.75</ele>
        <time>2021-03-16T13:27:49Z</time>
      </trkpt>
      <trkpt lat="30.522166793174804" lon="114.39257881427251">
        <ele>17.69</ele>
        <time>2021-03-16T13:27:57Z</time>
      </trkpt>
      <trkpt lat="30.522137355384203" lon="114.39284459414371">
        <ele>19.3</ele>
        <time>2021-03-16T13:28:09Z</time>
      </trkpt>
      <trkpt lat="30.522157475094517" lon="114.39292756584958">
        <ele>18.06</ele>
        <time>2021-03-16T13:28:12Z</time>
      </trkpt>
      <trkpt lat="30.52226131943004" lon="114.39306934265271">
        <ele>15.52</ele>
        <time>2021-03-16T13:28:21Z</time>
      </trkpt>
      <trkpt lat="30.52237934099674" lon="114.3931562949955">
        <ele>16.93</ele>
        <time>2021-03-16T13:28:27Z</time>
      </trkpt>
      <trkpt lat="30.52257625220214" lon="114.39319624461741">
        <ele>18.35</ele>
        <time>2021-03-16T13:28:36Z</time>
      </trkpt>
      <trkpt lat="30.522886576684837" lon="114.39320333507482">
        <ele>17.21</ele>
        <time>2021-03-16T13:28:52Z</time>
      </trkpt>
      <trkpt lat="30.52304920860749" lon="114.39320524483891">
        <ele>17.31</ele>
        <time>2021-03-16T13:29:00Z</time>
      </trkpt>
      <trkpt lat="30.523148274391435" lon="114.39318356868226">
        <ele>17.13</ele>
        <time>2021-03-16T13:29:06Z</time>
      </trkpt>
      <trkpt lat="30.523343868944757" lon="114.39319537090068">
        <ele>19.72</ele>
        <time>2021-03-16T13:29:15Z</time>
      </trkpt>
      <trkpt lat="30.523440882914926" lon="114.39316608274991">
        <ele>18.51</ele>
        <time>2021-03-16T13:29:21Z</time>
      </trkpt>
      <trkpt lat="30.523496392572856" lon="114.39312009039347">
        <ele>20.41</ele>
        <time>2021-03-16T13:29:24Z</time>
      </trkpt>
      <trkpt lat="30.523584642722835" lon="114.3929900257827">
        <ele>19.11</ele>
        <time>2021-03-16T13:29:30Z</time>
      </trkpt>
      <trkpt lat="30.523625758881607" lon="114.39280218624408">
        <ele>18.95</ele>
        <time>2021-03-16T13:29:36Z</time>
      </trkpt>
      <trkpt lat="30.52362082291418" lon="114.39269193733043">
        <ele>18.84</ele>
        <time>2021-03-16T13:29:39Z</time>
      </trkpt>
      <trkpt lat="30.52359663938658" lon="114.39259273142177">
        <ele>21.31</ele>
        <time>2021-03-16T13:29:42Z</time>
      </trkpt>
      <trkpt lat="30.52342779927184" lon="114.39238570795261">
        <ele>22.31</ele>
        <time>2021-03-16T13:29:51Z</time>
      </trkpt>
      <trkpt lat="30.523233433137204" lon="114.39232439278835">
        <ele>23.3</ele>
        <time>2021-03-16T13:30:00Z</time>
      </trkpt>
      <trkpt lat="30.52306164637161" lon="114.39234481891498">
        <ele>20.07</ele>
        <time>2021-03-16T13:30:09Z</time>
      </trkpt>
      <trkpt lat="30.522893788085256" lon="114.39231595212424">
        <ele>18.5</ele>
        <time>2021-03-16T13:30:21Z</time>
      </trkpt>
      <trkpt lat="30.522593659387272" lon="114.39233309797538">
        <ele>19.77</ele>
        <time>2021-03-16T13:30:39Z</time>
      </trkpt>
      <trkpt lat="30.522429798126055" lon="114.39233404896912">
        <ele>21.26</ele>
        <time>2021-03-16T13:30:48Z</time>
      </trkpt>
      <trkpt lat="30.52232758990061" lon="114.39238821361072">
        <ele>18.0</ele>
        <time>2021-03-16T13:30:54Z</time>
      </trkpt>
      <trkpt lat="30.522219403594207" lon="114.39249338164461">
        <ele>15.56</ele>
        <time>2021-03-16T13:31:00Z</time>
      </trkpt>
      <trkpt lat="30.52216799163766" lon="114.39257222253914">
        <ele>16.31</ele>
        <time>2021-03-16T13:31:03Z</time>
      </trkpt>
      <trkpt lat="30.522144731488428" lon="114.39265762503821">
        <ele>17.79</ele>
        <time>2021-03-16T13:31:06Z</time>
      </trkpt>
      <trkpt lat="30.52214441359367" lon="114.39283671204163">
        <ele>21.99</ele>
        <time>2021-03-16T13:31:12Z</time>
      </trkpt>
      <trkpt lat="30.522162229897138" lon="114.39294778114058">
        <ele>23.97</ele>
        <time>2021-03-16T13:31:15Z</time>
      </trkpt>
      <trkpt lat="30.522288393209" lon="114.39308433647393">
        <ele>19.95</ele>
        <time>2021-03-16T13:31:21Z</time>
      </trkpt>
      <trkpt lat="30.522379727346937" lon="114.393140800916">
        <ele>21.34</ele>
        <time>2021-03-16T13:31:24Z</time>
      </trkpt>
      <trkpt lat="30.522502809451375" lon="114.39318740262316">
        <ele>21.55</ele>
        <time>2021-03-16T13:31:27Z</time>
      </trkpt>
      <trkpt lat="30.52279527570964" lon="114.39320270532369">
        <ele>23.64</ele>
        <time>2021-03-16T13:31:40Z</time>
      </trkpt>
      <trkpt lat="30.523121431285503" lon="114.39321382677043">
        <ele>23.86</ele>
        <time>2021-03-16T13:31:51Z</time>
      </trkpt>
      <trkpt lat="30.52328397364095" lon="114.3932175770195">
        <ele>22.14</ele>
        <time>2021-03-16T13:31:57Z</time>
      </trkpt>
      <trkpt lat="30.523414874467726" lon="114.39317366486392">
        <ele>24.88</ele>
        <time>2021-03-16T13:32:03Z</time>
      </trkpt>
      <trkpt lat="30.52353127001097" lon="114.39306545586125">
        <ele>23.88</ele>
        <time>2021-03-16T13:32:09Z</time>
      </trkpt>
      <trkpt lat="30.52358700705267" lon="114.3929233882567">
        <ele>24.11</ele>
        <time>2021-03-16T13:32:15Z</time>
      </trkpt>
      <trkpt lat="30.52359134600393" lon="114.39283378469801">
        <ele>23.72</ele>
        <time>2021-03-16T13:32:19Z</time>
      </trkpt>
      <trkpt lat="30.523614983870594" lon="114.39273876964593">
        <ele>22.72</ele>
        <time>2021-03-16T13:32:21Z</time>
      </trkpt>
      <trkpt lat="30.523607829544122" lon="114.39259297143381">
        <ele>23.54</ele>
        <time>2021-03-16T13:32:27Z</time>
      </trkpt>
      <trkpt lat="30.523521809154605" lon="114.39242421760794">
        <ele>27.79</ele>
        <time>2021-03-16T13:32:36Z</time>
      </trkpt>
      <trkpt lat="30.523409697641316" lon="114.39233680523485">
        <ele>27.98</ele>
        <time>2021-03-16T13:32:42Z</time>
      </trkpt>
      <trkpt lat="30.523263834939147" lon="114.39228824319181">
        <ele>27.56</ele>
        <time>2021-03-16T13:32:48Z</time>
      </trkpt>
      <trkpt lat="30.52295663486057" lon="114.39229976760389">
        <ele>25.11</ele>
        <time>2021-03-16T13:33:03Z</time>
      </trkpt>
      <trkpt lat="30.522625013661642" lon="114.39230746112459">
        <ele>25.36</ele>
        <time>2021-03-16T13:33:18Z</time>
      </trkpt>
      <trkpt lat="30.52239714689294" lon="114.3922873869086">
        <ele>27.37</ele>
        <time>2021-03-16T13:33:31Z</time>
      </trkpt>
      <trkpt lat="30.52227335074004" lon="114.39235124418026">
        <ele>24.78</ele>
        <time>2021-03-16T13:33:36Z</time>
      </trkpt>
      <trkpt lat="30.52222334313203" lon="114.392406018746">
        <ele>23.55</ele>
        <time>2021-03-16T13:33:39Z</time>
      </trkpt>
      <trkpt lat="30.52214319975757" lon="114.39260775196631">
        <ele>22.19</ele>
        <time>2021-03-16T13:33:48Z</time>
      </trkpt>
      <trkpt lat="30.522120219708818" lon="114.39277861689781">
        <ele>24.35</ele>
        <time>2021-03-16T13:33:54Z</time>
      </trkpt>
      <trkpt lat="30.522181845796187" lon="114.39297207743756">
        <ele>22.89</ele>
        <time>2021-03-16T13:34:00Z</time>
      </trkpt>
      <trkpt lat="30.52224233979549" lon="114.3930716233388">
        <ele>25.13</ele>
        <time>2021-03-16T13:34:03Z</time>
      </trkpt>
      <trkpt lat="30.52242107822735" lon="114.39318535245458">
        <ele>23.23</ele>
        <time>2021-03-16T13:34:09Z</time>
      </trkpt>
      <trkpt lat="30.5227255994085" lon="114.393221060473">
        <ele>23.89</ele>
        <time>2021-03-16T13:34:18Z</time>
      </trkpt>
      <trkpt lat="30.523006898861624" lon="114.39320794574225">
        <ele>23.4</ele>
        <time>2021-03-16T13:34:28Z</time>
      </trkpt>
      <trkpt lat="30.523355012320376" lon="114.39320925450542">
        <ele>22.79</ele>
        <time>2021-03-16T13:34:40Z</time>
      </trkpt>
      <trkpt lat="30.523459104837066" lon="114.39317353462866">
        <ele>21.65</ele>
        <time>2021-03-16T13:34:43Z</time>
      </trkpt>
      <trkpt lat="30.523529532938547" lon="114.39312037031654">
        <ele>22.11</ele>
        <time>2021-03-16T13:34:46Z</time>
      </trkpt>
      <trkpt lat="30.523581936220182" lon="114.39296251856392">
        <ele>18.57</ele>
        <time>2021-03-16T13:34:51Z</time>
      </trkpt>
      <trkpt lat="30.52362849722346" lon="114.39288003667775">
        <ele>19.23</ele>
        <time>2021-03-16T13:34:54Z</time>
      </trkpt>
      <trkpt lat="30.523653073486916" lon="114.39277819982249">
        <ele>19.42</ele>
        <time>2021-03-16T13:34:57Z</time>
      </trkpt>
      <trkpt lat="30.52364418957702" lon="114.39263428210077">
        <ele>19.67</ele>
        <time>2021-03-16T13:35:00Z</time>
      </trkpt>
      <trkpt lat="30.523561169263974" lon="114.39246578831641">
        <ele>19.38</ele>
        <time>2021-03-16T13:35:07Z</time>
      </trkpt>
      <trkpt lat="30.52342992467734" lon="114.39232338163005">
        <ele>25.28</ele>
        <time>2021-03-16T13:35:12Z</time>
      </trkpt>
      <trkpt lat="30.52337733919375" lon="114.39230201627889">
        <ele>22.13</ele>
        <time>2021-03-16T13:35:15Z</time>
      </trkpt>
      <trkpt lat="30.523087448688784" lon="114.39231104996092">
        <ele>19.59</ele>
        <time>2021-03-16T13:35:27Z</time>
      </trkpt>
      <trkpt lat="30.522894903741616" lon="114.39229737725921">
        <ele>23.99</ele>
        <time>2021-03-16T13:35:33Z</time>
      </trkpt>
      <trkpt lat="30.522608243920093" lon="114.39230921165883">
        <ele>25.05</ele>
        <time>2021-03-16T13:35:45Z</time>
      </trkpt>
      <trkpt lat="30.52245438911098" lon="114.39229463854548">
        <ele>26.18</ele>
        <time>2021-03-16T13:35:51Z</time>
      </trkpt>
      <trkpt lat="30.522242706628624" lon="114.39237754120268">
        <ele>24.37</ele>
        <time>2021-03-16T13:36:01Z</time>
      </trkpt>
      <trkpt lat="30.52215050402866" lon="114.39249789313963">
        <ele>21.39</ele>
        <time>2021-03-16T13:36:06Z</time>
      </trkpt>
      <trkpt lat="30.522107571530064" lon="114.39265923562947">
        <ele>19.48</ele>
        <time>2021-03-16T13:36:12Z</time>
      </trkpt>
      <trkpt lat="30.52211071504538" lon="114.39288667531814">
        <ele>19.68</ele>
        <time>2021-03-16T13:36:18Z</time>
      </trkpt>
      <trkpt lat="30.52214007043301" lon="114.39299337322556">
        <ele>18.83</ele>
        <time>2021-03-16T13:36:21Z</time>
      </trkpt>
      <trkpt lat="30.522336118982434" lon="114.39314941338058">
        <ele>17.23</ele>
        <time>2021-03-16T13:36:30Z</time>
      </trkpt>
      <trkpt lat="30.522498287911407" lon="114.39322344213235">
        <ele>18.85</ele>
        <time>2021-03-16T13:36:37Z</time>
      </trkpt>
      <trkpt lat="30.52273903968358" lon="114.39322171058315">
        <ele>19.51</ele>
        <time>2021-03-16T13:36:45Z</time>
      </trkpt>
      <trkpt lat="30.522790504699344" lon="114.39324099542775">
        <ele>21.18</ele>
        <time>2021-03-16T13:36:49Z</time>
      </trkpt>
      <trkpt lat="30.52287765944966" lon="114.3932153982915">
        <ele>20.91</ele>
        <time>2021-03-16T13:36:51Z</time>
      </trkpt>
      <trkpt lat="30.52314912762906" lon="114.39323965344548">
        <ele>21.97</ele>
        <time>2021-03-16T13:37:04Z</time>
      </trkpt>
      <trkpt lat="30.523372727737982" lon="114.39323154029314">
        <ele>23.48</ele>
        <time>2021-03-16T13:37:15Z</time>
      </trkpt>
      <trkpt lat="30.523491991037258" lon="114.39315615990589">
        <ele>24.56</ele>
        <time>2021-03-16T13:37:21Z</time>
      </trkpt>
      <trkpt lat="30.52357713619719" lon="114.39304751093285">
        <ele>23.42</ele>
        <time>2021-03-16T13:37:27Z</time>
      </trkpt>
      <trkpt lat="30.52364715066918" lon="114.39289396025092">
        <ele>21.85</ele>
        <time>2021-03-16T13:37:33Z</time>
      </trkpt>
      <trkpt lat="30.523652726822352" lon="114.39274987238831">
        <ele>20.36</ele>
        <time>2021-03-16T13:37:39Z</time>
      </trkpt>
      <trkpt lat="30.52361234582991" lon="114.3924917948965">
        <ele>23.14</ele>
        <time>2021-03-16T13:37:48Z</time>
      </trkpt>
      <trkpt lat="30.523571679668805" lon="114.39242448745176">
        <ele>25.3</ele>
        <time>2021-03-16T13:37:51Z</time>
      </trkpt>
      <trkpt lat="30.52343194149978" lon="114.39230974805348">
        <ele>27.64</ele>
        <time>2021-03-16T13:37:57Z</time>
      </trkpt>
      <trkpt lat="30.52324446064074" lon="114.39227064867735">
        <ele>25.9</ele>
        <time>2021-03-16T13:38:03Z</time>
      </trkpt>
      <trkpt lat="30.523011906335995" lon="114.39230392844117">
        <ele>21.9</ele>
        <time>2021-03-16T13:38:12Z</time>
      </trkpt>
      <trkpt lat="30.522660900845086" lon="114.39229405745463">
        <ele>21.81</ele>
        <time>2021-03-16T13:38:24Z</time>
      </trkpt>
      <trkpt lat="30.522343449100077" lon="114.39229888015947">
        <ele>19.73</ele>
        <time>2021-03-16T13:38:37Z</time>
      </trkpt>
      <trkpt lat="30.522205109438367" lon="114.39239097489023">
        <ele>22.37</ele>
        <time>2021-03-16T13:38:43Z</time>
      </trkpt>
      <trkpt lat="30.52214926376655" lon="114.3924542117028">
        <ele>21.34</ele>
        <time>2021-03-16T13:38:46Z</time>
      </trkpt>
      <trkpt lat="30.52210636186308" lon="114.39253297253192">
        <ele>19.28</ele>
        <time>2021-03-16T13:38:48Z</time>
      </trkpt>
      <trkpt lat="30.52209139163531" lon="114.39261774482188">
        <ele>18.25</ele>
        <time>2021-03-16T13:38:51Z</time>
      </trkpt>
      <trkpt lat="30.522096189412586" lon="114.3928207980816">
        <ele>17.02</ele>
        <time>2021-03-16T13:38:57Z</time>
      </trkpt>
      <trkpt lat="30.52211302070269" lon="114.39291062159906">
        <ele>17.43</ele>
        <time>2021-03-16T13:39:00Z</time>
      </trkpt>
      <trkpt lat="30.522152921376435" lon="114.39299688409022">
        <ele>17.01</ele>
        <time>2021-03-16T13:39:03Z</time>
      </trkpt>
      <trkpt lat="30.52221655027367" lon="114.39307464425055">
        <ele>18.59</ele>
        <time>2021-03-16T13:39:06Z</time>
      </trkpt>
      <trkpt lat="30.522362947200556" lon="114.39318323216037">
        <ele>19.39</ele>
        <time>2021-03-16T13:39:12Z</time>
      </trkpt>
      <trkpt lat="30.522434064885033" lon="114.39321307969546">
        <ele>17.25</ele>
        <time>2021-03-16T13:39:15Z</time>
      </trkpt>
      <trkpt lat="30.52271341730668" lon="114.39321261830544">
        <ele>15.69</ele>
        <time>2021-03-16T13:39:27Z</time>
      </trkpt>
      <trkpt lat="30.52303901712117" lon="114.39324172449106">
        <ele>18.83</ele>
        <time>2021-03-16T13:39:40Z</time>
      </trkpt>
      <trkpt lat="30.523209511673095" lon="114.39325447707517">
        <ele>20.34</ele>
        <time>2021-03-16T13:39:48Z</time>
      </trkpt>
      <trkpt lat="30.523405817069733" lon="114.39322743906281">
        <ele>18.7</ele>
        <time>2021-03-16T13:39:57Z</time>
      </trkpt>
      <trkpt lat="30.523590333474136" lon="114.39312031002434">
        <ele>17.98</ele>
        <time>2021-03-16T13:40:06Z</time>
      </trkpt>
      <trkpt lat="30.523670504952694" lon="114.39299619701488">
        <ele>16.65</ele>
        <time>2021-03-16T13:40:13Z</time>
      </trkpt>
      <trkpt lat="30.52370078098714" lon="114.3927657363338">
        <ele>18.86</ele>
        <time>2021-03-16T13:40:21Z</time>
      </trkpt>
      <trkpt lat="30.523690515942192" lon="114.39261702736525">
        <ele>17.15</ele>
        <time>2021-03-16T13:40:28Z</time>
      </trkpt>
      <trkpt lat="30.523624579577195" lon="114.39250728890036">
        <ele>17.18</ele>
        <time>2021-03-16T13:40:33Z</time>
      </trkpt>
      <trkpt lat="30.52341759210858" lon="114.39231289894319">
        <ele>18.2</ele>
        <time>2021-03-16T13:40:45Z</time>
      </trkpt>
      <trkpt lat="30.523332563085344" lon="114.39227768011592">
        <ele>19.12</ele>
        <time>2021-03-16T13:40:48Z</time>
      </trkpt>
      <trkpt lat="30.52306280430446" lon="114.39229329542782">
        <ele>17.79</ele>
        <time>2021-03-16T13:41:00Z</time>
      </trkpt>
      <trkpt lat="30.522916505282794" lon="114.39230311866311">
        <ele>21.66</ele>
        <time>2021-03-16T13:41:06Z</time>
      </trkpt>
      <trkpt lat="30.52277023599817" lon="114.39226915044205">
        <ele>20.66</ele>
        <time>2021-03-16T13:41:12Z</time>
      </trkpt>
      <trkpt lat="30.522520785504582" lon="114.39227668354664">
        <ele>19.62</ele>
        <time>2021-03-16T13:41:25Z</time>
      </trkpt>
      <trkpt lat="30.52246972154041" lon="114.39226173986998">
        <ele>18.29</ele>
        <time>2021-03-16T13:41:28Z</time>
      </trkpt>
      <trkpt lat="30.522339076444265" lon="114.39228771725898">
        <ele>16.55</ele>
        <time>2021-03-16T13:41:33Z</time>
      </trkpt>
      <trkpt lat="30.522202533693847" lon="114.39236657851566">
        <ele>18.06</ele>
        <time>2021-03-16T13:41:39Z</time>
      </trkpt>
      <trkpt lat="30.522119100354132" lon="114.39248344949837">
        <ele>19.88</ele>
        <time>2021-03-16T13:41:45Z</time>
      </trkpt>
      <trkpt lat="30.522084009887642" lon="114.39256801181693">
        <ele>19.65</ele>
        <time>2021-03-16T13:41:48Z</time>
      </trkpt>
      <trkpt lat="30.52205702774295" lon="114.39273016446771">
        <ele>14.07</ele>
        <time>2021-03-16T13:41:54Z</time>
      </trkpt>
      <trkpt lat="30.522098827023875" lon="114.39293801886288">
        <ele>20.62</ele>
        <time>2021-03-16T13:42:03Z</time>
      </trkpt>
      <trkpt lat="30.522257226135523" lon="114.39314037135918">
        <ele>18.54</ele>
        <time>2021-03-16T13:42:15Z</time>
      </trkpt>
      <trkpt lat="30.522377844002868" lon="114.39321149953467">
        <ele>17.17</ele>
        <time>2021-03-16T13:42:21Z</time>
      </trkpt>
      <trkpt lat="30.522652861935534" lon="114.39323456435923">
        <ele>16.09</ele>
        <time>2021-03-16T13:42:33Z</time>
      </trkpt>
      <trkpt lat="30.522970327245254" lon="114.39324488563555">
        <ele>20.83</ele>
        <time>2021-03-16T13:42:45Z</time>
      </trkpt>
      <trkpt lat="30.523166801264228" lon="114.39321199608231">
        <ele>19.46</ele>
        <time>2021-03-16T13:42:54Z</time>
      </trkpt>
      <trkpt lat="30.52331462578947" lon="114.39322550896887">
        <ele>17.2</ele>
        <time>2021-03-16T13:43:01Z</time>
      </trkpt>
      <trkpt lat="30.523490355905203" lon="114.39317686536342">
        <ele>18.88</ele>
        <time>2021-03-16T13:43:09Z</time>
      </trkpt>
      <trkpt lat="30.523611619349097" lon="114.3930595639463">
        <ele>20.12</ele>
        <time>2021-03-16T13:43:18Z</time>
      </trkpt>
      <trkpt lat="30.523646612434945" lon="114.39298642455425">
        <ele>21.78</ele>
        <time>2021-03-16T13:43:21Z</time>
      </trkpt>
      <trkpt lat="30.523705757198357" lon="114.39291944668113">
        <ele>21.36</ele>
        <time>2021-03-16T13:43:24Z</time>
      </trkpt>
      <trkpt lat="30.52366083151744" lon="114.39259933286064">
        <ele>22.97</ele>
        <time>2021-03-16T13:43:37Z</time>
      </trkpt>
      <trkpt lat="30.523626973969044" lon="114.39248330260511">
        <ele>21.84</ele>
        <time>2021-03-16T13:43:42Z</time>
      </trkpt>
      <trkpt lat="30.52358141064846" lon="114.39242828840284">
        <ele>20.46</ele>
        <time>2021-03-16T13:43:45Z</time>
      </trkpt>
      <trkpt lat="30.523266573158935" lon="114.39228054116451">
        <ele>17.42</ele>
        <time>2021-03-16T13:44:00Z</time>
      </trkpt>
      <trkpt lat="30.523017926880406" lon="114.39226334779795">
        <ele>14.42</ele>
        <time>2021-03-16T13:44:13Z</time>
      </trkpt>
      <trkpt lat="30.52295318197762" lon="114.39224492327358">
        <ele>17.1</ele>
        <time>2021-03-16T13:44:16Z</time>
      </trkpt>
      <trkpt lat="30.522664982603104" lon="114.39225872819455">
        <ele>20.31</ele>
        <time>2021-03-16T13:44:27Z</time>
      </trkpt>
      <trkpt lat="30.52252190301143" lon="114.39226600074724">
        <ele>19.33</ele>
        <time>2021-03-16T13:44:33Z</time>
      </trkpt>
      <trkpt lat="30.522437498993977" lon="114.39225211749978">
        <ele>19.16</ele>
        <time>2021-03-16T13:44:36Z</time>
      </trkpt>
      <trkpt lat="30.52225916256831" lon="114.39231693526649">
        <ele>17.08</ele>
        <time>2021-03-16T13:44:42Z</time>
      </trkpt>
      <trkpt lat="30.5221794072678" lon="114.39238271284414">
        <ele>16.75</ele>
        <time>2021-03-16T13:44:45Z</time>
      </trkpt>
      <trkpt lat="30.522108531070582" lon="114.39248691045307">
        <ele>16.79</ele>
        <time>2021-03-16T13:44:49Z</time>
      </trkpt>
      <trkpt lat="30.52207684805428" lon="114.39260306103782">
        <ele>18.17</ele>
        <time>2021-03-16T13:44:51Z</time>
      </trkpt>
      <trkpt lat="30.522078482271702" lon="114.39274859920825">
        <ele>18.35</ele>
        <time>2021-03-16T13:44:55Z</time>
      </trkpt>
      <trkpt lat="30.522124381935296" lon="114.39295789397039">
        <ele>19.3</ele>
        <time>2021-03-16T13:45:01Z</time>
      </trkpt>
      <trkpt lat="30.52217441796598" lon="114.39306647229228">
        <ele>19.92</ele>
        <time>2021-03-16T13:45:04Z</time>
      </trkpt>
      <trkpt lat="30.522262437182707" lon="114.39314461245164">
        <ele>18.52</ele>
        <time>2021-03-16T13:45:07Z</time>
      </trkpt>
      <trkpt lat="30.522399243278908" lon="114.39320760841302">
        <ele>16.42</ele>
        <time>2021-03-16T13:45:12Z</time>
      </trkpt>
      <trkpt lat="30.522704615193707" lon="114.39324638723775">
        <ele>16.02</ele>
        <time>2021-03-16T13:45:24Z</time>
      </trkpt>
      <trkpt lat="30.522902463397834" lon="114.39323118233507">
        <ele>16.94</ele>
        <time>2021-03-16T13:45:30Z</time>
      </trkpt>
      <trkpt lat="30.523225003828955" lon="114.39326301925466">
        <ele>16.88</ele>
        <time>2021-03-16T13:45:42Z</time>
      </trkpt>
      <trkpt lat="30.523345061962335" lon="114.39325050541335">
        <ele>15.68</ele>
        <time>2021-03-16T13:45:48Z</time>
      </trkpt>
      <trkpt lat="30.523450607005984" lon="114.393183057174">
        <ele>19.39</ele>
        <time>2021-03-16T13:45:54Z</time>
      </trkpt>
      <trkpt lat="30.523529752897716" lon="114.39316260142975">
        <ele>19.66</ele>
        <time>2021-03-16T13:45:58Z</time>
      </trkpt>
      <trkpt lat="30.523612647816606" lon="114.39309545338276">
        <ele>19.22</ele>
        <time>2021-03-16T13:46:00Z</time>
      </trkpt>
      <trkpt lat="30.523662665758156" lon="114.3929574568665">
        <ele>21.62</ele>
        <time>2021-03-16T13:46:03Z</time>
      </trkpt>
      <trkpt lat="30.523690964642956" lon="114.39282417172062">
        <ele>21.91</ele>
        <time>2021-03-16T13:46:06Z</time>
      </trkpt>
      <trkpt lat="30.523690247016678" lon="114.39270672089357">
        <ele>22.95</ele>
        <time>2021-03-16T13:46:09Z</time>
      </trkpt>
      <trkpt lat="30.52362992554042" lon="114.39248988431599">
        <ele>24.66</ele>
        <time>2021-03-16T13:46:15Z</time>
      </trkpt>
      <trkpt lat="30.523580664257306" lon="114.39240107127952">
        <ele>26.25</ele>
        <time>2021-03-16T13:46:18Z</time>
      </trkpt>
      <trkpt lat="30.523432196196765" lon="114.39228711213012">
        <ele>25.91</ele>
        <time>2021-03-16T13:46:25Z</time>
      </trkpt>
      <trkpt lat="30.523204259464205" lon="114.39222449679002">
        <ele>22.47</ele>
        <time>2021-03-16T13:46:33Z</time>
      </trkpt>
      <trkpt lat="30.522928874086105" lon="114.39221217482059">
        <ele>20.13</ele>
        <time>2021-03-16T13:46:45Z</time>
      </trkpt>
      <trkpt lat="30.522628061379578" lon="114.39221224620712">
        <ele>18.87</ele>
        <time>2021-03-16T13:46:57Z</time>
      </trkpt>
      <trkpt lat="30.522476512022173" lon="114.39222084914555">
        <ele>19.75</ele>
        <time>2021-03-16T13:47:03Z</time>
      </trkpt>
      <trkpt lat="30.522499699467513" lon="114.39220904595399">
        <ele>17.68</ele>
        <time>2021-03-16T13:47:09Z</time>
      </trkpt>
    </trkseg>
  </trk>
</gpx>