<?xml version="1.0" encoding="UTF-8"?>
<gpx xmlns="http://www.topografix.com/GPX/1/1" xmlns:gpxtpx="http://www.garmin.com/xmlschemas/TrackPointExtension/v1" xmlns:xsi="http://www.w3.org/2001/XMLSchema-instance" xsi:schemaLocation="http://www.topografix.com/GPX/1/1 http://www.topografix.com/GPX/1/1/gpx.xsd" version="1.1" creator="gpx.py -- https://github.com/tkrajina/gpxpy">
  <trk>
    <name>gpx from keep</name>
    <type>Run</type>
    <trkseg>
      <trkpt lat="36.03031093206065" lon="119.4155128284018">
        <ele>0.0</ele>
        <time>2024-04-10T00:49:29Z</time>
      </trkpt>
      <trkpt lat="36.03072609774415" lon="119.41581920725399">
        <ele>0.0</ele>
        <time>2024-04-10T00:49:41Z</time>
      </trkpt>
      <trkpt lat="36.03102171240144" lon="119.41593498619028">
        <ele>0.0</ele>
        <time>2024-04-10T00:49:54Z</time>
      </trkpt>
      <trkpt lat="36.030867575041704" lon="119.415239390912">
        <ele>0.0</ele>
        <time>2024-04-10T00:50:24Z</time>
      </trkpt>
      <trkpt lat="36.030793054054605" lon="119.41458151400023">
        <ele>0.0</ele>
        <time>2024-04-10T00:50:33Z</time>
      </trkpt>
      <trkpt lat="36.03095788095523" lon="119.41441227175645">
        <ele>0.0</ele>
        <time>2024-04-10T00:50:39Z</time>
      </trkpt>
      <trkpt lat="36.031183890582376" lon="119.41448934814916">
        <ele>60.4073486328125</ele>
        <time>2024-04-10T00:52:15Z</time>
      </trkpt>
      <trkpt lat="36.03141286929702" lon="119.41452837412508">
        <ele>63.46380615234375</ele>
        <time>2024-04-10T00:52:27Z</time>
      </trkpt>
      <trkpt lat="36.03145785256551" lon="119.41452035847445">
        <ele>63.796630859375</ele>
        <time>2024-04-10T00:52:30Z</time>
      </trkpt>
      <trkpt lat="36.031508792071854" lon="119.41445927202045">
        <ele>63.03472900390625</ele>
        <time>2024-04-10T00:52:33Z</time>
      </trkpt>
      <trkpt lat="36.031531644565305" lon="119.41428003375293">
        <ele>63.25457763671875</ele>
        <time>2024-04-10T00:52:39Z</time>
      </trkpt>
      <trkpt lat="36.03156358987373" lon="119.41421995156982">
        <ele>58.79290771484375</ele>
        <time>2024-04-10T00:52:42Z</time>
      </trkpt>
      <trkpt lat="36.03161328996491" lon="119.4138494658207">
        <ele>61.5111083984375</ele>
        <time>2024-04-10T00:52:57Z</time>
      </trkpt>
      <trkpt lat="36.031646065927866" lon="119.41356610013116">
        <ele>68.67779541015625</ele>
        <time>2024-04-10T00:53:09Z</time>
      </trkpt>
      <trkpt lat="36.03162594972006" lon="119.41340589973343">
        <ele>63.39508056640625</ele>
        <time>2024-04-10T00:53:21Z</time>
      </trkpt>
      <trkpt lat="36.031645844855" lon="119.41327172889913">
        <ele>63.95782470703125</ele>
        <time>2024-04-10T00:53:27Z</time>
      </trkpt>
      <trkpt lat="36.031641726355005" lon="119.41311052813899">
        <ele>64.72052001953125</ele>
        <time>2024-04-10T00:53:33Z</time>
      </trkpt>
      <trkpt lat="36.03167755826311" lon="119.41289225400845">
        <ele>63.615966796875</ele>
        <time>2024-04-10T00:53:42Z</time>
      </trkpt>
      <trkpt lat="36.031732493331866" lon="119.41282015922833">
        <ele>63.404052734375</ele>
        <time>2024-04-10T00:53:45Z</time>
      </trkpt>
      <trkpt lat="36.03167226104009" lon="119.41247674788413">
        <ele>62.08685302734375</ele>
        <time>2024-04-10T00:53:57Z</time>
      </trkpt>
      <trkpt lat="36.03167420395547" lon="119.41239665111355">
        <ele>61.84503173828125</ele>
        <time>2024-04-10T00:54:00Z</time>
      </trkpt>
      <trkpt lat="36.031605105990835" lon="119.41223446446551">
        <ele>61.106689453125</ele>
        <time>2024-04-10T00:54:07Z</time>
      </trkpt>
      <trkpt lat="36.03164088603153" lon="119.41192809732887">
        <ele>60.60308837890625</ele>
        <time>2024-04-10T00:54:22Z</time>
      </trkpt>
      <trkpt lat="36.0316068439455" lon="119.41185501531064">
        <ele>59.87060546875</ele>
        <time>2024-04-10T00:54:28Z</time>
      </trkpt>
      <trkpt lat="36.031608708726274" lon="119.41165578264692">
        <ele>59.08758544921875</ele>
        <time>2024-04-10T00:54:40Z</time>
      </trkpt>
      <trkpt lat="36.0316474579024" lon="119.41129135894899">
        <ele>55.16778564453125</ele>
        <time>2024-04-10T00:54:55Z</time>
      </trkpt>
      <trkpt lat="36.03169318588273" lon="119.41088689723487">
        <ele>56.37664794921875</ele>
        <time>2024-04-10T00:55:07Z</time>
      </trkpt>
      <trkpt lat="36.031714924242" lon="119.41047844314402">
        <ele>59.96405029296875</ele>
        <time>2024-04-10T00:55:19Z</time>
      </trkpt>
      <trkpt lat="36.031708887898695" lon="119.41041737711159">
        <ele>59.2291259765625</ele>
        <time>2024-04-10T00:55:22Z</time>
      </trkpt>
      <trkpt lat="36.031734796614295" lon="119.41027822298577">
        <ele>58.22265625</ele>
        <time>2024-04-10T00:55:31Z</time>
      </trkpt>
      <trkpt lat="36.031692604187846" lon="119.40994286780733">
        <ele>64.925537109375</ele>
        <time>2024-04-10T00:55:49Z</time>
      </trkpt>
      <trkpt lat="36.03166143115235" lon="119.40963654814723">
        <ele>64.59869384765625</ele>
        <time>2024-04-10T00:56:07Z</time>
      </trkpt>
      <trkpt lat="36.03169220508476" lon="119.4092541487735">
        <ele>64.90301513671875</ele>
        <time>2024-04-10T00:56:28Z</time>
      </trkpt>
      <trkpt lat="36.031760001790495" lon="119.4089167987994">
        <ele>63.089111328125</ele>
        <time>2024-04-10T00:56:46Z</time>
      </trkpt>
      <trkpt lat="36.03179286474764" lon="119.40867855722836">
        <ele>64.2022705078125</ele>
        <time>2024-04-10T00:56:58Z</time>
      </trkpt>
      <trkpt lat="36.03184277299346" lon="119.40852840336119">
        <ele>61.88037109375</ele>
        <time>2024-04-10T00:57:07Z</time>
      </trkpt>
      <trkpt lat="36.03188457789966" lon="119.408174053856">
        <ele>60.89788818359375</ele>
        <time>2024-04-10T00:57:28Z</time>
      </trkpt>
      <trkpt lat="36.031891517771484" lon="119.40805994355837">
        <ele>61.837646484375</ele>
        <time>2024-04-10T00:57:34Z</time>
      </trkpt>
      <trkpt lat="36.031936470795024" lon="119.40798786972418">
        <ele>62.2181396484375</ele>
        <time>2024-04-10T00:57:40Z</time>
      </trkpt>
      <trkpt lat="36.03200028321026" lon="119.4076415361251">
        <ele>58.5849609375</ele>
        <time>2024-04-10T00:58:01Z</time>
      </trkpt>
      <trkpt lat="36.03204617807504" lon="119.40744735093148">
        <ele>55.10760498046875</ele>
        <time>2024-04-10T00:58:13Z</time>
      </trkpt>
      <trkpt lat="36.03201513708578" lon="119.40734726245081">
        <ele>58.9512939453125</ele>
        <time>2024-04-10T00:58:19Z</time>
      </trkpt>
      <trkpt lat="36.0319531088726" lon="119.40725818804543">
        <ele>62.2572021484375</ele>
        <time>2024-04-10T00:58:25Z</time>
      </trkpt>
      <trkpt lat="36.03192111383554" lon="119.40725318707979">
        <ele>64.332275390625</ele>
        <time>2024-04-10T00:58:34Z</time>
      </trkpt>
      <trkpt lat="36.0316540871117" lon="119.4070660476189">
        <ele>63.32489013671875</ele>
        <time>2024-04-10T00:59:22Z</time>
      </trkpt>
      <trkpt lat="36.03164005780925" lon="119.40699598627997">
        <ele>64.4549560546875</ele>
        <time>2024-04-10T00:59:25Z</time>
      </trkpt>
      <trkpt lat="36.03159205633347" lon="119.40696896747727">
        <ele>64.63214111328125</ele>
        <time>2024-04-10T00:59:28Z</time>
      </trkpt>
      <trkpt lat="36.03152408533278" lon="119.40699800109465">
        <ele>63.8651123046875</ele>
        <time>2024-04-10T00:59:31Z</time>
      </trkpt>
      <trkpt lat="36.03142916252983" lon="119.40711711888582">
        <ele>64.1904296875</ele>
        <time>2024-04-10T00:59:37Z</time>
      </trkpt>
      <trkpt lat="36.031414220126315" lon="119.4072322248635">
        <ele>61.64996337890625</ele>
        <time>2024-04-10T00:59:40Z</time>
      </trkpt>
      <trkpt lat="36.03136628445031" lon="119.40734433254974">
        <ele>66.40948486328125</ele>
        <time>2024-04-10T00:59:43Z</time>
      </trkpt>
      <trkpt lat="36.03135832616114" lon="119.40742740971979">
        <ele>66.068603515625</ele>
        <time>2024-04-10T00:59:46Z</time>
      </trkpt>
      <trkpt lat="36.03133635731652" lon="119.40748146202301">
        <ele>67.33905029296875</ele>
        <time>2024-04-10T00:59:49Z</time>
      </trkpt>
      <trkpt lat="36.03120444314163" lon="119.40759558259025">
        <ele>66.21270751953125</ele>
        <time>2024-04-10T00:59:58Z</time>
      </trkpt>
      <trkpt lat="36.03107546881004" lon="119.40758758962427">
        <ele>65.07513427734375</ele>
        <time>2024-04-10T01:00:04Z</time>
      </trkpt>
      <trkpt lat="36.03079948872903" lon="119.40749853802062">
        <ele>66.14013671875</ele>
        <time>2024-04-10T01:00:16Z</time>
      </trkpt>
      <trkpt lat="36.030715499266755" lon="119.40748053080185">
        <ele>67.15582275390625</ele>
        <time>2024-04-10T01:00:19Z</time>
      </trkpt>
      <trkpt lat="36.03047357421063" lon="119.40752059498284">
        <ele>61.05145263671875</ele>
        <time>2024-04-10T01:00:31Z</time>
      </trkpt>
      <trkpt lat="36.03045960522646" lon="119.40757764946338">
        <ele>64.29364013671875</ele>
        <time>2024-04-10T01:00:34Z</time>
      </trkpt>
      <trkpt lat="36.03039164337349" lon="119.40762369992945">
        <ele>62.97833251953125</ele>
        <time>2024-04-10T01:00:40Z</time>
      </trkpt>
      <trkpt lat="36.03033668751877" lon="119.4076877658982">
        <ele>62.7352294921875</ele>
        <time>2024-04-10T01:00:46Z</time>
      </trkpt>
      <trkpt lat="36.03019375353333" lon="119.40775484479704">
        <ele>62.79071044921875</ele>
        <time>2024-04-10T01:00:58Z</time>
      </trkpt>
      <trkpt lat="36.02999887284398" lon="119.4079040073694">
        <ele>62.95721435546875</ele>
        <time>2024-04-10T01:01:16Z</time>
      </trkpt>
      <trkpt lat="36.02992390569534" lon="119.40793504521643">
        <ele>60.99334716796875</ele>
        <time>2024-04-10T01:01:22Z</time>
      </trkpt>
      <trkpt lat="36.029718965897665" lon="119.40796109294924">
        <ele>60.83929443359375</ele>
        <time>2024-04-10T01:01:37Z</time>
      </trkpt>
      <trkpt lat="36.02966499959879" lon="119.40800313903165">
        <ele>60.92730712890625</ele>
        <time>2024-04-10T01:01:40Z</time>
      </trkpt>
      <trkpt lat="36.0293470929671" lon="119.4080432129306">
        <ele>62.56829833984375</ele>
        <time>2024-04-10T01:01:55Z</time>
      </trkpt>
      <trkpt lat="36.02909015707931" lon="119.40805325134009">
        <ele>62.7564697265625</ele>
        <time>2024-04-10T01:02:10Z</time>
      </trkpt>
      <trkpt lat="36.02882217945106" lon="119.40797620790156">
        <ele>63.01470947265625</ele>
        <time>2024-04-10T01:02:34Z</time>
      </trkpt>
      <trkpt lat="36.028519176503835" lon="119.40783210533125">
        <ele>61.86566162109375</ele>
        <time>2024-04-10T01:02:52Z</time>
      </trkpt>
      <trkpt lat="36.02826713568371" lon="119.40763294682134">
        <ele>64.071044921875</ele>
        <time>2024-04-10T01:03:13Z</time>
      </trkpt>
      <trkpt lat="36.028055079750864" lon="119.40741777134399">
        <ele>63.92523193359375</ele>
        <time>2024-04-10T01:03:25Z</time>
      </trkpt>
      <trkpt lat="36.02778601733435" lon="119.40715656317415">
        <ele>65.00653076171875</ele>
        <time>2024-04-10T01:03:49Z</time>
      </trkpt>
      <trkpt lat="36.02754196510257" lon="119.4069233810535">
        <ele>64.99267578125</ele>
        <time>2024-04-10T01:04:13Z</time>
      </trkpt>
      <trkpt lat="36.027292901678585" lon="119.40665717360763">
        <ele>60.65142822265625</ele>
        <time>2024-04-10T01:04:37Z</time>
      </trkpt>
      <trkpt lat="36.02715084350788" lon="119.4064520108871">
        <ele>60.91925048828125</ele>
        <time>2024-04-10T01:04:52Z</time>
      </trkpt>
      <trkpt lat="36.02712581780844" lon="119.40637995151343">
        <ele>62.48565673828125</ele>
        <time>2024-04-10T01:04:58Z</time>
      </trkpt>
      <trkpt lat="36.02704379251085" lon="119.40627787313505">
        <ele>66.3846435546875</ele>
        <time>2024-04-10T01:05:04Z</time>
      </trkpt>
      <trkpt lat="36.02696575357991" lon="119.40614476858066">
        <ele>61.49993896484375</ele>
        <time>2024-04-10T01:05:13Z</time>
      </trkpt>
      <trkpt lat="36.0268256513961" lon="119.40582251414244">
        <ele>60.905517578125</ele>
        <time>2024-04-10T01:05:37Z</time>
      </trkpt>
      <trkpt lat="36.02667853301637" lon="119.40544322023716">
        <ele>60.7386474609375</ele>
        <time>2024-04-10T01:06:01Z</time>
      </trkpt>
      <trkpt lat="36.02662551819412" lon="119.40537417055475">
        <ele>62.279541015625</ele>
        <time>2024-04-10T01:06:07Z</time>
      </trkpt>
      <trkpt lat="36.02661148534666" lon="119.40528109757379">
        <ele>62.24810791015625</ele>
        <time>2024-04-10T01:06:19Z</time>
      </trkpt>
      <trkpt lat="36.026513427121834" lon="119.4050689404673">
        <ele>63.02398681640625</ele>
        <time>2024-04-10T01:06:28Z</time>
      </trkpt>
      <trkpt lat="36.02649728463714" lon="119.40467063357636">
        <ele>60.9241943359375</ele>
        <time>2024-04-10T01:06:43Z</time>
      </trkpt>
      <trkpt lat="36.02643021604365" lon="119.40443246081149">
        <ele>59.01409912109375</ele>
        <time>2024-04-10T01:06:52Z</time>
      </trkpt>
      <trkpt lat="36.0264021019124" lon="119.40407720102675">
        <ele>59.54766845703125</ele>
        <time>2024-04-10T01:07:01Z</time>
      </trkpt>
      <trkpt lat="36.02640402089984" lon="119.40383002208964">
        <ele>57.28125</ele>
        <time>2024-04-10T01:07:07Z</time>
      </trkpt>
      <trkpt lat="36.02641999298516" lon="119.40375396600241">
        <ele>57.0281982421875</ele>
        <time>2024-04-10T01:07:10Z</time>
      </trkpt>
      <trkpt lat="36.026406945802314" lon="119.40359385423706">
        <ele>58.62322998046875</ele>
        <time>2024-04-10T01:07:16Z</time>
      </trkpt>
      <trkpt lat="36.026365904392094" lon="119.40342774290562">
        <ele>62.413818359375</ele>
        <time>2024-04-10T01:07:25Z</time>
      </trkpt>
      <trkpt lat="36.02636588631998" lon="119.4033677013867">
        <ele>62.30267333984375</ele>
        <time>2024-04-10T01:07:31Z</time>
      </trkpt>
      <trkpt lat="36.026426857650165" lon="119.40331866078333">
        <ele>61.18841552734375</ele>
        <time>2024-04-10T01:07:43Z</time>
      </trkpt>
      <trkpt lat="36.02650185503927" lon="119.4033676861194">
        <ele>57.32147216796875</ele>
        <time>2024-04-10T01:07:49Z</time>
      </trkpt>
      <trkpt lat="36.02654086716938" lon="119.40343773019997">
        <ele>60.44757080078125</ele>
        <time>2024-04-10T01:07:55Z</time>
      </trkpt>
      <trkpt lat="36.026564888793885" lon="119.40352678951923">
        <ele>60.93096923828125</ele>
        <time>2024-04-10T01:08:01Z</time>
      </trkpt>
      <trkpt lat="36.02650892420288" lon="119.40359984700645">
        <ele>61.04278564453125</ele>
        <time>2024-04-10T01:08:07Z</time>
      </trkpt>
      <trkpt lat="36.026497018825154" lon="119.40389005474306">
        <ele>65.54058837890625</ele>
        <time>2024-04-10T01:08:25Z</time>
      </trkpt>
      <trkpt lat="36.02651910906581" lon="119.40417926270503">
        <ele>68.34112548828125</ele>
        <time>2024-04-10T01:08:40Z</time>
      </trkpt>
      <trkpt lat="36.026581159504026" lon="119.40436939667805">
        <ele>64.3280029296875</ele>
        <time>2024-04-10T01:08:52Z</time>
      </trkpt>
      <trkpt lat="36.0268351149199" lon="119.40440939809751">
        <ele>63.987060546875</ele>
        <time>2024-04-10T01:09:10Z</time>
      </trkpt>
      <trkpt lat="36.02688311464807" lon="119.404440415969">
        <ele>62.74267578125</ele>
        <time>2024-04-10T01:09:16Z</time>
      </trkpt>
      <trkpt lat="36.027020147934486" lon="119.4046245397728">
        <ele>66.906982421875</ele>
        <time>2024-04-10T01:09:28Z</time>
      </trkpt>
      <trkpt lat="36.02706220932845" lon="119.40482168620916">
        <ele>66.58343505859375</ele>
        <time>2024-04-10T01:09:40Z</time>
      </trkpt>
      <trkpt lat="36.02702931750563" lon="119.40509290145036">
        <ele>70.3902587890625</ele>
        <time>2024-04-10T01:09:58Z</time>
      </trkpt>
      <trkpt lat="36.02703235514977" lon="119.4051939810214">
        <ele>67.8076171875</ele>
        <time>2024-04-10T01:10:04Z</time>
      </trkpt>
      <trkpt lat="36.02714443491709" lon="119.40546618653536">
        <ele>62.8590087890625</ele>
        <time>2024-04-10T01:10:22Z</time>
      </trkpt>
      <trkpt lat="36.02726246660155" lon="119.40561429372477">
        <ele>61.085693359375</ele>
        <time>2024-04-10T01:10:34Z</time>
      </trkpt>
      <trkpt lat="36.02737747843592" lon="119.40570935878003">
        <ele>61.016357421875</ele>
        <time>2024-04-10T01:10:43Z</time>
      </trkpt>
      <trkpt lat="36.02753046316584" lon="119.40575838202038">
        <ele>59.8038330078125</ele>
        <time>2024-04-10T01:10:55Z</time>
      </trkpt>
      <trkpt lat="36.02767139308513" lon="119.40566528960665">
        <ele>55.775146484375</ele>
        <time>2024-04-10T01:11:07Z</time>
      </trkpt>
      <trkpt lat="36.02775423726456" lon="119.40531899967841">
        <ele>58.971435546875</ele>
        <time>2024-04-10T01:11:31Z</time>
      </trkpt>
      <trkpt lat="36.02787609053736" lon="119.40500673879131">
        <ele>61.37335205078125</ele>
        <time>2024-04-10T01:11:52Z</time>
      </trkpt>
      <trkpt lat="36.027950004857175" lon="119.40482058575587">
        <ele>62.27032470703125</ele>
        <time>2024-04-10T01:12:04Z</time>
      </trkpt>
      <trkpt lat="36.02796696395023" lon="119.404718505316">
        <ele>61.8758544921875</ele>
        <time>2024-04-10T01:12:10Z</time>
      </trkpt>
      <trkpt lat="36.02801292254708" lon="119.40463243439926">
        <ele>61.40826416015625</ele>
        <time>2024-04-10T01:12:16Z</time>
      </trkpt>
      <trkpt lat="36.02826776449803" lon="119.4043481916239">
        <ele>61.9818115234375</ele>
        <time>2024-04-10T01:12:40Z</time>
      </trkpt>
      <trkpt lat="36.02840569660116" lon="119.40424209737814">
        <ele>63.830078125</ele>
        <time>2024-04-10T01:12:52Z</time>
      </trkpt>
      <trkpt lat="36.02848066989611" lon="119.40421406826225">
        <ele>61.3887939453125</ele>
        <time>2024-04-10T01:12:58Z</time>
      </trkpt>
      <trkpt lat="36.02853963816689" lon="119.4041600218504">
        <ele>60.6575927734375</ele>
        <time>2024-04-10T01:13:04Z</time>
      </trkpt>
      <trkpt lat="36.028700518417786" lon="119.4039088210092">
        <ele>59.5076904296875</ele>
        <time>2024-04-10T01:13:22Z</time>
      </trkpt>
      <trkpt lat="36.02873744819971" lon="119.40371567875611">
        <ele>60.9375</ele>
        <time>2024-04-10T01:13:34Z</time>
      </trkpt>
      <trkpt lat="36.02872838531478" lon="119.40350653260485">
        <ele>61.0238037109375</ele>
        <time>2024-04-10T01:13:46Z</time>
      </trkpt>
      <trkpt lat="36.0287282812209" lon="119.40315729239424">
        <ele>61.520263671875</ele>
        <time>2024-04-10T01:14:07Z</time>
      </trkpt>
      <trkpt lat="36.028723252120045" lon="119.40305222203861">
        <ele>61.54144287109375</ele>
        <time>2024-04-10T01:14:13Z</time>
      </trkpt>
      <trkpt lat="36.028485235654784" lon="119.40279807979447">
        <ele>63.76959228515625</ele>
        <time>2024-04-10T01:14:37Z</time>
      </trkpt>
      <trkpt lat="36.02838921438338" lon="119.40263798601626">
        <ele>63.66400146484375</ele>
        <time>2024-04-10T01:14:49Z</time>
      </trkpt>
      <trkpt lat="36.02826820130346" lon="119.40248289969622">
        <ele>62.71826171875</ele>
        <time>2024-04-10T01:15:01Z</time>
      </trkpt>
      <trkpt lat="36.02823118707472" lon="119.40239484773592">
        <ele>61.6688232421875</ele>
        <time>2024-04-10T01:15:07Z</time>
      </trkpt>
      <trkpt lat="36.02803014989987" lon="119.4020596606991">
        <ele>62.53948974609375</ele>
        <time>2024-04-10T01:15:31Z</time>
      </trkpt>
      <trkpt lat="36.02793108979118" lon="119.40170445662984">
        <ele>66.84002685546875</ele>
        <time>2024-04-10T01:15:55Z</time>
      </trkpt>
      <trkpt lat="36.02793001237479" lon="119.4013472475334">
        <ele>64.8804931640625</ele>
        <time>2024-04-10T01:16:19Z</time>
      </trkpt>
      <trkpt lat="36.027890006183455" lon="119.40127320956059">
        <ele>64.76904296875</ele>
        <time>2024-04-10T01:16:25Z</time>
      </trkpt>
      <trkpt lat="36.02762802151449" lon="119.40105011288308">
        <ele>64.45513916015625</ele>
        <time>2024-04-10T01:16:46Z</time>
      </trkpt>
      <trkpt lat="36.02736605071149" lon="119.40088905300914">
        <ele>68.08160400390625</ele>
        <time>2024-04-10T01:16:58Z</time>
      </trkpt>
      <trkpt lat="36.0271400797427" lon="119.400766011154">
        <ele>64.77923583984375</ele>
        <time>2024-04-10T01:17:10Z</time>
      </trkpt>
      <trkpt lat="36.02682913796279" lon="119.40069300657572">
        <ele>66.1568603515625</ele>
        <time>2024-04-10T01:17:25Z</time>
      </trkpt>
      <trkpt lat="36.02655319229224" lon="119.4006420101491">
        <ele>62.52154541015625</ele>
        <time>2024-04-10T01:17:43Z</time>
      </trkpt>
      <trkpt lat="36.026247264100746" lon="119.40065004879679">
        <ele>67.9658203125</ele>
        <time>2024-04-10T01:18:04Z</time>
      </trkpt>
      <trkpt lat="36.02591235231894" lon="119.40071211978487">
        <ele>69.18853759765625</ele>
        <time>2024-04-10T01:18:28Z</time>
      </trkpt>
      <trkpt lat="36.025616426068474" lon="119.40074316978709">
        <ele>66.14324951171875</ele>
        <time>2024-04-10T01:18:49Z</time>
      </trkpt>
      <trkpt lat="36.025305485690616" lon="119.40067716906725">
        <ele>63.460693359375</ele>
        <time>2024-04-10T01:19:13Z</time>
      </trkpt>
      <trkpt lat="36.024988543025906" lon="119.40058915752415">
        <ele>64.17681884765625</ele>
        <time>2024-04-10T01:19:37Z</time>
      </trkpt>
      <trkpt lat="36.02467459302362" lon="119.40046012447364">
        <ele>64.31817626953125</ele>
        <time>2024-04-10T01:20:01Z</time>
      </trkpt>
      <trkpt lat="36.02440462516273" lon="119.40027906053147">
        <ele>61.0615234375</ele>
        <time>2024-04-10T01:20:25Z</time>
      </trkpt>
      <trkpt lat="36.02413265387284" lon="119.40006298100349">
        <ele>62.27801513671875</ele>
        <time>2024-04-10T01:20:49Z</time>
      </trkpt>
      <trkpt lat="36.023939670482015" lon="119.39987490901231">
        <ele>63.8487548828125</ele>
        <time>2024-04-10T01:21:07Z</time>
      </trkpt>
      <trkpt lat="36.02371368345671" lon="119.39959079667146">
        <ele>63.4921875</ele>
        <time>2024-04-10T01:21:31Z</time>
      </trkpt>
      <trkpt lat="36.023625682664836" lon="119.39942572862434">
        <ele>62.61090087890625</ele>
        <time>2024-04-10T01:21:43Z</time>
      </trkpt>
      <trkpt lat="36.02365766671755" lon="119.39935569243396">
        <ele>63.920166015625</ele>
        <time>2024-04-10T01:21:49Z</time>
      </trkpt>
      <trkpt lat="36.02373365592348" lon="119.39941070949064">
        <ele>58.5584716796875</ele>
        <time>2024-04-10T01:21:55Z</time>
      </trkpt>
      <trkpt lat="36.0237896618946" lon="119.39955977338128">
        <ele>60.95367431640625</ele>
        <time>2024-04-10T01:22:04Z</time>
      </trkpt>
      <trkpt lat="36.02399265368757" lon="119.39984288731809">
        <ele>62.593994140625</ele>
        <time>2024-04-10T01:22:25Z</time>
      </trkpt>
      <trkpt lat="36.024191637850684" lon="119.40004696633105">
        <ele>61.46112060546875</ele>
        <time>2024-04-10T01:22:43Z</time>
      </trkpt>
      <trkpt lat="36.024481601307784" lon="119.40024103233273">
        <ele>60.36285400390625</ele>
        <time>2024-04-10T01:23:07Z</time>
      </trkpt>
      <trkpt lat="36.02455659096742" lon="119.40028404604527">
        <ele>60.58441162109375</ele>
        <time>2024-04-10T01:23:13Z</time>
      </trkpt>
      <trkpt lat="36.02463357161637" lon="119.40027403224391">
        <ele>62.1265869140625</ele>
        <time>2024-04-10T01:23:19Z</time>
      </trkpt>
      <trkpt lat="36.02470855840284" lon="119.40029903672533">
        <ele>63.2257080078125</ele>
        <time>2024-04-10T01:23:25Z</time>
      </trkpt>
      <trkpt lat="36.024882514444215" lon="119.40027500480359">
        <ele>63.851318359375</ele>
        <time>2024-04-10T01:23:37Z</time>
      </trkpt>
      <trkpt lat="36.025143425808224" lon="119.40009388313105">
        <ele>63.35552978515625</ele>
        <time>2024-04-10T01:23:58Z</time>
      </trkpt>
      <trkpt lat="36.02526238927358" lon="119.40003383955779">
        <ele>63.51470947265625</ele>
        <time>2024-04-10T01:24:07Z</time>
      </trkpt>
      <trkpt lat="36.025580313222775" lon="119.40001479432885">
        <ele>64.30419921875</ele>
        <time>2024-04-10T01:24:31Z</time>
      </trkpt>
      <trkpt lat="36.02567328987257" lon="119.40000177738162">
        <ele>65.2198486328125</ele>
        <time>2024-04-10T01:24:37Z</time>
      </trkpt>
      <trkpt lat="36.025814259827214" lon="119.4000177695585">
        <ele>62.9666748046875</ele>
        <time>2024-04-10T01:24:49Z</time>
      </trkpt>
      <trkpt lat="36.02611917266185" lon="119.39990267807562">
        <ele>62.3922119140625</ele>
        <time>2024-04-10T01:25:10Z</time>
      </trkpt>
      <trkpt lat="36.026218148437835" lon="119.39989266201782">
        <ele>59.828857421875</ele>
        <time>2024-04-10T01:25:16Z</time>
      </trkpt>
      <trkpt lat="36.02634111338974" lon="119.39984562505508">
        <ele>60.6824951171875</ele>
        <time>2024-04-10T01:25:25Z</time>
      </trkpt>
      <trkpt lat="36.02642009521897" lon="119.39984561618482">
        <ele>64.26629638671875</ele>
        <time>2024-04-10T01:25:31Z</time>
      </trkpt>
      <trkpt lat="36.02662805776951" lon="119.39991762834802">
        <ele>63.51263427734375</ele>
        <time>2024-04-10T01:25:46Z</time>
      </trkpt>
      <trkpt lat="36.02694000657971" lon="119.40005566220746">
        <ele>62.99908447265625</ele>
        <time>2024-04-10T01:26:10Z</time>
      </trkpt>
      <trkpt lat="36.027118965577124" lon="119.40005664261184">
        <ele>62.25091552734375</ele>
        <time>2024-04-10T01:26:22Z</time>
      </trkpt>
      <trkpt lat="36.02720194939299" lon="119.4000756428624">
        <ele>60.03094482421875</ele>
        <time>2024-04-10T01:26:28Z</time>
      </trkpt>
      <trkpt lat="36.027361951245055" lon="119.40031974960522">
        <ele>61.79608154296875</ele>
        <time>2024-04-10T01:26:46Z</time>
      </trkpt>
      <trkpt lat="36.02749993915818" lon="119.40043779562322">
        <ele>64.664306640625</ele>
        <time>2024-04-10T01:26:58Z</time>
      </trkpt>
      <trkpt lat="36.027582927048286" lon="119.40047880786062">
        <ele>62.83056640625</ele>
        <time>2024-04-10T01:27:04Z</time>
      </trkpt>
      <trkpt lat="36.02776392194759" lon="119.40068689835962">
        <ele>63.5205078125</ele>
        <time>2024-04-10T01:27:22Z</time>
      </trkpt>
      <trkpt lat="36.02792489876648" lon="119.40076292138347">
        <ele>63.31756591796875</ele>
        <time>2024-04-10T01:27:34Z</time>
      </trkpt>
      <trkpt lat="36.02800888314365" lon="119.40078292282199">
        <ele>63.6341552734375</ele>
        <time>2024-04-10T01:27:40Z</time>
      </trkpt>
      <trkpt lat="36.02822881564293" lon="119.40068984776352">
        <ele>66.4888916015625</ele>
        <time>2024-04-10T01:27:58Z</time>
      </trkpt>
      <trkpt lat="36.0283577620822" lon="119.40055476104942">
        <ele>63.7889404296875</ele>
        <time>2024-04-10T01:28:10Z</time>
      </trkpt>
      <trkpt lat="36.02863467366092" lon="119.40040965351064">
        <ele>67.19610595703125</ele>
        <time>2024-04-10T01:28:34Z</time>
      </trkpt>
      <trkpt lat="36.02891560178696" lon="119.40036559899741">
        <ele>64.14727783203125</ele>
        <time>2024-04-10T01:28:55Z</time>
      </trkpt>
      <trkpt lat="36.02911855318567" lon="119.40035356995948">
        <ele>64.4912109375</ele>
        <time>2024-04-10T01:29:10Z</time>
      </trkpt>
      <trkpt lat="36.029420500936986" lon="119.40045558937014">
        <ele>66.145751953125</ele>
        <time>2024-04-10T01:29:31Z</time>
      </trkpt>
      <trkpt lat="36.02949948808654" lon="119.40048659682122">
        <ele>63.4224853515625</ele>
        <time>2024-04-10T01:29:37Z</time>
      </trkpt>
      <trkpt lat="36.02973147610903" lon="119.4007206957242">
        <ele>66.3603515625</ele>
        <time>2024-04-10T01:29:58Z</time>
      </trkpt>
      <trkpt lat="36.02980548236073" lon="119.4008467559774">
        <ele>67.554443359375</ele>
        <time>2024-04-10T01:30:07Z</time>
      </trkpt>
      <trkpt lat="36.02997048538178" lon="119.40105985539087">
        <ele>62.64874267578125</ele>
        <time>2024-04-10T01:30:25Z</time>
      </trkpt>
      <trkpt lat="36.030054518343036" lon="119.40131799224848">
        <ele>65.17041015625</ele>
        <time>2024-04-10T01:30:44Z</time>
      </trkpt>
      <trkpt lat="36.03009054980118" lon="119.40150509658893">
        <ele>64.45660400390625</ele>
        <time>2024-04-10T01:30:56Z</time>
      </trkpt>
      <trkpt lat="36.030080592477596" lon="119.40168820569028">
        <ele>65.01141357421875</ele>
        <time>2024-04-10T01:31:08Z</time>
      </trkpt>
      <trkpt lat="36.03020458214555" lon="119.40176823956521">
        <ele>62.7303466796875</ele>
        <time>2024-04-10T01:31:20Z</time>
      </trkpt>
      <trkpt lat="36.030522519271074" lon="119.40181223030098">
        <ele>64.60418701171875</ele>
        <time>2024-04-10T01:31:44Z</time>
      </trkpt>
      <trkpt lat="36.03051757769829" lon="119.40205537887688">
        <ele>63.17230224609375</ele>
        <time>2024-04-10T01:32:02Z</time>
      </trkpt>
      <trkpt lat="36.030504594011816" lon="119.40211041430166">
        <ele>64.80487060546875</ele>
        <time>2024-04-10T01:32:05Z</time>
      </trkpt>
      <trkpt lat="36.03051961218133" lon="119.40219846731767">
        <ele>63.93377685546875</ele>
        <time>2024-04-10T01:32:11Z</time>
      </trkpt>
      <trkpt lat="36.030517639888444" lon="119.40230753590403">
        <ele>61.25189208984375</ele>
        <time>2024-04-10T01:32:17Z</time>
      </trkpt>
      <trkpt lat="36.03047966894366" lon="119.40238759077288">
        <ele>60.27215576171875</ele>
        <time>2024-04-10T01:32:23Z</time>
      </trkpt>
      <trkpt lat="36.030468692609965" lon="119.40246964425131">
        <ele>57.831787109375</ele>
        <time>2024-04-10T01:32:29Z</time>
      </trkpt>
      <trkpt lat="36.03039579036726" lon="119.4027738494554">
        <ele>63.4290771484375</ele>
        <time>2024-04-10T01:32:47Z</time>
      </trkpt>
      <trkpt lat="36.03034483881142" lon="119.40290694301996">
        <ele>66.17242431640625</ele>
        <time>2024-04-10T01:32:56Z</time>
      </trkpt>
      <trkpt lat="36.03033895606208" lon="119.40330921528934">
        <ele>65.203369140625</ele>
        <time>2024-04-10T01:33:20Z</time>
      </trkpt>
      <trkpt lat="36.03036806969131" lon="119.40370248641545">
        <ele>64.63348388671875</ele>
        <time>2024-04-10T01:33:44Z</time>
      </trkpt>
      <trkpt lat="36.030387096724645" lon="119.40380155478454">
        <ele>67.00439453125</ele>
        <time>2024-04-10T01:33:50Z</time>
      </trkpt>
      <trkpt lat="36.03051017098304" lon="119.4041157682726">
        <ele>65.92962646484375</ele>
        <time>2024-04-10T01:34:11Z</time>
      </trkpt>
      <trkpt lat="36.03071423909293" lon="119.40445299555192">
        <ele>65.5296630859375</ele>
        <time>2024-04-10T01:34:35Z</time>
      </trkpt>
      <trkpt lat="36.03088730563296" lon="119.40475220350947">
        <ele>62.31329345703125</ele>
        <time>2024-04-10T01:34:56Z</time>
      </trkpt>
      <trkpt lat="36.031005373455045" lon="119.40501039055148">
        <ele>61.4080810546875</ele>
        <time>2024-04-10T01:35:14Z</time>
      </trkpt>
      <trkpt lat="36.03105739269046" lon="119.40509344995337">
        <ele>60.0657958984375</ele>
        <time>2024-04-10T01:35:20Z</time>
      </trkpt>
      <trkpt lat="36.031073426595185" lon="119.4051925264861">
        <ele>62.984619140625</ele>
        <time>2024-04-10T01:35:26Z</time>
      </trkpt>
      <trkpt lat="36.03113648042308" lon="119.40536966084693">
        <ele>63.79449462890625</ele>
        <time>2024-04-10T01:35:38Z</time>
      </trkpt>
      <trkpt lat="36.03120660717995" lon="119.40572894533051">
        <ele>57.03936767578125</ele>
        <time>2024-04-10T01:35:59Z</time>
      </trkpt>
      <trkpt lat="36.03122864130625" lon="119.40582502227996">
        <ele>57.3917236328125</ele>
        <time>2024-04-10T01:36:05Z</time>
      </trkpt>
      <trkpt lat="36.031239815895475" lon="119.40624737638697">
        <ele>63.92657470703125</ele>
        <time>2024-04-10T01:36:29Z</time>
      </trkpt>
      <trkpt lat="36.03124084106705" lon="119.40630642676395">
        <ele>63.9764404296875</ele>
        <time>2024-04-10T01:36:32Z</time>
      </trkpt>
      <trkpt lat="36.03132595092999" lon="119.40660167264537">
        <ele>62.37030029296875</ele>
        <time>2024-04-10T01:36:50Z</time>
      </trkpt>
      <trkpt lat="36.031517041324015" lon="119.40689891337304">
        <ele>64.5301513671875</ele>
        <time>2024-04-10T01:37:14Z</time>
      </trkpt>
      <trkpt lat="36.031624082353275" lon="119.40704102848632">
        <ele>65.81427001953125</ele>
        <time>2024-04-10T01:37:26Z</time>
      </trkpt>
      <trkpt lat="36.03164111251418" lon="119.40711409237828">
        <ele>64.7789306640625</ele>
        <time>2024-04-10T01:37:32Z</time>
      </trkpt>
      <trkpt lat="36.031618144548446" lon="119.40717114654963">
        <ele>63.37908935546875</ele>
        <time>2024-04-10T01:37:35Z</time>
      </trkpt>
      <trkpt lat="36.03162631219062" lon="119.4075254702003">
        <ele>66.649658203125</ele>
        <time>2024-04-10T01:37:56Z</time>
      </trkpt>
      <trkpt lat="36.03160849295036" lon="119.40788280676105">
        <ele>69.1956787109375</ele>
        <time>2024-04-10T01:38:17Z</time>
      </trkpt>
      <trkpt lat="36.03160853635915" lon="119.40796888843762">
        <ele>68.126953125</ele>
        <time>2024-04-10T01:38:23Z</time>
      </trkpt>
      <trkpt lat="36.03164662473141" lon="119.40815906611718">
        <ele>64.99383544921875</ele>
        <time>2024-04-10T01:38:35Z</time>
      </trkpt>
      <trkpt lat="36.03161884086082" lon="119.40855945903598">
        <ele>66.32647705078125</ele>
        <time>2024-04-10T01:38:59Z</time>
      </trkpt>
      <trkpt lat="36.03156394965315" lon="119.40873864259139">
        <ele>64.93408203125</ele>
        <time>2024-04-10T01:39:11Z</time>
      </trkpt>
      <trkpt lat="36.03155500498672" lon="119.40883674149067">
        <ele>63.26580810546875</ele>
        <time>2024-04-10T01:39:17Z</time>
      </trkpt>
      <trkpt lat="36.03158411283475" lon="119.40904494781743">
        <ele>62.25445556640625</ele>
        <time>2024-04-10T01:39:29Z</time>
      </trkpt>
      <trkpt lat="36.03154434022921" lon="119.40943234882087">
        <ele>61.43255615234375</ele>
        <time>2024-04-10T01:39:50Z</time>
      </trkpt>
      <trkpt lat="36.03158648333839" lon="119.40969661950314">
        <ele>63.7685546875</ele>
        <time>2024-04-10T01:40:05Z</time>
      </trkpt>
      <trkpt lat="36.03152374001684" lon="119.41010506000909">
        <ele>64.0443115234375</ele>
        <time>2024-04-10T01:40:29Z</time>
      </trkpt>
      <trkpt lat="36.03147100314982" lon="119.41051551108772">
        <ele>63.3812255859375</ele>
        <time>2024-04-10T01:40:53Z</time>
      </trkpt>
      <trkpt lat="36.03143624098413" lon="119.41088091936146">
        <ele>62.70538330078125</ele>
        <time>2024-04-10T01:41:14Z</time>
      </trkpt>
      <trkpt lat="36.03141151923974" lon="119.41130239798932">
        <ele>64.57794189453125</ele>
        <time>2024-04-10T01:41:38Z</time>
      </trkpt>
      <trkpt lat="36.03140176561479" lon="119.41166982214997">
        <ele>59.8514404296875</ele>
        <time>2024-04-10T01:41:59Z</time>
      </trkpt>
      <trkpt lat="36.031395893692476" lon="119.41185704133079">
        <ele>64.197509765625</ele>
        <time>2024-04-10T01:42:08Z</time>
      </trkpt>
      <trkpt lat="36.03144003398785" lon="119.41207629482848">
        <ele>64.595947265625</ele>
        <time>2024-04-10T01:42:20Z</time>
      </trkpt>
      <trkpt lat="36.03143710893697" lon="119.41218342242618">
        <ele>66.59039306640625</ele>
        <time>2024-04-10T01:42:26Z</time>
      </trkpt>
      <trkpt lat="36.03141517894536" lon="119.4122765360345">
        <ele>67.159912109375</ele>
        <time>2024-04-10T01:42:32Z</time>
      </trkpt>
      <trkpt lat="36.031364219404175" lon="119.41231759090981">
        <ele>66.20306396484375</ele>
        <time>2024-04-10T01:42:38Z</time>
      </trkpt>
      <trkpt lat="36.03122550493135" lon="119.41267503854894">
        <ele>70.04351806640625</ele>
        <time>2024-04-10T01:43:02Z</time>
      </trkpt>
      <trkpt lat="36.03130766643573" lon="119.4129243349912">
        <ele>63.3424072265625</ele>
        <time>2024-04-10T01:43:17Z</time>
      </trkpt>
      <trkpt lat="36.031309915942074" lon="119.41326375655628">
        <ele>64.263916015625</ele>
        <time>2024-04-10T01:43:35Z</time>
      </trkpt>
      <trkpt lat="36.031264228080026" lon="119.41366426781578">
        <ele>65.028076171875</ele>
        <time>2024-04-10T01:43:59Z</time>
      </trkpt>
      <trkpt lat="36.0312114734741" lon="119.41396766319033">
        <ele>65.545166015625</ele>
        <time>2024-04-10T01:44:17Z</time>
      </trkpt>
      <trkpt lat="36.03117355226257" lon="119.41405778413039">
        <ele>62.638427734375</ele>
        <time>2024-04-10T01:44:23Z</time>
      </trkpt>
      <trkpt lat="36.03116161760744" lon="119.41413788957665">
        <ele>64.1859130859375</ele>
        <time>2024-04-10T01:44:29Z</time>
      </trkpt>
      <trkpt lat="36.03119864917425" lon="119.41418895198073">
        <ele>63.57672119140625</ele>
        <time>2024-04-10T01:44:41Z</time>
      </trkpt>
      <trkpt lat="36.031234833360976" lon="119.41443226708341">
        <ele>64.0032958984375</ele>
        <time>2024-04-10T01:44:50Z</time>
      </trkpt>
      <trkpt lat="36.031157894945714" lon="119.41448734841828">
        <ele>63.02288818359375</ele>
        <time>2024-04-10T01:44:56Z</time>
      </trkpt>
    </trkseg>
  </trk>
</gpx>