<?xml version="1.0" encoding="UTF-8"?>
<gpx xmlns="http://www.topografix.com/GPX/1/1" xmlns:gpxtpx="http://www.garmin.com/xmlschemas/TrackPointExtension/v1" xmlns:xsi="http://www.w3.org/2001/XMLSchema-instance" xsi:schemaLocation="http://www.topografix.com/GPX/1/1 http://www.topografix.com/GPX/1/1/gpx.xsd" version="1.1" creator="gpx.py -- https://github.com/tkrajina/gpxpy">
  <trk>
    <name>gpx from keep</name>
    <type>Run</type>
    <trkseg>
      <trkpt lat="30.522075250411923" lon="114.3925705825306">
        <ele>20.03</ele>
        <time>2021-06-01T14:00:03Z</time>
      </trkpt>
      <trkpt lat="30.52209194993656" lon="114.39286568989073">
        <ele>20.52</ele>
        <time>2021-06-01T14:00:15Z</time>
      </trkpt>
      <trkpt lat="30.522196294005767" lon="114.39309125871317">
        <ele>17.38</ele>
        <time>2021-06-01T14:00:24Z</time>
      </trkpt>
      <trkpt lat="30.522269816098678" lon="114.39313973113353">
        <ele>16.13</ele>
        <time>2021-06-01T14:00:27Z</time>
      </trkpt>
      <trkpt lat="30.522529968663243" lon="114.39322541250735">
        <ele>21.18</ele>
        <time>2021-06-01T14:00:36Z</time>
      </trkpt>
      <trkpt lat="30.522802076863623" lon="114.39320733651212">
        <ele>17.6</ele>
        <time>2021-06-01T14:00:48Z</time>
      </trkpt>
      <trkpt lat="30.52294969859873" lon="114.39320902628654">
        <ele>17.55</ele>
        <time>2021-06-01T14:00:54Z</time>
      </trkpt>
      <trkpt lat="30.523039233722507" lon="114.39322731069434">
        <ele>18.91</ele>
        <time>2021-06-01T14:00:57Z</time>
      </trkpt>
      <trkpt lat="30.52327450184693" lon="114.39321033515571">
        <ele>19.76</ele>
        <time>2021-06-01T14:01:06Z</time>
      </trkpt>
      <trkpt lat="30.523360079259003" lon="114.39323847217607">
        <ele>19.68</ele>
        <time>2021-06-01T14:01:09Z</time>
      </trkpt>
      <trkpt lat="30.523561213064646" lon="114.39311968999354">
        <ele>22.55</ele>
        <time>2021-06-01T14:01:18Z</time>
      </trkpt>
      <trkpt lat="30.523649077816486" lon="114.39296671936295">
        <ele>24.45</ele>
        <time>2021-06-01T14:01:24Z</time>
      </trkpt>
      <trkpt lat="30.523675826261535" lon="114.39278912258656">
        <ele>20.29</ele>
        <time>2021-06-01T14:01:30Z</time>
      </trkpt>
      <trkpt lat="30.523655048161782" lon="114.39262784036207">
        <ele>19.64</ele>
        <time>2021-06-01T14:01:36Z</time>
      </trkpt>
      <trkpt lat="30.523526477558992" lon="114.39241723575844">
        <ele>21.46</ele>
        <time>2021-06-01T14:01:45Z</time>
      </trkpt>
      <trkpt lat="30.523355458855228" lon="114.39230141622141">
        <ele>21.37</ele>
        <time>2021-06-01T14:01:54Z</time>
      </trkpt>
      <trkpt lat="30.523073675005296" lon="114.39229586605092">
        <ele>21.31</ele>
        <time>2021-06-01T14:02:06Z</time>
      </trkpt>
      <trkpt lat="30.52277313267695" lon="114.39229753785492">
        <ele>20.94</ele>
        <time>2021-06-01T14:02:18Z</time>
      </trkpt>
      <trkpt lat="30.522437212352454" lon="114.39230913241559">
        <ele>22.09</ele>
        <time>2021-06-01T14:02:30Z</time>
      </trkpt>
      <trkpt lat="30.522281994880572" lon="114.39236856867547">
        <ele>19.94</ele>
        <time>2021-06-01T14:02:36Z</time>
      </trkpt>
      <trkpt lat="30.522201031316143" lon="114.3924417682086">
        <ele>23.35</ele>
        <time>2021-06-01T14:02:39Z</time>
      </trkpt>
      <trkpt lat="30.5221427650792" lon="114.39254526558815">
        <ele>23.62</ele>
        <time>2021-06-01T14:02:42Z</time>
      </trkpt>
      <trkpt lat="30.522117868986324" lon="114.39264801263909">
        <ele>22.71</ele>
        <time>2021-06-01T14:02:45Z</time>
      </trkpt>
      <trkpt lat="30.522111903912887" lon="114.39275429055019">
        <ele>20.56</ele>
        <time>2021-06-01T14:02:48Z</time>
      </trkpt>
      <trkpt lat="30.522167672158034" lon="114.3929996347464">
        <ele>20.73</ele>
        <time>2021-06-01T14:02:54Z</time>
      </trkpt>
      <trkpt lat="30.522333136670095" lon="114.39313972084331">
        <ele>20.18</ele>
        <time>2021-06-01T14:03:00Z</time>
      </trkpt>
      <trkpt lat="30.522489311195216" lon="114.39319531476741">
        <ele>19.6</ele>
        <time>2021-06-01T14:03:06Z</time>
      </trkpt>
      <trkpt lat="30.522569684513805" lon="114.39320629729389">
        <ele>18.69</ele>
        <time>2021-06-01T14:03:09Z</time>
      </trkpt>
      <trkpt lat="30.522845153752357" lon="114.39319249240837">
        <ele>22.95</ele>
        <time>2021-06-01T14:03:18Z</time>
      </trkpt>
      <trkpt lat="30.523178093951167" lon="114.39318055775416">
        <ele>17.99</ele>
        <time>2021-06-01T14:03:30Z</time>
      </trkpt>
      <trkpt lat="30.52340346547561" lon="114.39317837615594">
        <ele>16.46</ele>
        <time>2021-06-01T14:03:39Z</time>
      </trkpt>
      <trkpt lat="30.52347913417123" lon="114.39312753243021">
        <ele>15.78</ele>
        <time>2021-06-01T14:03:42Z</time>
      </trkpt>
      <trkpt lat="30.523592582201665" lon="114.39294504392252">
        <ele>15.48</ele>
        <time>2021-06-01T14:03:48Z</time>
      </trkpt>
      <trkpt lat="30.523631035984817" lon="114.39266205944604">
        <ele>20.99</ele>
        <time>2021-06-01T14:03:57Z</time>
      </trkpt>
      <trkpt lat="30.52357246681699" lon="114.39249753658217">
        <ele>19.57</ele>
        <time>2021-06-01T14:04:03Z</time>
      </trkpt>
      <trkpt lat="30.523527097118784" lon="114.39241533525798">
        <ele>19.65</ele>
        <time>2021-06-01T14:04:06Z</time>
      </trkpt>
      <trkpt lat="30.523396004119736" lon="114.39232231150432">
        <ele>18.73</ele>
        <time>2021-06-01T14:04:12Z</time>
      </trkpt>
      <trkpt lat="30.52331931726008" lon="114.39229600497006">
        <ele>18.5</ele>
        <time>2021-06-01T14:04:15Z</time>
      </trkpt>
      <trkpt lat="30.52308129004688" lon="114.39231708156714">
        <ele>21.28</ele>
        <time>2021-06-01T14:04:24Z</time>
      </trkpt>
      <trkpt lat="30.52300097573069" lon="114.3923017679256">
        <ele>21.89</ele>
        <time>2021-06-01T14:04:27Z</time>
      </trkpt>
      <trkpt lat="30.522728832163516" lon="114.39233971909357">
        <ele>17.76</ele>
        <time>2021-06-01T14:04:39Z</time>
      </trkpt>
      <trkpt lat="30.52259567466565" lon="114.3923555338379">
        <ele>18.42</ele>
        <time>2021-06-01T14:04:45Z</time>
      </trkpt>
      <trkpt lat="30.52249474005558" lon="114.39233977017113">
        <ele>19.43</ele>
        <time>2021-06-01T14:04:48Z</time>
      </trkpt>
      <trkpt lat="30.522356055708673" lon="114.39236923851418">
        <ele>19.98</ele>
        <time>2021-06-01T14:04:54Z</time>
      </trkpt>
      <trkpt lat="30.522288533405955" lon="114.3924046680961">
        <ele>18.91</ele>
        <time>2021-06-01T14:04:57Z</time>
      </trkpt>
      <trkpt lat="30.522225169639277" lon="114.3924763071454">
        <ele>19.75</ele>
        <time>2021-06-01T14:05:00Z</time>
      </trkpt>
      <trkpt lat="30.522146552731865" lon="114.39266284639947">
        <ele>19.04</ele>
        <time>2021-06-01T14:05:06Z</time>
      </trkpt>
      <trkpt lat="30.522125868428578" lon="114.39277295538598">
        <ele>20.05</ele>
        <time>2021-06-01T14:05:09Z</time>
      </trkpt>
      <trkpt lat="30.522241092322005" lon="114.39303995501523">
        <ele>22.21</ele>
        <time>2021-06-01T14:05:18Z</time>
      </trkpt>
      <trkpt lat="30.52229469746263" lon="114.39310214112942">
        <ele>22.09</ele>
        <time>2021-06-01T14:05:21Z</time>
      </trkpt>
      <trkpt lat="30.522457735733372" lon="114.39317336913365">
        <ele>21.4</ele>
        <time>2021-06-01T14:05:27Z</time>
      </trkpt>
      <trkpt lat="30.522654292322137" lon="114.3931513524461">
        <ele>19.2</ele>
        <time>2021-06-01T14:05:33Z</time>
      </trkpt>
      <trkpt lat="30.522930800656404" lon="114.39317607769819">
        <ele>18.03</ele>
        <time>2021-06-01T14:05:42Z</time>
      </trkpt>
      <trkpt lat="30.52322118374183" lon="114.39317801688954">
        <ele>14.72</ele>
        <time>2021-06-01T14:05:51Z</time>
      </trkpt>
      <trkpt lat="30.523311635935418" lon="114.39318384801362">
        <ele>15.29</ele>
        <time>2021-06-01T14:05:54Z</time>
      </trkpt>
      <trkpt lat="30.523408242169197" lon="114.39316417239539">
        <ele>16.27</ele>
        <time>2021-06-01T14:05:57Z</time>
      </trkpt>
      <trkpt lat="30.523477070316034" lon="114.39311125815725">
        <ele>17.17</ele>
        <time>2021-06-01T14:06:00Z</time>
      </trkpt>
      <trkpt lat="30.523535211069362" lon="114.39302735582282">
        <ele>21.37</ele>
        <time>2021-06-01T14:06:03Z</time>
      </trkpt>
      <trkpt lat="30.523612473314547" lon="114.39282154138675">
        <ele>18.96</ele>
        <time>2021-06-01T14:06:09Z</time>
      </trkpt>
      <trkpt lat="30.523621558944637" lon="114.39271756405113">
        <ele>19.19</ele>
        <time>2021-06-01T14:06:12Z</time>
      </trkpt>
      <trkpt lat="30.52360248545664" lon="114.39261834811192">
        <ele>17.3</ele>
        <time>2021-06-01T14:06:15Z</time>
      </trkpt>
      <trkpt lat="30.523517845009028" lon="114.39244932420105">
        <ele>22.05</ele>
        <time>2021-06-01T14:06:21Z</time>
      </trkpt>
      <trkpt lat="30.523453547229252" lon="114.3923760052955">
        <ele>20.47</ele>
        <time>2021-06-01T14:06:24Z</time>
      </trkpt>
      <trkpt lat="30.523387079594286" lon="114.39234600774608">
        <ele>19.83</ele>
        <time>2021-06-01T14:06:27Z</time>
      </trkpt>
      <trkpt lat="30.523080622540366" lon="114.39232774436033">
        <ele>17.57</ele>
        <time>2021-06-01T14:06:39Z</time>
      </trkpt>
      <trkpt lat="30.52285771884909" lon="114.39232060350533">
        <ele>21.33</ele>
        <time>2021-06-01T14:06:48Z</time>
      </trkpt>
      <trkpt lat="30.52277793109077" lon="114.39233324717668">
        <ele>20.27</ele>
        <time>2021-06-01T14:06:51Z</time>
      </trkpt>
      <trkpt lat="30.522512089591277" lon="114.39233711939856">
        <ele>18.21</ele>
        <time>2021-06-01T14:07:03Z</time>
      </trkpt>
      <trkpt lat="30.522438045384586" lon="114.39232203578803">
        <ele>16.95</ele>
        <time>2021-06-01T14:07:06Z</time>
      </trkpt>
      <trkpt lat="30.522237455186165" lon="114.39241423083203">
        <ele>19.26</ele>
        <time>2021-06-01T14:07:15Z</time>
      </trkpt>
      <trkpt lat="30.522157491708864" lon="114.39253034161015">
        <ele>18.92</ele>
        <time>2021-06-01T14:07:21Z</time>
      </trkpt>
      <trkpt lat="30.52212851016719" lon="114.3926100626389">
        <ele>19.99</ele>
        <time>2021-06-01T14:07:24Z</time>
      </trkpt>
      <trkpt lat="30.52210386944771" lon="114.39277813684606">
        <ele>21.16</ele>
        <time>2021-06-01T14:07:30Z</time>
      </trkpt>
      <trkpt lat="30.5221084979046" lon="114.39285641738005">
        <ele>20.03</ele>
        <time>2021-06-01T14:07:33Z</time>
      </trkpt>
      <trkpt lat="30.522180992742907" lon="114.39300160520399">
        <ele>17.51</ele>
        <time>2021-06-01T14:07:39Z</time>
      </trkpt>
      <trkpt lat="30.522239407220844" lon="114.39306081050798">
        <ele>17.63</ele>
        <time>2021-06-01T14:07:42Z</time>
      </trkpt>
      <trkpt lat="30.522393740388964" lon="114.3931531641061">
        <ele>19.9</ele>
        <time>2021-06-01T14:07:48Z</time>
      </trkpt>
      <trkpt lat="30.52268940834593" lon="114.39317554865532">
        <ele>17.48</ele>
        <time>2021-06-01T14:08:00Z</time>
      </trkpt>
      <trkpt lat="30.5229184455931" lon="114.39319748338946">
        <ele>15.15</ele>
        <time>2021-06-01T14:08:09Z</time>
      </trkpt>
      <trkpt lat="30.52318759281751" lon="114.3931753863497">
        <ele>15.6</ele>
        <time>2021-06-01T14:08:21Z</time>
      </trkpt>
      <trkpt lat="30.52342144604316" lon="114.39313768536421">
        <ele>16.42</ele>
        <time>2021-06-01T14:08:30Z</time>
      </trkpt>
      <trkpt lat="30.523539787648414" lon="114.39305510309944">
        <ele>18.41</ele>
        <time>2021-06-01T14:08:36Z</time>
      </trkpt>
      <trkpt lat="30.52363318846863" lon="114.39292762916124">
        <ele>17.53</ele>
        <time>2021-06-01T14:08:42Z</time>
      </trkpt>
      <trkpt lat="30.523659980015733" lon="114.39284819817144">
        <ele>17.04</ele>
        <time>2021-06-01T14:08:45Z</time>
      </trkpt>
      <trkpt lat="30.5236623618113" lon="114.39277071781613">
        <ele>19.16</ele>
        <time>2021-06-01T14:08:48Z</time>
      </trkpt>
      <trkpt lat="30.523617735566297" lon="114.39261822801107">
        <ele>19.1</ele>
        <time>2021-06-01T14:08:54Z</time>
      </trkpt>
      <trkpt lat="30.52347923026234" lon="114.3923879483052">
        <ele>17.92</ele>
        <time>2021-06-01T14:09:03Z</time>
      </trkpt>
      <trkpt lat="30.523398242547092" lon="114.39235817087878">
        <ele>19.34</ele>
        <time>2021-06-01T14:09:06Z</time>
      </trkpt>
      <trkpt lat="30.523060726609526" lon="114.39234586919403">
        <ele>16.57</ele>
        <time>2021-06-01T14:09:15Z</time>
      </trkpt>
      <trkpt lat="30.52273111238114" lon="114.3923405593031">
        <ele>18.19</ele>
        <time>2021-06-01T14:09:24Z</time>
      </trkpt>
      <trkpt lat="30.522507090162744" lon="114.39233975010974">
        <ele>19.12</ele>
        <time>2021-06-01T14:09:30Z</time>
      </trkpt>
      <trkpt lat="30.52233610801669" lon="114.39237985138293">
        <ele>20.99</ele>
        <time>2021-06-01T14:09:36Z</time>
      </trkpt>
      <trkpt lat="30.522251898233616" lon="114.39242666402203">
        <ele>21.53</ele>
        <time>2021-06-01T14:09:39Z</time>
      </trkpt>
      <trkpt lat="30.522145438746417" lon="114.3926033608048">
        <ele>18.46</ele>
        <time>2021-06-01T14:09:45Z</time>
      </trkpt>
      <trkpt lat="30.522109376808856" lon="114.39272417265757">
        <ele>19.93</ele>
        <time>2021-06-01T14:09:48Z</time>
      </trkpt>
      <trkpt lat="30.522126159258026" lon="114.39286148863184">
        <ele>21.63</ele>
        <time>2021-06-01T14:09:51Z</time>
      </trkpt>
      <trkpt lat="30.522166455058382" lon="114.39296953683964">
        <ele>23.17</ele>
        <time>2021-06-01T14:09:54Z</time>
      </trkpt>
      <trkpt lat="30.522237223990896" lon="114.39304718693472">
        <ele>24.03</ele>
        <time>2021-06-01T14:09:57Z</time>
      </trkpt>
      <trkpt lat="30.522437500143887" lon="114.39315044319127">
        <ele>21.15</ele>
        <time>2021-06-01T14:10:06Z</time>
      </trkpt>
      <trkpt lat="30.522579759074052" lon="114.39314043991263">
        <ele>18.52</ele>
        <time>2021-06-01T14:10:12Z</time>
      </trkpt>
      <trkpt lat="30.52286359554983" lon="114.39315700298266">
        <ele>13.65</ele>
        <time>2021-06-01T14:10:24Z</time>
      </trkpt>
      <trkpt lat="30.523163966553582" lon="114.39314972970391">
        <ele>16.94</ele>
        <time>2021-06-01T14:10:36Z</time>
      </trkpt>
      <trkpt lat="30.52347740366272" lon="114.39312544188796">
        <ele>12.85</ele>
        <time>2021-06-01T14:10:48Z</time>
      </trkpt>
      <trkpt lat="30.52354472626476" lon="114.3930490414827">
        <ele>15.74</ele>
        <time>2021-06-01T14:10:51Z</time>
      </trkpt>
      <trkpt lat="30.523617629119205" lon="114.39288850895294">
        <ele>16.49</ele>
        <time>2021-06-01T14:10:57Z</time>
      </trkpt>
      <trkpt lat="30.523625224806633" lon="114.39278488170326">
        <ele>17.58</ele>
        <time>2021-06-01T14:11:00Z</time>
      </trkpt>
      <trkpt lat="30.52361267646833" lon="114.39270737141698">
        <ele>18.09</ele>
        <time>2021-06-01T14:11:03Z</time>
      </trkpt>
      <trkpt lat="30.523532722356432" lon="114.3924800621849">
        <ele>18.92</ele>
        <time>2021-06-01T14:11:12Z</time>
      </trkpt>
      <trkpt lat="30.523487068152996" lon="114.39242128699853">
        <ele>18.98</ele>
        <time>2021-06-01T14:11:15Z</time>
      </trkpt>
      <trkpt lat="30.523278531950673" lon="114.39231759080336">
        <ele>18.95</ele>
        <time>2021-06-01T14:11:24Z</time>
      </trkpt>
      <trkpt lat="30.523065135031285" lon="114.39233896736772">
        <ele>18.69</ele>
        <time>2021-06-01T14:11:33Z</time>
      </trkpt>
      <trkpt lat="30.522882595648763" lon="114.39230598956844">
        <ele>16.3</ele>
        <time>2021-06-01T14:11:39Z</time>
      </trkpt>
      <trkpt lat="30.52281455797073" lon="114.39231852315721">
        <ele>16.18</ele>
        <time>2021-06-01T14:11:42Z</time>
      </trkpt>
      <trkpt lat="30.522654253781035" lon="114.39230684082935">
        <ele>15.14</ele>
        <time>2021-06-01T14:11:48Z</time>
      </trkpt>
      <trkpt lat="30.52249739784255" lon="114.39233022766186">
        <ele>17.76</ele>
        <time>2021-06-01T14:11:54Z</time>
      </trkpt>
      <trkpt lat="30.52241655283587" lon="114.39231199325803">
        <ele>18.4</ele>
        <time>2021-06-01T14:11:57Z</time>
      </trkpt>
      <trkpt lat="30.522347289067074" lon="114.39234125122896">
        <ele>17.46</ele>
        <time>2021-06-01T14:12:00Z</time>
      </trkpt>
      <trkpt lat="30.522176206823044" lon="114.39250880588204">
        <ele>19.93</ele>
        <time>2021-06-01T14:12:09Z</time>
      </trkpt>
      <trkpt lat="30.522128511881217" lon="114.39257478338979">
        <ele>21.78</ele>
        <time>2021-06-01T14:12:12Z</time>
      </trkpt>
      <trkpt lat="30.522077489940212" lon="114.39278124778254">
        <ele>22.57</ele>
        <time>2021-06-01T14:12:21Z</time>
      </trkpt>
      <trkpt lat="30.52210814953651" lon="114.39294833153082">
        <ele>22.49</ele>
        <time>2021-06-01T14:12:27Z</time>
      </trkpt>
      <trkpt lat="30.52219679878404" lon="114.39306908287735">
        <ele>21.65</ele>
        <time>2021-06-01T14:12:33Z</time>
      </trkpt>
      <trkpt lat="30.522309949818446" lon="114.39315396469728">
        <ele>20.91</ele>
        <time>2021-06-01T14:12:39Z</time>
      </trkpt>
      <trkpt lat="30.522445681901775" lon="114.39319998619536">
        <ele>19.32</ele>
        <time>2021-06-01T14:12:45Z</time>
      </trkpt>
      <trkpt lat="30.522698975550224" lon="114.39320572655649">
        <ele>15.22</ele>
        <time>2021-06-01T14:12:57Z</time>
      </trkpt>
      <trkpt lat="30.522965267395346" lon="114.3932457158772">
        <ele>18.53</ele>
        <time>2021-06-01T14:13:09Z</time>
      </trkpt>
      <trkpt lat="30.523229513636718" lon="114.39321964781217">
        <ele>17.18</ele>
        <time>2021-06-01T14:13:21Z</time>
      </trkpt>
      <trkpt lat="30.52337268511589" lon="114.393220427367">
        <ele>15.65</ele>
        <time>2021-06-01T14:13:27Z</time>
      </trkpt>
      <trkpt lat="30.523472010592407" lon="114.39315503970184">
        <ele>18.22</ele>
        <time>2021-06-01T14:13:33Z</time>
      </trkpt>
      <trkpt lat="30.52357722863747" lon="114.39305786365536">
        <ele>19.32</ele>
        <time>2021-06-01T14:13:39Z</time>
      </trkpt>
      <trkpt lat="30.52364566027901" lon="114.39289235983722">
        <ele>17.38</ele>
        <time>2021-06-01T14:13:45Z</time>
      </trkpt>
      <trkpt lat="30.52366396106691" lon="114.39281000812416">
        <ele>19.94</ele>
        <time>2021-06-01T14:13:48Z</time>
      </trkpt>
      <trkpt lat="30.523624435744352" lon="114.39261872811173">
        <ele>19.67</ele>
        <time>2021-06-01T14:13:54Z</time>
      </trkpt>
      <trkpt lat="30.523555835051425" lon="114.39249065485483">
        <ele>18.07</ele>
        <time>2021-06-01T14:14:00Z</time>
      </trkpt>
      <trkpt lat="30.523382622103284" lon="114.39235688061211">
        <ele>19.1</ele>
        <time>2021-06-01T14:14:09Z</time>
      </trkpt>
      <trkpt lat="30.523314135942332" lon="114.39233324473771">
        <ele>19.32</ele>
        <time>2021-06-01T14:14:12Z</time>
      </trkpt>
      <trkpt lat="30.523003822159687" lon="114.39232908506041">
        <ele>19.3</ele>
        <time>2021-06-01T14:14:24Z</time>
      </trkpt>
      <trkpt lat="30.522728607012144" lon="114.39231775334657">
        <ele>18.15</ele>
        <time>2021-06-01T14:14:33Z</time>
      </trkpt>
      <trkpt lat="30.52263818315022" lon="114.3923047703607">
        <ele>18.03</ele>
        <time>2021-06-01T14:14:36Z</time>
      </trkpt>
      <trkpt lat="30.522556467627137" lon="114.39232702655566">
        <ele>17.8</ele>
        <time>2021-06-01T14:14:39Z</time>
      </trkpt>
      <trkpt lat="30.522449695208735" lon="114.39232083542099">
        <ele>17.56</ele>
        <time>2021-06-01T14:14:42Z</time>
      </trkpt>
      <trkpt lat="30.522336429039044" lon="114.39234155135685">
        <ele>18.13</ele>
        <time>2021-06-01T14:14:45Z</time>
      </trkpt>
      <trkpt lat="30.522250684339365" lon="114.39241010969286">
        <ele>18.42</ele>
        <time>2021-06-01T14:14:48Z</time>
      </trkpt>
      <trkpt lat="30.522114799866713" lon="114.3926093125045">
        <ele>19.2</ele>
        <time>2021-06-01T14:14:54Z</time>
      </trkpt>
      <trkpt lat="30.522078596562796" lon="114.39272431283416">
        <ele>21.33</ele>
        <time>2021-06-01T14:14:57Z</time>
      </trkpt>
      <trkpt lat="30.52207858738708" lon="114.39281286607874">
        <ele>22.79</ele>
        <time>2021-06-01T14:15:00Z</time>
      </trkpt>
      <trkpt lat="30.522099732244623" lon="114.39291768351498">
        <ele>24.98</ele>
        <time>2021-06-01T14:15:03Z</time>
      </trkpt>
      <trkpt lat="30.522256688017052" lon="114.39312998110636">
        <ele>23.94</ele>
        <time>2021-06-01T14:15:12Z</time>
      </trkpt>
      <trkpt lat="30.52240445633344" lon="114.3931779605842">
        <ele>24.75</ele>
        <time>2021-06-01T14:15:18Z</time>
      </trkpt>
      <trkpt lat="30.522721128288754" lon="114.39317408812678">
        <ele>19.41</ele>
        <time>2021-06-01T14:15:30Z</time>
      </trkpt>
      <trkpt lat="30.523024286567587" lon="114.393197552927">
        <ele>17.86</ele>
        <time>2021-06-01T14:15:42Z</time>
      </trkpt>
      <trkpt lat="30.523314943478944" lon="114.39317330522329">
        <ele>17.9</ele>
        <time>2021-06-01T14:15:54Z</time>
      </trkpt>
      <trkpt lat="30.52341222531422" lon="114.39317735584756">
        <ele>15.62</ele>
        <time>2021-06-01T14:15:57Z</time>
      </trkpt>
      <trkpt lat="30.523532849276016" lon="114.39310470617984">
        <ele>16.63</ele>
        <time>2021-06-01T14:16:03Z</time>
      </trkpt>
      <trkpt lat="30.523624342989308" lon="114.39290469317456">
        <ele>16.01</ele>
        <time>2021-06-01T14:16:12Z</time>
      </trkpt>
      <trkpt lat="30.523634239974605" lon="114.39267891385273">
        <ele>15.74</ele>
        <time>2021-06-01T14:16:21Z</time>
      </trkpt>
      <trkpt lat="30.52358721145314" lon="114.39255931270404">
        <ele>14.41</ele>
        <time>2021-06-01T14:16:27Z</time>
      </trkpt>
      <trkpt lat="30.523485326905387" lon="114.39241603563136">
        <ele>17.98</ele>
        <time>2021-06-01T14:16:33Z</time>
      </trkpt>
      <trkpt lat="30.523425973536646" lon="114.39236132157733">
        <ele>20.45</ele>
        <time>2021-06-01T14:16:36Z</time>
      </trkpt>
      <trkpt lat="30.523276839014006" lon="114.39230512755002">
        <ele>22.04</ele>
        <time>2021-06-01T14:16:42Z</time>
      </trkpt>
      <trkpt lat="30.52306954025849" lon="114.39227577081274">
        <ele>18.51</ele>
        <time>2021-06-01T14:16:51Z</time>
      </trkpt>
      <trkpt lat="30.523022865652116" lon="114.39230058751723">
        <ele>17.11</ele>
        <time>2021-06-01T14:16:54Z</time>
      </trkpt>
      <trkpt lat="30.522743794896467" lon="114.39230814076237">
        <ele>17.03</ele>
        <time>2021-06-01T14:17:06Z</time>
      </trkpt>
      <trkpt lat="30.52252339201464" lon="114.39230436077538">
        <ele>17.4</ele>
        <time>2021-06-01T14:17:15Z</time>
      </trkpt>
      <trkpt lat="30.52233000081706" lon="114.3923493834358">
        <ele>18.7</ele>
        <time>2021-06-01T14:17:24Z</time>
      </trkpt>
      <trkpt lat="30.5221934721629" lon="114.39244566926462">
        <ele>19.19</ele>
        <time>2021-06-01T14:17:30Z</time>
      </trkpt>
      <trkpt lat="30.522111952456097" lon="114.3926204454366">
        <ele>21.23</ele>
        <time>2021-06-01T14:17:36Z</time>
      </trkpt>
      <trkpt lat="30.522092829057403" lon="114.3928194177344">
        <ele>23.01</ele>
        <time>2021-06-01T14:17:42Z</time>
      </trkpt>
      <trkpt lat="30.522099330990663" lon="114.39291237212119">
        <ele>23.1</ele>
        <time>2021-06-01T14:17:45Z</time>
      </trkpt>
      <trkpt lat="30.52217171681994" lon="114.39301926989073">
        <ele>23.91</ele>
        <time>2021-06-01T14:17:48Z</time>
      </trkpt>
      <trkpt lat="30.52241255075699" lon="114.39319640540309">
        <ele>23.74</ele>
        <time>2021-06-01T14:17:57Z</time>
      </trkpt>
      <trkpt lat="30.522682502553337" lon="114.39319365345273">
        <ele>17.6</ele>
        <time>2021-06-01T14:18:09Z</time>
      </trkpt>
      <trkpt lat="30.5227647597796" lon="114.39322113031355">
        <ele>17.49</ele>
        <time>2021-06-01T14:18:12Z</time>
      </trkpt>
      <trkpt lat="30.523058226598707" lon="114.39319638246468">
        <ele>17.91</ele>
        <time>2021-06-01T14:18:24Z</time>
      </trkpt>
      <trkpt lat="30.523321618312362" lon="114.39315113935864">
        <ele>16.43</ele>
        <time>2021-06-01T14:18:36Z</time>
      </trkpt>
      <trkpt lat="30.523481183296735" lon="114.39308132026206">
        <ele>13.38</ele>
        <time>2021-06-01T14:18:45Z</time>
      </trkpt>
      <trkpt lat="30.52360500599796" lon="114.39291821681596">
        <ele>13.42</ele>
        <time>2021-06-01T14:18:54Z</time>
      </trkpt>
      <trkpt lat="30.52363032936475" lon="114.39276154555408">
        <ele>16.66</ele>
        <time>2021-06-01T14:19:00Z</time>
      </trkpt>
      <trkpt lat="30.523610620131034" lon="114.39255278088555">
        <ele>21.59</ele>
        <time>2021-06-01T14:19:09Z</time>
      </trkpt>
      <trkpt lat="30.523461949127867" lon="114.39238377729184">
        <ele>20.41</ele>
        <time>2021-06-01T14:19:18Z</time>
      </trkpt>
      <trkpt lat="30.52339612978869" lon="114.3923464878306">
        <ele>20.83</ele>
        <time>2021-06-01T14:19:21Z</time>
      </trkpt>
      <trkpt lat="30.523126790120884" lon="114.39231564098328">
        <ele>17.17</ele>
        <time>2021-06-01T14:19:30Z</time>
      </trkpt>
      <trkpt lat="30.522983170898883" lon="114.39232450395552">
        <ele>19.62</ele>
        <time>2021-06-01T14:19:36Z</time>
      </trkpt>
      <trkpt lat="30.52264669998745" lon="114.39229094670539">
        <ele>18.49</ele>
        <time>2021-06-01T14:19:51Z</time>
      </trkpt>
      <trkpt lat="30.52246850060788" lon="114.3923004800096">
        <ele>21.79</ele>
        <time>2021-06-01T14:19:57Z</time>
      </trkpt>
      <trkpt lat="30.52239694566416" lon="114.39232481670254">
        <ele>22.04</ele>
        <time>2021-06-01T14:20:00Z</time>
      </trkpt>
      <trkpt lat="30.522329595449257" lon="114.39231864886126">
        <ele>21.61</ele>
        <time>2021-06-01T14:20:03Z</time>
      </trkpt>
      <trkpt lat="30.522178445726087" lon="114.39241881229982">
        <ele>18.57</ele>
        <time>2021-06-01T14:20:12Z</time>
      </trkpt>
      <trkpt lat="30.522138829380342" lon="114.39247853812213">
        <ele>18.85</ele>
        <time>2021-06-01T14:20:15Z</time>
      </trkpt>
      <trkpt lat="30.52208983119299" lon="114.39265848551331">
        <ele>19.11</ele>
        <time>2021-06-01T14:20:24Z</time>
      </trkpt>
      <trkpt lat="30.522097472560866" lon="114.39291911390112">
        <ele>24.44</ele>
        <time>2021-06-01T14:20:33Z</time>
      </trkpt>
      <trkpt lat="30.5222266855095" lon="114.39309646994616">
        <ele>24.37</ele>
        <time>2021-06-01T14:20:42Z</time>
      </trkpt>
      <trkpt lat="30.52228176547117" lon="114.39313661025797">
        <ele>24.38</ele>
        <time>2021-06-01T14:20:45Z</time>
      </trkpt>
      <trkpt lat="30.522618623062826" lon="114.39315586379543">
        <ele>19.04</ele>
        <time>2021-06-01T14:20:57Z</time>
      </trkpt>
      <trkpt lat="30.52292162536472" lon="114.39319639308796">
        <ele>18.11</ele>
        <time>2021-06-01T14:21:06Z</time>
      </trkpt>
      <trkpt lat="30.523117410994292" lon="114.39321274650426">
        <ele>17.5</ele>
        <time>2021-06-01T14:21:12Z</time>
      </trkpt>
      <trkpt lat="30.523350281817162" lon="114.39316490285103">
        <ele>14.41</ele>
        <time>2021-06-01T14:21:18Z</time>
      </trkpt>
      <trkpt lat="30.523443921284837" lon="114.39311663972391">
        <ele>14.18</ele>
        <time>2021-06-01T14:21:21Z</time>
      </trkpt>
      <trkpt lat="30.523549396713427" lon="114.39300832075301">
        <ele>15.0</ele>
        <time>2021-06-01T14:21:27Z</time>
      </trkpt>
      <trkpt lat="30.52361346648832" lon="114.39279248375253">
        <ele>13.1</ele>
        <time>2021-06-01T14:21:36Z</time>
      </trkpt>
      <trkpt lat="30.523618225615373" lon="114.39261841805867">
        <ele>16.6</ele>
        <time>2021-06-01T14:21:42Z</time>
      </trkpt>
      <trkpt lat="30.523572569583674" lon="114.392509319669">
        <ele>18.95</ele>
        <time>2021-06-01T14:21:48Z</time>
      </trkpt>
      <trkpt lat="30.523445383688696" lon="114.39236122146282">
        <ele>19.14</ele>
        <time>2021-06-01T14:21:57Z</time>
      </trkpt>
      <trkpt lat="30.523246674898807" lon="114.3922887333981">
        <ele>17.15</ele>
        <time>2021-06-01T14:22:06Z</time>
      </trkpt>
      <trkpt lat="30.523170851268777" lon="114.39227617045654">
        <ele>16.65</ele>
        <time>2021-06-01T14:22:09Z</time>
      </trkpt>
      <trkpt lat="30.522964230603215" lon="114.39232397390295">
        <ele>19.88</ele>
        <time>2021-06-01T14:22:18Z</time>
      </trkpt>
      <trkpt lat="30.522752171171806" lon="114.39233458764458">
        <ele>20.4</ele>
        <time>2021-06-01T14:22:27Z</time>
      </trkpt>
      <trkpt lat="30.522574027869002" lon="114.39228471540565">
        <ele>21.16</ele>
        <time>2021-06-01T14:22:36Z</time>
      </trkpt>
      <trkpt lat="30.522320311799945" lon="114.3923112935124">
        <ele>20.18</ele>
        <time>2021-06-01T14:22:48Z</time>
      </trkpt>
      <trkpt lat="30.522144413572388" lon="114.39245357155717">
        <ele>20.4</ele>
        <time>2021-06-01T14:22:57Z</time>
      </trkpt>
      <trkpt lat="30.522090631562634" lon="114.39261746475188">
        <ele>17.95</ele>
        <time>2021-06-01T14:23:03Z</time>
      </trkpt>
      <trkpt lat="30.522080403940897" lon="114.39271308988106">
        <ele>19.79</ele>
        <time>2021-06-01T14:23:06Z</time>
      </trkpt>
      <trkpt lat="30.52210093494235" lon="114.39292909650858">
        <ele>22.82</ele>
        <time>2021-06-01T14:23:12Z</time>
      </trkpt>
      <trkpt lat="30.522152686499012" lon="114.39301863981149">
        <ele>23.41</ele>
        <time>2021-06-01T14:23:15Z</time>
      </trkpt>
      <trkpt lat="30.52222851289268" lon="114.39308529699852">
        <ele>23.6</ele>
        <time>2021-06-01T14:23:18Z</time>
      </trkpt>
      <trkpt lat="30.522441669805794" lon="114.39319125391465">
        <ele>19.3</ele>
        <time>2021-06-01T14:23:27Z</time>
      </trkpt>
      <trkpt lat="30.52276234953245" lon="114.39317777891112">
        <ele>15.13</ele>
        <time>2021-06-01T14:23:39Z</time>
      </trkpt>
      <trkpt lat="30.522870450935756" lon="114.39317957889396">
        <ele>17.79</ele>
        <time>2021-06-01T14:23:42Z</time>
      </trkpt>
      <trkpt lat="30.522960767599418" lon="114.393204365009">
        <ele>19.22</ele>
        <time>2021-06-01T14:23:45Z</time>
      </trkpt>
      <trkpt lat="30.52331443228073" lon="114.39316824389333">
        <ele>21.74</ele>
        <time>2021-06-01T14:23:57Z</time>
      </trkpt>
      <trkpt lat="30.523402281617592" lon="114.39316206186695">
        <ele>21.59</ele>
        <time>2021-06-01T14:24:00Z</time>
      </trkpt>
      <trkpt lat="30.5234805429318" lon="114.39312222102615">
        <ele>19.18</ele>
        <time>2021-06-01T14:24:03Z</time>
      </trkpt>
      <trkpt lat="30.52360145617309" lon="114.3929190970634">
        <ele>17.61</ele>
        <time>2021-06-01T14:24:12Z</time>
      </trkpt>
      <trkpt lat="30.523655169118857" lon="114.392759544916">
        <ele>16.78</ele>
        <time>2021-06-01T14:24:18Z</time>
      </trkpt>
      <trkpt lat="30.5236551164517" lon="114.39262055845218">
        <ele>17.36</ele>
        <time>2021-06-01T14:24:24Z</time>
      </trkpt>
      <trkpt lat="30.523626557769163" lon="114.39254210801575">
        <ele>19.32</ele>
        <time>2021-06-01T14:24:27Z</time>
      </trkpt>
      <trkpt lat="30.52350772675126" lon="114.39241451513134">
        <ele>18.4</ele>
        <time>2021-06-01T14:24:33Z</time>
      </trkpt>
      <trkpt lat="30.523397284436136" lon="114.39232361183876">
        <ele>18.02</ele>
        <time>2021-06-01T14:24:39Z</time>
      </trkpt>
      <trkpt lat="30.523313679902845" lon="114.39230749800267">
        <ele>19.04</ele>
        <time>2021-06-01T14:24:42Z</time>
      </trkpt>
      <trkpt lat="30.52323365414749" lon="114.39232869391287">
        <ele>19.34</ele>
        <time>2021-06-01T14:24:45Z</time>
      </trkpt>
      <trkpt lat="30.522947027207188" lon="114.3923101503641">
        <ele>22.16</ele>
        <time>2021-06-01T14:24:54Z</time>
      </trkpt>
      <trkpt lat="30.522740219851908" lon="114.39228675518368">
        <ele>21.37</ele>
        <time>2021-06-01T14:25:00Z</time>
      </trkpt>
      <trkpt lat="30.52248610685245" lon="114.39228377555949">
        <ele>17.97</ele>
        <time>2021-06-01T14:25:12Z</time>
      </trkpt>
      <trkpt lat="30.52225891922093" lon="114.39234532269613">
        <ele>17.83</ele>
        <time>2021-06-01T14:25:21Z</time>
      </trkpt>
      <trkpt lat="30.522112529763263" lon="114.39256638125997">
        <ele>20.23</ele>
        <time>2021-06-01T14:25:30Z</time>
      </trkpt>
      <trkpt lat="30.522083840461782" lon="114.39265560478493">
        <ele>22.53</ele>
        <time>2021-06-01T14:25:33Z</time>
      </trkpt>
      <trkpt lat="30.522072585405237" lon="114.39276215279241">
        <ele>22.14</ele>
        <time>2021-06-01T14:25:36Z</time>
      </trkpt>
      <trkpt lat="30.52208617897097" lon="114.39286180889752">
        <ele>23.31</ele>
        <time>2021-06-01T14:25:39Z</time>
      </trkpt>
      <trkpt lat="30.522157143596434" lon="114.3930061465063">
        <ele>24.36</ele>
        <time>2021-06-01T14:25:45Z</time>
      </trkpt>
      <trkpt lat="30.52221865220453" lon="114.39308275637492">
        <ele>23.33</ele>
        <time>2021-06-01T14:25:48Z</time>
      </trkpt>
      <trkpt lat="30.522399285784136" lon="114.39317583004684">
        <ele>25.38</ele>
        <time>2021-06-01T14:25:54Z</time>
      </trkpt>
      <trkpt lat="30.522725634338244" lon="114.39319956481313">
        <ele>24.15</ele>
        <time>2021-06-01T14:26:06Z</time>
      </trkpt>
      <trkpt lat="30.522962314786966" lon="114.3931923818471">
        <ele>26.05</ele>
        <time>2021-06-01T14:26:15Z</time>
      </trkpt>
      <trkpt lat="30.52304929952378" lon="114.39320912586037">
        <ele>26.92</ele>
        <time>2021-06-01T14:26:18Z</time>
      </trkpt>
      <trkpt lat="30.523350507683634" lon="114.39318976939585">
        <ele>22.3</ele>
        <time>2021-06-01T14:26:30Z</time>
      </trkpt>
      <trkpt lat="30.523475073870397" lon="114.39312641215388">
        <ele>18.08</ele>
        <time>2021-06-01T14:26:36Z</time>
      </trkpt>
      <trkpt lat="30.52355597563252" lon="114.39300347945017">
        <ele>13.91</ele>
        <time>2021-06-01T14:26:42Z</time>
      </trkpt>
      <trkpt lat="30.523647120291148" lon="114.39280735750476">
        <ele>15.46</ele>
        <time>2021-06-01T14:26:48Z</time>
      </trkpt>
      <trkpt lat="30.523640998443675" lon="114.3926295808824">
        <ele>16.49</ele>
        <time>2021-06-01T14:26:54Z</time>
      </trkpt>
      <trkpt lat="30.52362137955188" lon="114.39254990008153">
        <ele>17.91</ele>
        <time>2021-06-01T14:26:57Z</time>
      </trkpt>
      <trkpt lat="30.523554770856258" lon="114.39247282018749">
        <ele>19.19</ele>
        <time>2021-06-01T14:27:00Z</time>
      </trkpt>
      <trkpt lat="30.52335494020656" lon="114.3923498589002">
        <ele>20.64</ele>
        <time>2021-06-01T14:27:09Z</time>
      </trkpt>
      <trkpt lat="30.52328076502615" lon="114.39233062420374">
        <ele>21.62</ele>
        <time>2021-06-01T14:27:12Z</time>
      </trkpt>
      <trkpt lat="30.523208275728233" lon="114.3923364160491">
        <ele>21.05</ele>
        <time>2021-06-01T14:27:15Z</time>
      </trkpt>
      <trkpt lat="30.523057227299358" lon="114.39230628885264">
        <ele>18.58</ele>
        <time>2021-06-01T14:27:21Z</time>
      </trkpt>
      <trkpt lat="30.522761115824622" lon="114.39231143154464">
        <ele>17.9</ele>
        <time>2021-06-01T14:27:33Z</time>
      </trkpt>
      <trkpt lat="30.52239391851159" lon="114.39233707992538">
        <ele>20.13</ele>
        <time>2021-06-01T14:27:45Z</time>
      </trkpt>
      <trkpt lat="30.522289411323563" lon="114.39239575575876">
        <ele>19.54</ele>
        <time>2021-06-01T14:27:48Z</time>
      </trkpt>
      <trkpt lat="30.522189011278773" lon="114.39248468950557">
        <ele>22.35</ele>
        <time>2021-06-01T14:27:51Z</time>
      </trkpt>
      <trkpt lat="30.52212219271809" lon="114.39262116557893">
        <ele>23.69</ele>
        <time>2021-06-01T14:27:54Z</time>
      </trkpt>
      <trkpt lat="30.522127329207432" lon="114.3928612285582">
        <ele>23.22</ele>
        <time>2021-06-01T14:28:00Z</time>
      </trkpt>
      <trkpt lat="30.522161100183055" lon="114.39299150263828">
        <ele>24.98</ele>
        <time>2021-06-01T14:28:03Z</time>
      </trkpt>
      <trkpt lat="30.522228260912545" lon="114.39307690479201">
        <ele>25.52</ele>
        <time>2021-06-01T14:28:06Z</time>
      </trkpt>
      <trkpt lat="30.52234315875141" lon="114.39314816301956">
        <ele>24.3</ele>
        <time>2021-06-01T14:28:09Z</time>
      </trkpt>
      <trkpt lat="30.52245952925748" lon="114.39318824304092">
        <ele>24.53</ele>
        <time>2021-06-01T14:28:12Z</time>
      </trkpt>
      <trkpt lat="30.522730233054617" lon="114.39315154215112">
        <ele>17.57</ele>
        <time>2021-06-01T14:28:21Z</time>
      </trkpt>
      <trkpt lat="30.522834991073893" lon="114.39313911840564">
        <ele>16.64</ele>
        <time>2021-06-01T14:28:24Z</time>
      </trkpt>
      <trkpt lat="30.52313207028179" lon="114.39316676433239">
        <ele>19.99</ele>
        <time>2021-06-01T14:28:33Z</time>
      </trkpt>
      <trkpt lat="30.523420463874107" lon="114.39312852295748">
        <ele>16.18</ele>
        <time>2021-06-01T14:28:42Z</time>
      </trkpt>
      <trkpt lat="30.523547972502016" lon="114.39299049607301">
        <ele>13.98</ele>
        <time>2021-06-01T14:28:48Z</time>
      </trkpt>
      <trkpt lat="30.52360957186807" lon="114.39277298865225">
        <ele>14.87</ele>
        <time>2021-06-01T14:28:54Z</time>
      </trkpt>
      <trkpt lat="30.52360253393378" lon="114.39265442757382">
        <ele>14.69</ele>
        <time>2021-06-01T14:28:57Z</time>
      </trkpt>
      <trkpt lat="30.523575898133195" lon="114.39254560916376">
        <ele>15.0</ele>
        <time>2021-06-01T14:29:00Z</time>
      </trkpt>
      <trkpt lat="30.523516025947792" lon="114.39245339527561">
        <ele>16.59</ele>
        <time>2021-06-01T14:29:03Z</time>
      </trkpt>
      <trkpt lat="30.52343313127655" lon="114.39239405011233">
        <ele>16.61</ele>
        <time>2021-06-01T14:29:06Z</time>
      </trkpt>
      <trkpt lat="30.523220590534677" lon="114.39235644123403">
        <ele>15.71</ele>
        <time>2021-06-01T14:29:12Z</time>
      </trkpt>
      <trkpt lat="30.52284588191032" lon="114.39237676825854">
        <ele>16.52</ele>
        <time>2021-06-01T14:29:21Z</time>
      </trkpt>
      <trkpt lat="30.522724954825343" lon="114.39235122212168">
        <ele>18.11</ele>
        <time>2021-06-01T14:29:24Z</time>
      </trkpt>
      <trkpt lat="30.52249550659416" lon="114.39236762745864">
        <ele>19.78</ele>
        <time>2021-06-01T14:29:30Z</time>
      </trkpt>
      <trkpt lat="30.522434913420824" lon="114.39235643480447">
        <ele>20.4</ele>
        <time>2021-06-01T14:29:33Z</time>
      </trkpt>
      <trkpt lat="30.522345471898923" lon="114.39231074325407">
        <ele>20.03</ele>
        <time>2021-06-01T14:29:39Z</time>
      </trkpt>
    </trkseg>
  </trk>
</gpx>