<?xml version="1.0" encoding="UTF-8"?>
<gpx xmlns="http://www.topografix.com/GPX/1/1" xmlns:gpxtpx="http://www.garmin.com/xmlschemas/TrackPointExtension/v1" xmlns:xsi="http://www.w3.org/2001/XMLSchema-instance" xsi:schemaLocation="http://www.topografix.com/GPX/1/1 http://www.topografix.com/GPX/1/1/gpx.xsd" version="1.1" creator="gpx.py -- https://github.com/tkrajina/gpxpy">
  <trk>
    <name>gpx from keep</name>
    <type>Run</type>
    <trkseg>
      <trkpt lat="31.47293943041804" lon="120.2536227109084">
        <ele>6.7177075715735555</ele>
        <time>2024-09-20T12:53:53Z</time>
        <extensions>
          <gpxtpx:TrackPointExtension>
            <gpxtpx:hr>80</gpxtpx:hr>
          </gpxtpx:TrackPointExtension>
        </extensions>
      </trkpt>
      <trkpt lat="31.47295116091875" lon="120.25361900969607">
        <ele>6.462725515477359</ele>
        <time>2024-09-20T12:53:56Z</time>
        <extensions>
          <gpxtpx:TrackPointExtension>
            <gpxtpx:hr>80</gpxtpx:hr>
          </gpxtpx:TrackPointExtension>
        </extensions>
      </trkpt>
      <trkpt lat="31.472936160998405" lon="120.25374037774574">
        <ele>6.596262973733246</ele>
        <time>2024-09-20T12:54:21Z</time>
        <extensions>
          <gpxtpx:TrackPointExtension>
            <gpxtpx:hr>105</gpxtpx:hr>
          </gpxtpx:TrackPointExtension>
        </extensions>
      </trkpt>
      <trkpt lat="31.472853933608583" lon="120.25374895182073">
        <ele>6.167891721241176</ele>
        <time>2024-09-20T12:54:27Z</time>
        <extensions>
          <gpxtpx:TrackPointExtension>
            <gpxtpx:hr>105</gpxtpx:hr>
          </gpxtpx:TrackPointExtension>
        </extensions>
      </trkpt>
      <trkpt lat="31.47256649223757" lon="120.25367078746616">
        <ele>8.52736406121403</ele>
        <time>2024-09-20T12:54:40Z</time>
      </trkpt>
      <trkpt lat="31.472348731490094" lon="120.25361842519878">
        <ele>8.851098046638072</ele>
        <time>2024-09-20T12:54:49Z</time>
      </trkpt>
      <trkpt lat="31.47208483278201" lon="120.25358046047388">
        <ele>7.440831758081913</ele>
        <time>2024-09-20T12:55:01Z</time>
      </trkpt>
      <trkpt lat="31.472016197463255" lon="120.25360329304047">
        <ele>8.061942147091031</ele>
        <time>2024-09-20T12:55:04Z</time>
      </trkpt>
      <trkpt lat="31.471891813293578" lon="120.25370683893391">
        <ele>8.466493758372962</ele>
        <time>2024-09-20T12:55:10Z</time>
      </trkpt>
      <trkpt lat="31.47176252643833" lon="120.25391299417967">
        <ele>9.197572680190206</ele>
        <time>2024-09-20T12:55:19Z</time>
      </trkpt>
      <trkpt lat="31.47174003135987" lon="120.25417944277139">
        <ele>7.699446354061365</ele>
        <time>2024-09-20T12:55:28Z</time>
      </trkpt>
      <trkpt lat="31.47184103278627" lon="120.25439821818549">
        <ele>7.340922684408724</ele>
        <time>2024-09-20T12:55:37Z</time>
      </trkpt>
      <trkpt lat="31.471953421059048" lon="120.25451181931113">
        <ele>7.135953365825117</ele>
        <time>2024-09-20T12:55:43Z</time>
      </trkpt>
      <trkpt lat="31.472219784342496" lon="120.25461680832471">
        <ele>8.004036743193865</ele>
        <time>2024-09-20T12:55:55Z</time>
      </trkpt>
      <trkpt lat="31.472533966266337" lon="120.25470406465743">
        <ele>8.454145510680974</ele>
        <time>2024-09-20T12:56:10Z</time>
      </trkpt>
      <trkpt lat="31.472829389416283" lon="120.25474204290246">
        <ele>7.976728530600667</ele>
        <time>2024-09-20T12:56:25Z</time>
      </trkpt>
      <trkpt lat="31.472962147735537" lon="120.25472235367857">
        <ele>8.759467650204897</ele>
        <time>2024-09-20T12:56:31Z</time>
      </trkpt>
      <trkpt lat="31.47310503217153" lon="120.25463031089743">
        <ele>7.862937560304999</ele>
        <time>2024-09-20T12:56:38Z</time>
      </trkpt>
      <trkpt lat="31.473244471179957" lon="120.25444230255957">
        <ele>7.770448007620871</ele>
        <time>2024-09-20T12:56:47Z</time>
      </trkpt>
      <trkpt lat="31.47327972876284" lon="120.25436723510245">
        <ele>7.479110803455114</ele>
        <time>2024-09-20T12:56:50Z</time>
      </trkpt>
      <trkpt lat="31.47329786470916" lon="120.25428377715184">
        <ele>8.567036268301308</ele>
        <time>2024-09-20T12:56:53Z</time>
      </trkpt>
      <trkpt lat="31.473247602928602" lon="120.25405786296353">
        <ele>7.348154426552355</ele>
        <time>2024-09-20T12:57:02Z</time>
      </trkpt>
      <trkpt lat="31.473167090724083" lon="120.25392006642188">
        <ele>7.078355174511671</ele>
        <time>2024-09-20T12:57:11Z</time>
      </trkpt>
      <trkpt lat="31.472935562308216" lon="120.25374961995043">
        <ele>5.595302976667881</ele>
        <time>2024-09-20T12:57:26Z</time>
      </trkpt>
      <trkpt lat="31.472684061583514" lon="120.25368433106496">
        <ele>6.2503770142793655</ele>
        <time>2024-09-20T12:57:38Z</time>
      </trkpt>
      <trkpt lat="31.472613358910976" lon="120.25368921156307">
        <ele>7.318440079689026</ele>
        <time>2024-09-20T12:57:41Z</time>
      </trkpt>
      <trkpt lat="31.47233097309302" lon="120.25361644523291">
        <ele>8.003586645238101</ele>
        <time>2024-09-20T12:57:53Z</time>
      </trkpt>
      <trkpt lat="31.47205718986968" lon="120.25357867115031">
        <ele>8.071912333369255</ele>
        <time>2024-09-20T12:58:05Z</time>
      </trkpt>
      <trkpt lat="31.47192313576637" lon="120.25361398233088">
        <ele>8.060199158266187</ele>
        <time>2024-09-20T12:58:11Z</time>
      </trkpt>
      <trkpt lat="31.471791418128056" lon="120.25370257864043">
        <ele>5.4625360975041986</ele>
        <time>2024-09-20T12:58:17Z</time>
      </trkpt>
      <trkpt lat="31.47171412862034" lon="120.25386072381481">
        <ele>8.469683337956667</ele>
        <time>2024-09-20T12:58:23Z</time>
      </trkpt>
      <trkpt lat="31.471674143675987" lon="120.2541394373094">
        <ele>7.834066333249211</ele>
        <time>2024-09-20T12:58:32Z</time>
      </trkpt>
      <trkpt lat="31.471724726844798" lon="120.25431352888593">
        <ele>8.169712275266647</ele>
        <time>2024-09-20T12:58:38Z</time>
      </trkpt>
      <trkpt lat="31.47180882172641" lon="120.25443756000459">
        <ele>7.536145678721368</ele>
        <time>2024-09-20T12:58:48Z</time>
      </trkpt>
      <trkpt lat="31.471977375586622" lon="120.25454396094361">
        <ele>5.039428354240954</ele>
        <time>2024-09-20T12:58:57Z</time>
      </trkpt>
      <trkpt lat="31.472279392328414" lon="120.25462363459118">
        <ele>4.946350454352796</ele>
        <time>2024-09-20T12:59:12Z</time>
      </trkpt>
      <trkpt lat="31.472608896467992" lon="120.25468472341905">
        <ele>7.845215944573283</ele>
        <time>2024-09-20T12:59:27Z</time>
      </trkpt>
      <trkpt lat="31.472809110928395" lon="120.25468998077581">
        <ele>8.214293924160302</ele>
        <time>2024-09-20T12:59:36Z</time>
      </trkpt>
      <trkpt lat="31.472878867891172" lon="120.25467606584198">
        <ele>8.185808006674051</ele>
        <time>2024-09-20T12:59:39Z</time>
      </trkpt>
      <trkpt lat="31.473119256491064" lon="120.25448094476403">
        <ele>8.578633330762386</ele>
        <time>2024-09-20T12:59:51Z</time>
      </trkpt>
      <trkpt lat="31.47319729303543" lon="120.25433401057164">
        <ele>8.594018457457423</ele>
        <time>2024-09-20T12:59:57Z</time>
      </trkpt>
      <trkpt lat="31.473208788850354" lon="120.25416065333359">
        <ele>7.4231515023857355</ele>
        <time>2024-09-20T13:00:03Z</time>
      </trkpt>
      <trkpt lat="31.473178850504098" lon="120.2540015362235">
        <ele>7.183699031360447</ele>
        <time>2024-09-20T13:00:09Z</time>
      </trkpt>
      <trkpt lat="31.47301422906474" lon="120.25379736247821">
        <ele>8.299680187366903</ele>
        <time>2024-09-20T13:00:18Z</time>
      </trkpt>
      <trkpt lat="31.47269966970469" lon="120.25371323468786">
        <ele>6.074068458750844</ele>
        <time>2024-09-20T13:00:30Z</time>
      </trkpt>
      <trkpt lat="31.472623081249644" lon="120.25370722838757">
        <ele>7.921781327575445</ele>
        <time>2024-09-20T13:00:33Z</time>
      </trkpt>
      <trkpt lat="31.47234661238267" lon="120.25363923992428">
        <ele>6.130568878725171</ele>
        <time>2024-09-20T13:00:45Z</time>
      </trkpt>
      <trkpt lat="31.472070588842" lon="120.25360218424517">
        <ele>6.728889771737158</ele>
        <time>2024-09-20T13:00:57Z</time>
      </trkpt>
      <trkpt lat="31.47198239477831" lon="120.25360955703313">
        <ele>7.700490413233638</ele>
        <time>2024-09-20T13:01:01Z</time>
      </trkpt>
      <trkpt lat="31.47179571130419" lon="120.25373792449541">
        <ele>7.390085641294718</ele>
        <time>2024-09-20T13:01:10Z</time>
      </trkpt>
      <trkpt lat="31.471715043089443" lon="120.25388082432839">
        <ele>8.135912862606347</ele>
        <time>2024-09-20T13:01:16Z</time>
      </trkpt>
      <trkpt lat="31.47168124585344" lon="120.2541256128359">
        <ele>7.328798455186188</ele>
        <time>2024-09-20T13:01:25Z</time>
      </trkpt>
      <trkpt lat="31.471698078890352" lon="120.2542199899114">
        <ele>7.557368582114577</ele>
        <time>2024-09-20T13:01:28Z</time>
      </trkpt>
      <trkpt lat="31.471852790345526" lon="120.25446401570304">
        <ele>8.764293269254267</ele>
        <time>2024-09-20T13:01:40Z</time>
      </trkpt>
      <trkpt lat="31.471931756731184" lon="120.25454354252884">
        <ele>7.896081908605993</ele>
        <time>2024-09-20T13:01:46Z</time>
      </trkpt>
      <trkpt lat="31.472227827793844" lon="120.25460719936062">
        <ele>6.2067826595157385</ele>
        <time>2024-09-20T13:02:01Z</time>
      </trkpt>
      <trkpt lat="31.472501274115306" lon="120.25466776303705">
        <ele>7.7709729531779885</ele>
        <time>2024-09-20T13:02:16Z</time>
      </trkpt>
      <trkpt lat="31.472726124326606" lon="120.25470658721365">
        <ele>8.480231658555567</ele>
        <time>2024-09-20T13:02:28Z</time>
      </trkpt>
      <trkpt lat="31.47285730865838" lon="120.25469057879282">
        <ele>8.154197562485933</ele>
        <time>2024-09-20T13:02:34Z</time>
      </trkpt>
      <trkpt lat="31.472924054548994" lon="120.25466197952953">
        <ele>7.687167857773602</ele>
        <time>2024-09-20T13:02:37Z</time>
      </trkpt>
      <trkpt lat="31.47308777275051" lon="120.25452733033259">
        <ele>6.917191796936095</ele>
        <time>2024-09-20T13:02:46Z</time>
      </trkpt>
      <trkpt lat="31.47317297550707" lon="120.25439219651608">
        <ele>6.695195710286498</ele>
        <time>2024-09-20T13:02:52Z</time>
      </trkpt>
      <trkpt lat="31.473215744878352" lon="120.25418263649978">
        <ele>6.74489682726562</ele>
        <time>2024-09-20T13:03:00Z</time>
      </trkpt>
      <trkpt lat="31.473204359444864" lon="120.25409027825182">
        <ele>6.946748422458768</ele>
        <time>2024-09-20T13:03:04Z</time>
      </trkpt>
      <trkpt lat="31.473137371235026" lon="120.25392711748573">
        <ele>6.906995704397559</ele>
        <time>2024-09-20T13:03:11Z</time>
      </trkpt>
      <trkpt lat="31.473079530100264" lon="120.25383809645807">
        <ele>6.75544682983309</ele>
        <time>2024-09-20T13:03:15Z</time>
      </trkpt>
      <trkpt lat="31.472918617970528" lon="120.25371074944266">
        <ele>7.575215087272227</ele>
        <time>2024-09-20T13:03:23Z</time>
      </trkpt>
      <trkpt lat="31.4727789084823" lon="120.25367829427151">
        <ele>6.281468294560909</ele>
        <time>2024-09-20T13:03:29Z</time>
      </trkpt>
      <trkpt lat="31.472583325093705" lon="120.25366497351372">
        <ele>6.568639212287962</ele>
        <time>2024-09-20T13:03:38Z</time>
      </trkpt>
      <trkpt lat="31.472464398010867" lon="120.25362730414098">
        <ele>7.891940088011324</ele>
        <time>2024-09-20T13:03:44Z</time>
      </trkpt>
      <trkpt lat="31.472196235154" lon="120.25357568750042">
        <ele>7.954328557476401</ele>
        <time>2024-09-20T13:03:56Z</time>
      </trkpt>
      <trkpt lat="31.472009032337144" lon="120.25358649609755">
        <ele>6.8621934382244945</ele>
        <time>2024-09-20T13:04:05Z</time>
      </trkpt>
      <trkpt lat="31.47176737387214" lon="120.25371944218578">
        <ele>6.4684402691200376</ele>
        <time>2024-09-20T13:04:17Z</time>
      </trkpt>
      <trkpt lat="31.47172776161045" lon="120.25377283874239">
        <ele>7.105939508415759</ele>
        <time>2024-09-20T13:04:20Z</time>
      </trkpt>
      <trkpt lat="31.47163930359574" lon="120.25407224001847">
        <ele>5.040282427333295</ele>
        <time>2024-09-20T13:04:32Z</time>
      </trkpt>
      <trkpt lat="31.471689648731097" lon="120.25433068796741">
        <ele>5.3858676720410585</ele>
        <time>2024-09-20T13:04:44Z</time>
      </trkpt>
      <trkpt lat="31.471804193848875" lon="120.25444454997714">
        <ele>5.15629768371582</ele>
        <time>2024-09-20T13:04:56Z</time>
      </trkpt>
      <trkpt lat="31.471995453212674" lon="120.2545461509905">
        <ele>5.049100839532912</ele>
        <time>2024-09-20T13:05:12Z</time>
      </trkpt>
      <trkpt lat="31.472277483967613" lon="120.2546414443678">
        <ele>6.354532587341964</ele>
        <time>2024-09-20T13:05:31Z</time>
      </trkpt>
      <trkpt lat="31.47254550534627" lon="120.25469016291204">
        <ele>6.865306409075856</ele>
        <time>2024-09-20T13:05:43Z</time>
      </trkpt>
      <trkpt lat="31.47279911438649" lon="120.25470433593867">
        <ele>7.7201336491853</ele>
        <time>2024-09-20T13:05:55Z</time>
      </trkpt>
      <trkpt lat="31.47301014017058" lon="120.25461860789535">
        <ele>8.922207649797201</ele>
        <time>2024-09-20T13:06:04Z</time>
      </trkpt>
      <trkpt lat="31.473181298952" lon="120.25442521329784">
        <ele>8.862240433692932</ele>
        <time>2024-09-20T13:06:13Z</time>
      </trkpt>
      <trkpt lat="31.473222443130652" lon="120.2543437876868">
        <ele>8.879152764566243</ele>
        <time>2024-09-20T13:06:16Z</time>
      </trkpt>
      <trkpt lat="31.473232682079246" lon="120.25426061145163">
        <ele>8.549540522508323</ele>
        <time>2024-09-20T13:06:19Z</time>
      </trkpt>
      <trkpt lat="31.473217158061868" lon="120.25409687526754">
        <ele>8.310792020522058</ele>
        <time>2024-09-20T13:06:25Z</time>
      </trkpt>
      <trkpt lat="31.473170126815937" lon="120.25394466549193">
        <ele>7.965256242081523</ele>
        <time>2024-09-20T13:06:31Z</time>
      </trkpt>
      <trkpt lat="31.47303554196537" lon="120.253753348192">
        <ele>6.036652642302215</ele>
        <time>2024-09-20T13:06:43Z</time>
      </trkpt>
      <trkpt lat="31.47299297515473" lon="120.25373576377571">
        <ele>6.10537807457149</ele>
        <time>2024-09-20T13:06:46Z</time>
      </trkpt>
      <trkpt lat="31.47293561613707" lon="120.25375087158012">
        <ele>5.9911205330863595</ele>
        <time>2024-09-20T13:06:52Z</time>
      </trkpt>
      <trkpt lat="31.472890443738038" lon="120.2537146706601">
        <ele>6.772318602539599</ele>
        <time>2024-09-20T13:06:55Z</time>
      </trkpt>
      <trkpt lat="31.472561324704007" lon="120.25365101362559">
        <ele>6.206539605744183</ele>
        <time>2024-09-20T13:07:11Z</time>
      </trkpt>
      <trkpt lat="31.472289236417836" lon="120.25359106738235">
        <ele>6.884996707551181</ele>
        <time>2024-09-20T13:07:23Z</time>
      </trkpt>
      <trkpt lat="31.472092390916597" lon="120.25354265407312">
        <ele>5.3040192341431975</ele>
        <time>2024-09-20T13:07:32Z</time>
      </trkpt>
      <trkpt lat="31.47202360311114" lon="120.25354189204695">
        <ele>4.452061075717211</ele>
        <time>2024-09-20T13:07:35Z</time>
      </trkpt>
      <trkpt lat="31.471902378387217" lon="120.25358272205435">
        <ele>5.571751588955522</ele>
        <time>2024-09-20T13:07:41Z</time>
      </trkpt>
      <trkpt lat="31.47173722790817" lon="120.25373039059171">
        <ele>7.19760827627033</ele>
        <time>2024-09-20T13:07:50Z</time>
      </trkpt>
      <trkpt lat="31.471644485810092" lon="120.25395311527828">
        <ele>7.041806007735431</ele>
        <time>2024-09-20T13:07:59Z</time>
      </trkpt>
      <trkpt lat="31.471614959947694" lon="120.2541163451431">
        <ele>7.305845621973276</ele>
        <time>2024-09-20T13:08:05Z</time>
      </trkpt>
      <trkpt lat="31.471655836669026" lon="120.25428446713371">
        <ele>8.348924425430596</ele>
        <time>2024-09-20T13:08:11Z</time>
      </trkpt>
      <trkpt lat="31.471786052721964" lon="120.25446926023324">
        <ele>6.374523968435824</ele>
        <time>2024-09-20T13:08:20Z</time>
      </trkpt>
      <trkpt lat="31.47185024407919" lon="120.2545137765006">
        <ele>7.909542885608971</ele>
        <time>2024-09-20T13:08:23Z</time>
      </trkpt>
      <trkpt lat="31.472122100036454" lon="120.25459647975059">
        <ele>6.78216297365725</ele>
        <time>2024-09-20T13:08:35Z</time>
      </trkpt>
      <trkpt lat="31.472401421252645" lon="120.25465757827276">
        <ele>7.552038743160665</ele>
        <time>2024-09-20T13:08:47Z</time>
      </trkpt>
      <trkpt lat="31.472539439571015" lon="120.25468824346017">
        <ele>8.037530930712819</ele>
        <time>2024-09-20T13:08:53Z</time>
      </trkpt>
      <trkpt lat="31.472618957351894" lon="120.2547263930806">
        <ele>8.994424971751869</ele>
        <time>2024-09-20T13:08:56Z</time>
      </trkpt>
      <trkpt lat="31.4728873870024" lon="120.25469746030913">
        <ele>4.4225416444242</ele>
        <time>2024-09-20T13:09:12Z</time>
      </trkpt>
      <trkpt lat="31.473006759425086" lon="120.25463082384925">
        <ele>7.2431396106258035</ele>
        <time>2024-09-20T13:09:18Z</time>
      </trkpt>
      <trkpt lat="31.47311488640045" lon="120.25452675229069">
        <ele>6.11804976221174</ele>
        <time>2024-09-20T13:09:24Z</time>
      </trkpt>
      <trkpt lat="31.473195309732894" lon="120.25437641962019">
        <ele>6.264313654974103</ele>
        <time>2024-09-20T13:09:30Z</time>
      </trkpt>
      <trkpt lat="31.473235879497455" lon="120.25432866377014">
        <ele>5.958935282193124</ele>
        <time>2024-09-20T13:09:33Z</time>
      </trkpt>
      <trkpt lat="31.47325850827729" lon="120.25424937953782">
        <ele>6.003342175856233</ele>
        <time>2024-09-20T13:09:39Z</time>
      </trkpt>
      <trkpt lat="31.473138871455003" lon="120.25391879275553">
        <ele>6.83755299821496</ele>
        <time>2024-09-20T13:09:54Z</time>
      </trkpt>
      <trkpt lat="31.473033424640604" lon="120.25379760689592">
        <ele>7.096873319707811</ele>
        <time>2024-09-20T13:10:00Z</time>
      </trkpt>
      <trkpt lat="31.472971230649545" lon="120.25375205289397">
        <ele>6.7853207709267735</ele>
        <time>2024-09-20T13:10:03Z</time>
      </trkpt>
      <trkpt lat="31.47266283801004" lon="120.25368192993022">
        <ele>6.716088093817234</ele>
        <time>2024-09-20T13:10:15Z</time>
      </trkpt>
      <trkpt lat="31.47258473153808" lon="120.25369548066443">
        <ele>7.144351348280907</ele>
        <time>2024-09-20T13:10:18Z</time>
      </trkpt>
      <trkpt lat="31.472306771819536" lon="120.2536321697009">
        <ele>5.665115650743246</ele>
        <time>2024-09-20T13:10:30Z</time>
      </trkpt>
      <trkpt lat="31.47209903139743" lon="120.25357560974757">
        <ele>5.332798324525356</ele>
        <time>2024-09-20T13:10:39Z</time>
      </trkpt>
      <trkpt lat="31.471915667458635" lon="120.25360856072967">
        <ele>5.339911686256528</ele>
        <time>2024-09-20T13:10:48Z</time>
      </trkpt>
      <trkpt lat="31.471849637109216" lon="120.25364105821092">
        <ele>5.843976741656661</ele>
        <time>2024-09-20T13:10:51Z</time>
      </trkpt>
      <trkpt lat="31.471758869579094" lon="120.2537460590898">
        <ele>6.127125144004822</ele>
        <time>2024-09-20T13:10:57Z</time>
      </trkpt>
      <trkpt lat="31.471683440925514" lon="120.253887920809">
        <ele>5.240467597730458</ele>
        <time>2024-09-20T13:11:03Z</time>
      </trkpt>
      <trkpt lat="31.471687237199255" lon="120.25403715655386">
        <ele>4.963174500502646</ele>
        <time>2024-09-20T13:11:12Z</time>
      </trkpt>
      <trkpt lat="31.471662224763037" lon="120.2540877166582">
        <ele>5.021801753900945</ele>
        <time>2024-09-20T13:11:15Z</time>
      </trkpt>
      <trkpt lat="31.47165772767301" lon="120.25415676605816">
        <ele>7.429122523404658</ele>
        <time>2024-09-20T13:11:19Z</time>
      </trkpt>
      <trkpt lat="31.47167599917969" lon="120.25422859077922">
        <ele>7.07725559361279</ele>
        <time>2024-09-20T13:11:23Z</time>
      </trkpt>
      <trkpt lat="31.471759697990883" lon="120.25439078063145">
        <ele>6.997956476174295</ele>
        <time>2024-09-20T13:11:35Z</time>
      </trkpt>
      <trkpt lat="31.47181604743423" lon="120.25446792884145">
        <ele>7.573545875959098</ele>
        <time>2024-09-20T13:11:41Z</time>
      </trkpt>
      <trkpt lat="31.47189492093375" lon="120.25450480153063">
        <ele>7.265518180094659</ele>
        <time>2024-09-20T13:11:47Z</time>
      </trkpt>
      <trkpt lat="31.471965446169" lon="120.25456449297678">
        <ele>7.330681681632996</ele>
        <time>2024-09-20T13:11:53Z</time>
      </trkpt>
      <trkpt lat="31.47205827903422" lon="120.2545953188323">
        <ele>6.991224533878267</ele>
        <time>2024-09-20T13:11:59Z</time>
      </trkpt>
      <trkpt lat="31.472111318483417" lon="120.25459323673591">
        <ele>6.029115094803274</ele>
        <time>2024-09-20T13:12:02Z</time>
      </trkpt>
      <trkpt lat="31.472430723064466" lon="120.25467051069883">
        <ele>7.577136863023043</ele>
        <time>2024-09-20T13:12:17Z</time>
      </trkpt>
      <trkpt lat="31.472712947001934" lon="120.25472816825965">
        <ele>9.809452303685248</ele>
        <time>2024-09-20T13:12:29Z</time>
      </trkpt>
      <trkpt lat="31.47291557207137" lon="120.25468764295519">
        <ele>7.910338957794011</ele>
        <time>2024-09-20T13:12:38Z</time>
      </trkpt>
      <trkpt lat="31.472976206204883" lon="120.25465569015763">
        <ele>9.112368867732584</ele>
        <time>2024-09-20T13:12:41Z</time>
      </trkpt>
      <trkpt lat="31.47311570873118" lon="120.25449363218833">
        <ele>7.7502179481089115</ele>
        <time>2024-09-20T13:12:50Z</time>
      </trkpt>
      <trkpt lat="31.47319145724832" lon="120.25428914948716">
        <ele>7.047404614277184</ele>
        <time>2024-09-20T13:12:59Z</time>
      </trkpt>
      <trkpt lat="31.473207622666546" lon="120.25408889009107">
        <ele>6.80699519906193</ele>
        <time>2024-09-20T13:13:11Z</time>
      </trkpt>
      <trkpt lat="31.473167236447818" lon="120.25395310338664">
        <ele>6.307681219652295</ele>
        <time>2024-09-20T13:13:17Z</time>
      </trkpt>
      <trkpt lat="31.473128593986107" lon="120.25389355797846">
        <ele>6.533032523468137</ele>
        <time>2024-09-20T13:13:20Z</time>
      </trkpt>
      <trkpt lat="31.472973103858884" lon="120.25377088809392">
        <ele>6.914206348359585</ele>
        <time>2024-09-20T13:13:28Z</time>
      </trkpt>
      <trkpt lat="31.472881018808494" lon="120.25372701603604">
        <ele>6.0769535368308425</ele>
        <time>2024-09-20T13:13:32Z</time>
      </trkpt>
      <trkpt lat="31.472626631261846" lon="120.2536600050326">
        <ele>6.715370987541974</ele>
        <time>2024-09-20T13:13:49Z</time>
      </trkpt>
      <trkpt lat="31.47255026209509" lon="120.25367699647434">
        <ele>6.174758930690587</ele>
        <time>2024-09-20T13:13:55Z</time>
      </trkpt>
      <trkpt lat="31.472473911301453" lon="120.25364276063203">
        <ele>6.015563806518912</ele>
        <time>2024-09-20T13:14:01Z</time>
      </trkpt>
      <trkpt lat="31.472403032149604" lon="120.25365571757749">
        <ele>6.616092311218381</ele>
        <time>2024-09-20T13:14:07Z</time>
      </trkpt>
      <trkpt lat="31.472331579558297" lon="120.25362083636846">
        <ele>7.043064903467894</ele>
        <time>2024-09-20T13:14:13Z</time>
      </trkpt>
      <trkpt lat="31.47226005482973" lon="120.25362312033171">
        <ele>7.347923805005848</ele>
        <time>2024-09-20T13:14:19Z</time>
      </trkpt>
      <trkpt lat="31.47218472235698" lon="120.25359049289756">
        <ele>7.377479298971593</ele>
        <time>2024-09-20T13:14:25Z</time>
      </trkpt>
      <trkpt lat="31.471982257766868" lon="120.25359095949405">
        <ele>6.924301258288324</ele>
        <time>2024-09-20T13:14:40Z</time>
      </trkpt>
      <trkpt lat="31.47180834783822" lon="120.25370034534252">
        <ele>7.819521856494248</ele>
        <time>2024-09-20T13:14:49Z</time>
      </trkpt>
      <trkpt lat="31.471737116694097" lon="120.25388202195664">
        <ele>7.690227487124503</ele>
        <time>2024-09-20T13:14:55Z</time>
      </trkpt>
      <trkpt lat="31.471701925815548" lon="120.25408299388951">
        <ele>8.306133892387152</ele>
        <time>2024-09-20T13:15:01Z</time>
      </trkpt>
      <trkpt lat="31.47175272168748" lon="120.25426980811994">
        <ele>7.770528998225927</ele>
        <time>2024-09-20T13:15:07Z</time>
      </trkpt>
      <trkpt lat="31.471855278011294" lon="120.25441543349599">
        <ele>8.750502214767039</ele>
        <time>2024-09-20T13:15:13Z</time>
      </trkpt>
      <trkpt lat="31.47207333271148" lon="120.25458754768817">
        <ele>8.097654107958078</ele>
        <time>2024-09-20T13:15:32Z</time>
      </trkpt>
      <trkpt lat="31.472351419438667" lon="120.25465983742606">
        <ele>7.040835162624717</ele>
        <time>2024-09-20T13:15:55Z</time>
      </trkpt>
      <trkpt lat="31.472685790577522" lon="120.25471349707901">
        <ele>8.260808003135026</ele>
        <time>2024-09-20T13:16:25Z</time>
      </trkpt>
      <trkpt lat="31.47283754997748" lon="120.25471710162562">
        <ele>8.528236730024219</ele>
        <time>2024-09-20T13:16:37Z</time>
      </trkpt>
      <trkpt lat="31.472998583894224" lon="120.25464947188271">
        <ele>7.861218146048486</ele>
        <time>2024-09-20T13:16:49Z</time>
      </trkpt>
      <trkpt lat="31.473136341708592" lon="120.25453654002996">
        <ele>8.292662683874369</ele>
        <time>2024-09-20T13:17:01Z</time>
      </trkpt>
      <trkpt lat="31.47325343258634" lon="120.25429425841037">
        <ele>8.849687691777945</ele>
        <time>2024-09-20T13:17:19Z</time>
      </trkpt>
      <trkpt lat="31.47324072319835" lon="120.25411583115239">
        <ele>9.160394558683038</ele>
        <time>2024-09-20T13:17:31Z</time>
      </trkpt>
      <trkpt lat="31.473212116723744" lon="120.2539582962519">
        <ele>8.097125953063369</ele>
        <time>2024-09-20T13:17:42Z</time>
      </trkpt>
      <trkpt lat="31.473186455170765" lon="120.25390148354023">
        <ele>9.019329280592501</ele>
        <time>2024-09-20T13:17:46Z</time>
      </trkpt>
      <trkpt lat="31.473070621829734" lon="120.25377829272719">
        <ele>9.533311416395009</ele>
        <time>2024-09-20T13:17:58Z</time>
      </trkpt>
      <trkpt lat="31.47297598212455" lon="120.2537091249616">
        <ele>8.83475607354194</ele>
        <time>2024-09-20T13:18:06Z</time>
      </trkpt>
      <trkpt lat="31.47297598212455" lon="120.2537091249616">
        <ele>8.83475607354194</ele>
        <time>2024-09-20T13:18:10Z</time>
      </trkpt>
    </trkseg>
  </trk>
</gpx>