<?xml version="1.0" encoding="UTF-8"?>
<gpx xmlns="http://www.topografix.com/GPX/1/1" xmlns:gpxtpx="http://www.garmin.com/xmlschemas/TrackPointExtension/v1" xmlns:xsi="http://www.w3.org/2001/XMLSchema-instance" xsi:schemaLocation="http://www.topografix.com/GPX/1/1 http://www.topografix.com/GPX/1/1/gpx.xsd" version="1.1" creator="gpx.py -- https://github.com/tkrajina/gpxpy">
  <trk>
    <name>gpx from keep</name>
    <type>Run</type>
    <trkseg>
      <trkpt lat="35.9753480293145" lon="119.50755622212759">
        <ele>91.51</ele>
        <time>2020-05-18T13:20:53Z</time>
      </trkpt>
      <trkpt lat="35.97541209166973" lon="119.50750699554901">
        <ele>90.83</ele>
        <time>2020-05-18T13:20:59Z</time>
      </trkpt>
      <trkpt lat="35.97543058887167" lon="119.50737493662416">
        <ele>90.66</ele>
        <time>2020-05-18T13:21:02Z</time>
      </trkpt>
      <trkpt lat="35.97538820734521" lon="119.50703980544496">
        <ele>92.72</ele>
        <time>2020-05-18T13:21:11Z</time>
      </trkpt>
      <trkpt lat="35.97536190084127" lon="119.50678839659211">
        <ele>97.8</ele>
        <time>2020-05-18T13:21:17Z</time>
      </trkpt>
      <trkpt lat="35.975382822315545" lon="119.50636930024501">
        <ele>99.59</ele>
        <time>2020-05-18T13:21:26Z</time>
      </trkpt>
      <trkpt lat="35.975350352699195" lon="119.50596312261426">
        <ele>103.4</ele>
        <time>2020-05-18T13:21:35Z</time>
      </trkpt>
      <trkpt lat="35.97529911424454" lon="119.50573038117001">
        <ele>103.44</ele>
        <time>2020-05-18T13:21:41Z</time>
      </trkpt>
      <trkpt lat="35.97527960162666" lon="119.50536238911204">
        <ele>100.22</ele>
        <time>2020-05-18T13:21:50Z</time>
      </trkpt>
      <trkpt lat="35.975214257842" lon="119.50501320553285">
        <ele>100.26</ele>
        <time>2020-05-18T13:21:59Z</time>
      </trkpt>
      <trkpt lat="35.97521367473778" lon="119.50462607311594">
        <ele>99.27</ele>
        <time>2020-05-18T13:22:08Z</time>
      </trkpt>
      <trkpt lat="35.97519858496483" lon="119.50438599999171">
        <ele>98.3</ele>
        <time>2020-05-18T13:22:14Z</time>
      </trkpt>
      <trkpt lat="35.97523575930514" lon="119.50427574707015">
        <ele>95.64</ele>
        <time>2020-05-18T13:22:17Z</time>
      </trkpt>
      <trkpt lat="35.975218383913706" lon="119.50416572476344">
        <ele>98.39</ele>
        <time>2020-05-18T13:22:20Z</time>
      </trkpt>
      <trkpt lat="35.97510026110707" lon="119.50400514705795">
        <ele>99.21</ele>
        <time>2020-05-18T13:22:26Z</time>
      </trkpt>
      <trkpt lat="35.97501448400585" lon="119.5039454721262">
        <ele>99.16</ele>
        <time>2020-05-18T13:22:29Z</time>
      </trkpt>
      <trkpt lat="35.97494519518602" lon="119.5039263542807">
        <ele>100.36</ele>
        <time>2020-05-18T13:22:32Z</time>
      </trkpt>
      <trkpt lat="35.97466620477667" lon="119.5039795043206">
        <ele>100.85</ele>
        <time>2020-05-18T13:22:44Z</time>
      </trkpt>
      <trkpt lat="35.97450457533532" lon="119.50399021567527">
        <ele>102.25</ele>
        <time>2020-05-18T13:22:50Z</time>
      </trkpt>
      <trkpt lat="35.974189147118814" lon="119.5039937194773">
        <ele>100.1</ele>
        <time>2020-05-18T13:23:02Z</time>
      </trkpt>
      <trkpt lat="35.973845717458644" lon="119.5040375809422">
        <ele>105.2</ele>
        <time>2020-05-18T13:23:14Z</time>
      </trkpt>
      <trkpt lat="35.973753848353276" lon="119.50402923267553">
        <ele>104.26</ele>
        <time>2020-05-18T13:23:17Z</time>
      </trkpt>
      <trkpt lat="35.973687847877876" lon="119.50405112205534">
        <ele>105.82</ele>
        <time>2020-05-18T13:23:20Z</time>
      </trkpt>
      <trkpt lat="35.97338272010473" lon="119.50404198656962">
        <ele>100.19</ele>
        <time>2020-05-18T13:23:32Z</time>
      </trkpt>
      <trkpt lat="35.97309309040261" lon="119.50407850782639">
        <ele>97.65</ele>
        <time>2020-05-18T13:23:44Z</time>
      </trkpt>
      <trkpt lat="35.97288316143492" lon="119.5040846500987">
        <ele>99.7</ele>
        <time>2020-05-18T13:23:53Z</time>
      </trkpt>
      <trkpt lat="35.972605060784005" lon="119.50414267974887">
        <ele>99.28</ele>
        <time>2020-05-18T13:24:05Z</time>
      </trkpt>
      <trkpt lat="35.972277572069274" lon="119.50416019275373">
        <ele>101.51</ele>
        <time>2020-05-18T13:24:17Z</time>
      </trkpt>
      <trkpt lat="35.971964593294786" lon="119.50417696562107">
        <ele>104.72</ele>
        <time>2020-05-18T13:24:29Z</time>
      </trkpt>
      <trkpt lat="35.97161107497603" lon="119.50418858935353">
        <ele>107.18</ele>
        <time>2020-05-18T13:24:41Z</time>
      </trkpt>
      <trkpt lat="35.97142302534309" lon="119.5042076804633">
        <ele>105.95</ele>
        <time>2020-05-18T13:24:47Z</time>
      </trkpt>
      <trkpt lat="35.971163584933144" lon="119.50425629047531">
        <ele>110.14</ele>
        <time>2020-05-18T13:24:56Z</time>
      </trkpt>
      <trkpt lat="35.97102279621355" lon="119.50424600297515">
        <ele>106.3</ele>
        <time>2020-05-18T13:25:02Z</time>
      </trkpt>
      <trkpt lat="35.9708302863906" lon="119.50427025378363">
        <ele>104.54</ele>
        <time>2020-05-18T13:25:11Z</time>
      </trkpt>
      <trkpt lat="35.970771747303466" lon="119.5042567254537">
        <ele>104.39</ele>
        <time>2020-05-18T13:25:14Z</time>
      </trkpt>
      <trkpt lat="35.970456116923145" lon="119.50431264566983">
        <ele>105.3</ele>
        <time>2020-05-18T13:25:26Z</time>
      </trkpt>
      <trkpt lat="35.97016470823627" lon="119.50432383862733">
        <ele>106.51</ele>
        <time>2020-05-18T13:25:38Z</time>
      </trkpt>
      <trkpt lat="35.96983375063592" lon="119.50431458348964">
        <ele>102.23</ele>
        <time>2020-05-18T13:25:53Z</time>
      </trkpt>
      <trkpt lat="35.96952942166195" lon="119.50433460600641">
        <ele>102.35</ele>
        <time>2020-05-18T13:26:11Z</time>
      </trkpt>
      <trkpt lat="35.969346512134706" lon="119.50435008728125">
        <ele>104.2</ele>
        <time>2020-05-18T13:26:23Z</time>
      </trkpt>
      <trkpt lat="35.969071310818784" lon="119.50442193585124">
        <ele>106.32</ele>
        <time>2020-05-18T13:26:32Z</time>
      </trkpt>
      <trkpt lat="35.968980780282095" lon="119.50444792521166">
        <ele>107.06</ele>
        <time>2020-05-18T13:26:35Z</time>
      </trkpt>
      <trkpt lat="35.96882035264462" lon="119.5044148395465">
        <ele>105.8</ele>
        <time>2020-05-18T13:26:41Z</time>
      </trkpt>
      <trkpt lat="35.9685181230406" lon="119.50444937102087">
        <ele>105.98</ele>
        <time>2020-05-18T13:26:53Z</time>
      </trkpt>
      <trkpt lat="35.96823581395749" lon="119.50446850330157">
        <ele>107.25</ele>
        <time>2020-05-18T13:27:05Z</time>
      </trkpt>
      <trkpt lat="35.968154594438445" lon="119.50446883431583">
        <ele>106.57</ele>
        <time>2020-05-18T13:27:08Z</time>
      </trkpt>
      <trkpt lat="35.968089493698336" lon="119.50449584327359">
        <ele>107.78</ele>
        <time>2020-05-18T13:27:11Z</time>
      </trkpt>
      <trkpt lat="35.96789854630879" lon="119.50446144809716">
        <ele>111.51</ele>
        <time>2020-05-18T13:27:23Z</time>
      </trkpt>
      <trkpt lat="35.9676236958755" lon="119.50451150813286">
        <ele>113.79</ele>
        <time>2020-05-18T13:27:38Z</time>
      </trkpt>
      <trkpt lat="35.967340815212346" lon="119.50456786781696">
        <ele>116.54</ele>
        <time>2020-05-18T13:27:56Z</time>
      </trkpt>
      <trkpt lat="35.96705393610413" lon="119.50458800007215">
        <ele>119.22</ele>
        <time>2020-05-18T13:28:14Z</time>
      </trkpt>
      <trkpt lat="35.9667699373951" lon="119.50459831297577">
        <ele>117.03</ele>
        <time>2020-05-18T13:28:32Z</time>
      </trkpt>
      <trkpt lat="35.96648755897327" lon="119.50460164634674">
        <ele>115.36</ele>
        <time>2020-05-18T13:28:50Z</time>
      </trkpt>
      <trkpt lat="35.96620007016057" lon="119.50461486908954">
        <ele>117.0</ele>
        <time>2020-05-18T13:29:08Z</time>
      </trkpt>
      <trkpt lat="35.9661464804618" lon="119.50461545973208">
        <ele>116.66</ele>
        <time>2020-05-18T13:29:11Z</time>
      </trkpt>
      <trkpt lat="35.96610203964734" lon="119.50464084851745">
        <ele>117.5</ele>
        <time>2020-05-18T13:29:14Z</time>
      </trkpt>
      <trkpt lat="35.9658083506261" lon="119.50465976093584">
        <ele>114.04</ele>
        <time>2020-05-18T13:29:32Z</time>
      </trkpt>
      <trkpt lat="35.96575776005981" lon="119.50468013014716">
        <ele>113.45</ele>
        <time>2020-05-18T13:29:35Z</time>
      </trkpt>
      <trkpt lat="35.965625253979304" lon="119.50483907056734">
        <ele>114.75</ele>
        <time>2020-05-18T13:29:47Z</time>
      </trkpt>
      <trkpt lat="35.965559592229496" lon="119.50488814789675">
        <ele>114.43</ele>
        <time>2020-05-18T13:29:53Z</time>
      </trkpt>
      <trkpt lat="35.96557320057197" lon="119.50514823890691">
        <ele>115.99</ele>
        <time>2020-05-18T13:29:59Z</time>
      </trkpt>
      <trkpt lat="35.96553873562156" lon="119.50526204099594">
        <ele>117.12</ele>
        <time>2020-05-18T13:30:02Z</time>
      </trkpt>
      <trkpt lat="35.96558096735591" lon="119.5054361575419">
        <ele>115.79</ele>
        <time>2020-05-18T13:30:08Z</time>
      </trkpt>
      <trkpt lat="35.96560077859969" lon="119.50583036742975">
        <ele>110.38</ele>
        <time>2020-05-18T13:30:23Z</time>
      </trkpt>
      <trkpt lat="35.96558618996651" lon="119.50600997372747">
        <ele>110.62</ele>
        <time>2020-05-18T13:30:29Z</time>
      </trkpt>
      <trkpt lat="35.965643121820605" lon="119.50616810062658">
        <ele>111.72</ele>
        <time>2020-05-18T13:30:35Z</time>
      </trkpt>
      <trkpt lat="35.96565026853496" lon="119.5062331754029">
        <ele>111.75</ele>
        <time>2020-05-18T13:30:38Z</time>
      </trkpt>
      <trkpt lat="35.965634093072204" lon="119.50634392682066">
        <ele>117.31</ele>
        <time>2020-05-18T13:30:44Z</time>
      </trkpt>
      <trkpt lat="35.96566316784952" lon="119.50663823276786">
        <ele>117.61</ele>
        <time>2020-05-18T13:30:59Z</time>
      </trkpt>
      <trkpt lat="35.96561090837883" lon="119.50701431248125">
        <ele>118.03</ele>
        <time>2020-05-18T13:31:20Z</time>
      </trkpt>
      <trkpt lat="35.96559358609381" lon="119.50742607792418">
        <ele>122.02</ele>
        <time>2020-05-18T13:31:44Z</time>
      </trkpt>
      <trkpt lat="35.965607469714655" lon="119.50771735258677">
        <ele>123.69</ele>
        <time>2020-05-18T13:31:59Z</time>
      </trkpt>
      <trkpt lat="35.965626161282856" lon="119.50786349954996">
        <ele>122.25</ele>
        <time>2020-05-18T13:32:08Z</time>
      </trkpt>
      <trkpt lat="35.96560678669089" lon="119.50828822194396">
        <ele>124.86</ele>
        <time>2020-05-18T13:32:32Z</time>
      </trkpt>
      <trkpt lat="35.965567557238586" lon="119.5086172524466">
        <ele>129.47</ele>
        <time>2020-05-18T13:32:50Z</time>
      </trkpt>
      <trkpt lat="35.965584061224284" lon="119.50903858296749">
        <ele>120.71</ele>
        <time>2020-05-18T13:33:14Z</time>
      </trkpt>
      <trkpt lat="35.96557067077518" lon="119.50920626724312">
        <ele>121.66</ele>
        <time>2020-05-18T13:33:23Z</time>
      </trkpt>
      <trkpt lat="35.965601930790875" lon="119.50951625706058">
        <ele>123.63</ele>
        <time>2020-05-18T13:33:41Z</time>
      </trkpt>
      <trkpt lat="35.965588730803496" lon="119.50967145212354">
        <ele>124.2</ele>
        <time>2020-05-18T13:33:50Z</time>
      </trkpt>
      <trkpt lat="35.965634538517634" lon="119.51000515862076">
        <ele>120.13</ele>
        <time>2020-05-18T13:34:08Z</time>
      </trkpt>
      <trkpt lat="35.96569833039463" lon="119.51041558650185">
        <ele>113.15</ele>
        <time>2020-05-18T13:34:32Z</time>
      </trkpt>
      <trkpt lat="35.96569054724108" lon="119.51075087218986">
        <ele>112.23</ele>
        <time>2020-05-18T13:34:50Z</time>
      </trkpt>
      <trkpt lat="35.96568451451787" lon="119.51093232339394">
        <ele>114.64</ele>
        <time>2020-05-18T13:34:59Z</time>
      </trkpt>
      <trkpt lat="35.96569950054846" lon="119.51098706747442">
        <ele>114.82</ele>
        <time>2020-05-18T13:35:02Z</time>
      </trkpt>
      <trkpt lat="35.96574766844781" lon="119.5110125041929">
        <ele>115.48</ele>
        <time>2020-05-18T13:35:05Z</time>
      </trkpt>
      <trkpt lat="35.96605695066692" lon="119.51095457631665">
        <ele>115.36</ele>
        <time>2020-05-18T13:35:23Z</time>
      </trkpt>
      <trkpt lat="35.96621946156284" lon="119.51092787703469">
        <ele>116.81</ele>
        <time>2020-05-18T13:35:32Z</time>
      </trkpt>
      <trkpt lat="35.966491648365825" lon="119.51094955129669">
        <ele>119.14</ele>
        <time>2020-05-18T13:35:47Z</time>
      </trkpt>
      <trkpt lat="35.96659838714637" lon="119.51095755909724">
        <ele>121.94</ele>
        <time>2020-05-18T13:35:53Z</time>
      </trkpt>
      <trkpt lat="35.96674195829976" lon="119.51092886026595">
        <ele>123.94</ele>
        <time>2020-05-18T13:36:02Z</time>
      </trkpt>
      <trkpt lat="35.966834526552766" lon="119.5109455573397">
        <ele>122.45</ele>
        <time>2020-05-18T13:36:08Z</time>
      </trkpt>
      <trkpt lat="35.96692771667586" lon="119.51093576717408">
        <ele>124.05</ele>
        <time>2020-05-18T13:36:14Z</time>
      </trkpt>
      <trkpt lat="35.96701786440138" lon="119.51096011347778">
        <ele>125.1</ele>
        <time>2020-05-18T13:36:20Z</time>
      </trkpt>
      <trkpt lat="35.96723656452654" lon="119.51093946284686">
        <ele>123.47</ele>
        <time>2020-05-18T13:36:35Z</time>
      </trkpt>
      <trkpt lat="35.96750938953855" lon="119.51084477923877">
        <ele>118.08</ele>
        <time>2020-05-18T13:36:53Z</time>
      </trkpt>
      <trkpt lat="35.96778771124646" lon="119.51079624072977">
        <ele>117.02</ele>
        <time>2020-05-18T13:37:14Z</time>
      </trkpt>
      <trkpt lat="35.968064751837" lon="119.51076364057384">
        <ele>116.29</ele>
        <time>2020-05-18T13:37:32Z</time>
      </trkpt>
      <trkpt lat="35.968341164044546" lon="119.51070786281558">
        <ele>114.96</ele>
        <time>2020-05-18T13:37:50Z</time>
      </trkpt>
      <trkpt lat="35.96844015263998" lon="119.51071932036811">
        <ele>115.07</ele>
        <time>2020-05-18T13:37:56Z</time>
      </trkpt>
      <trkpt lat="35.96871896457589" lon="119.5106670822008">
        <ele>112.41</ele>
        <time>2020-05-18T13:38:14Z</time>
      </trkpt>
      <trkpt lat="35.968997363053695" lon="119.5106644989128">
        <ele>111.37</ele>
        <time>2020-05-18T13:38:32Z</time>
      </trkpt>
      <trkpt lat="35.96930292131394" lon="119.5106626552015">
        <ele>112.98</ele>
        <time>2020-05-18T13:38:53Z</time>
      </trkpt>
      <trkpt lat="35.96958042946525" lon="119.51066484143271">
        <ele>111.9</ele>
        <time>2020-05-18T13:39:08Z</time>
      </trkpt>
      <trkpt lat="35.96986389852789" lon="119.5106533989918">
        <ele>116.07</ele>
        <time>2020-05-18T13:39:26Z</time>
      </trkpt>
      <trkpt lat="35.970143097668085" lon="119.51064120668164">
        <ele>118.73</ele>
        <time>2020-05-18T13:39:44Z</time>
      </trkpt>
      <trkpt lat="35.970233297662475" lon="119.51063334633861">
        <ele>120.78</ele>
        <time>2020-05-18T13:39:50Z</time>
      </trkpt>
      <trkpt lat="35.97031688604011" lon="119.51064934362427">
        <ele>117.63</ele>
        <time>2020-05-18T13:39:56Z</time>
      </trkpt>
      <trkpt lat="35.97059255609635" lon="119.51062426268447">
        <ele>121.12</ele>
        <time>2020-05-18T13:40:14Z</time>
      </trkpt>
      <trkpt lat="35.970865465550645" lon="119.51060807086304">
        <ele>119.89</ele>
        <time>2020-05-18T13:40:32Z</time>
      </trkpt>
      <trkpt lat="35.97111033655651" lon="119.51057192144626">
        <ele>118.6</ele>
        <time>2020-05-18T13:40:50Z</time>
      </trkpt>
      <trkpt lat="35.971185988464995" lon="119.5105376039966">
        <ele>117.72</ele>
        <time>2020-05-18T13:40:56Z</time>
      </trkpt>
      <trkpt lat="35.97152666889053" lon="119.51050121336644">
        <ele>111.35</ele>
        <time>2020-05-18T13:41:20Z</time>
      </trkpt>
      <trkpt lat="35.97179918102396" lon="119.51044593552533">
        <ele>107.2</ele>
        <time>2020-05-18T13:41:44Z</time>
      </trkpt>
      <trkpt lat="35.972082801896775" lon="119.51040789577343">
        <ele>110.63</ele>
        <time>2020-05-18T13:42:08Z</time>
      </trkpt>
      <trkpt lat="35.972372401124275" lon="119.51039330355593">
        <ele>108.17</ele>
        <time>2020-05-18T13:42:32Z</time>
      </trkpt>
      <trkpt lat="35.97268442174374" lon="119.51035630332431">
        <ele>106.34</ele>
        <time>2020-05-18T13:42:56Z</time>
      </trkpt>
      <trkpt lat="35.97276477084027" lon="119.51036234168488">
        <ele>107.5</ele>
        <time>2020-05-18T13:43:02Z</time>
      </trkpt>
      <trkpt lat="35.973081972483364" lon="119.51030976295715">
        <ele>107.19</ele>
        <time>2020-05-18T13:43:26Z</time>
      </trkpt>
      <trkpt lat="35.973388792667016" lon="119.51027945209911">
        <ele>105.94</ele>
        <time>2020-05-18T13:43:50Z</time>
      </trkpt>
      <trkpt lat="35.97363292161402" lon="119.51027296963284">
        <ele>104.83</ele>
        <time>2020-05-18T13:44:08Z</time>
      </trkpt>
      <trkpt lat="35.97369280318157" lon="119.51024445174457">
        <ele>103.05</ele>
        <time>2020-05-18T13:44:14Z</time>
      </trkpt>
      <trkpt lat="35.97382919212057" lon="119.51024779966329">
        <ele>104.12</ele>
        <time>2020-05-18T13:44:26Z</time>
      </trkpt>
      <trkpt lat="35.973890099916424" lon="119.5102748061594">
        <ele>104.38</ele>
        <time>2020-05-18T13:44:32Z</time>
      </trkpt>
      <trkpt lat="35.97393528165812" lon="119.5102450485843">
        <ele>104.28</ele>
        <time>2020-05-18T13:44:35Z</time>
      </trkpt>
      <trkpt lat="35.97420992173104" lon="119.51021915768128">
        <ele>103.91</ele>
        <time>2020-05-18T13:44:59Z</time>
      </trkpt>
      <trkpt lat="35.97451925120527" lon="119.51019894575974">
        <ele>103.26</ele>
        <time>2020-05-18T13:45:23Z</time>
      </trkpt>
      <trkpt lat="35.97470180015369" lon="119.51019798352209">
        <ele>101.5</ele>
        <time>2020-05-18T13:45:32Z</time>
      </trkpt>
      <trkpt lat="35.97481001820437" lon="119.51021703022164">
        <ele>102.14</ele>
        <time>2020-05-18T13:45:35Z</time>
      </trkpt>
      <trkpt lat="35.97517613153348" lon="119.51013447383201">
        <ele>100.07</ele>
        <time>2020-05-18T13:45:44Z</time>
      </trkpt>
      <trkpt lat="35.975368860796564" lon="119.51012790202549">
        <ele>102.6</ele>
        <time>2020-05-18T13:45:50Z</time>
      </trkpt>
      <trkpt lat="35.97545364447182" lon="119.51006540719209">
        <ele>106.22</ele>
        <time>2020-05-18T13:45:53Z</time>
      </trkpt>
      <trkpt lat="35.975495529750646" lon="119.50998253491335">
        <ele>107.01</ele>
        <time>2020-05-18T13:45:56Z</time>
      </trkpt>
      <trkpt lat="35.975517725774765" lon="119.50988977382805">
        <ele>106.6</ele>
        <time>2020-05-18T13:45:59Z</time>
      </trkpt>
      <trkpt lat="35.97550611315011" lon="119.50962608987236">
        <ele>110.02</ele>
        <time>2020-05-18T13:46:05Z</time>
      </trkpt>
      <trkpt lat="35.9754572929399" lon="119.50932334976704">
        <ele>106.74</ele>
        <time>2020-05-18T13:46:11Z</time>
      </trkpt>
      <trkpt lat="35.975444786020404" lon="119.5089577046205">
        <ele>102.15</ele>
        <time>2020-05-18T13:46:20Z</time>
      </trkpt>
      <trkpt lat="35.97543807036138" lon="119.50888830121008">
        <ele>101.27</ele>
        <time>2020-05-18T13:46:23Z</time>
      </trkpt>
      <trkpt lat="35.97545069623138" lon="119.50879174005382">
        <ele>102.18</ele>
        <time>2020-05-18T13:46:26Z</time>
      </trkpt>
      <trkpt lat="35.97543658318662" lon="119.50851412584345">
        <ele>105.34</ele>
        <time>2020-05-18T13:46:35Z</time>
      </trkpt>
      <trkpt lat="35.97549499526091" lon="119.50830586403353">
        <ele>101.84</ele>
        <time>2020-05-18T13:46:44Z</time>
      </trkpt>
      <trkpt lat="35.9754860590785" lon="119.508071445182">
        <ele>102.2</ele>
        <time>2020-05-18T13:46:56Z</time>
      </trkpt>
      <trkpt lat="35.975449400722745" lon="119.50787370316182">
        <ele>107.42</ele>
        <time>2020-05-18T13:47:08Z</time>
      </trkpt>
      <trkpt lat="35.97538858743565" lon="119.5077625836865">
        <ele>109.02</ele>
        <time>2020-05-18T13:47:14Z</time>
      </trkpt>
      <trkpt lat="35.97534075079625" lon="119.5077084690207">
        <ele>106.6</ele>
        <time>2020-05-18T13:47:20Z</time>
      </trkpt>
      <trkpt lat="35.97534075079625" lon="119.5077084690207">
        <ele>106.6</ele>
        <time>2020-05-18T13:47:25Z</time>
      </trkpt>
    </trkseg>
  </trk>
</gpx>