<?xml version="1.0" encoding="UTF-8"?>
<gpx xmlns="http://www.topografix.com/GPX/1/1" xmlns:gpxtpx="http://www.garmin.com/xmlschemas/TrackPointExtension/v1" xmlns:xsi="http://www.w3.org/2001/XMLSchema-instance" xsi:schemaLocation="http://www.topografix.com/GPX/1/1 http://www.topografix.com/GPX/1/1/gpx.xsd" version="1.1" creator="gpx.py -- https://github.com/tkrajina/gpxpy">
  <trk>
    <name>gpx from keep</name>
    <type>Run</type>
    <trkseg>
      <trkpt lat="35.97490704411561" lon="119.50787232022127">
        <ele>108.48</ele>
        <time>2020-06-04T13:22:38Z</time>
      </trkpt>
      <trkpt lat="35.974867881001444" lon="119.50793070557447">
        <ele>112.61</ele>
        <time>2020-06-04T13:22:41Z</time>
      </trkpt>
      <trkpt lat="35.97496642174001" lon="119.5079073963714">
        <ele>111.64</ele>
        <time>2020-06-04T13:22:47Z</time>
      </trkpt>
      <trkpt lat="35.97501607518151" lon="119.50784206148721">
        <ele>109.52</ele>
        <time>2020-06-04T13:22:50Z</time>
      </trkpt>
      <trkpt lat="35.975029361847525" lon="119.50772350169377">
        <ele>107.09</ele>
        <time>2020-06-04T13:22:56Z</time>
      </trkpt>
      <trkpt lat="35.975287500950856" lon="119.50753354485724">
        <ele>100.45</ele>
        <time>2020-06-04T13:23:11Z</time>
      </trkpt>
      <trkpt lat="35.97533253284966" lon="119.50749452763884">
        <ele>102.28</ele>
        <time>2020-06-04T13:23:14Z</time>
      </trkpt>
      <trkpt lat="35.97537248692143" lon="119.5074167038001">
        <ele>103.99</ele>
        <time>2020-06-04T13:23:17Z</time>
      </trkpt>
      <trkpt lat="35.97539681952438" lon="119.50699809881104">
        <ele>107.02</ele>
        <time>2020-06-04T13:23:32Z</time>
      </trkpt>
      <trkpt lat="35.97536548782102" lon="119.50665421751123">
        <ele>107.27</ele>
        <time>2020-06-04T13:23:44Z</time>
      </trkpt>
      <trkpt lat="35.97533996697053" lon="119.5064795519633">
        <ele>107.8</ele>
        <time>2020-06-04T13:23:50Z</time>
      </trkpt>
      <trkpt lat="35.9753663870137" lon="119.50627807771076">
        <ele>105.55</ele>
        <time>2020-06-04T13:23:59Z</time>
      </trkpt>
      <trkpt lat="35.975339687323114" lon="119.50586927000488">
        <ele>106.63</ele>
        <time>2020-06-04T13:24:14Z</time>
      </trkpt>
      <trkpt lat="35.97534254457538" lon="119.50550605758426">
        <ele>106.58</ele>
        <time>2020-06-04T13:24:26Z</time>
      </trkpt>
      <trkpt lat="35.975327360208496" lon="119.50516799282764">
        <ele>100.51</ele>
        <time>2020-06-04T13:24:38Z</time>
      </trkpt>
      <trkpt lat="35.97532635574523" lon="119.50481834808215">
        <ele>103.71</ele>
        <time>2020-06-04T13:24:50Z</time>
      </trkpt>
      <trkpt lat="35.97529940168513" lon="119.50444972430466">
        <ele>107.96</ele>
        <time>2020-06-04T13:25:02Z</time>
      </trkpt>
      <trkpt lat="35.97529054049252" lon="119.50423871889102">
        <ele>108.8</ele>
        <time>2020-06-04T13:25:11Z</time>
      </trkpt>
      <trkpt lat="35.97519684036475" lon="119.50400898556599">
        <ele>108.95</ele>
        <time>2020-06-04T13:25:20Z</time>
      </trkpt>
      <trkpt lat="35.975067775942385" lon="119.50388828523074">
        <ele>106.93</ele>
        <time>2020-06-04T13:25:26Z</time>
      </trkpt>
      <trkpt lat="35.9747374975053" lon="119.50389971870133">
        <ele>105.95</ele>
        <time>2020-06-04T13:25:44Z</time>
      </trkpt>
      <trkpt lat="35.97443271722105" lon="119.50395383901444">
        <ele>106.34</ele>
        <time>2020-06-04T13:25:59Z</time>
      </trkpt>
      <trkpt lat="35.974117388003165" lon="119.5039825111419">
        <ele>103.63</ele>
        <time>2020-06-04T13:26:14Z</time>
      </trkpt>
      <trkpt lat="35.973798239342756" lon="119.50399771421165">
        <ele>106.69</ele>
        <time>2020-06-04T13:26:29Z</time>
      </trkpt>
      <trkpt lat="35.97350187086841" lon="119.50400475753284">
        <ele>106.18</ele>
        <time>2020-06-04T13:26:44Z</time>
      </trkpt>
      <trkpt lat="35.973195851869754" lon="119.50402637000384">
        <ele>102.89</ele>
        <time>2020-06-04T13:26:59Z</time>
      </trkpt>
      <trkpt lat="35.97308809361627" lon="119.50399911320136">
        <ele>102.75</ele>
        <time>2020-06-04T13:27:05Z</time>
      </trkpt>
      <trkpt lat="35.97294586195949" lon="119.50406212080833">
        <ele>103.63</ele>
        <time>2020-06-04T13:27:11Z</time>
      </trkpt>
      <trkpt lat="35.972811272578845" lon="119.50406712219419">
        <ele>104.34</ele>
        <time>2020-06-04T13:27:17Z</time>
      </trkpt>
      <trkpt lat="35.9726857225441" lon="119.50408699246621">
        <ele>103.54</ele>
        <time>2020-06-04T13:27:23Z</time>
      </trkpt>
      <trkpt lat="35.972614683352596" lon="119.50407767400023">
        <ele>103.38</ele>
        <time>2020-06-04T13:27:26Z</time>
      </trkpt>
      <trkpt lat="35.97228196324708" lon="119.50413050470121">
        <ele>106.5</ele>
        <time>2020-06-04T13:27:41Z</time>
      </trkpt>
      <trkpt lat="35.97196990527947" lon="119.50412728890768">
        <ele>104.97</ele>
        <time>2020-06-04T13:27:56Z</time>
      </trkpt>
      <trkpt lat="35.97180232495292" lon="119.50416051880768">
        <ele>102.34</ele>
        <time>2020-06-04T13:28:05Z</time>
      </trkpt>
      <trkpt lat="35.97173668597746" lon="119.50414514068532">
        <ele>100.95</ele>
        <time>2020-06-04T13:28:08Z</time>
      </trkpt>
      <trkpt lat="35.971611885554395" lon="119.50417427031245">
        <ele>102.96</ele>
        <time>2020-06-04T13:28:14Z</time>
      </trkpt>
      <trkpt lat="35.971386497468536" lon="119.50416098409188">
        <ele>106.8</ele>
        <time>2020-06-04T13:28:23Z</time>
      </trkpt>
      <trkpt lat="35.97102814840838" lon="119.5041915466043">
        <ele>104.6</ele>
        <time>2020-06-04T13:28:41Z</time>
      </trkpt>
      <trkpt lat="35.97071417110181" lon="119.50417240191312">
        <ele>101.51</ele>
        <time>2020-06-04T13:28:56Z</time>
      </trkpt>
      <trkpt lat="35.97064887162137" lon="119.50416941294979">
        <ele>102.81</ele>
        <time>2020-06-04T13:28:59Z</time>
      </trkpt>
      <trkpt lat="35.97037153131" lon="119.5042184831689">
        <ele>104.69</ele>
        <time>2020-06-04T13:29:14Z</time>
      </trkpt>
      <trkpt lat="35.9700344916721" lon="119.50425975466858">
        <ele>102.2</ele>
        <time>2020-06-04T13:29:38Z</time>
      </trkpt>
      <trkpt lat="35.96986413960996" lon="119.50433490170977">
        <ele>101.39</ele>
        <time>2020-06-04T13:29:47Z</time>
      </trkpt>
      <trkpt lat="35.969530211720915" lon="119.50433306610186">
        <ele>105.1</ele>
        <time>2020-06-04T13:29:59Z</time>
      </trkpt>
      <trkpt lat="35.969245481510626" lon="119.50437991652214">
        <ele>105.43</ele>
        <time>2020-06-04T13:30:11Z</time>
      </trkpt>
      <trkpt lat="35.968971052723326" lon="119.50439094926828">
        <ele>108.11</ele>
        <time>2020-06-04T13:30:23Z</time>
      </trkpt>
      <trkpt lat="35.96869084383459" lon="119.50440524186257">
        <ele>111.81</ele>
        <time>2020-06-04T13:30:35Z</time>
      </trkpt>
      <trkpt lat="35.96842067530818" lon="119.5044093750281">
        <ele>111.77</ele>
        <time>2020-06-04T13:30:50Z</time>
      </trkpt>
      <trkpt lat="35.96813906544602" lon="119.50444708601985">
        <ele>114.75</ele>
        <time>2020-06-04T13:31:05Z</time>
      </trkpt>
      <trkpt lat="35.967861595838336" lon="119.50447799742214">
        <ele>114.94</ele>
        <time>2020-06-04T13:31:26Z</time>
      </trkpt>
      <trkpt lat="35.967556726991226" lon="119.50449473015375">
        <ele>116.42</ele>
        <time>2020-06-04T13:31:50Z</time>
      </trkpt>
      <trkpt lat="35.96724508817938" lon="119.50451157296224">
        <ele>114.32</ele>
        <time>2020-06-04T13:32:08Z</time>
      </trkpt>
      <trkpt lat="35.96697114806305" lon="119.50455376352086">
        <ele>115.01</ele>
        <time>2020-06-04T13:32:17Z</time>
      </trkpt>
      <trkpt lat="35.966781899719294" lon="119.50454188676491">
        <ele>115.74</ele>
        <time>2020-06-04T13:32:23Z</time>
      </trkpt>
      <trkpt lat="35.96643468941122" lon="119.50459892721197">
        <ele>118.75</ele>
        <time>2020-06-04T13:32:35Z</time>
      </trkpt>
      <trkpt lat="35.966121699824065" lon="119.50463391875321">
        <ele>115.35</ele>
        <time>2020-06-04T13:32:47Z</time>
      </trkpt>
      <trkpt lat="35.96587011027309" lon="119.50465922018573">
        <ele>118.63</ele>
        <time>2020-06-04T13:32:59Z</time>
      </trkpt>
      <trkpt lat="35.965758627049205" lon="119.50474980521258">
        <ele>119.47</ele>
        <time>2020-06-04T13:33:08Z</time>
      </trkpt>
      <trkpt lat="35.965675056283196" lon="119.50477921419278">
        <ele>120.43</ele>
        <time>2020-06-04T13:33:14Z</time>
      </trkpt>
      <trkpt lat="35.965627103533535" lon="119.50484900983427">
        <ele>120.62</ele>
        <time>2020-06-04T13:33:20Z</time>
      </trkpt>
      <trkpt lat="35.96561221003687" lon="119.5049306841737">
        <ele>120.46</ele>
        <time>2020-06-04T13:33:26Z</time>
      </trkpt>
      <trkpt lat="35.96565594827051" lon="119.50496463117295">
        <ele>118.32</ele>
        <time>2020-06-04T13:33:29Z</time>
      </trkpt>
      <trkpt lat="35.96566202542276" lon="119.5052499203156">
        <ele>118.71</ele>
        <time>2020-06-04T13:33:38Z</time>
      </trkpt>
      <trkpt lat="35.96565718983588" lon="119.50558715523339">
        <ele>116.06</ele>
        <time>2020-06-04T13:33:50Z</time>
      </trkpt>
      <trkpt lat="35.96566501728618" lon="119.5058494951395">
        <ele>116.36</ele>
        <time>2020-06-04T13:33:59Z</time>
      </trkpt>
      <trkpt lat="35.965660277305666" lon="119.50605499927266">
        <ele>119.37</ele>
        <time>2020-06-04T13:34:11Z</time>
      </trkpt>
      <trkpt lat="35.96569470264003" lon="119.50614525176505">
        <ele>118.86</ele>
        <time>2020-06-04T13:34:17Z</time>
      </trkpt>
      <trkpt lat="35.9656860742228" lon="119.50631480847467">
        <ele>118.67</ele>
        <time>2020-06-04T13:34:23Z</time>
      </trkpt>
      <trkpt lat="35.96570201899504" lon="119.50661150444255">
        <ele>119.61</ele>
        <time>2020-06-04T13:34:29Z</time>
      </trkpt>
      <trkpt lat="35.96570346611122" lon="119.50704612864624">
        <ele>120.89</ele>
        <time>2020-06-04T13:34:50Z</time>
      </trkpt>
      <trkpt lat="35.96571711528454" lon="119.50742708626196">
        <ele>118.12</ele>
        <time>2020-06-04T13:35:08Z</time>
      </trkpt>
      <trkpt lat="35.965714445903224" lon="119.50759588177092">
        <ele>117.95</ele>
        <time>2020-06-04T13:35:20Z</time>
      </trkpt>
      <trkpt lat="35.965741501145054" lon="119.50767756434107">
        <ele>115.96</ele>
        <time>2020-06-04T13:35:26Z</time>
      </trkpt>
      <trkpt lat="35.965721579297316" lon="119.50806121083377">
        <ele>116.5</ele>
        <time>2020-06-04T13:35:41Z</time>
      </trkpt>
      <trkpt lat="35.96576263667519" lon="119.50844067612952">
        <ele>116.14</ele>
        <time>2020-06-04T13:35:53Z</time>
      </trkpt>
      <trkpt lat="35.965726822265694" lon="119.50884646917072">
        <ele>119.0</ele>
        <time>2020-06-04T13:36:11Z</time>
      </trkpt>
      <trkpt lat="35.96575416789249" lon="119.50907526733316">
        <ele>118.39</ele>
        <time>2020-06-04T13:36:26Z</time>
      </trkpt>
      <trkpt lat="35.965741402983845" lon="119.50915470996864">
        <ele>119.16</ele>
        <time>2020-06-04T13:36:32Z</time>
      </trkpt>
      <trkpt lat="35.965745320573305" lon="119.50950605621986">
        <ele>121.48</ele>
        <time>2020-06-04T13:36:56Z</time>
      </trkpt>
      <trkpt lat="35.96576888220523" lon="119.50993739364016">
        <ele>116.64</ele>
        <time>2020-06-04T13:37:11Z</time>
      </trkpt>
      <trkpt lat="35.96576529563916" lon="119.51033279405245">
        <ele>119.26</ele>
        <time>2020-06-04T13:37:35Z</time>
      </trkpt>
      <trkpt lat="35.96579015221852" lon="119.51067078919301">
        <ele>119.18</ele>
        <time>2020-06-04T13:37:59Z</time>
      </trkpt>
      <trkpt lat="35.96578611953564" lon="119.51085239043344">
        <ele>119.84</ele>
        <time>2020-06-04T13:38:11Z</time>
      </trkpt>
      <trkpt lat="35.96580786373585" lon="119.51093272177896">
        <ele>119.84</ele>
        <time>2020-06-04T13:38:17Z</time>
      </trkpt>
      <trkpt lat="35.96603877400935" lon="119.5109088813232">
        <ele>119.74</ele>
        <time>2020-06-04T13:38:29Z</time>
      </trkpt>
      <trkpt lat="35.96611381246786" lon="119.51092420876563">
        <ele>119.7</ele>
        <time>2020-06-04T13:38:35Z</time>
      </trkpt>
      <trkpt lat="35.9661910645789" lon="119.51088762159813">
        <ele>119.92</ele>
        <time>2020-06-04T13:38:41Z</time>
      </trkpt>
      <trkpt lat="35.96650185404338" lon="119.51086826964978">
        <ele>118.74</ele>
        <time>2020-06-04T13:39:05Z</time>
      </trkpt>
      <trkpt lat="35.96663974424479" lon="119.51085343943454">
        <ele>116.6</ele>
        <time>2020-06-04T13:39:14Z</time>
      </trkpt>
      <trkpt lat="35.96673230250829" lon="119.51087006652243">
        <ele>117.3</ele>
        <time>2020-06-04T13:39:17Z</time>
      </trkpt>
      <trkpt lat="35.96697173313249" lon="119.51084040655454">
        <ele>115.66</ele>
        <time>2020-06-04T13:39:26Z</time>
      </trkpt>
      <trkpt lat="35.96706410465229" lon="119.51081073845911">
        <ele>115.6</ele>
        <time>2020-06-04T13:39:29Z</time>
      </trkpt>
      <trkpt lat="35.96716019381657" lon="119.51081427686552">
        <ele>117.52</ele>
        <time>2020-06-04T13:39:32Z</time>
      </trkpt>
      <trkpt lat="35.967419435684405" lon="119.510765028666">
        <ele>118.89</ele>
        <time>2020-06-04T13:39:41Z</time>
      </trkpt>
      <trkpt lat="35.96776224396018" lon="119.51075972484045">
        <ele>118.79</ele>
        <time>2020-06-04T13:40:08Z</time>
      </trkpt>
      <trkpt lat="35.967842273837626" lon="119.51075448436174">
        <ele>119.96</ele>
        <time>2020-06-04T13:40:14Z</time>
      </trkpt>
      <trkpt lat="35.967917945328374" lon="119.51072653628775">
        <ele>117.45</ele>
        <time>2020-06-04T13:40:20Z</time>
      </trkpt>
      <trkpt lat="35.967973092685504" lon="119.51075952217036">
        <ele>117.44</ele>
        <time>2020-06-04T13:40:23Z</time>
      </trkpt>
      <trkpt lat="35.96805149422583" lon="119.51073063415944">
        <ele>116.26</ele>
        <time>2020-06-04T13:40:26Z</time>
      </trkpt>
      <trkpt lat="35.9683371444359" lon="119.51070260341008">
        <ele>114.44</ele>
        <time>2020-06-04T13:40:35Z</time>
      </trkpt>
      <trkpt lat="35.96838129277219" lon="119.51072258078244">
        <ele>114.23</ele>
        <time>2020-06-04T13:40:38Z</time>
      </trkpt>
      <trkpt lat="35.96858269043282" lon="119.51073844657073">
        <ele>113.11</ele>
        <time>2020-06-04T13:40:44Z</time>
      </trkpt>
      <trkpt lat="35.968780863599115" lon="119.51067568052407">
        <ele>115.61</ele>
        <time>2020-06-04T13:40:50Z</time>
      </trkpt>
      <trkpt lat="35.96905633196616" lon="119.51067494708279">
        <ele>113.39</ele>
        <time>2020-06-04T13:40:59Z</time>
      </trkpt>
      <trkpt lat="35.969328532495396" lon="119.51064340685713">
        <ele>112.47</ele>
        <time>2020-06-04T13:41:11Z</time>
      </trkpt>
      <trkpt lat="35.969690633898715" lon="119.51059125759504">
        <ele>110.76</ele>
        <time>2020-06-04T13:41:23Z</time>
      </trkpt>
      <trkpt lat="35.97000523429961" lon="119.51055765702434">
        <ele>113.81</ele>
        <time>2020-06-04T13:41:35Z</time>
      </trkpt>
      <trkpt lat="35.970282062037164" lon="119.51056590264352">
        <ele>113.21</ele>
        <time>2020-06-04T13:41:47Z</time>
      </trkpt>
      <trkpt lat="35.970592631134295" lon="119.510551490154">
        <ele>116.2</ele>
        <time>2020-06-04T13:42:02Z</time>
      </trkpt>
      <trkpt lat="35.970696282907824" lon="119.51051660240141">
        <ele>113.58</ele>
        <time>2020-06-04T13:42:11Z</time>
      </trkpt>
      <trkpt lat="35.97089181297637" lon="119.51049825177964">
        <ele>113.01</ele>
        <time>2020-06-04T13:42:23Z</time>
      </trkpt>
      <trkpt lat="35.97104611978654" lon="119.51053084647518">
        <ele>112.83</ele>
        <time>2020-06-04T13:42:29Z</time>
      </trkpt>
      <trkpt lat="35.97137383172297" lon="119.51047362813608">
        <ele>115.3</ele>
        <time>2020-06-04T13:42:41Z</time>
      </trkpt>
      <trkpt lat="35.97145014076762" lon="119.51048073643565">
        <ele>114.75</ele>
        <time>2020-06-04T13:42:44Z</time>
      </trkpt>
      <trkpt lat="35.97150665210416" lon="119.51045625821085">
        <ele>112.05</ele>
        <time>2020-06-04T13:42:47Z</time>
      </trkpt>
      <trkpt lat="35.97167791298739" lon="119.51042811888942">
        <ele>111.8</ele>
        <time>2020-06-04T13:42:53Z</time>
      </trkpt>
      <trkpt lat="35.971742571660954" lon="119.51044169668053">
        <ele>111.56</ele>
        <time>2020-06-04T13:42:56Z</time>
      </trkpt>
      <trkpt lat="35.97205621193819" lon="119.51040966593318">
        <ele>107.89</ele>
        <time>2020-06-04T13:43:11Z</time>
      </trkpt>
      <trkpt lat="35.97226819371685" lon="119.51036468779326">
        <ele>106.17</ele>
        <time>2020-06-04T13:43:20Z</time>
      </trkpt>
      <trkpt lat="35.97264080960617" lon="119.51039150030883">
        <ele>107.94</ele>
        <time>2020-06-04T13:43:38Z</time>
      </trkpt>
      <trkpt lat="35.97292197027756" lon="119.51035650026816">
        <ele>110.95</ele>
        <time>2020-06-04T13:43:59Z</time>
      </trkpt>
      <trkpt lat="35.97305143980786" lon="119.51035177909203">
        <ele>111.87</ele>
        <time>2020-06-04T13:44:05Z</time>
      </trkpt>
      <trkpt lat="35.97334785130029" lon="119.51030325021723">
        <ele>108.73</ele>
        <time>2020-06-04T13:44:17Z</time>
      </trkpt>
      <trkpt lat="35.97364588139088" lon="119.51027508925311">
        <ele>107.39</ele>
        <time>2020-06-04T13:44:35Z</time>
      </trkpt>
      <trkpt lat="35.973906150065986" lon="119.51027115632272">
        <ele>107.75</ele>
        <time>2020-06-04T13:44:50Z</time>
      </trkpt>
      <trkpt lat="35.973993960809366" lon="119.51025227710511">
        <ele>107.42</ele>
        <time>2020-06-04T13:44:53Z</time>
      </trkpt>
      <trkpt lat="35.974280258213" lon="119.5102647421868">
        <ele>109.66</ele>
        <time>2020-06-04T13:45:08Z</time>
      </trkpt>
      <trkpt lat="35.97459322667466" lon="119.51025919874417">
        <ele>107.62</ele>
        <time>2020-06-04T13:45:29Z</time>
      </trkpt>
      <trkpt lat="35.974859479994116" lon="119.51018606270404">
        <ele>104.1</ele>
        <time>2020-06-04T13:45:41Z</time>
      </trkpt>
      <trkpt lat="35.975138159642675" lon="119.51016600115508">
        <ele>105.91</ele>
        <time>2020-06-04T13:45:56Z</time>
      </trkpt>
      <trkpt lat="35.97534784230592" lon="119.51010735435192">
        <ele>104.65</ele>
        <time>2020-06-04T13:46:11Z</time>
      </trkpt>
      <trkpt lat="35.97540499007186" lon="119.51013539081289">
        <ele>106.59</ele>
        <time>2020-06-04T13:46:17Z</time>
      </trkpt>
      <trkpt lat="35.97547028066294" lon="119.51012066145353">
        <ele>107.93</ele>
        <time>2020-06-04T13:46:23Z</time>
      </trkpt>
      <trkpt lat="35.97553183277279" lon="119.51008362437193">
        <ele>106.87</ele>
        <time>2020-06-04T13:46:29Z</time>
      </trkpt>
      <trkpt lat="35.975559187440034" lon="119.51001135123211">
        <ele>106.53</ele>
        <time>2020-06-04T13:46:35Z</time>
      </trkpt>
      <trkpt lat="35.97552483259521" lon="119.50963285897278">
        <ele>104.63</ele>
        <time>2020-06-04T13:46:56Z</time>
      </trkpt>
      <trkpt lat="35.975516554860114" lon="119.50928748244408">
        <ele>105.68</ele>
        <time>2020-06-04T13:47:08Z</time>
      </trkpt>
      <trkpt lat="35.97551528350649" lon="119.50915092547524">
        <ele>104.31</ele>
        <time>2020-06-04T13:47:14Z</time>
      </trkpt>
      <trkpt lat="35.9755358177926" lon="119.50908068186813">
        <ele>103.85</ele>
        <time>2020-06-04T13:47:20Z</time>
      </trkpt>
      <trkpt lat="35.975543041090816" lon="119.50870308709585">
        <ele>102.97</ele>
        <time>2020-06-04T13:47:41Z</time>
      </trkpt>
      <trkpt lat="35.97558022298631" lon="119.5083354402682">
        <ele>99.88</ele>
        <time>2020-06-04T13:48:02Z</time>
      </trkpt>
      <trkpt lat="35.975535974277804" lon="119.50797651297661">
        <ele>99.75</ele>
        <time>2020-06-04T13:48:23Z</time>
      </trkpt>
      <trkpt lat="35.97551960693481" lon="119.50758001787781">
        <ele>102.69</ele>
        <time>2020-06-04T13:48:47Z</time>
      </trkpt>
      <trkpt lat="35.97550098879373" lon="119.50718560177518">
        <ele>101.98</ele>
        <time>2020-06-04T13:49:11Z</time>
      </trkpt>
      <trkpt lat="35.975472943015305" lon="119.5069238140052">
        <ele>103.37</ele>
        <time>2020-06-04T13:49:26Z</time>
      </trkpt>
      <trkpt lat="35.975443667808996" lon="119.50683656158593">
        <ele>104.66</ele>
        <time>2020-06-04T13:49:32Z</time>
      </trkpt>
      <trkpt lat="35.97543994296579" lon="119.50673872966391">
        <ele>103.93</ele>
        <time>2020-06-04T13:49:38Z</time>
      </trkpt>
      <trkpt lat="35.975409997938236" lon="119.50664671755175">
        <ele>104.67</ele>
        <time>2020-06-04T13:49:44Z</time>
      </trkpt>
      <trkpt lat="35.97539313895459" lon="119.5062360806934">
        <ele>107.38</ele>
        <time>2020-06-04T13:50:08Z</time>
      </trkpt>
      <trkpt lat="35.9754025578614" lon="119.50605536476935">
        <ele>105.91</ele>
        <time>2020-06-04T13:50:20Z</time>
      </trkpt>
      <trkpt lat="35.97536537565708" lon="119.50569225322616">
        <ele>105.85</ele>
        <time>2020-06-04T13:50:44Z</time>
      </trkpt>
      <trkpt lat="35.97534629391847" lon="119.50551961651846">
        <ele>105.12</ele>
        <time>2020-06-04T13:50:56Z</time>
      </trkpt>
      <trkpt lat="35.97536380620365" lon="119.50525131624609">
        <ele>106.24</ele>
        <time>2020-06-04T13:51:14Z</time>
      </trkpt>
      <trkpt lat="35.97533846873007" lon="119.50497615661847">
        <ele>104.92</ele>
        <time>2020-06-04T13:51:32Z</time>
      </trkpt>
      <trkpt lat="35.975347252491794" lon="119.50488973271638">
        <ele>105.3</ele>
        <time>2020-06-04T13:51:38Z</time>
      </trkpt>
      <trkpt lat="35.975316798988295" lon="119.50451125981466">
        <ele>104.04</ele>
        <time>2020-06-04T13:52:02Z</time>
      </trkpt>
      <trkpt lat="35.97533275278027" lon="119.50441872601958">
        <ele>104.4</ele>
        <time>2020-06-04T13:52:08Z</time>
      </trkpt>
      <trkpt lat="35.97532508675081" lon="119.50432442260035">
        <ele>104.72</ele>
        <time>2020-06-04T13:52:14Z</time>
      </trkpt>
      <trkpt lat="35.97529613014668" lon="119.50424631830255">
        <ele>104.8</ele>
        <time>2020-06-04T13:52:20Z</time>
      </trkpt>
      <trkpt lat="35.9751908061636" lon="119.50411439857855">
        <ele>103.59</ele>
        <time>2020-06-04T13:52:32Z</time>
      </trkpt>
      <trkpt lat="35.9751165326628" lon="119.50396361961496">
        <ele>105.85</ele>
        <time>2020-06-04T13:52:44Z</time>
      </trkpt>
      <trkpt lat="35.97505821592578" lon="119.50389018522756">
        <ele>107.22</ele>
        <time>2020-06-04T13:52:50Z</time>
      </trkpt>
      <trkpt lat="35.974995188045334" lon="119.5038460589438">
        <ele>105.15</ele>
        <time>2020-06-04T13:52:56Z</time>
      </trkpt>
      <trkpt lat="35.97483432772459" lon="119.50387917881922">
        <ele>109.98</ele>
        <time>2020-06-04T13:53:08Z</time>
      </trkpt>
      <trkpt lat="35.97455172884659" lon="119.50389443142774">
        <ele>106.62</ele>
        <time>2020-06-04T13:53:32Z</time>
      </trkpt>
      <trkpt lat="35.97423239962123" lon="119.50392410354978">
        <ele>106.92</ele>
        <time>2020-06-04T13:53:56Z</time>
      </trkpt>
      <trkpt lat="35.973981310325875" lon="119.5039449553792">
        <ele>105.89</ele>
        <time>2020-06-04T13:54:14Z</time>
      </trkpt>
      <trkpt lat="35.973902251296984" lon="119.503932617209">
        <ele>104.77</ele>
        <time>2020-06-04T13:54:20Z</time>
      </trkpt>
      <trkpt lat="35.97381914107362" lon="119.50395102705058">
        <ele>102.21</ele>
        <time>2020-06-04T13:54:26Z</time>
      </trkpt>
      <trkpt lat="35.973743791823" lon="119.5039437184996">
        <ele>100.25</ele>
        <time>2020-06-04T13:54:32Z</time>
      </trkpt>
      <trkpt lat="35.97349690327282" lon="119.50399352716195">
        <ele>104.68</ele>
        <time>2020-06-04T13:54:50Z</time>
      </trkpt>
      <trkpt lat="35.97342335989525" lon="119.50402227546991">
        <ele>104.99</ele>
        <time>2020-06-04T13:54:56Z</time>
      </trkpt>
      <trkpt lat="35.97313837265423" lon="119.50401552146359">
        <ele>103.88</ele>
        <time>2020-06-04T13:55:20Z</time>
      </trkpt>
      <trkpt lat="35.97297347389283" lon="119.5040096839621">
        <ele>104.39</ele>
        <time>2020-06-04T13:55:32Z</time>
      </trkpt>
      <trkpt lat="35.97267656494178" lon="119.50402870648854">
        <ele>105.29</ele>
        <time>2020-06-04T13:55:53Z</time>
      </trkpt>
      <trkpt lat="35.97251798672069" lon="119.50400839987243">
        <ele>103.16</ele>
        <time>2020-06-04T13:56:05Z</time>
      </trkpt>
      <trkpt lat="35.97243647604739" lon="119.5040376389613">
        <ele>103.86</ele>
        <time>2020-06-04T13:56:11Z</time>
      </trkpt>
      <trkpt lat="35.972182347979675" lon="119.50402807285022">
        <ele>104.15</ele>
        <time>2020-06-04T13:56:29Z</time>
      </trkpt>
      <trkpt lat="35.97213964753774" lon="119.50404559222439">
        <ele>105.14</ele>
        <time>2020-06-04T13:56:32Z</time>
      </trkpt>
      <trkpt lat="35.9718219301839" lon="119.50402788747054">
        <ele>102.77</ele>
        <time>2020-06-04T13:56:56Z</time>
      </trkpt>
      <trkpt lat="35.97158188045615" lon="119.50405757855242">
        <ele>107.06</ele>
        <time>2020-06-04T13:57:14Z</time>
      </trkpt>
      <trkpt lat="35.97141490844247" lon="119.5041327156368">
        <ele>108.31</ele>
        <time>2020-06-04T13:57:26Z</time>
      </trkpt>
      <trkpt lat="35.97136289538056" lon="119.50421573068563">
        <ele>110.33</ele>
        <time>2020-06-04T13:57:32Z</time>
      </trkpt>
      <trkpt lat="35.97122523169826" lon="119.50432563495112">
        <ele>111.91</ele>
        <time>2020-06-04T13:57:44Z</time>
      </trkpt>
      <trkpt lat="35.97118435733118" lon="119.504436497846">
        <ele>109.67</ele>
        <time>2020-06-04T13:57:50Z</time>
      </trkpt>
      <trkpt lat="35.9712196292556" lon="119.50485347809509">
        <ele>112.84</ele>
        <time>2020-06-04T13:58:14Z</time>
      </trkpt>
      <trkpt lat="35.97118821758551" lon="119.5051207592083">
        <ele>110.7</ele>
        <time>2020-06-04T13:58:29Z</time>
      </trkpt>
      <trkpt lat="35.971228455064896" lon="119.50539001886314">
        <ele>112.94</ele>
        <time>2020-06-04T13:58:44Z</time>
      </trkpt>
      <trkpt lat="35.971201360713394" lon="119.50548733194373">
        <ele>114.8</ele>
        <time>2020-06-04T13:58:50Z</time>
      </trkpt>
      <trkpt lat="35.97122662303855" lon="119.50564736955822">
        <ele>111.79</ele>
        <time>2020-06-04T13:58:59Z</time>
      </trkpt>
      <trkpt lat="35.97121058090339" lon="119.50590261023231">
        <ele>111.8</ele>
        <time>2020-06-04T13:59:14Z</time>
      </trkpt>
      <trkpt lat="35.971239792482834" lon="119.50607123675877">
        <ele>114.53</ele>
        <time>2020-06-04T13:59:26Z</time>
      </trkpt>
      <trkpt lat="35.9712404250931" lon="119.50641869926369">
        <ele>113.51</ele>
        <time>2020-06-04T13:59:50Z</time>
      </trkpt>
      <trkpt lat="35.971273102826096" lon="119.5064593155897">
        <ele>113.84</ele>
        <time>2020-06-04T13:59:53Z</time>
      </trkpt>
      <trkpt lat="35.97121217087867" lon="119.50650470271871">
        <ele>110.39</ele>
        <time>2020-06-04T13:59:59Z</time>
      </trkpt>
      <trkpt lat="35.97118813234469" lon="119.50667300939351">
        <ele>114.76</ele>
        <time>2020-06-04T14:00:11Z</time>
      </trkpt>
      <trkpt lat="35.97116144797527" lon="119.5067599226339">
        <ele>113.26</ele>
        <time>2020-06-04T14:00:17Z</time>
      </trkpt>
      <trkpt lat="35.97104138245986" lon="119.5068786943978">
        <ele>117.73</ele>
        <time>2020-06-04T14:00:29Z</time>
      </trkpt>
      <trkpt lat="35.97099333850301" lon="119.50695880837773">
        <ele>115.29</ele>
        <time>2020-06-04T14:00:35Z</time>
      </trkpt>
      <trkpt lat="35.97103017465666" lon="119.5070266522617">
        <ele>113.85</ele>
        <time>2020-06-04T14:01:38Z</time>
      </trkpt>
      <trkpt lat="35.97103080585183" lon="119.50718994856227">
        <ele>112.61</ele>
        <time>2020-06-04T14:01:50Z</time>
      </trkpt>
      <trkpt lat="35.97105531090673" lon="119.50727801080518">
        <ele>113.25</ele>
        <time>2020-06-04T14:01:56Z</time>
      </trkpt>
      <trkpt lat="35.97125894001027" lon="119.5072716687408">
        <ele>113.73</ele>
        <time>2020-06-04T14:02:20Z</time>
      </trkpt>
      <trkpt lat="35.9713236437974" lon="119.50755790343574">
        <ele>111.35</ele>
        <time>2020-06-04T14:02:44Z</time>
      </trkpt>
      <trkpt lat="35.971329994690215" lon="119.50771909937265">
        <ele>113.1</ele>
        <time>2020-06-04T14:02:56Z</time>
      </trkpt>
      <trkpt lat="35.97140007081504" lon="119.50795444780918">
        <ele>110.97</ele>
        <time>2020-06-04T14:03:14Z</time>
      </trkpt>
      <trkpt lat="35.97135157915175" lon="119.50798838542359">
        <ele>113.09</ele>
        <time>2020-06-04T14:03:20Z</time>
      </trkpt>
      <trkpt lat="35.97132297625881" lon="119.50804134108722">
        <ele>111.33</ele>
        <time>2020-06-04T14:03:26Z</time>
      </trkpt>
      <trkpt lat="35.97132017143577" lon="119.50812446371202">
        <ele>111.86</ele>
        <time>2020-06-04T14:03:32Z</time>
      </trkpt>
      <trkpt lat="35.97137292558896" lon="119.50821870459023">
        <ele>111.47</ele>
        <time>2020-06-04T14:03:38Z</time>
      </trkpt>
      <trkpt lat="35.97138221293723" lon="119.5084310952561">
        <ele>108.58</ele>
        <time>2020-06-04T14:03:50Z</time>
      </trkpt>
      <trkpt lat="35.97136146008816" lon="119.50848079098986">
        <ele>108.65</ele>
        <time>2020-06-04T14:03:53Z</time>
      </trkpt>
      <trkpt lat="35.97137271010184" lon="119.50864511576718">
        <ele>109.45</ele>
        <time>2020-06-04T14:04:02Z</time>
      </trkpt>
      <trkpt lat="35.9713580043229" lon="119.50874143704839">
        <ele>108.8</ele>
        <time>2020-06-04T14:04:08Z</time>
      </trkpt>
      <trkpt lat="35.97136843834885" lon="119.50883776795725">
        <ele>108.47</ele>
        <time>2020-06-04T14:04:14Z</time>
      </trkpt>
      <trkpt lat="35.971346522266145" lon="119.50893837882789">
        <ele>106.36</ele>
        <time>2020-06-04T14:04:20Z</time>
      </trkpt>
      <trkpt lat="35.97136558672802" lon="119.50902554038852">
        <ele>107.13</ele>
        <time>2020-06-04T14:04:26Z</time>
      </trkpt>
      <trkpt lat="35.97136426535655" lon="119.50920676323373">
        <ele>106.12</ele>
        <time>2020-06-04T14:04:38Z</time>
      </trkpt>
      <trkpt lat="35.97134653874373" lon="119.509312733337">
        <ele>105.91</ele>
        <time>2020-06-04T14:04:44Z</time>
      </trkpt>
      <trkpt lat="35.97139344664955" lon="119.50949704498642">
        <ele>105.48</ele>
        <time>2020-06-04T14:04:56Z</time>
      </trkpt>
      <trkpt lat="35.97139112259657" lon="119.50955999891104">
        <ele>106.9</ele>
        <time>2020-06-04T14:04:59Z</time>
      </trkpt>
      <trkpt lat="35.97143972841214" lon="119.50992445252781">
        <ele>110.78</ele>
        <time>2020-06-04T14:05:23Z</time>
      </trkpt>
      <trkpt lat="35.9714361229947" lon="119.51000622445197">
        <ele>108.13</ele>
        <time>2020-06-04T14:05:29Z</time>
      </trkpt>
      <trkpt lat="35.971483702405635" lon="119.51030757360365">
        <ele>106.6</ele>
        <time>2020-06-04T14:05:47Z</time>
      </trkpt>
      <trkpt lat="35.971613312279054" lon="119.51044420807622">
        <ele>109.22</ele>
        <time>2020-06-04T14:05:59Z</time>
      </trkpt>
      <trkpt lat="35.97185193969504" lon="119.51046059335702">
        <ele>111.01</ele>
        <time>2020-06-04T14:06:17Z</time>
      </trkpt>
      <trkpt lat="35.97203203192446" lon="119.51041202600213">
        <ele>111.33</ele>
        <time>2020-06-04T14:06:32Z</time>
      </trkpt>
      <trkpt lat="35.97208849056274" lon="119.51042686377086">
        <ele>110.59</ele>
        <time>2020-06-04T14:06:41Z</time>
      </trkpt>
      <trkpt lat="35.97214546096799" lon="119.51041586416223">
        <ele>109.78</ele>
        <time>2020-06-04T14:06:47Z</time>
      </trkpt>
      <trkpt lat="35.97247290100068" lon="119.51038612300107">
        <ele>111.03</ele>
        <time>2020-06-04T14:07:29Z</time>
      </trkpt>
      <trkpt lat="35.97281027002068" lon="119.51037027029884">
        <ele>109.31</ele>
        <time>2020-06-04T14:07:59Z</time>
      </trkpt>
      <trkpt lat="35.97287253826442" lon="119.51039039745913">
        <ele>110.32</ele>
        <time>2020-06-04T14:08:05Z</time>
      </trkpt>
      <trkpt lat="35.97309793026677" lon="119.51034087960258">
        <ele>111.63</ele>
        <time>2020-06-04T14:08:23Z</time>
      </trkpt>
      <trkpt lat="35.97314677182453" lon="119.51031362173845">
        <ele>109.32</ele>
        <time>2020-06-04T14:08:29Z</time>
      </trkpt>
      <trkpt lat="35.97346993985516" lon="119.51031351761786">
        <ele>108.39</ele>
        <time>2020-06-04T14:08:59Z</time>
      </trkpt>
      <trkpt lat="35.97362977998349" lon="119.51029725721908">
        <ele>108.75</ele>
        <time>2020-06-04T14:09:11Z</time>
      </trkpt>
      <trkpt lat="35.97369718125974" lon="119.51027239886893">
        <ele>108.23</ele>
        <time>2020-06-04T14:09:17Z</time>
      </trkpt>
      <trkpt lat="35.97402790041067" lon="119.5102550963868">
        <ele>109.01</ele>
        <time>2020-06-04T14:09:47Z</time>
      </trkpt>
      <trkpt lat="35.97432227026725" lon="119.51023063508879">
        <ele>110.89</ele>
        <time>2020-06-04T14:10:17Z</time>
      </trkpt>
      <trkpt lat="35.974640100181105" lon="119.51020316379005">
        <ele>107.56</ele>
        <time>2020-06-04T14:10:47Z</time>
      </trkpt>
      <trkpt lat="35.97497455883329" lon="119.51019283055196">
        <ele>105.83</ele>
        <time>2020-06-04T14:11:17Z</time>
      </trkpt>
      <trkpt lat="35.975297109974626" lon="119.51014664106476">
        <ele>107.87</ele>
        <time>2020-06-04T14:11:47Z</time>
      </trkpt>
      <trkpt lat="35.975428151237786" lon="119.51011594246498">
        <ele>104.51</ele>
        <time>2020-06-04T14:11:59Z</time>
      </trkpt>
      <trkpt lat="35.9754842530591" lon="119.51008369497349">
        <ele>106.24</ele>
        <time>2020-06-04T14:12:05Z</time>
      </trkpt>
      <trkpt lat="35.97552660733564" lon="119.51001590119577">
        <ele>105.36</ele>
        <time>2020-06-04T14:12:11Z</time>
      </trkpt>
      <trkpt lat="35.975549342854386" lon="119.50993090935012">
        <ele>104.81</ele>
        <time>2020-06-04T14:12:17Z</time>
      </trkpt>
      <trkpt lat="35.97552809909787" lon="119.50953228871296">
        <ele>106.03</ele>
        <time>2020-06-04T14:12:47Z</time>
      </trkpt>
      <trkpt lat="35.97552133383141" lon="119.50914517594363">
        <ele>105.01</ele>
        <time>2020-06-04T14:13:17Z</time>
      </trkpt>
      <trkpt lat="35.97550099455734" lon="119.50881398734009">
        <ele>107.11</ele>
        <time>2020-06-04T14:13:41Z</time>
      </trkpt>
      <trkpt lat="35.975484319350606" lon="119.50873746466327">
        <ele>109.27</ele>
        <time>2020-06-04T14:13:47Z</time>
      </trkpt>
      <trkpt lat="35.975492330286365" lon="119.50855661123822">
        <ele>108.0</ele>
        <time>2020-06-04T14:13:59Z</time>
      </trkpt>
      <trkpt lat="35.97539250264397" lon="119.5083605103984">
        <ele>105.41</ele>
        <time>2020-06-04T14:14:17Z</time>
      </trkpt>
      <trkpt lat="35.97536382167408" lon="119.50821078427894">
        <ele>105.2</ele>
        <time>2020-06-04T14:14:29Z</time>
      </trkpt>
      <trkpt lat="35.97535275143925" lon="119.50787150459172">
        <ele>103.4</ele>
        <time>2020-06-04T14:14:53Z</time>
      </trkpt>
      <trkpt lat="35.97535297174038" lon="119.5076904504332">
        <ele>106.04</ele>
        <time>2020-06-04T14:15:05Z</time>
      </trkpt>
      <trkpt lat="35.97532771607439" lon="119.50761625719743">
        <ele>106.14</ele>
        <time>2020-06-04T14:15:11Z</time>
      </trkpt>
      <trkpt lat="35.97525714543582" lon="119.50763528645102">
        <ele>105.51</ele>
        <time>2020-06-04T14:15:17Z</time>
      </trkpt>
      <trkpt lat="35.97519758339652" lon="119.50767793350975">
        <ele>104.0</ele>
        <time>2020-06-04T14:15:23Z</time>
      </trkpt>
      <trkpt lat="35.975155619450554" lon="119.50775216757687">
        <ele>102.47</ele>
        <time>2020-06-04T14:15:29Z</time>
      </trkpt>
      <trkpt lat="35.97513003444487" lon="119.50801649462376">
        <ele>101.48</ele>
        <time>2020-06-04T14:15:47Z</time>
      </trkpt>
      <trkpt lat="35.9751376338742" lon="119.50819686842209">
        <ele>103.56</ele>
        <time>2020-06-04T14:15:59Z</time>
      </trkpt>
      <trkpt lat="35.97517775705842" lon="119.50813836315179">
        <ele>106.2</ele>
        <time>2020-06-04T14:16:05Z</time>
      </trkpt>
      <trkpt lat="35.97513270189809" lon="119.50806009071341">
        <ele>104.92</ele>
        <time>2020-06-04T14:16:11Z</time>
      </trkpt>
      <trkpt lat="35.97501764610369" lon="119.50799970755116">
        <ele>103.53</ele>
        <time>2020-06-04T14:16:20Z</time>
      </trkpt>
      <trkpt lat="35.97480255609544" lon="119.50802253827577">
        <ele>110.54</ele>
        <time>2020-06-04T14:16:44Z</time>
      </trkpt>
      <trkpt lat="35.97462361906206" lon="119.50799018343548">
        <ele>107.39</ele>
        <time>2020-06-04T14:17:02Z</time>
      </trkpt>
      <trkpt lat="35.97456894138027" lon="119.50795582717728">
        <ele>105.92</ele>
        <time>2020-06-04T14:17:08Z</time>
      </trkpt>
      <trkpt lat="35.97453566550007" lon="119.5078877436132">
        <ele>105.23</ele>
        <time>2020-06-04T14:17:14Z</time>
      </trkpt>
      <trkpt lat="35.974483118425596" lon="119.50784226828569">
        <ele>104.89</ele>
        <time>2020-06-04T14:17:20Z</time>
      </trkpt>
      <trkpt lat="35.974483118425596" lon="119.50784226828569">
        <ele>104.89</ele>
        <time>2020-06-04T14:17:32Z</time>
      </trkpt>
    </trkseg>
  </trk>
</gpx>