<?xml version="1.0" encoding="UTF-8"?>
<gpx xmlns="http://www.topografix.com/GPX/1/1" xmlns:gpxtpx="http://www.garmin.com/xmlschemas/TrackPointExtension/v1" xmlns:xsi="http://www.w3.org/2001/XMLSchema-instance" xsi:schemaLocation="http://www.topografix.com/GPX/1/1 http://www.topografix.com/GPX/1/1/gpx.xsd" version="1.1" creator="gpx.py -- https://github.com/tkrajina/gpxpy">
  <trk>
    <name>gpx from keep</name>
    <type>Run</type>
    <trkseg>
      <trkpt lat="36.03011258020044" lon="119.40166618901588">
        <ele>69.3095703125</ele>
        <time>2023-05-19T12:04:09Z</time>
      </trkpt>
      <trkpt lat="36.03006451459164" lon="119.40131098710683">
        <ele>60.22857666015625</ele>
        <time>2023-05-19T12:04:24Z</time>
      </trkpt>
      <trkpt lat="36.03001748987524" lon="119.40113689337976">
        <ele>61.63104248046875</ele>
        <time>2023-05-19T12:04:30Z</time>
      </trkpt>
      <trkpt lat="36.02993147488317" lon="119.4009598040796">
        <ele>63.08917236328125</ele>
        <time>2023-05-19T12:04:39Z</time>
      </trkpt>
      <trkpt lat="36.02984747534648" lon="119.40086075893453">
        <ele>60.20635986328125</ele>
        <time>2023-05-19T12:04:45Z</time>
      </trkpt>
      <trkpt lat="36.02978346580987" lon="119.40072969475261">
        <ele>60.28387451171875</ele>
        <time>2023-05-19T12:04:51Z</time>
      </trkpt>
      <trkpt lat="36.02969346618471" lon="119.40061664407453">
        <ele>62.11572265625</ele>
        <time>2023-05-19T12:04:57Z</time>
      </trkpt>
      <trkpt lat="36.029462487401176" lon="119.40043257257882">
        <ele>60.1605224609375</ele>
        <time>2023-05-19T12:05:12Z</time>
      </trkpt>
      <trkpt lat="36.02940649420979" lon="119.40039656002706">
        <ele>61.76666259765625</ele>
        <time>2023-05-19T12:05:15Z</time>
      </trkpt>
      <trkpt lat="36.02910455888434" lon="119.40036857933637">
        <ele>61.89776611328125</ele>
        <time>2023-05-19T12:05:33Z</time>
      </trkpt>
      <trkpt lat="36.02889060736233" lon="119.40036460128414">
        <ele>59.50494384765625</ele>
        <time>2023-05-19T12:05:48Z</time>
      </trkpt>
      <trkpt lat="36.0287386479319" lon="119.40039863608237">
        <ele>56.82867431640625</ele>
        <time>2023-05-19T12:06:00Z</time>
      </trkpt>
      <trkpt lat="36.028660663842444" lon="119.40038663857584">
        <ele>57.09564208984375</ele>
        <time>2023-05-19T12:06:06Z</time>
      </trkpt>
      <trkpt lat="36.02836476221855" lon="119.40056476557848">
        <ele>56.884765625</ele>
        <time>2023-05-19T12:06:21Z</time>
      </trkpt>
      <trkpt lat="36.02823181351328" lon="119.40068184311777">
        <ele>57.74114990234375</ele>
        <time>2023-05-19T12:06:30Z</time>
      </trkpt>
      <trkpt lat="36.02799786763639" lon="119.4006838704694">
        <ele>61.142822265625</ele>
        <time>2023-05-19T12:06:42Z</time>
      </trkpt>
      <trkpt lat="36.02787090314491" lon="119.40071890361145">
        <ele>61.0523681640625</ele>
        <time>2023-05-19T12:06:48Z</time>
      </trkpt>
      <trkpt lat="36.02779691743211" lon="119.40070390381973">
        <ele>63.0914306640625</ele>
        <time>2023-05-19T12:06:51Z</time>
      </trkpt>
      <trkpt lat="36.027660915818096" lon="119.40051781969582">
        <ele>64.32733154296875</ele>
        <time>2023-05-19T12:07:00Z</time>
      </trkpt>
      <trkpt lat="36.027431933519466" lon="119.40030973656843">
        <ele>63.8936767578125</ele>
        <time>2023-05-19T12:07:12Z</time>
      </trkpt>
      <trkpt lat="36.0273139415243" lon="119.40019068864518">
        <ele>62.53546142578125</ele>
        <time>2023-05-19T12:07:18Z</time>
      </trkpt>
      <trkpt lat="36.02715294633255" lon="119.39998060071677">
        <ele>63.2791748046875</ele>
        <time>2023-05-19T12:07:27Z</time>
      </trkpt>
      <trkpt lat="36.02693300199399" lon="119.40001464241367">
        <ele>65.32830810546875</ele>
        <time>2023-05-19T12:07:36Z</time>
      </trkpt>
      <trkpt lat="36.02684601945147" lon="119.39999764367697">
        <ele>64.9906005859375</ele>
        <time>2023-05-19T12:07:42Z</time>
      </trkpt>
      <trkpt lat="36.026637043460546" lon="119.39983258543768">
        <ele>62.40716552734375</ele>
        <time>2023-05-19T12:07:54Z</time>
      </trkpt>
      <trkpt lat="36.026448081138994" lon="119.39979158659395">
        <ele>60.4072265625</ele>
        <time>2023-05-19T12:08:03Z</time>
      </trkpt>
      <trkpt lat="36.026317112815995" lon="119.39980260667691">
        <ele>58.839599609375</ele>
        <time>2023-05-19T12:08:09Z</time>
      </trkpt>
      <trkpt lat="36.02618313005784" lon="119.39970457408474">
        <ele>58.2099609375</ele>
        <time>2023-05-19T12:08:18Z</time>
      </trkpt>
      <trkpt lat="36.02613613236377" lon="119.39964154902286">
        <ele>58.114990234375</ele>
        <time>2023-05-19T12:08:21Z</time>
      </trkpt>
      <trkpt lat="36.02601716295994" lon="119.39966557391575">
        <ele>58.8382568359375</ele>
        <time>2023-05-19T12:08:27Z</time>
      </trkpt>
      <trkpt lat="36.025912177798396" lon="119.3995955521625">
        <ele>59.447265625</ele>
        <time>2023-05-19T12:08:33Z</time>
      </trkpt>
      <trkpt lat="36.0258151859121" lon="119.39948551090032">
        <ele>60.1171875</ele>
        <time>2023-05-19T12:08:39Z</time>
      </trkpt>
      <trkpt lat="36.025644214774815" lon="119.39940149073207">
        <ele>59.89898681640625</ele>
        <time>2023-05-19T12:08:48Z</time>
      </trkpt>
      <trkpt lat="36.025446238466984" lon="119.39921742811379">
        <ele>62.3748779296875</ele>
        <time>2023-05-19T12:09:03Z</time>
      </trkpt>
      <trkpt lat="36.025168283900676" lon="119.39905038396324">
        <ele>62.68682861328125</ele>
        <time>2023-05-19T12:09:18Z</time>
      </trkpt>
      <trkpt lat="36.02503530032106" lon="119.39891433867834">
        <ele>60.91973876953125</ele>
        <time>2023-05-19T12:09:27Z</time>
      </trkpt>
      <trkpt lat="36.024766355266145" lon="119.39884433829141">
        <ele>60.69635009765625</ele>
        <time>2023-05-19T12:09:42Z</time>
      </trkpt>
      <trkpt lat="36.02464538361993" lon="119.39884935405303">
        <ele>60.95843505859375</ele>
        <time>2023-05-19T12:09:48Z</time>
      </trkpt>
      <trkpt lat="36.024481426467574" lon="119.39890039474072">
        <ele>57.16278076171875</ele>
        <time>2023-05-19T12:09:57Z</time>
      </trkpt>
      <trkpt lat="36.024413440221885" lon="119.39888139406034">
        <ele>54.86114501953125</ele>
        <time>2023-05-19T12:10:03Z</time>
      </trkpt>
      <trkpt lat="36.02436145704497" lon="119.39892942094468">
        <ele>53.75042724609375</ele>
        <time>2023-05-19T12:10:09Z</time>
      </trkpt>
      <trkpt lat="36.0243844658187" lon="119.39906347779973">
        <ele>54.930908203125</ele>
        <time>2023-05-19T12:10:21Z</time>
      </trkpt>
      <trkpt lat="36.024375508893456" lon="119.39941764068034">
        <ele>57.7667236328125</ele>
        <time>2023-05-19T12:10:42Z</time>
      </trkpt>
      <trkpt lat="36.02431352602958" lon="119.39944065840186">
        <ele>59.11297607421875</ele>
        <time>2023-05-19T12:10:45Z</time>
      </trkpt>
      <trkpt lat="36.02413556802889" lon="119.39944868213634">
        <ele>59.1365966796875</ele>
        <time>2023-05-19T12:10:54Z</time>
      </trkpt>
      <trkpt lat="36.02388961887199" lon="119.39940168777723">
        <ele>59.946044921875</ele>
        <time>2023-05-19T12:11:06Z</time>
      </trkpt>
      <trkpt lat="36.02369565387556" lon="119.39932167243379">
        <ele>62.21881103515625</ele>
        <time>2023-05-19T12:11:15Z</time>
      </trkpt>
      <trkpt lat="36.023640670755796" lon="119.39935669480631">
        <ele>64.42486572265625</ele>
        <time>2023-05-19T12:11:21Z</time>
      </trkpt>
      <trkpt lat="36.02360468490908" lon="119.39940472117382">
        <ele>62.0899658203125</ele>
        <time>2023-05-19T12:11:27Z</time>
      </trkpt>
      <trkpt lat="36.02363068928792" lon="119.39948775716515">
        <ele>61.97381591796875</ele>
        <time>2023-05-19T12:11:33Z</time>
      </trkpt>
      <trkpt lat="36.02381068034465" lon="119.39973385455603">
        <ele>61.99383544921875</ele>
        <time>2023-05-19T12:11:45Z</time>
      </trkpt>
      <trkpt lat="36.02403166509541" lon="119.39998295224454">
        <ele>62.67401123046875</ele>
        <time>2023-05-19T12:11:57Z</time>
      </trkpt>
      <trkpt lat="36.02419265629147" lon="119.40016802744306">
        <ele>61.08758544921875</ele>
        <time>2023-05-19T12:12:06Z</time>
      </trkpt>
      <trkpt lat="36.02433363683781" lon="119.4002500535726">
        <ele>59.79583740234375</ele>
        <time>2023-05-19T12:12:12Z</time>
      </trkpt>
      <trkpt lat="36.024399621797535" lon="119.4002510466768">
        <ele>61.41632080078125</ele>
        <time>2023-05-19T12:12:15Z</time>
      </trkpt>
      <trkpt lat="36.024675598255875" lon="119.40049214121737">
        <ele>63.30462646484375</ele>
        <time>2023-05-19T12:12:27Z</time>
      </trkpt>
      <trkpt lat="36.024972552887476" lon="119.40062417801433">
        <ele>67.92510986328125</ele>
        <time>2023-05-19T12:12:42Z</time>
      </trkpt>
      <trkpt lat="36.02518051410418" lon="119.40067518202518">
        <ele>66.4024658203125</ele>
        <time>2023-05-19T12:12:57Z</time>
      </trkpt>
      <trkpt lat="36.02523150922025" lon="119.40071319678307">
        <ele>67.207763671875</ele>
        <time>2023-05-19T12:13:00Z</time>
      </trkpt>
      <trkpt lat="36.02541147525863" lon="119.40075419876636">
        <ele>67.509765625</ele>
        <time>2023-05-19T12:13:09Z</time>
      </trkpt>
      <trkpt lat="36.025718401137134" lon="119.4007351540025">
        <ele>64.399658203125</ele>
        <time>2023-05-19T12:13:30Z</time>
      </trkpt>
      <trkpt lat="36.02599533449235" lon="119.40071911424788">
        <ele>63.598388671875</ele>
        <time>2023-05-19T12:13:45Z</time>
      </trkpt>
      <trkpt lat="36.026103308920106" lon="119.40071509996073">
        <ele>64.19622802734375</ele>
        <time>2023-05-19T12:13:51Z</time>
      </trkpt>
      <trkpt lat="36.02617128731673" lon="119.40068207452892">
        <ele>64.8016357421875</ele>
        <time>2023-05-19T12:13:57Z</time>
      </trkpt>
      <trkpt lat="36.0262382756915" lon="119.4007030783247">
        <ele>65.58538818359375</ele>
        <time>2023-05-19T12:14:03Z</time>
      </trkpt>
      <trkpt lat="36.02652420003123" lon="119.40064801662292">
        <ele>62.42291259765625</ele>
        <time>2023-05-19T12:14:21Z</time>
      </trkpt>
      <trkpt lat="36.02657518723261" lon="119.40064200767898">
        <ele>62.0919189453125</ele>
        <time>2023-05-19T12:14:24Z</time>
      </trkpt>
      <trkpt lat="36.02669416612643" lon="119.40067701311663">
        <ele>63.548583984375</ele>
        <time>2023-05-19T12:14:30Z</time>
      </trkpt>
      <trkpt lat="36.026970108433694" lon="119.40070899937551">
        <ele>63.90045166015625</ele>
        <time>2023-05-19T12:14:45Z</time>
      </trkpt>
      <trkpt lat="36.02707808487148" lon="119.40071599102998">
        <ele>62.683349609375</ele>
        <time>2023-05-19T12:14:51Z</time>
      </trkpt>
      <trkpt lat="36.027368053852705" lon="119.40090806324592">
        <ele>67.44317626953125</ele>
        <time>2023-05-19T12:15:06Z</time>
      </trkpt>
      <trkpt lat="36.02765502418684" lon="119.40109513507048">
        <ele>66.04718017578125</ele>
        <time>2023-05-19T12:15:21Z</time>
      </trkpt>
      <trkpt lat="36.02788101031606" lon="119.4012832162914">
        <ele>63.329833984375</ele>
        <time>2023-05-19T12:15:37Z</time>
      </trkpt>
      <trkpt lat="36.02787401068537" lon="119.4012772136445">
        <ele>64.19195556640625</ele>
        <time>2023-05-19T12:15:40Z</time>
      </trkpt>
      <trkpt lat="36.02802196743466" lon="119.40123217134528">
        <ele>63.7349853515625</ele>
        <time>2023-05-19T12:17:25Z</time>
      </trkpt>
      <trkpt lat="36.027974988716274" lon="119.401283205737">
        <ele>66.79248046875</ele>
        <time>2023-05-19T12:17:28Z</time>
      </trkpt>
      <trkpt lat="36.02798701469172" lon="119.40142028332683">
        <ele>66.721923828125</ele>
        <time>2023-05-19T12:17:34Z</time>
      </trkpt>
      <trkpt lat="36.027961083574304" lon="119.40170745505009">
        <ele>66.46331787109375</ele>
        <time>2023-05-19T12:17:46Z</time>
      </trkpt>
      <trkpt lat="36.02802015195628" lon="119.40205866120569">
        <ele>66.68023681640625</ele>
        <time>2023-05-19T12:18:01Z</time>
      </trkpt>
      <trkpt lat="36.02809019381006" lon="119.40229379970333">
        <ele>68.06494140625</ele>
        <time>2023-05-19T12:18:10Z</time>
      </trkpt>
      <trkpt lat="36.028228224086824" lon="119.402534937552">
        <ele>67.790283203125</ele>
        <time>2023-05-19T12:18:22Z</time>
      </trkpt>
      <trkpt lat="36.02827622836435" lon="119.4025929695582">
        <ele>68.15228271484375</ele>
        <time>2023-05-19T12:18:25Z</time>
      </trkpt>
      <trkpt lat="36.028327225423226" lon="119.40262598519402">
        <ele>68.8890380859375</ele>
        <time>2023-05-19T12:18:28Z</time>
      </trkpt>
      <trkpt lat="36.02842924030804" lon="119.40276806636687">
        <ele>68.87725830078125</ele>
        <time>2023-05-19T12:18:34Z</time>
      </trkpt>
      <trkpt lat="36.02867424263495" lon="119.40297917860438">
        <ele>67.01385498046875</ele>
        <time>2023-05-19T12:18:49Z</time>
      </trkpt>
      <trkpt lat="36.02872724151226" lon="119.40301819875998">
        <ele>65.484619140625</ele>
        <time>2023-05-19T12:18:55Z</time>
      </trkpt>
      <trkpt lat="36.028757255776476" lon="119.4030922451636">
        <ele>65.94451904296875</ele>
        <time>2023-05-19T12:19:01Z</time>
      </trkpt>
      <trkpt lat="36.02875436531073" lon="119.40346049762924">
        <ele>66.8321533203125</ele>
        <time>2023-05-19T12:19:19Z</time>
      </trkpt>
      <trkpt lat="36.028737473580335" lon="119.40379573574253">
        <ele>66.32122802734375</ele>
        <time>2023-05-19T12:19:31Z</time>
      </trkpt>
      <trkpt lat="36.02869952936799" lon="119.40394184494613">
        <ele>65.69366455078125</ele>
        <time>2023-05-19T12:19:37Z</time>
      </trkpt>
      <trkpt lat="36.02847764103122" lon="119.40412600384384">
        <ele>66.53411865234375</ele>
        <time>2023-05-19T12:19:52Z</time>
      </trkpt>
      <trkpt lat="36.02826873656498" lon="119.40426713127437">
        <ele>64.0030517578125</ele>
        <time>2023-05-19T12:20:04Z</time>
      </trkpt>
      <trkpt lat="36.02804588375824" lon="119.40454436384817">
        <ele>61.4210205078125</ele>
        <time>2023-05-19T12:20:19Z</time>
      </trkpt>
      <trkpt lat="36.027913988410496" lon="119.40475253737694">
        <ele>62.987060546875</ele>
        <time>2023-05-19T12:20:28Z</time>
      </trkpt>
      <trkpt lat="36.02780009682035" lon="119.40497672384605">
        <ele>61.97576904296875</ele>
        <time>2023-05-19T12:20:37Z</time>
      </trkpt>
      <trkpt lat="36.027700241935" lon="119.40529898972798">
        <ele>60.84466552734375</ele>
        <time>2023-05-19T12:20:49Z</time>
      </trkpt>
      <trkpt lat="36.02766831013634" lon="119.40545511881675">
        <ele>60.97003173828125</ele>
        <time>2023-05-19T12:20:55Z</time>
      </trkpt>
      <trkpt lat="36.0276203739087" lon="119.40558823229313">
        <ele>63.5712890625</ele>
        <time>2023-05-19T12:21:07Z</time>
      </trkpt>
      <trkpt lat="36.027604419381255" lon="119.40569231931134">
        <ele>62.15338134765625</ele>
        <time>2023-05-19T12:21:13Z</time>
      </trkpt>
      <trkpt lat="36.027561441005545" lon="119.40572134801162">
        <ele>62.91204833984375</ele>
        <time>2023-05-19T12:21:16Z</time>
      </trkpt>
      <trkpt lat="36.027407444909116" lon="119.40564330119412">
        <ele>60.084716796875</ele>
        <time>2023-05-19T12:21:25Z</time>
      </trkpt>
      <trkpt lat="36.02731142064607" lon="119.40552721727772">
        <ele>63.02532958984375</ele>
        <time>2023-05-19T12:21:31Z</time>
      </trkpt>
      <trkpt lat="36.02719836894005" lon="119.40532907010285">
        <ele>65.9971923828125</ele>
        <time>2023-05-19T12:21:40Z</time>
      </trkpt>
      <trkpt lat="36.0271563235879" lon="119.40518596075218">
        <ele>62.1212158203125</ele>
        <time>2023-05-19T12:21:49Z</time>
      </trkpt>
      <trkpt lat="36.027143249323295" lon="119.40498080072231">
        <ele>61.35894775390625</ele>
        <time>2023-05-19T12:21:58Z</time>
      </trkpt>
      <trkpt lat="36.027164214860306" lon="119.40490073599379">
        <ele>61.76019287109375</ele>
        <time>2023-05-19T12:22:01Z</time>
      </trkpt>
      <trkpt lat="36.02706008930514" lon="119.40448442920776">
        <ele>60.1995849609375</ele>
        <time>2023-05-19T12:22:28Z</time>
      </trkpt>
      <trkpt lat="36.02696907718579" lon="119.40438936807831">
        <ele>61.45458984375</ele>
        <time>2023-05-19T12:22:34Z</time>
      </trkpt>
      <trkpt lat="36.02690007994778" lon="119.40435134742975">
        <ele>61.2193603515625</ele>
        <time>2023-05-19T12:22:37Z</time>
      </trkpt>
      <trkpt lat="36.026619129132726" lon="119.40430634545466">
        <ele>61.7584228515625</ele>
        <time>2023-05-19T12:22:49Z</time>
      </trkpt>
      <trkpt lat="36.026567052381814" lon="119.40404215697029">
        <ele>59.83856201171875</ele>
        <time>2023-05-19T12:23:04Z</time>
      </trkpt>
      <trkpt lat="36.02654991818883" lon="119.40361085014527">
        <ele>62.483154296875</ele>
        <time>2023-05-19T12:23:25Z</time>
      </trkpt>
      <trkpt lat="36.02659986423257" lon="119.40347274791033">
        <ele>62.07464599609375</ele>
        <time>2023-05-19T12:23:37Z</time>
      </trkpt>
      <trkpt lat="36.02657682911306" lon="119.40333865770562">
        <ele>61.65423583984375</ele>
        <time>2023-05-19T12:23:43Z</time>
      </trkpt>
      <trkpt lat="36.02653682759357" lon="119.40330263744198">
        <ele>63.04522705078125</ele>
        <time>2023-05-19T12:23:46Z</time>
      </trkpt>
      <trkpt lat="36.026484837475735" lon="119.40329563847479">
        <ele>62.31256103515625</ele>
        <time>2023-05-19T12:23:49Z</time>
      </trkpt>
      <trkpt lat="36.02644185241494" lon="119.40331265497547">
        <ele>62.116455078125</ele>
        <time>2023-05-19T12:23:52Z</time>
      </trkpt>
      <trkpt lat="36.02636290175683" lon="119.4034167356153">
        <ele>62.10467529296875</ele>
        <time>2023-05-19T12:23:58Z</time>
      </trkpt>
      <trkpt lat="36.026363922475284" lon="119.40348578345936">
        <ele>62.921875</ele>
        <time>2023-05-19T12:24:01Z</time>
      </trkpt>
      <trkpt lat="36.0264069501466" lon="119.40360786408617">
        <ele>63.00146484375</ele>
        <time>2023-05-19T12:24:07Z</time>
      </trkpt>
      <trkpt lat="36.026418068564" lon="119.40398713371125">
        <ele>60.77130126953125</ele>
        <time>2023-05-19T12:24:25Z</time>
      </trkpt>
      <trkpt lat="36.02639116724941" lon="119.40426433986848">
        <ele>67.21051025390625</ele>
        <time>2023-05-19T12:24:37Z</time>
      </trkpt>
      <trkpt lat="36.02642023088679" lon="119.40446848899728">
        <ele>65.645263671875</ele>
        <time>2023-05-19T12:24:46Z</time>
      </trkpt>
      <trkpt lat="36.02638236387909" lon="119.40481675867494">
        <ele>66.8154296875</ele>
        <time>2023-05-19T12:25:01Z</time>
      </trkpt>
      <trkpt lat="36.026388423685965" lon="119.40498288703341">
        <ele>66.54443359375</ele>
        <time>2023-05-19T12:25:07Z</time>
      </trkpt>
      <trkpt lat="36.02648248774211" lon="119.40521005546857">
        <ele>66.2210693359375</ele>
        <time>2023-05-19T12:25:16Z</time>
      </trkpt>
      <trkpt lat="36.026522501960514" lon="119.40527109957648">
        <ele>65.12835693359375</ele>
        <time>2023-05-19T12:25:19Z</time>
      </trkpt>
      <trkpt lat="36.026577495867286" lon="119.40528810698443">
        <ele>63.42181396484375</ele>
        <time>2023-05-19T12:25:22Z</time>
      </trkpt>
      <trkpt lat="36.0266825407537" lon="119.40546523758272">
        <ele>65.27239990234375</ele>
        <time>2023-05-19T12:25:31Z</time>
      </trkpt>
      <trkpt lat="36.0267245488708" lon="119.40551026935229">
        <ele>65.285888671875</ele>
        <time>2023-05-19T12:25:34Z</time>
      </trkpt>
      <trkpt lat="36.02677759659337" lon="119.40566038584906">
        <ele>66.42510986328125</ele>
        <time>2023-05-19T12:25:40Z</time>
      </trkpt>
      <trkpt lat="36.02681760961605" lon="119.40571542657727">
        <ele>64.42974853515625</ele>
        <time>2023-05-19T12:25:43Z</time>
      </trkpt>
      <trkpt lat="36.026867607857724" lon="119.40573944075066">
        <ele>64.430419921875</ele>
        <time>2023-05-19T12:25:46Z</time>
      </trkpt>
      <trkpt lat="36.027014693367214" lon="119.40602866507827">
        <ele>66.8643798828125</ele>
        <time>2023-05-19T12:26:01Z</time>
      </trkpt>
      <trkpt lat="36.02708371966203" lon="119.40612874177332">
        <ele>64.51068115234375</ele>
        <time>2023-05-19T12:26:07Z</time>
      </trkpt>
      <trkpt lat="36.027253809757724" lon="119.4064289794317">
        <ele>62.51031494140625</ele>
        <time>2023-05-19T12:26:22Z</time>
      </trkpt>
      <trkpt lat="36.027447877253145" lon="119.40668217816275">
        <ele>63.6627197265625</ele>
        <time>2023-05-19T12:26:37Z</time>
      </trkpt>
      <trkpt lat="36.027687942589964" lon="119.40694738610433">
        <ele>63.42523193359375</ele>
        <time>2023-05-19T12:26:52Z</time>
      </trkpt>
      <trkpt lat="36.02773894886993" lon="119.40698641528549">
        <ele>65.06317138671875</ele>
        <time>2023-05-19T12:26:55Z</time>
      </trkpt>
      <trkpt lat="36.027792940160936" lon="119.4069944163956">
        <ele>61.28863525390625</ele>
        <time>2023-05-19T12:26:58Z</time>
      </trkpt>
      <trkpt lat="36.02790395602049" lon="119.40708348395846">
        <ele>64.9591064453125</ele>
        <time>2023-05-19T12:27:07Z</time>
      </trkpt>
      <trkpt lat="36.02806003637283" lon="119.40732968998188">
        <ele>71.0191650390625</ele>
        <time>2023-05-19T12:27:22Z</time>
      </trkpt>
      <trkpt lat="36.028111050526626" lon="119.40738373378814">
        <ele>73.468505859375</ele>
        <time>2023-05-19T12:27:25Z</time>
      </trkpt>
      <trkpt lat="36.02821605095741" lon="119.40743476893506">
        <ele>72.3048095703125</ele>
        <time>2023-05-19T12:27:31Z</time>
      </trkpt>
      <trkpt lat="36.02842411044084" lon="119.40765494974055">
        <ele>69.9073486328125</ele>
        <time>2023-05-19T12:27:46Z</time>
      </trkpt>
      <trkpt lat="36.02847311052507" lon="119.40767796574366">
        <ele>70.19091796875</ele>
        <time>2023-05-19T12:27:49Z</time>
      </trkpt>
      <trkpt lat="36.02853309082281" lon="119.40766594778748">
        <ele>67.77099609375</ele>
        <time>2023-05-19T12:27:52Z</time>
      </trkpt>
      <trkpt lat="36.02868909408107" lon="119.40774500431151">
        <ele>64.99322509765625</ele>
        <time>2023-05-19T12:28:01Z</time>
      </trkpt>
      <trkpt lat="36.02895606663346" lon="119.40781303835507">
        <ele>61.4339599609375</ele>
        <time>2023-05-19T12:28:16Z</time>
      </trkpt>
      <trkpt lat="36.029081065980584" lon="119.40786907723782">
        <ele>64.35211181640625</ele>
        <time>2023-05-19T12:28:22Z</time>
      </trkpt>
      <trkpt lat="36.02926102816612" lon="119.40787606366283">
        <ele>66.33978271484375</ele>
        <time>2023-05-19T12:28:31Z</time>
      </trkpt>
      <trkpt lat="36.02932803090226" lon="119.40791209026689">
        <ele>66.08721923828125</ele>
        <time>2023-05-19T12:28:34Z</time>
      </trkpt>
      <trkpt lat="36.02955698842031" lon="119.40793208355542">
        <ele>63.9398193359375</ele>
        <time>2023-05-19T12:28:49Z</time>
      </trkpt>
      <trkpt lat="36.02963096436711" lon="119.40791806195516">
        <ele>66.87274169921875</ele>
        <time>2023-05-19T12:28:55Z</time>
      </trkpt>
      <trkpt lat="36.02978196867827" lon="119.40799511826955">
        <ele>65.96087646484375</ele>
        <time>2023-05-19T12:29:04Z</time>
      </trkpt>
      <trkpt lat="36.02978196867827" lon="119.40799511826955">
        <ele>65.96087646484375</ele>
        <time>2023-05-19T12:29:09Z</time>
      </trkpt>
      <trkpt lat="36.02983393241718" lon="119.4079470667242">
        <ele>64.81298828125</ele>
        <time>2023-05-19T12:31:04Z</time>
      </trkpt>
      <trkpt lat="36.02994584135097" lon="119.40781693101826">
        <ele>64.14398193359375</ele>
        <time>2023-05-19T12:31:13Z</time>
      </trkpt>
      <trkpt lat="36.03009075831479" lon="119.40771682068039">
        <ele>64.373046875</ele>
        <time>2023-05-19T12:31:22Z</time>
      </trkpt>
      <trkpt lat="36.03015074305988" lon="119.40771381113308">
        <ele>63.39337158203125</ele>
        <time>2023-05-19T12:31:25Z</time>
      </trkpt>
      <trkpt lat="36.030353625636685" lon="119.40756965392374">
        <ele>64.1192626953125</ele>
        <time>2023-05-19T12:31:37Z</time>
      </trkpt>
      <trkpt lat="36.03045253783919" lon="119.4074355187846">
        <ele>65.25238037109375</ele>
        <time>2023-05-19T12:31:46Z</time>
      </trkpt>
      <trkpt lat="36.03051050429954" lon="119.40739347361117">
        <ele>63.22869873046875</ele>
        <time>2023-05-19T12:31:49Z</time>
      </trkpt>
      <trkpt lat="36.03060940997699" lon="119.40724332523692">
        <ele>60.7557373046875</ele>
        <time>2023-05-19T12:31:58Z</time>
      </trkpt>
      <trkpt lat="36.030628375373304" lon="119.4071792649297">
        <ele>60.247802734375</ele>
        <time>2023-05-19T12:32:01Z</time>
      </trkpt>
      <trkpt lat="36.03067434132" lon="119.40712921448008">
        <ele>60.7198486328125</ele>
        <time>2023-05-19T12:32:04Z</time>
      </trkpt>
      <trkpt lat="36.03070830174052" lon="119.40706114930315">
        <ele>62.11676025390625</ele>
        <time>2023-05-19T12:32:07Z</time>
      </trkpt>
      <trkpt lat="36.03073122526292" lon="119.40690700873279">
        <ele>61.4637451171875</ele>
        <time>2023-05-19T12:32:13Z</time>
      </trkpt>
      <trkpt lat="36.030867089715294" lon="119.40667678989827">
        <ele>61.951171875</ele>
        <time>2023-05-19T12:32:25Z</time>
      </trkpt>
      <trkpt lat="36.03092300524269" lon="119.40651564290887">
        <ele>64.3131103515625</ele>
        <time>2023-05-19T12:32:31Z</time>
      </trkpt>
      <trkpt lat="36.03096788128475" lon="119.40625441290054">
        <ele>64.3201904296875</ele>
        <time>2023-05-19T12:32:40Z</time>
      </trkpt>
      <trkpt lat="36.03099172448662" lon="119.40589510712637">
        <ele>62.07373046875</ele>
        <time>2023-05-19T12:32:55Z</time>
      </trkpt>
      <trkpt lat="36.030998624168326" lon="119.40565290617984">
        <ele>61.5811767578125</ele>
        <time>2023-05-19T12:33:04Z</time>
      </trkpt>
      <trkpt lat="36.030929538830726" lon="119.40539770662268">
        <ele>60.92327880859375</ele>
        <time>2023-05-19T12:33:13Z</time>
      </trkpt>
      <trkpt lat="36.030888524468715" lon="119.40533666218424">
        <ele>61.3038330078125</ele>
        <time>2023-05-19T12:33:16Z</time>
      </trkpt>
      <trkpt lat="36.03079542199801" lon="119.4050114149112">
        <ele>61.2364501953125</ele>
        <time>2023-05-19T12:33:31Z</time>
      </trkpt>
      <trkpt lat="36.03072435935837" lon="119.40479725647069">
        <ele>62.82135009765625</ele>
        <time>2023-05-19T12:33:40Z</time>
      </trkpt>
      <trkpt lat="36.0305373094882" lon="119.40453807954607">
        <ele>62.44091796875</ele>
        <time>2023-05-19T12:33:55Z</time>
      </trkpt>
      <trkpt lat="36.03041628420871" lon="119.40438597875459">
        <ele>62.5225830078125</ele>
        <time>2023-05-19T12:34:04Z</time>
      </trkpt>
      <trkpt lat="36.029205422957254" lon="119.40397180985178">
        <ele>54.83428955078125</ele>
        <time>2023-05-19T12:35:19Z</time>
      </trkpt>
      <trkpt lat="36.02913043136686" lon="119.4039447987282">
        <ele>63.2889404296875</ele>
        <time>2023-05-19T12:35:25Z</time>
      </trkpt>
      <trkpt lat="36.02898546922762" lon="119.40395882513549">
        <ele>63.9058837890625</ele>
        <time>2023-05-19T12:35:34Z</time>
      </trkpt>
      <trkpt lat="36.0289474877652" lon="119.40398885114318">
        <ele>65.784423828125</ele>
        <time>2023-05-19T12:35:37Z</time>
      </trkpt>
      <trkpt lat="36.02883261792391" lon="119.40429909171148">
        <ele>64.0406494140625</ele>
        <time>2023-05-19T12:35:52Z</time>
      </trkpt>
      <trkpt lat="36.02871378478257" lon="119.40469740536476">
        <ele>67.1405029296875</ele>
        <time>2023-05-19T12:36:07Z</time>
      </trkpt>
      <trkpt lat="36.02859792316858" lon="119.4050026546104">
        <ele>64.5128173828125</ele>
        <time>2023-05-19T12:36:19Z</time>
      </trkpt>
      <trkpt lat="36.02853499298935" lon="119.40514977742525">
        <ele>63.6627197265625</ele>
        <time>2023-05-19T12:36:25Z</time>
      </trkpt>
      <trkpt lat="36.02843009475297" lon="119.40535195026634">
        <ele>62.74395751953125</ele>
        <time>2023-05-19T12:36:34Z</time>
      </trkpt>
      <trkpt lat="36.028201250402205" lon="119.40561318750719">
        <ele>65.88372802734375</ele>
        <time>2023-05-19T12:36:52Z</time>
      </trkpt>
      <trkpt lat="36.028000420051086" lon="119.40591646051112">
        <ele>65.4639892578125</ele>
        <time>2023-05-19T12:37:07Z</time>
      </trkpt>
      <trkpt lat="36.02792455741774" lon="119.40620170938018">
        <ele>69.25164794921875</ele>
        <time>2023-05-19T12:37:19Z</time>
      </trkpt>
      <trkpt lat="36.027919707277746" lon="119.4065440044587">
        <ele>68.0966796875</ele>
        <time>2023-05-19T12:37:31Z</time>
      </trkpt>
      <trkpt lat="36.027928782441045" lon="119.40671715496931">
        <ele>67.39385986328125</ele>
        <time>2023-05-19T12:37:37Z</time>
      </trkpt>
      <trkpt lat="36.027973831479144" lon="119.40684826578952">
        <ele>66.99560546875</ele>
        <time>2023-05-19T12:37:43Z</time>
      </trkpt>
      <trkpt lat="36.02808188301683" lon="119.4070144019028">
        <ele>60.10504150390625</ele>
        <time>2023-05-19T12:37:52Z</time>
      </trkpt>
      <trkpt lat="36.028295950707744" lon="119.40726360318419">
        <ele>61.193115234375</ele>
        <time>2023-05-19T12:38:04Z</time>
      </trkpt>
      <trkpt lat="36.02842696785111" lon="119.40736267904138">
        <ele>61.4066162109375</ele>
        <time>2023-05-19T12:38:13Z</time>
      </trkpt>
      <trkpt lat="36.02868296883713" lon="119.40748676452719">
        <ele>60.5831298828125</ele>
        <time>2023-05-19T12:38:28Z</time>
      </trkpt>
      <trkpt lat="36.02892998388687" lon="119.40763387334545">
        <ele>64.9395751953125</ele>
        <time>2023-05-19T12:38:40Z</time>
      </trkpt>
      <trkpt lat="36.02903596446302" lon="119.40764387078204">
        <ele>63.82855224609375</ele>
        <time>2023-05-19T12:38:46Z</time>
      </trkpt>
      <trkpt lat="36.02920395400614" lon="119.40770090523536">
        <ele>63.11004638671875</ele>
        <time>2023-05-19T12:38:55Z</time>
      </trkpt>
      <trkpt lat="36.02942092648701" lon="119.40774592309742">
        <ele>63.65960693359375</ele>
        <time>2023-05-19T12:39:07Z</time>
      </trkpt>
      <trkpt lat="36.02949892449571" lon="119.40777794443429">
        <ele>63.1630859375</ele>
        <time>2023-05-19T12:39:10Z</time>
      </trkpt>
      <trkpt lat="36.0298198602824" lon="119.40779692630149">
        <ele>65.5616455078125</ele>
        <time>2023-05-19T12:39:25Z</time>
      </trkpt>
      <trkpt lat="36.02987285211066" lon="119.40780492789365">
        <ele>66.61029052734375</ele>
        <time>2023-05-19T12:39:28Z</time>
      </trkpt>
      <trkpt lat="36.02997078734071" lon="119.40771983696236">
        <ele>68.95751953125</ele>
        <time>2023-05-19T12:39:34Z</time>
      </trkpt>
      <trkpt lat="36.0301307214673" lon="119.40766076376444">
        <ele>68.956298828125</ele>
        <time>2023-05-19T12:39:43Z</time>
      </trkpt>
      <trkpt lat="36.0303845960908" lon="119.4075236077523">
        <ele>65.76812744140625</ele>
        <time>2023-05-19T12:39:55Z</time>
      </trkpt>
      <trkpt lat="36.03043956549664" lon="119.40748656732744">
        <ele>64.6251220703125</ele>
        <time>2023-05-19T12:39:58Z</time>
      </trkpt>
      <trkpt lat="36.0305194868729" lon="119.40736144321068">
        <ele>63.73431396484375</ele>
        <time>2023-05-19T12:40:07Z</time>
      </trkpt>
      <trkpt lat="36.03058045278558" lon="119.40731939787776">
        <ele>64.51544189453125</ele>
        <time>2023-05-19T12:40:10Z</time>
      </trkpt>
      <trkpt lat="36.03061241830318" lon="119.40726234221574">
        <ele>64.005126953125</ele>
        <time>2023-05-19T12:40:13Z</time>
      </trkpt>
      <trkpt lat="36.03061938970272" lon="119.40720528954513">
        <ele>63.858154296875</ele>
        <time>2023-05-19T12:40:16Z</time>
      </trkpt>
      <trkpt lat="36.030770208980066" lon="119.40689099009619">
        <ele>63.447509765625</ele>
        <time>2023-05-19T12:40:34Z</time>
      </trkpt>
      <trkpt lat="36.030855099200714" lon="119.40669180442954">
        <ele>64.0364990234375</ele>
        <time>2023-05-19T12:40:52Z</time>
      </trkpt>
      <trkpt lat="36.030887040945295" lon="119.40657770095885">
        <ele>62.0911865234375</ele>
        <time>2023-05-19T12:40:58Z</time>
      </trkpt>
      <trkpt lat="36.030962966165895" lon="119.40644757943518">
        <ele>62.1116943359375</ele>
        <time>2023-05-19T12:41:04Z</time>
      </trkpt>
      <trkpt lat="36.030974809000675" lon="119.40608827105896">
        <ele>60.97705078125</ele>
        <time>2023-05-19T12:41:31Z</time>
      </trkpt>
      <trkpt lat="36.030980689990486" lon="119.40580503353159">
        <ele>60.9970703125</ele>
        <time>2023-05-19T12:41:43Z</time>
      </trkpt>
      <trkpt lat="36.03094859561588" lon="119.40555283005608">
        <ele>62.38555908203125</ele>
        <time>2023-05-19T12:41:52Z</time>
      </trkpt>
      <trkpt lat="36.0309415435151" lon="119.40541672059393">
        <ele>62.46099853515625</ele>
        <time>2023-05-19T12:41:58Z</time>
      </trkpt>
      <trkpt lat="36.03080043433076" lon="119.40504744260046">
        <ele>64.6513671875</ele>
        <time>2023-05-19T12:42:22Z</time>
      </trkpt>
      <trkpt lat="36.03068234615009" lon="119.40473421269222">
        <ele>64.059814453125</ele>
        <time>2023-05-19T12:42:37Z</time>
      </trkpt>
      <trkpt lat="36.030561312451795" lon="119.40456209503114">
        <ele>62.20068359375</ele>
        <time>2023-05-19T12:42:46Z</time>
      </trkpt>
      <trkpt lat="36.030537265099746" lon="119.4044109838915">
        <ele>59.69744873046875</ele>
        <time>2023-05-19T12:42:58Z</time>
      </trkpt>
      <trkpt lat="36.030488251498475" lon="119.4043389355708">
        <ele>62.1036376953125</ele>
        <time>2023-05-19T12:43:04Z</time>
      </trkpt>
      <trkpt lat="36.03022123462779" lon="119.4041077948586">
        <ele>62.97906494140625</ele>
        <time>2023-05-19T12:43:22Z</time>
      </trkpt>
      <trkpt lat="36.0301102375556" lon="119.40403975765275">
        <ele>62.9005126953125</ele>
        <time>2023-05-19T12:43:28Z</time>
      </trkpt>
      <trkpt lat="36.02978827152986" lon="119.40391770535278">
        <ele>64.663330078125</ele>
        <time>2023-05-19T12:43:43Z</time>
      </trkpt>
      <trkpt lat="36.029483302283595" lon="119.40379565199011">
        <ele>62.1588134765625</ele>
        <time>2023-05-19T12:43:58Z</time>
      </trkpt>
      <trkpt lat="36.02928434414507" lon="119.40378366576064">
        <ele>67.89984130859375</ele>
        <time>2023-05-19T12:44:10Z</time>
      </trkpt>
      <trkpt lat="36.02912239636117" lon="119.40383071756543">
        <ele>67.71575927734375</ele>
        <time>2023-05-19T12:44:19Z</time>
      </trkpt>
      <trkpt lat="36.02901241777581" lon="119.4038187213199">
        <ele>65.17279052734375</ele>
        <time>2023-05-19T12:44:25Z</time>
      </trkpt>
      <trkpt lat="36.02898140513553" lon="119.4037566805229">
        <ele>64.63397216796875</ele>
        <time>2023-05-19T12:44:31Z</time>
      </trkpt>
      <trkpt lat="36.02899531971615" lon="119.40349249285973">
        <ele>61.50286865234375</ele>
        <time>2023-05-19T12:44:46Z</time>
      </trkpt>
      <trkpt lat="36.02902829692132" lon="119.40344245435597">
        <ele>60.26312255859375</ele>
        <time>2023-05-19T12:44:49Z</time>
      </trkpt>
      <trkpt lat="36.02922923295648" lon="119.40338339090924">
        <ele>62.76702880859375</ele>
        <time>2023-05-19T12:44:58Z</time>
      </trkpt>
      <trkpt lat="36.02934018921994" lon="119.40332233638877">
        <ele>59.8798828125</ele>
        <time>2023-05-19T12:45:04Z</time>
      </trkpt>
      <trkpt lat="36.029528086234066" lon="119.40311817616147">
        <ele>61.4127197265625</ele>
        <time>2023-05-19T12:45:16Z</time>
      </trkpt>
      <trkpt lat="36.02974996505713" lon="119.40286998528967">
        <ele>60.50579833984375</ele>
        <time>2023-05-19T12:45:28Z</time>
      </trkpt>
      <trkpt lat="36.029862884500645" lon="119.40266984131489">
        <ele>56.88397216796875</ele>
        <time>2023-05-19T12:45:37Z</time>
      </trkpt>
      <trkpt lat="36.02992985069496" lon="119.40260078902405">
        <ele>57.0343017578125</ele>
        <time>2023-05-19T12:45:40Z</time>
      </trkpt>
      <trkpt lat="36.03006176895957" lon="119.40240364787162">
        <ele>61.72589111328125</ele>
        <time>2023-05-19T12:45:49Z</time>
      </trkpt>
      <trkpt lat="36.03010574811955" lon="119.40236161628196">
        <ele>61.37213134765625</ele>
        <time>2023-05-19T12:45:55Z</time>
      </trkpt>
      <trkpt lat="36.03016363668976" lon="119.40196236158447">
        <ele>66.1451416015625</ele>
        <time>2023-05-19T12:46:13Z</time>
      </trkpt>
      <trkpt lat="36.030131633648494" lon="119.40191833836062">
        <ele>67.69000244140625</ele>
        <time>2023-05-19T12:46:16Z</time>
      </trkpt>
      <trkpt lat="36.03013661337907" lon="119.40183628811432">
        <ele>67.44781494140625</ele>
        <time>2023-05-19T12:46:22Z</time>
      </trkpt>
      <trkpt lat="36.03012360233227" lon="119.40177525286015">
        <ele>65.4715576171875</ele>
        <time>2023-05-19T12:46:28Z</time>
      </trkpt>
      <trkpt lat="36.02996462586137" lon="119.40171823659773">
        <ele>65.73382568359375</ele>
        <time>2023-05-19T12:46:40Z</time>
      </trkpt>
      <trkpt lat="36.02997856666195" lon="119.40146408523309">
        <ele>65.28076171875</ele>
        <time>2023-05-19T12:46:49Z</time>
      </trkpt>
      <trkpt lat="36.029938525587966" lon="119.4012239515393">
        <ele>62.34368896484375</ele>
        <time>2023-05-19T12:46:58Z</time>
      </trkpt>
      <trkpt lat="36.029798501189454" lon="119.40093780683824">
        <ele>62.5146484375</ele>
        <time>2023-05-19T12:47:10Z</time>
      </trkpt>
      <trkpt lat="36.02959450628593" lon="119.40071370732545">
        <ele>65.70062255859375</ele>
        <time>2023-05-19T12:47:22Z</time>
      </trkpt>
      <trkpt lat="36.029534512304515" lon="119.40067069088657">
        <ele>66.68597412109375</ele>
        <time>2023-05-19T12:47:25Z</time>
      </trkpt>
      <trkpt lat="36.029227569280934" lon="119.4005946846522">
        <ele>67.33612060546875</ele>
        <time>2023-05-19T12:47:37Z</time>
      </trkpt>
      <trkpt lat="36.02904161110965" lon="119.40058970287151">
        <ele>67.507080078125</ele>
        <time>2023-05-19T12:47:43Z</time>
      </trkpt>
      <trkpt lat="36.02883866853196" lon="119.40065075829648">
        <ele>65.75238037109375</ele>
        <time>2023-05-19T12:47:49Z</time>
      </trkpt>
      <trkpt lat="36.028671728810146" lon="119.40077184239503">
        <ele>65.28643798828125</ele>
        <time>2023-05-19T12:47:55Z</time>
      </trkpt>
      <trkpt lat="36.02851079769457" lon="119.4009419536777">
        <ele>66.76348876953125</ele>
        <time>2023-05-19T12:48:07Z</time>
      </trkpt>
      <trkpt lat="36.02839986197572" lon="119.4011400767536">
        <ele>66.72314453125</ele>
        <time>2023-05-19T12:48:16Z</time>
      </trkpt>
      <trkpt lat="36.02834990753247" lon="119.40130717738315">
        <ele>70.6275634765625</ele>
        <time>2023-05-19T12:48:22Z</time>
      </trkpt>
      <trkpt lat="36.02833495406959" lon="119.40151029668709">
        <ele>72.3785400390625</ele>
        <time>2023-05-19T12:48:28Z</time>
      </trkpt>
      <trkpt lat="36.028346963085355" lon="119.40156432701993">
        <ele>68.823486328125</ele>
        <time>2023-05-19T12:48:34Z</time>
      </trkpt>
      <trkpt lat="36.028338001251676" lon="119.40172642406044">
        <ele>67.660888671875</ele>
        <time>2023-05-19T12:48:52Z</time>
      </trkpt>
      <trkpt lat="36.02840105552629" lon="119.40202159566945">
        <ele>69.2757568359375</ele>
        <time>2023-05-19T12:49:04Z</time>
      </trkpt>
      <trkpt lat="36.0285920860612" lon="119.40232376224976">
        <ele>68.564697265625</ele>
        <time>2023-05-19T12:49:19Z</time>
      </trkpt>
      <trkpt lat="36.028712077867056" lon="119.4023997969077">
        <ele>63.3992919921875</ele>
        <time>2023-05-19T12:49:25Z</time>
      </trkpt>
      <trkpt lat="36.02874708426493" lon="119.4024558286525">
        <ele>66.0865478515625</ele>
        <time>2023-05-19T12:49:28Z</time>
      </trkpt>
      <trkpt lat="36.02885408187163" lon="119.40254087112724">
        <ele>63.65093994140625</ele>
        <time>2023-05-19T12:49:37Z</time>
      </trkpt>
      <trkpt lat="36.02915102978743" lon="119.40260187713675">
        <ele>63.7899169921875</ele>
        <time>2023-05-19T12:49:52Z</time>
      </trkpt>
      <trkpt lat="36.02928699882689" lon="119.40260286251386">
        <ele>61.48583984375</ele>
        <time>2023-05-19T12:49:58Z</time>
      </trkpt>
      <trkpt lat="36.02954590599322" lon="119.40247575172582">
        <ele>57.52783203125</ele>
        <time>2023-05-19T12:50:10Z</time>
      </trkpt>
      <trkpt lat="36.029813781387375" lon="119.40222756471324">
        <ele>60.81011962890625</ele>
        <time>2023-05-19T12:50:25Z</time>
      </trkpt>
      <trkpt lat="36.02988872662396" lon="119.40207446121897">
        <ele>63.4364013671875</ele>
        <time>2023-05-19T12:50:31Z</time>
      </trkpt>
      <trkpt lat="36.0298827090224" lon="119.4019954133215">
        <ele>64.26153564453125</ele>
        <time>2023-05-19T12:50:34Z</time>
      </trkpt>
      <trkpt lat="36.029831715967234" lon="119.4019754068076">
        <ele>65.43548583984375</ele>
        <time>2023-05-19T12:50:37Z</time>
      </trkpt>
      <trkpt lat="36.02981571206001" lon="119.40194338906653">
        <ele>65.60260009765625</ele>
        <time>2023-05-19T12:50:40Z</time>
      </trkpt>
      <trkpt lat="36.02991371388697" lon="119.40204544054087">
        <ele>60.3526611328125</ele>
        <time>2023-05-19T13:02:08Z</time>
      </trkpt>
      <trkpt lat="36.02989569228269" lon="119.40193737642683">
        <ele>60.1611328125</ele>
        <time>2023-05-19T13:02:11Z</time>
      </trkpt>
      <trkpt lat="36.030003615103645" lon="119.40171022744498">
        <ele>60.82781982421875</ele>
        <time>2023-05-19T13:02:20Z</time>
      </trkpt>
      <trkpt lat="36.029983551438335" lon="119.40139804634616">
        <ele>63.30682373046875</ele>
        <time>2023-05-19T13:02:32Z</time>
      </trkpt>
      <trkpt lat="36.02988151212567" lon="119.40109188332504">
        <ele>66.84088134765625</ele>
        <time>2023-05-19T13:02:44Z</time>
      </trkpt>
      <trkpt lat="36.029727501575486" lon="119.40085376857148">
        <ele>64.52325439453125</ele>
        <time>2023-05-19T13:02:56Z</time>
      </trkpt>
      <trkpt lat="36.02963650760308" lon="119.4007737351227">
        <ele>63.722900390625</ele>
        <time>2023-05-19T13:03:02Z</time>
      </trkpt>
      <trkpt lat="36.02937158743424" lon="119.40087582061884">
        <ele>66.131103515625</ele>
        <time>2023-05-19T13:03:17Z</time>
      </trkpt>
      <trkpt lat="36.02928262424495" lon="119.40096187806444">
        <ele>63.80419921875</ele>
        <time>2023-05-19T13:03:23Z</time>
      </trkpt>
      <trkpt lat="36.029108720008" lon="119.40124305555973">
        <ele>65.15594482421875</ele>
        <time>2023-05-19T13:03:38Z</time>
      </trkpt>
      <trkpt lat="36.028975792204236" lon="119.40144218505444">
        <ele>67.24114990234375</ele>
        <time>2023-05-19T13:03:50Z</time>
      </trkpt>
      <trkpt lat="36.02865887942869" lon="119.40150925972259">
        <ele>63.25531005859375</ele>
        <time>2023-05-19T13:04:08Z</time>
      </trkpt>
      <trkpt lat="36.028427955716076" lon="119.40161534799678">
        <ele>67.1226806640625</ele>
        <time>2023-05-19T13:04:20Z</time>
      </trkpt>
      <trkpt lat="36.02819100441856" lon="119.4015893592583">
        <ele>65.7486572265625</ele>
        <time>2023-05-19T13:04:35Z</time>
      </trkpt>
      <trkpt lat="36.027991012709236" lon="119.40141527997814">
        <ele>65.10845947265625</ele>
        <time>2023-05-19T13:04:47Z</time>
      </trkpt>
      <trkpt lat="36.02789300322831" lon="119.40126220293794">
        <ele>61.9981689453125</ele>
        <time>2023-05-19T13:04:56Z</time>
      </trkpt>
      <trkpt lat="36.02762901971586" lon="119.40104210829941">
        <ele>63.03094482421875</ele>
        <time>2023-05-19T13:05:14Z</time>
      </trkpt>
      <trkpt lat="36.02737105183457" lon="119.40090105905253">
        <ele>65.51348876953125</ele>
        <time>2023-05-19T13:05:29Z</time>
      </trkpt>
      <trkpt lat="36.02708809316799" lon="119.40077402133933">
        <ele>63.2283935546875</ele>
        <time>2023-05-19T13:05:44Z</time>
      </trkpt>
      <trkpt lat="36.02703010009096" lon="119.40073900886118">
        <ele>62.24407958984375</ele>
        <time>2023-05-19T13:05:47Z</time>
      </trkpt>
      <trkpt lat="36.026723161796795" lon="119.40069001686055">
        <ele>64.802978515625</ele>
        <time>2023-05-19T13:06:02Z</time>
      </trkpt>
      <trkpt lat="36.02644222175034" lon="119.40066403442025">
        <ele>62.759521484375</ele>
        <time>2023-05-19T13:06:20Z</time>
      </trkpt>
      <trkpt lat="36.02614529636221" lon="119.40069908660861">
        <ele>66.0181884765625</ele>
        <time>2023-05-19T13:06:35Z</time>
      </trkpt>
      <trkpt lat="36.025963347869194" lon="119.4007521357066">
        <ele>65.8922119140625</ele>
        <time>2023-05-19T13:06:44Z</time>
      </trkpt>
      <trkpt lat="36.025676416840014" lon="119.40076817661364">
        <ele>68.05908203125</ele>
        <time>2023-05-19T13:06:59Z</time>
      </trkpt>
      <trkpt lat="36.02554544643564" lon="119.40076518969201">
        <ele>68.88140869140625</ele>
        <time>2023-05-19T13:07:05Z</time>
      </trkpt>
      <trkpt lat="36.02543146663844" lon="119.40073218460107">
        <ele>65.6480712890625</ele>
        <time>2023-05-19T13:07:11Z</time>
      </trkpt>
      <trkpt lat="36.025258502099604" lon="119.40070819105185">
        <ele>65.0010986328125</ele>
        <time>2023-05-19T13:07:20Z</time>
      </trkpt>
      <trkpt lat="36.02494255608091" lon="119.40060317015788">
        <ele>65.3358154296875</ele>
        <time>2023-05-19T13:07:35Z</time>
      </trkpt>
      <trkpt lat="36.02477458235221" lon="119.40053215125378">
        <ele>63.65618896484375</ele>
        <time>2023-05-19T13:07:44Z</time>
      </trkpt>
      <trkpt lat="36.02455860279385" lon="119.40035908467388">
        <ele>60.85723876953125</ele>
        <time>2023-05-19T13:07:56Z</time>
      </trkpt>
      <trkpt lat="36.024306628308935" lon="119.40015700904434">
        <ele>61.86248779296875</ele>
        <time>2023-05-19T13:08:14Z</time>
      </trkpt>
      <trkpt lat="36.02406965086737" lon="119.3999459295547">
        <ele>64.06085205078125</ele>
        <time>2023-05-19T13:08:38Z</time>
      </trkpt>
      <trkpt lat="36.02390565956003" lon="119.39974184777185">
        <ele>62.591064453125</ele>
        <time>2023-05-19T13:08:56Z</time>
      </trkpt>
      <trkpt lat="36.02384667260138" lon="119.3997378524546">
        <ele>62.8837890625</ele>
        <time>2023-05-19T13:09:02Z</time>
      </trkpt>
      <trkpt lat="36.023889671609936" lon="119.39980187879428">
        <ele>63.0150146484375</ele>
        <time>2023-05-19T13:09:08Z</time>
      </trkpt>
      <trkpt lat="36.02414865018719" lon="119.40006297920715">
        <ele>61.90875244140625</ele>
        <time>2023-05-19T13:09:35Z</time>
      </trkpt>
      <trkpt lat="36.024420620183705" lon="119.40027105461178">
        <ele>62.87432861328125</ele>
        <time>2023-05-19T13:09:50Z</time>
      </trkpt>
      <trkpt lat="36.02466759073749" lon="119.40043711317993">
        <ele>63.993408203125</ele>
        <time>2023-05-19T13:10:02Z</time>
      </trkpt>
      <trkpt lat="36.02492855578585" lon="119.40058316106271">
        <ele>63.79852294921875</ele>
        <time>2023-05-19T13:10:14Z</time>
      </trkpt>
      <trkpt lat="36.02512952297681" lon="119.40065917915068">
        <ele>65.7576904296875</ele>
        <time>2023-05-19T13:10:23Z</time>
      </trkpt>
      <trkpt lat="36.025402466966575" lon="119.40069716894986">
        <ele>61.59716796875</ele>
        <time>2023-05-19T13:10:35Z</time>
      </trkpt>
      <trkpt lat="36.025625426558044" lon="119.40075717636755">
        <ele>63.4871826171875</ele>
        <time>2023-05-19T13:10:44Z</time>
      </trkpt>
      <trkpt lat="36.025963341854606" lon="119.4007191178407">
        <ele>58.38665771484375</ele>
        <time>2023-05-19T13:11:02Z</time>
      </trkpt>
      <trkpt lat="36.02603832514433" lon="119.40072211104169">
        <ele>59.9822998046875</ele>
        <time>2023-05-19T13:11:08Z</time>
      </trkpt>
      <trkpt lat="36.02624427106391" lon="119.40068506794812">
        <ele>61.7796630859375</ele>
        <time>2023-05-19T13:11:20Z</time>
      </trkpt>
      <trkpt lat="36.02629326123409" lon="119.40069306675672">
        <ele>63.8011474609375</ele>
        <time>2023-05-19T13:11:23Z</time>
      </trkpt>
      <trkpt lat="36.02652920066713" lon="119.40065802142892">
        <ele>62.1483154296875</ele>
        <time>2023-05-19T13:11:35Z</time>
      </trkpt>
      <trkpt lat="36.026842137503024" lon="119.4007070126676">
        <ele>62.0614013671875</ele>
        <time>2023-05-19T13:11:50Z</time>
      </trkpt>
      <trkpt lat="36.0270720907996" lon="119.40074100522872">
        <ele>60.99090576171875</ele>
        <time>2023-05-19T13:11:59Z</time>
      </trkpt>
      <trkpt lat="36.02714507877685" lon="119.40076701113576">
        <ele>61.380615234375</ele>
        <time>2023-05-19T13:12:02Z</time>
      </trkpt>
      <trkpt lat="36.027425046660376" lon="119.40093907395818">
        <ele>63.5296630859375</ele>
        <time>2023-05-19T13:12:14Z</time>
      </trkpt>
      <trkpt lat="36.02757502743751" lon="119.40101810097005">
        <ele>65.6954345703125</ele>
        <time>2023-05-19T13:12:20Z</time>
      </trkpt>
      <trkpt lat="36.02779801178052" lon="119.40119717660076">
        <ele>63.98992919921875</ele>
        <time>2023-05-19T13:12:38Z</time>
      </trkpt>
      <trkpt lat="36.02792600994721" lon="119.40133123877489">
        <ele>63.47528076171875</ele>
        <time>2023-05-19T13:12:50Z</time>
      </trkpt>
      <trkpt lat="36.02797604220275" lon="119.40153635222856">
        <ele>65.097900390625</ele>
        <time>2023-05-19T13:12:59Z</time>
      </trkpt>
      <trkpt lat="36.02798310891933" lon="119.40184053238572">
        <ele>66.2421875</ele>
        <time>2023-05-19T13:13:11Z</time>
      </trkpt>
      <trkpt lat="36.028092175088474" lon="119.40222075367987">
        <ele>66.0035400390625</ele>
        <time>2023-05-19T13:13:26Z</time>
      </trkpt>
      <trkpt lat="36.0281551971212" lon="119.40236583787267">
        <ele>67.83050537109375</ele>
        <time>2023-05-19T13:13:32Z</time>
      </trkpt>
      <trkpt lat="36.028258197108464" lon="119.40245788483274">
        <ele>65.9541015625</ele>
        <time>2023-05-19T13:13:38Z</time>
      </trkpt>
      <trkpt lat="36.02841923144929" lon="119.40272704062845">
        <ele>64.79534912109375</ele>
        <time>2023-05-19T13:13:50Z</time>
      </trkpt>
      <trkpt lat="36.02849324593219" lon="119.40284210790378">
        <ele>64.7003173828125</ele>
        <time>2023-05-19T13:13:56Z</time>
      </trkpt>
      <trkpt lat="36.02871324785673" lon="119.40302920771065">
        <ele>62.1065673828125</ele>
        <time>2023-05-19T13:14:14Z</time>
      </trkpt>
      <trkpt lat="36.02874126146499" lon="119.40309925168418">
        <ele>61.29583740234375</ele>
        <time>2023-05-19T13:18:29Z</time>
      </trkpt>
      <trkpt lat="36.02874537163851" lon="119.4034745083833">
        <ele>65.47265625</ele>
        <time>2023-05-19T13:18:44Z</time>
      </trkpt>
      <trkpt lat="36.02872048387482" lon="119.40381575195448">
        <ele>66.74505615234375</ele>
        <time>2023-05-19T13:18:59Z</time>
      </trkpt>
      <trkpt lat="36.02869253358202" lon="119.403949851517">
        <ele>67.21856689453125</ele>
        <time>2023-05-19T13:19:05Z</time>
      </trkpt>
      <trkpt lat="36.02841966271527" lon="119.40415102870668">
        <ele>65.7130126953125</ele>
        <time>2023-05-19T13:19:23Z</time>
      </trkpt>
      <trkpt lat="36.028210765928975" lon="119.40431417269254">
        <ele>64.69134521484375</ele>
        <time>2023-05-19T13:19:35Z</time>
      </trkpt>
      <trkpt lat="36.027996918033736" lon="119.40460941868159">
        <ele>65.830810546875</ele>
        <time>2023-05-19T13:19:50Z</time>
      </trkpt>
      <trkpt lat="36.02779908405572" lon="119.40494169663381">
        <ele>65.982421875</ele>
        <time>2023-05-19T13:20:05Z</time>
      </trkpt>
      <trkpt lat="36.027786116451665" lon="119.40502075986727">
        <ele>64.65771484375</ele>
        <time>2023-05-19T13:20:08Z</time>
      </trkpt>
      <trkpt lat="36.027683247001804" lon="119.40530199403655">
        <ele>65.7701416015625</ele>
        <time>2023-05-19T13:20:20Z</time>
      </trkpt>
      <trkpt lat="36.027629354701695" lon="119.4055451962268">
        <ele>66.5421142578125</ele>
        <time>2023-05-19T13:20:29Z</time>
      </trkpt>
      <trkpt lat="36.027625386369806" lon="119.40562225952524">
        <ele>67.1048583984375</ele>
        <time>2023-05-19T13:20:32Z</time>
      </trkpt>
      <trkpt lat="36.02756344582145" lon="119.40573435850473">
        <ele>63.95208740234375</ele>
        <time>2023-05-19T13:20:41Z</time>
      </trkpt>
      <trkpt lat="36.0275174426127" lon="119.40570033565774">
        <ele>63.86865234375</ele>
        <time>2023-05-19T13:20:53Z</time>
      </trkpt>
      <trkpt lat="36.02736444957107" lon="119.40563029537049">
        <ele>63.57183837890625</ele>
        <time>2023-05-19T13:21:05Z</time>
      </trkpt>
      <trkpt lat="36.02723440910763" lon="119.40545316591418">
        <ele>63.12738037109375</ele>
        <time>2023-05-19T13:21:14Z</time>
      </trkpt>
      <trkpt lat="36.02716736909219" lon="119.4053110591606">
        <ele>63.404541015625</ele>
        <time>2023-05-19T13:21:20Z</time>
      </trkpt>
      <trkpt lat="36.02712829587639" lon="119.4050958927029">
        <ele>63.59881591796875</ele>
        <time>2023-05-19T13:21:29Z</time>
      </trkpt>
      <trkpt lat="36.02715818142172" lon="119.40480566307446">
        <ele>61.39898681640625</ele>
        <time>2023-05-19T13:21:41Z</time>
      </trkpt>
      <trkpt lat="36.027122107081816" lon="119.40457549106996">
        <ele>62.0233154296875</ele>
        <time>2023-05-19T13:21:50Z</time>
      </trkpt>
      <trkpt lat="36.02698107408102" lon="119.40438836598301">
        <ele>64.67840576171875</ele>
        <time>2023-05-19T13:21:59Z</time>
      </trkpt>
      <trkpt lat="36.02679308706778" lon="119.40430032146216">
        <ele>63.72906494140625</ele>
        <time>2023-05-19T13:22:08Z</time>
      </trkpt>
      <trkpt lat="36.02660613588663" lon="119.40431735509667">
        <ele>64.06494140625</ele>
        <time>2023-05-19T13:22:17Z</time>
      </trkpt>
      <trkpt lat="36.02656407795524" lon="119.40411721210916">
        <ele>63.605712890625</ele>
        <time>2023-05-19T13:22:35Z</time>
      </trkpt>
      <trkpt lat="36.026545986957935" lon="119.40382600328364">
        <ele>62.65576171875</ele>
        <time>2023-05-19T13:22:50Z</time>
      </trkpt>
      <trkpt lat="36.02651292980828" lon="119.40362086134242">
        <ele>62.81756591796875</ele>
        <time>2023-05-19T13:22:59Z</time>
      </trkpt>
      <trkpt lat="36.026577881204325" lon="119.40351177757664">
        <ele>62.7452392578125</ele>
        <time>2023-05-19T13:23:05Z</time>
      </trkpt>
      <trkpt lat="36.02658583482083" lon="119.40336467461897">
        <ele>63.9342041015625</ele>
        <time>2023-05-19T13:23:11Z</time>
      </trkpt>
      <trkpt lat="36.026539831362776" lon="119.40331764741046">
        <ele>64.343505859375</ele>
        <time>2023-05-19T13:23:14Z</time>
      </trkpt>
      <trkpt lat="36.02647984456727" lon="119.4033156527713">
        <ele>64.13543701171875</ele>
        <time>2023-05-19T13:23:17Z</time>
      </trkpt>
      <trkpt lat="36.0263878887701" lon="119.40339271619172">
        <ele>64.05181884765625</ele>
        <time>2023-05-19T13:23:23Z</time>
      </trkpt>
      <trkpt lat="36.02636092499703" lon="119.40349178797904">
        <ele>62.946533203125</ele>
        <time>2023-05-19T13:23:29Z</time>
      </trkpt>
      <trkpt lat="36.02639794229981" lon="119.40357584260057">
        <ele>62.0159912109375</ele>
        <time>2023-05-19T13:23:35Z</time>
      </trkpt>
      <trkpt lat="36.02641096481364" lon="119.40365789890343">
        <ele>64.74908447265625</ele>
        <time>2023-05-19T13:23:41Z</time>
      </trkpt>
      <trkpt lat="36.02639107838089" lon="119.40399814472536">
        <ele>63.5986328125</ele>
        <time>2023-05-19T13:23:56Z</time>
      </trkpt>
      <trkpt lat="36.02639119838121" lon="119.40435540755136">
        <ele>64.4771728515625</ele>
        <time>2023-05-19T13:24:11Z</time>
      </trkpt>
      <trkpt lat="36.026428202635195" lon="119.40439243105212">
        <ele>64.14208984375</ele>
        <time>2023-05-19T13:24:20Z</time>
      </trkpt>
      <trkpt lat="36.026421223332925" lon="119.40444747308916">
        <ele>63.689697265625</ele>
        <time>2023-05-19T13:24:26Z</time>
      </trkpt>
      <trkpt lat="36.02633128756687" lon="119.40457157682567">
        <ele>66.3258056640625</ele>
        <time>2023-05-19T13:24:35Z</time>
      </trkpt>
      <trkpt lat="36.026274337005304" lon="119.40467366090091">
        <ele>64.85772705078125</ele>
        <time>2023-05-19T13:24:41Z</time>
      </trkpt>
      <trkpt lat="36.026179352414246" lon="119.40465565781378">
        <ele>61.502685546875</ele>
        <time>2023-05-19T13:24:50Z</time>
      </trkpt>
      <trkpt lat="36.026149397114494" lon="119.40476074165348">
        <ele>62.29248046875</ele>
        <time>2023-05-19T13:24:56Z</time>
      </trkpt>
      <trkpt lat="36.02615549034219" lon="119.40501794059229">
        <ele>63.3104248046875</ele>
        <time>2023-05-19T13:25:08Z</time>
      </trkpt>
      <trkpt lat="36.02624855613494" lon="119.40524811198267">
        <ele>64.30029296875</ele>
        <time>2023-05-19T13:25:20Z</time>
      </trkpt>
      <trkpt lat="36.02628956597205" lon="119.4052981473073">
        <ele>64.51287841796875</ele>
        <time>2023-05-19T13:25:23Z</time>
      </trkpt>
      <trkpt lat="36.02640150446047" lon="119.40520506058634">
        <ele>62.8646240234375</ele>
        <time>2023-05-19T13:25:35Z</time>
      </trkpt>
      <trkpt lat="36.02652548321215" lon="119.40522406177688">
        <ele>62.97125244140625</ele>
        <time>2023-05-19T13:25:47Z</time>
      </trkpt>
      <trkpt lat="36.02663149272624" lon="119.40531212012498">
        <ele>63.50494384765625</ele>
        <time>2023-05-19T13:25:53Z</time>
      </trkpt>
      <trkpt lat="36.026777575309346" lon="119.40560734243851">
        <ele>62.38031005859375</ele>
        <time>2023-05-19T13:26:08Z</time>
      </trkpt>
      <trkpt lat="36.02682958383036" lon="119.40565837837144">
        <ele>62.12786865234375</ele>
        <time>2023-05-19T13:26:11Z</time>
      </trkpt>
      <trkpt lat="36.0268676360018" lon="119.40580849781664">
        <ele>63.48095703125</ele>
        <time>2023-05-19T13:26:17Z</time>
      </trkpt>
      <trkpt lat="36.02691464407638" lon="119.40585453073601">
        <ele>62.03271484375</ele>
        <time>2023-05-19T13:26:20Z</time>
      </trkpt>
      <trkpt lat="36.02704372885863" lon="119.40612874626287">
        <ele>65.5401611328125</ele>
        <time>2023-05-19T13:26:32Z</time>
      </trkpt>
      <trkpt lat="36.027074763055715" lon="119.4062258252344">
        <ele>65.922119140625</ele>
        <time>2023-05-19T13:26:35Z</time>
      </trkpt>
      <trkpt lat="36.02716778948298" lon="119.4063369098054">
        <ele>66.1607666015625</ele>
        <time>2023-05-19T13:26:41Z</time>
      </trkpt>
      <trkpt lat="36.027198808865556" lon="119.40639795883733">
        <ele>66.7308349609375</ele>
        <time>2023-05-19T13:26:44Z</time>
      </trkpt>
      <trkpt lat="36.027434848048486" lon="119.40661011649786">
        <ele>67.2490234375</ele>
        <time>2023-05-19T13:26:59Z</time>
      </trkpt>
      <trkpt lat="36.0276778699422" lon="119.40678324139584">
        <ele>63.09173583984375</ele>
        <time>2023-05-19T13:27:14Z</time>
      </trkpt>
      <trkpt lat="36.02776690008136" lon="119.4068943299418">
        <ele>64.21612548828125</ele>
        <time>2023-05-19T13:27:20Z</time>
      </trkpt>
      <trkpt lat="36.02792900001061" lon="119.40718957704782">
        <ele>62.8746337890625</ele>
        <time>2023-05-19T13:27:32Z</time>
      </trkpt>
      <trkpt lat="36.0279870051091" lon="119.40722860598186">
        <ele>66.75225830078125</ele>
        <time>2023-05-19T13:27:35Z</time>
      </trkpt>
      <trkpt lat="36.028197069337786" lon="119.40746379782001">
        <ele>64.8016357421875</ele>
        <time>2023-05-19T13:27:47Z</time>
      </trkpt>
      <trkpt lat="36.02832208484431" lon="119.40755486805044">
        <ele>65.754638671875</ele>
        <time>2023-05-19T13:27:53Z</time>
      </trkpt>
      <trkpt lat="36.028396082505616" lon="119.40758488762675">
        <ele>61.7462158203125</ele>
        <time>2023-05-19T13:27:59Z</time>
      </trkpt>
      <trkpt lat="36.028500100868904" lon="119.40767095616606">
        <ele>60.9569091796875</ele>
        <time>2023-05-19T13:28:08Z</time>
      </trkpt>
      <trkpt lat="36.028736107673495" lon="119.40779404513421">
        <ele>64.01190185546875</ele>
        <time>2023-05-19T13:28:20Z</time>
      </trkpt>
      <trkpt lat="36.028836091694224" lon="119.40780804710714">
        <ele>62.6241455078125</ele>
        <time>2023-05-19T13:28:32Z</time>
      </trkpt>
      <trkpt lat="36.028943107723386" lon="119.40788911166588">
        <ele>64.046142578125</ele>
        <time>2023-05-19T13:28:38Z</time>
      </trkpt>
      <trkpt lat="36.02906308771805" lon="119.40790411241856">
        <ele>64.1075439453125</ele>
        <time>2023-05-19T13:28:44Z</time>
      </trkpt>
      <trkpt lat="36.02912308654862" lon="119.40792912941372">
        <ele>64.4296875</ele>
        <time>2023-05-19T13:28:47Z</time>
      </trkpt>
      <trkpt lat="36.02924604418681" lon="119.40790108903533">
        <ele>64.2398681640625</ele>
        <time>2023-05-19T13:28:56Z</time>
      </trkpt>
      <trkpt lat="36.0293790368651" lon="119.4079471177897">
        <ele>62.799072265625</ele>
        <time>2023-05-19T13:29:08Z</time>
      </trkpt>
      <trkpt lat="36.02965094265272" lon="119.40788402746901">
        <ele>62.52862548828125</ele>
        <time>2023-05-19T13:29:29Z</time>
      </trkpt>
      <trkpt lat="36.02981590377327" lon="119.40788200705603">
        <ele>64.64678955078125</ele>
        <time>2023-05-19T13:29:38Z</time>
      </trkpt>
      <trkpt lat="36.02991285943146" lon="119.40783795454787">
        <ele>64.8935546875</ele>
        <time>2023-05-19T13:29:44Z</time>
      </trkpt>
      <trkpt lat="36.03000180555365" lon="119.40777088139293">
        <ele>67.37200927734375</ele>
        <time>2023-05-19T13:29:50Z</time>
      </trkpt>
      <trkpt lat="36.03005775055433" lon="119.4076857953403">
        <ele>66.8099365234375</ele>
        <time>2023-05-19T13:29:56Z</time>
      </trkpt>
      <trkpt lat="36.03031361822492" lon="119.40753562684672">
        <ele>61.53363037109375</ele>
        <time>2023-05-19T13:30:14Z</time>
      </trkpt>
      <trkpt lat="36.03036459630193" lon="119.40751460165843">
        <ele>59.75677490234375</ele>
        <time>2023-05-19T13:30:17Z</time>
      </trkpt>
      <trkpt lat="36.030394537168505" lon="119.40740649858768">
        <ele>60.52191162109375</ele>
        <time>2023-05-19T13:30:23Z</time>
      </trkpt>
      <trkpt lat="36.030488467213296" lon="119.40730539539777">
        <ele>62.0101318359375</ele>
        <time>2023-05-19T13:30:29Z</time>
      </trkpt>
      <trkpt lat="36.030607392928076" lon="119.40720629180073">
        <ele>64.37579345703125</ele>
        <time>2023-05-19T13:30:35Z</time>
      </trkpt>
      <trkpt lat="36.03073525935008" lon="119.40698307621305">
        <ele>63.65380859375</ele>
        <time>2023-05-19T13:30:47Z</time>
      </trkpt>
      <trkpt lat="36.030737231234305" lon="119.40692302233283">
        <ele>62.311279296875</ele>
        <time>2023-05-19T13:30:50Z</time>
      </trkpt>
      <trkpt lat="36.03088205454345" lon="119.40660572598306">
        <ele>64.64849853515625</ele>
        <time>2023-05-19T13:31:05Z</time>
      </trkpt>
      <trkpt lat="36.03095890272268" lon="119.40629945241946">
        <ele>64.52935791015625</ele>
        <time>2023-05-19T13:31:17Z</time>
      </trkpt>
      <trkpt lat="36.03097879923034" lon="119.40606725287743">
        <ele>65.782958984375</ele>
        <time>2023-05-19T13:31:26Z</time>
      </trkpt>
      <trkpt lat="36.03096574618998" lon="119.40593314177842">
        <ele>64.2911376953125</ele>
        <time>2023-05-19T13:31:32Z</time>
      </trkpt>
      <trkpt lat="36.03095862650776" lon="119.40563589673484">
        <ele>63.01422119140625</ele>
        <time>2023-05-19T13:31:44Z</time>
      </trkpt>
      <trkpt lat="36.03089752279257" lon="119.4053376619761">
        <ele>62.5550537109375</ele>
        <time>2023-05-19T13:31:56Z</time>
      </trkpt>
      <trkpt lat="36.030778415081414" lon="119.40498239411596">
        <ele>60.3482666015625</ele>
        <time>2023-05-19T13:32:11Z</time>
      </trkpt>
      <trkpt lat="36.03072140109728" lon="119.40490934357622">
        <ele>60.470703125</ele>
        <time>2023-05-19T13:32:14Z</time>
      </trkpt>
      <trkpt lat="36.030703370005696" lon="119.40481327118013">
        <ele>61.50946044921875</ele>
        <time>2023-05-19T13:32:17Z</time>
      </trkpt>
      <trkpt lat="36.03054031303158" lon="119.40455008829493">
        <ele>61.64990234375</ele>
        <time>2023-05-19T13:32:32Z</time>
      </trkpt>
      <trkpt lat="36.0304993111681" lon="119.40451806868774">
        <ele>61.4505615234375</ele>
        <time>2023-05-19T13:32:38Z</time>
      </trkpt>
      <trkpt lat="36.03045028471366" lon="119.40440999290944">
        <ele>64.759033203125</ele>
        <time>2023-05-19T13:32:47Z</time>
      </trkpt>
      <trkpt lat="36.03021527629456" lon="119.40422788382283">
        <ele>62.37725830078125</ele>
        <time>2023-05-19T13:33:08Z</time>
      </trkpt>
      <trkpt lat="36.030015283566925" lon="119.40411282164882">
        <ele>61.0640869140625</ele>
        <time>2023-05-19T13:33:20Z</time>
      </trkpt>
      <trkpt lat="36.02978029684836" lon="119.4039897583493">
        <ele>63.6207275390625</ele>
        <time>2023-05-19T13:33:32Z</time>
      </trkpt>
      <trkpt lat="36.029487342896424" lon="119.40392474419826">
        <ele>64.15155029296875</ele>
        <time>2023-05-19T13:33:47Z</time>
      </trkpt>
      <trkpt lat="36.02917141512203" lon="119.40392377895324">
        <ele>66.27337646484375</ele>
        <time>2023-05-19T13:34:02Z</time>
      </trkpt>
      <trkpt lat="36.02893747959775" lon="119.40395682907668">
        <ele>63.0841064453125</ele>
        <time>2023-05-19T13:34:14Z</time>
      </trkpt>
      <trkpt lat="36.028885486975966" lon="119.40394282478759">
        <ele>64.0755615234375</ele>
        <time>2023-05-19T13:34:17Z</time>
      </trkpt>
      <trkpt lat="36.028657537712526" lon="119.40393784677016">
        <ele>63.436767578125</ele>
        <time>2023-05-19T13:34:32Z</time>
      </trkpt>
      <trkpt lat="36.02839066971215" lon="119.4041520326971">
        <ele>60.96844482421875</ele>
        <time>2023-05-19T13:34:53Z</time>
      </trkpt>
      <trkpt lat="36.02817779275039" lon="119.40437021815244">
        <ele>62.2874755859375</ele>
        <time>2023-05-19T13:35:08Z</time>
      </trkpt>
      <trkpt lat="36.02798191970318" lon="119.40460441656208">
        <ele>63.99755859375</ele>
        <time>2023-05-19T13:35:20Z</time>
      </trkpt>
      <trkpt lat="36.02786001278943" lon="119.40478556884501">
        <ele>63.10888671875</ele>
        <time>2023-05-19T13:35:26Z</time>
      </trkpt>
      <trkpt lat="36.02780010054316" lon="119.40498673166584">
        <ele>62.5235595703125</ele>
        <time>2023-05-19T13:35:32Z</time>
      </trkpt>
      <trkpt lat="36.027681255203866" lon="119.40532201027635">
        <ele>65.23577880859375</ele>
        <time>2023-05-19T13:35:44Z</time>
      </trkpt>
      <trkpt lat="36.027610403882214" lon="119.40565728988851">
        <ele>62.82647705078125</ele>
        <time>2023-05-19T13:36:02Z</time>
      </trkpt>
      <trkpt lat="36.02757743327512" lon="119.40571133797798">
        <ele>63.29132080078125</ele>
        <time>2023-05-19T13:36:05Z</time>
      </trkpt>
      <trkpt lat="36.0275084430634" lon="119.40569633337695">
        <ele>62.9217529296875</ele>
        <time>2023-05-19T13:36:08Z</time>
      </trkpt>
      <trkpt lat="36.027350441166796" lon="119.40560127321855">
        <ele>62.34661865234375</ele>
        <time>2023-05-19T13:36:17Z</time>
      </trkpt>
      <trkpt lat="36.02723641613178" lon="119.40547218106698">
        <ele>63.647705078125</ele>
        <time>2023-05-19T13:36:26Z</time>
      </trkpt>
      <trkpt lat="36.027173378956924" lon="119.40534008173148">
        <ele>63.923095703125</ele>
        <time>2023-05-19T13:36:32Z</time>
      </trkpt>
      <trkpt lat="36.0271513358185" lon="119.40521498435137">
        <ele>62.56072998046875</ele>
        <time>2023-05-19T13:36:38Z</time>
      </trkpt>
      <trkpt lat="36.02714824333851" lon="119.40496779000095">
        <ele>61.49072265625</ele>
        <time>2023-05-19T13:36:47Z</time>
      </trkpt>
      <trkpt lat="36.02716521131446" lon="119.40489172888756">
        <ele>62.052978515625</ele>
        <time>2023-05-19T13:36:50Z</time>
      </trkpt>
      <trkpt lat="36.02712311039449" lon="119.4045854985493">
        <ele>64.84588623046875</ele>
        <time>2023-05-19T13:37:02Z</time>
      </trkpt>
      <trkpt lat="36.0270390847012" lon="119.404457411236">
        <ele>62.39544677734375</ele>
        <time>2023-05-19T13:37:08Z</time>
      </trkpt>
      <trkpt lat="36.02688707709596" lon="119.40433433621303">
        <ele>61.955810546875</ele>
        <time>2023-05-19T13:37:17Z</time>
      </trkpt>
      <trkpt lat="36.02672410396013" lon="119.40430333143762">
        <ele>62.524658203125</ele>
        <time>2023-05-19T13:37:26Z</time>
      </trkpt>
      <trkpt lat="36.02662713448376" lon="119.40432736018417">
        <ele>64.4378662109375</ele>
        <time>2023-05-19T13:37:32Z</time>
      </trkpt>
      <trkpt lat="36.02658911763231" lon="119.40425230875232">
        <ele>63.5670166015625</ele>
        <time>2023-05-19T13:37:41Z</time>
      </trkpt>
      <trkpt lat="36.02653904368456" lon="119.40399612665965">
        <ele>63.496337890625</ele>
        <time>2023-05-19T13:37:50Z</time>
      </trkpt>
      <trkpt lat="36.02652994622138" lon="119.40368590535594">
        <ele>63.09185791015625</ele>
        <time>2023-05-19T13:38:02Z</time>
      </trkpt>
      <trkpt lat="36.02655891332396" lon="119.40360184280054">
        <ele>62.9281005859375</ele>
        <time>2023-05-19T13:38:08Z</time>
      </trkpt>
      <trkpt lat="36.02659889143792" lon="119.4035608095117">
        <ele>62.82135009765625</ele>
        <time>2023-05-19T13:38:11Z</time>
      </trkpt>
      <trkpt lat="36.026615866042334" lon="119.40349075865572">
        <ele>61.71942138671875</ele>
        <time>2023-05-19T13:38:14Z</time>
      </trkpt>
      <trkpt lat="36.026613846143015" lon="119.403423712291">
        <ele>59.31085205078125</ele>
        <time>2023-05-19T13:38:17Z</time>
      </trkpt>
      <trkpt lat="36.02653882772756" lon="119.40330463859075">
        <ele>63.0880126953125</ele>
        <time>2023-05-19T13:38:23Z</time>
      </trkpt>
      <trkpt lat="36.02647983655043" lon="119.40328863423412">
        <ele>62.22021484375</ele>
        <time>2023-05-19T13:38:26Z</time>
      </trkpt>
      <trkpt lat="36.02641785585444" lon="119.40330565286098">
        <ele>63.148193359375</ele>
        <time>2023-05-19T13:38:29Z</time>
      </trkpt>
      <trkpt lat="36.02636887814752" lon="119.40334268381069">
        <ele>62.94085693359375</ele>
        <time>2023-05-19T13:38:32Z</time>
      </trkpt>
      <trkpt lat="36.026333904203" lon="119.40340272917354">
        <ele>62.724365234375</ele>
        <time>2023-05-19T13:38:35Z</time>
      </trkpt>
      <trkpt lat="36.02632592969081" lon="119.40348078424101">
        <ele>63.55780029296875</ele>
        <time>2023-05-19T13:38:38Z</time>
      </trkpt>
      <trkpt lat="36.0263439479294" lon="119.40355383323029">
        <ele>63.20806884765625</ele>
        <time>2023-05-19T13:38:41Z</time>
      </trkpt>
      <trkpt lat="36.02641696093212" lon="119.40364989257775">
        <ele>63.45880126953125</ele>
        <time>2023-05-19T13:38:50Z</time>
      </trkpt>
      <trkpt lat="36.026450082263885" lon="119.40405117666344">
        <ele>63.42987060546875</ele>
        <time>2023-05-19T13:39:08Z</time>
      </trkpt>
      <trkpt lat="36.02646617048358" lon="119.40432437602277">
        <ele>64.842529296875</ele>
        <time>2023-05-19T13:39:17Z</time>
      </trkpt>
      <trkpt lat="36.02648225425106" lon="119.40457556291098">
        <ele>65.2264404296875</ele>
        <time>2023-05-19T13:39:26Z</time>
      </trkpt>
      <trkpt lat="36.02644633605245" lon="119.40478072371513">
        <ele>65.4930419921875</ele>
        <time>2023-05-19T13:39:35Z</time>
      </trkpt>
      <trkpt lat="36.02644639400654" lon="119.40493884616912">
        <ele>66.8353271484375</ele>
        <time>2023-05-19T13:39:41Z</time>
      </trkpt>
      <trkpt lat="36.02646241636107" lon="119.40500889907909">
        <ele>66.2181396484375</ele>
        <time>2023-05-19T13:39:44Z</time>
      </trkpt>
      <trkpt lat="36.02657344052491" lon="119.4051409905384">
        <ele>61.0120849609375</ele>
        <time>2023-05-19T13:39:53Z</time>
      </trkpt>
      <trkpt lat="36.026708418597416" lon="119.40516499438611">
        <ele>61.9560546875</ele>
        <time>2023-05-19T13:39:59Z</time>
      </trkpt>
      <trkpt lat="36.026868369272336" lon="119.40513195030886">
        <ele>60.0672607421875</ele>
        <time>2023-05-19T13:40:05Z</time>
      </trkpt>
      <trkpt lat="36.026963306755825" lon="119.40502385460216">
        <ele>60.85382080078125</ele>
        <time>2023-05-19T13:40:11Z</time>
      </trkpt>
      <trkpt lat="36.02699527183269" lon="119.40494979312315">
        <ele>62.867431640625</ele>
        <time>2023-05-19T13:40:14Z</time>
      </trkpt>
      <trkpt lat="36.027001209875934" lon="119.40478466449929">
        <ele>64.67767333984375</ele>
        <time>2023-05-19T13:40:20Z</time>
      </trkpt>
      <trkpt lat="36.026951172004615" lon="119.40464756505138">
        <ele>64.322265625</ele>
        <time>2023-05-19T13:40:26Z</time>
      </trkpt>
      <trkpt lat="36.02689316256759" lon="119.40458352284858">
        <ele>62.6005859375</ele>
        <time>2023-05-19T13:40:29Z</time>
      </trkpt>
      <trkpt lat="36.02679215793523" lon="119.4045044743768">
        <ele>63.6651611328125</ele>
        <time>2023-05-19T13:40:38Z</time>
      </trkpt>
      <trkpt lat="36.026660184083454" lon="119.40449248014016">
        <ele>64.80194091796875</ele>
        <time>2023-05-19T13:40:47Z</time>
      </trkpt>
      <trkpt lat="36.02655122883891" lon="119.404548534697">
        <ele>62.7708740234375</ele>
        <time>2023-05-19T13:40:53Z</time>
      </trkpt>
      <trkpt lat="36.02645529537226" lon="119.4046736405839">
        <ele>62.99920654296875</ele>
        <time>2023-05-19T13:40:59Z</time>
      </trkpt>
      <trkpt lat="36.02642335298952" lon="119.40481275098293">
        <ele>65.3314208984375</ele>
        <time>2023-05-19T13:41:05Z</time>
      </trkpt>
      <trkpt lat="36.0264464069963" lon="119.40497387348722">
        <ele>64.72344970703125</ele>
        <time>2023-05-19T13:41:11Z</time>
      </trkpt>
      <trkpt lat="36.02649743042561" lon="119.40506794147635">
        <ele>63.24664306640625</ele>
        <time>2023-05-19T13:41:14Z</time>
      </trkpt>
      <trkpt lat="36.026570441973824" lon="119.4051429924573">
        <ele>63.72979736328125</ele>
        <time>2023-05-19T13:41:17Z</time>
      </trkpt>
      <trkpt lat="36.0268494163743" lon="119.4052440413357">
        <ele>62.7908935546875</ele>
        <time>2023-05-19T13:41:26Z</time>
      </trkpt>
      <trkpt lat="36.026978420296246" lon="119.4053310964006">
        <ele>63.2587890625</ele>
        <time>2023-05-19T13:41:32Z</time>
      </trkpt>
      <trkpt lat="36.027173492274926" lon="119.40562731435281">
        <ele>64.41668701171875</ele>
        <time>2023-05-19T13:41:44Z</time>
      </trkpt>
      <trkpt lat="36.02730553202656" lon="119.4058004420244">
        <ele>64.388916015625</ele>
        <time>2023-05-19T13:41:50Z</time>
      </trkpt>
      <trkpt lat="36.027448517198266" lon="119.40584446248532">
        <ele>62.58795166015625</ele>
        <time>2023-05-19T13:41:56Z</time>
      </trkpt>
      <trkpt lat="36.02774244018367" lon="119.40582141038612">
        <ele>60.51226806640625</ele>
        <time>2023-05-19T13:42:08Z</time>
      </trkpt>
      <trkpt lat="36.0279423493932" lon="119.40571129700822">
        <ele>60.8314208984375</ele>
        <time>2023-05-19T13:42:17Z</time>
      </trkpt>
      <trkpt lat="36.02816021167141" lon="119.405492093559">
        <ele>62.5428466796875</ele>
        <time>2023-05-19T13:42:29Z</time>
      </trkpt>
      <trkpt lat="36.02827512297951" lon="119.40533295241775">
        <ele>61.92193603515625</ele>
        <time>2023-05-19T13:42:35Z</time>
      </trkpt>
      <trkpt lat="36.028363073399966" lon="119.40525688175451">
        <ele>61.944580078125</ele>
        <time>2023-05-19T13:42:38Z</time>
      </trkpt>
      <trkpt lat="36.028540902484046" lon="119.4049115899751">
        <ele>62.53131103515625</ele>
        <time>2023-05-19T13:42:47Z</time>
      </trkpt>
      <trkpt lat="36.02866876543324" lon="119.40461434704878">
        <ele>61.74517822265625</ele>
        <time>2023-05-19T13:42:56Z</time>
      </trkpt>
      <trkpt lat="36.02876162638439" lon="119.40427608260381">
        <ele>63.0521240234375</ele>
        <time>2023-05-19T13:43:08Z</time>
      </trkpt>
      <trkpt lat="36.028792567344674" lon="119.40412196554777">
        <ele>62.7186279296875</ele>
        <time>2023-05-19T13:43:14Z</time>
      </trkpt>
      <trkpt lat="36.02878555730083" lon="119.40408694070895">
        <ele>61.89691162109375</ele>
        <time>2023-05-19T13:43:17Z</time>
      </trkpt>
    </trkseg>
  </trk>
</gpx>