<?xml version="1.0" encoding="UTF-8"?>
<gpx xmlns="http://www.topografix.com/GPX/1/1" xmlns:gpxtpx="http://www.garmin.com/xmlschemas/TrackPointExtension/v1" xmlns:xsi="http://www.w3.org/2001/XMLSchema-instance" xsi:schemaLocation="http://www.topografix.com/GPX/1/1 http://www.topografix.com/GPX/1/1/gpx.xsd" version="1.1" creator="gpx.py -- https://github.com/tkrajina/gpxpy">
  <trk>
    <name>gpx from keep</name>
    <type>Run</type>
    <trkseg>
      <trkpt lat="30.522129239368528" lon="114.39241676129943">
        <ele>19.01409912109375</ele>
        <time>2021-03-24T13:06:00Z</time>
      </trkpt>
      <trkpt lat="30.522098537741645" lon="114.3927309769889">
        <ele>19.762451171875</ele>
        <time>2021-03-24T13:06:09Z</time>
      </trkpt>
      <trkpt lat="30.522116408478535" lon="114.39288699833726">
        <ele>18.97882080078125</ele>
        <time>2021-03-24T13:06:12Z</time>
      </trkpt>
      <trkpt lat="30.522155437062857" lon="114.39301507026438">
        <ele>19.7191162109375</ele>
        <time>2021-03-24T13:06:15Z</time>
      </trkpt>
      <trkpt lat="30.522225657107374" lon="114.39311302058903">
        <ele>18.41229248046875</ele>
        <time>2021-03-24T13:06:18Z</time>
      </trkpt>
      <trkpt lat="30.522325709437204" lon="114.39319902939779">
        <ele>19.5826416015625</ele>
        <time>2021-03-24T13:06:21Z</time>
      </trkpt>
      <trkpt lat="30.522420615682385" lon="114.39324596458782">
        <ele>18.15997314453125</ele>
        <time>2021-03-24T13:06:24Z</time>
      </trkpt>
      <trkpt lat="30.522500613023322" lon="114.39325409809585">
        <ele>17.91058349609375</ele>
        <time>2021-03-24T13:06:27Z</time>
      </trkpt>
      <trkpt lat="30.522500613023322" lon="114.39325409809585">
        <ele>17.91058349609375</ele>
        <time>2021-03-24T13:06:29Z</time>
      </trkpt>
      <trkpt lat="30.52296676378581" lon="114.39332216632724">
        <ele>17.2723388671875</ele>
        <time>2021-03-24T13:07:12Z</time>
      </trkpt>
      <trkpt lat="30.523119717443993" lon="114.39327493795106">
        <ele>17.190673828125</ele>
        <time>2021-03-24T13:07:18Z</time>
      </trkpt>
      <trkpt lat="30.523263717611684" lon="114.39325701625279">
        <ele>12.8828125</ele>
        <time>2021-03-24T13:07:21Z</time>
      </trkpt>
      <trkpt lat="30.523397688782673" lon="114.39320897563613">
        <ele>15.86151123046875</ele>
        <time>2021-03-24T13:07:24Z</time>
      </trkpt>
      <trkpt lat="30.52351051476425" lon="114.39311806391109">
        <ele>18.48187255859375</ele>
        <time>2021-03-24T13:07:27Z</time>
      </trkpt>
      <trkpt lat="30.523592699791575" lon="114.39301385926254">
        <ele>17.4810791015625</ele>
        <time>2021-03-24T13:07:30Z</time>
      </trkpt>
      <trkpt lat="30.5236247268283" lon="114.3928507776303">
        <ele>21.3779296875</ele>
        <time>2021-03-24T13:07:33Z</time>
      </trkpt>
      <trkpt lat="30.523632612332886" lon="114.39272975754">
        <ele>22.32977294921875</ele>
        <time>2021-03-24T13:07:36Z</time>
      </trkpt>
      <trkpt lat="30.52361338122215" lon="114.39260385637954">
        <ele>22.93115234375</ele>
        <time>2021-03-24T13:07:39Z</time>
      </trkpt>
      <trkpt lat="30.523544524796396" lon="114.39247687496221">
        <ele>23.18292236328125</ele>
        <time>2021-03-24T13:07:42Z</time>
      </trkpt>
      <trkpt lat="30.5234686133421" lon="114.3923756720826">
        <ele>22.51605224609375</ele>
        <time>2021-03-24T13:07:45Z</time>
      </trkpt>
      <trkpt lat="30.52328666597189" lon="114.39229672862636">
        <ele>22.6875</ele>
        <time>2021-03-24T13:07:51Z</time>
      </trkpt>
      <trkpt lat="30.52297426702465" lon="114.39228563109624">
        <ele>24.83258056640625</ele>
        <time>2021-03-24T13:08:00Z</time>
      </trkpt>
      <trkpt lat="30.522709605827924" lon="114.39222487475223">
        <ele>21.60284423828125</ele>
        <time>2021-03-24T13:08:09Z</time>
      </trkpt>
      <trkpt lat="30.52263937281745" lon="114.39220968604953">
        <ele>23.217041015625</ele>
        <time>2021-03-24T13:08:12Z</time>
      </trkpt>
      <trkpt lat="30.522489675692015" lon="114.39223384808179">
        <ele>20.56719970703125</ele>
        <time>2021-03-24T13:08:21Z</time>
      </trkpt>
      <trkpt lat="30.522332375627805" lon="114.3923079368706">
        <ele>17.7603759765625</ele>
        <time>2021-03-24T13:08:30Z</time>
      </trkpt>
      <trkpt lat="30.522238530429917" lon="114.3923917885698">
        <ele>17.47332763671875</ele>
        <time>2021-03-24T13:08:33Z</time>
      </trkpt>
      <trkpt lat="30.52215769713739" lon="114.39250277347085">
        <ele>15.83758544921875</ele>
        <time>2021-03-24T13:08:36Z</time>
      </trkpt>
      <trkpt lat="30.52211645910291" lon="114.39260181647712">
        <ele>15.48638916015625</ele>
        <time>2021-03-24T13:08:39Z</time>
      </trkpt>
      <trkpt lat="30.522112622476588" lon="114.39282594608491">
        <ele>16.7314453125</ele>
        <time>2021-03-24T13:08:45Z</time>
      </trkpt>
      <trkpt lat="30.522235698780097" lon="114.39306417709635">
        <ele>16.322509765625</ele>
        <time>2021-03-24T13:08:51Z</time>
      </trkpt>
      <trkpt lat="30.522310804163265" lon="114.39313797719538">
        <ele>16.82635498046875</ele>
        <time>2021-03-24T13:08:54Z</time>
      </trkpt>
      <trkpt lat="30.522406796434705" lon="114.39317595763241">
        <ele>16.34698486328125</ele>
        <time>2021-03-24T13:08:57Z</time>
      </trkpt>
      <trkpt lat="30.52248759710358" lon="114.39324894358334">
        <ele>13.973388671875</ele>
        <time>2021-03-24T13:09:00Z</time>
      </trkpt>
      <trkpt lat="30.52278345475158" lon="114.39325895767759">
        <ele>14.2020263671875</ele>
        <time>2021-03-24T13:09:09Z</time>
      </trkpt>
      <trkpt lat="30.522875659462663" lon="114.39323995512076">
        <ele>16.337890625</ele>
        <time>2021-03-24T13:09:12Z</time>
      </trkpt>
      <trkpt lat="30.522971655718443" lon="114.39325297152787">
        <ele>17.1837158203125</ele>
        <time>2021-03-24T13:09:15Z</time>
      </trkpt>
      <trkpt lat="30.523296532136314" lon="114.39324697343444">
        <ele>16.05078125</ele>
        <time>2021-03-24T13:09:24Z</time>
      </trkpt>
      <trkpt lat="30.523377619774397" lon="114.39321901732207">
        <ele>17.5462646484375</ele>
        <time>2021-03-24T13:09:27Z</time>
      </trkpt>
      <trkpt lat="30.523504551714407" lon="114.39309988410744">
        <ele>18.40240478515625</ele>
        <time>2021-03-24T13:09:33Z</time>
      </trkpt>
      <trkpt lat="30.523586465099836" lon="114.39299893573431">
        <ele>17.29766845703125</ele>
        <time>2021-03-24T13:09:36Z</time>
      </trkpt>
      <trkpt lat="30.523632606794976" lon="114.39276096202687">
        <ele>20.72894287109375</ele>
        <time>2021-03-24T13:09:42Z</time>
      </trkpt>
      <trkpt lat="30.523582484930476" lon="114.39250481966708">
        <ele>20.95306396484375</ele>
        <time>2021-03-24T13:09:48Z</time>
      </trkpt>
      <trkpt lat="30.523429567683085" lon="114.39235261173397">
        <ele>25.7095947265625</ele>
        <time>2021-03-24T13:09:54Z</time>
      </trkpt>
      <trkpt lat="30.523269587482204" lon="114.39226661167994">
        <ele>24.18536376953125</ele>
        <time>2021-03-24T13:10:00Z</time>
      </trkpt>
      <trkpt lat="30.52307921960629" lon="114.39225875954403">
        <ele>24.0286865234375</ele>
        <time>2021-03-24T13:10:06Z</time>
      </trkpt>
      <trkpt lat="30.52299433563988" lon="114.39227965992161">
        <ele>24.43896484375</ele>
        <time>2021-03-24T13:10:09Z</time>
      </trkpt>
      <trkpt lat="30.522733457533295" lon="114.39228673749226">
        <ele>23.403564453125</ele>
        <time>2021-03-24T13:10:18Z</time>
      </trkpt>
      <trkpt lat="30.522655361935023" lon="114.39226286664426">
        <ele>24.01458740234375</ele>
        <time>2021-03-24T13:10:21Z</time>
      </trkpt>
      <trkpt lat="30.52242268567014" lon="114.3922748258131">
        <ele>21.8487548828125</ele>
        <time>2021-03-24T13:10:30Z</time>
      </trkpt>
      <trkpt lat="30.52227732301729" lon="114.39232177990584">
        <ele>19.9552001953125</ele>
        <time>2021-03-24T13:10:36Z</time>
      </trkpt>
      <trkpt lat="30.522159595410034" lon="114.39250277330495">
        <ele>21.31298828125</ele>
        <time>2021-03-24T13:10:42Z</time>
      </trkpt>
      <trkpt lat="30.52211048089113" lon="114.39266883845272">
        <ele>18.85235595703125</ele>
        <time>2021-03-24T13:10:48Z</time>
      </trkpt>
      <trkpt lat="30.52212047550859" lon="114.39289106816045">
        <ele>18.03350830078125</ele>
        <time>2021-03-24T13:10:54Z</time>
      </trkpt>
      <trkpt lat="30.52215163804694" lon="114.39302999468107">
        <ele>18.9207763671875</ele>
        <time>2021-03-24T13:10:57Z</time>
      </trkpt>
      <trkpt lat="30.522230813301096" lon="114.39308995555578">
        <ele>16.2744140625</ele>
        <time>2021-03-24T13:11:00Z</time>
      </trkpt>
      <trkpt lat="30.52229181360527" lon="114.39318709299384">
        <ele>16.65380859375</ele>
        <time>2021-03-24T13:11:03Z</time>
      </trkpt>
      <trkpt lat="30.522372618845793" lon="114.39323104454182">
        <ele>15.33074951171875</ele>
        <time>2021-03-24T13:11:06Z</time>
      </trkpt>
      <trkpt lat="30.522551592867345" lon="114.39326901789782">
        <ele>14.73095703125</ele>
        <time>2021-03-24T13:11:12Z</time>
      </trkpt>
      <trkpt lat="30.522713493142046" lon="114.39323806984483">
        <ele>14.0350341796875</ele>
        <time>2021-03-24T13:11:18Z</time>
      </trkpt>
      <trkpt lat="30.522856677046327" lon="114.3932380573309">
        <ele>14.04473876953125</ele>
        <time>2021-03-24T13:11:24Z</time>
      </trkpt>
      <trkpt lat="30.522919859569797" lon="114.39325596090522">
        <ele>13.75408935546875</ele>
        <time>2021-03-24T13:11:27Z</time>
      </trkpt>
      <trkpt lat="30.523097754515256" lon="114.39325703075778">
        <ele>12.01123046875</ele>
        <time>2021-03-24T13:11:33Z</time>
      </trkpt>
      <trkpt lat="30.52318562029461" lon="114.3932380285818">
        <ele>10.999267578125</ele>
        <time>2021-03-24T13:11:36Z</time>
      </trkpt>
      <trkpt lat="30.523249618032054" lon="114.39324507808517">
        <ele>10.84539794921875</ele>
        <time>2021-03-24T13:11:39Z</time>
      </trkpt>
      <trkpt lat="30.523485565458433" lon="114.39312186496751">
        <ele>15.2684326171875</ele>
        <time>2021-03-24T13:11:48Z</time>
      </trkpt>
      <trkpt lat="30.523545507283483" lon="114.39305592219675">
        <ele>17.08477783203125</ele>
        <time>2021-03-24T13:11:51Z</time>
      </trkpt>
      <trkpt lat="30.523571549308596" lon="114.39300382127891">
        <ele>19.7523193359375</ele>
        <time>2021-03-24T13:11:54Z</time>
      </trkpt>
      <trkpt lat="30.52360168790453" lon="114.39278484297665">
        <ele>25.3076171875</ele>
        <time>2021-03-24T13:12:00Z</time>
      </trkpt>
      <trkpt lat="30.523574592086323" lon="114.39265975619534">
        <ele>25.809326171875</ele>
        <time>2021-03-24T13:12:03Z</time>
      </trkpt>
      <trkpt lat="30.523528509194083" lon="114.39256180590682">
        <ele>25.9874267578125</ele>
        <time>2021-03-24T13:12:06Z</time>
      </trkpt>
      <trkpt lat="30.523413553490688" lon="114.39242777395589">
        <ele>26.287841796875</ele>
        <time>2021-03-24T13:12:12Z</time>
      </trkpt>
      <trkpt lat="30.52333356633475" lon="114.39236862908558">
        <ele>27.342041015625</ele>
        <time>2021-03-24T13:12:15Z</time>
      </trkpt>
      <trkpt lat="30.5231646260521" lon="114.39233879664569">
        <ele>24.40325927734375</ele>
        <time>2021-03-24T13:12:21Z</time>
      </trkpt>
      <trkpt lat="30.523104422005794" lon="114.39234775606467">
        <ele>24.56915283203125</ele>
        <time>2021-03-24T13:12:24Z</time>
      </trkpt>
      <trkpt lat="30.522823482378282" lon="114.39232471688855">
        <ele>23.42242431640625</ele>
        <time>2021-03-24T13:12:33Z</time>
      </trkpt>
      <trkpt lat="30.522627415499805" lon="114.39233775824555">
        <ele>17.68707275390625</ele>
        <time>2021-03-24T13:12:39Z</time>
      </trkpt>
      <trkpt lat="30.52246145579684" lon="114.39231986444845">
        <ele>17.938232421875</ele>
        <time>2021-03-24T13:12:45Z</time>
      </trkpt>
      <trkpt lat="30.522334537076492" lon="114.39234890870442">
        <ele>18.089111328125</ele>
        <time>2021-03-24T13:12:51Z</time>
      </trkpt>
      <trkpt lat="30.522220623797327" lon="114.39243683241244">
        <ele>17.477294921875</ele>
        <time>2021-03-24T13:12:57Z</time>
      </trkpt>
      <trkpt lat="30.52216365507039" lon="114.3925459160836">
        <ele>16.5899658203125</ele>
        <time>2021-03-24T13:13:00Z</time>
      </trkpt>
      <trkpt lat="30.522125668693246" lon="114.39265988282959">
        <ele>14.76715087890625</ele>
        <time>2021-03-24T13:13:03Z</time>
      </trkpt>
      <trkpt lat="30.522125649715964" lon="114.39276597791779">
        <ele>12.1591796875</ele>
        <time>2021-03-24T13:13:06Z</time>
      </trkpt>
      <trkpt lat="30.522216451978164" lon="114.39302103456451">
        <ele>13.40948486328125</ele>
        <time>2021-03-24T13:13:12Z</time>
      </trkpt>
      <trkpt lat="30.522295623763263" lon="114.39310216054979">
        <ele>14.8240966796875</ele>
        <time>2021-03-24T13:13:15Z</time>
      </trkpt>
      <trkpt lat="30.522492758804027" lon="114.39319006027293">
        <ele>13.76409912109375</ele>
        <time>2021-03-24T13:13:21Z</time>
      </trkpt>
      <trkpt lat="30.522773430253302" lon="114.39320007566573">
        <ele>14.4658203125</ele>
        <time>2021-03-24T13:13:30Z</time>
      </trkpt>
      <trkpt lat="30.522960820100582" lon="114.39317889405157">
        <ele>16.32281494140625</ele>
        <time>2021-03-24T13:13:36Z</time>
      </trkpt>
      <trkpt lat="30.52321463999194" lon="114.39321713211943">
        <ele>14.42022705078125</ele>
        <time>2021-03-24T13:13:45Z</time>
      </trkpt>
      <trkpt lat="30.52332555356915" lon="114.39321495162937">
        <ele>16.26080322265625</ele>
        <time>2021-03-24T13:13:48Z</time>
      </trkpt>
      <trkpt lat="30.523415589115093" lon="114.39319404985754">
        <ele>18.7724609375</ele>
        <time>2021-03-24T13:13:51Z</time>
      </trkpt>
      <trkpt lat="30.523483663784827" lon="114.39314303031202">
        <ele>18.1656494140625</ele>
        <time>2021-03-24T13:13:54Z</time>
      </trkpt>
      <trkpt lat="30.523614687414756" lon="114.39288388259278">
        <ele>14.39508056640625</ele>
        <time>2021-03-24T13:14:03Z</time>
      </trkpt>
      <trkpt lat="30.523616599029427" lon="114.39280682053915">
        <ele>16.92913818359375</ele>
        <time>2021-03-24T13:14:06Z</time>
      </trkpt>
      <trkpt lat="30.52359465334317" lon="114.39269394359216">
        <ele>18.6285400390625</ele>
        <time>2021-03-24T13:14:09Z</time>
      </trkpt>
      <trkpt lat="30.523616362029287" lon="114.3926157951487">
        <ele>18.5997314453125</ele>
        <time>2021-03-24T13:14:12Z</time>
      </trkpt>
      <trkpt lat="30.523567294450512" lon="114.39252788492534">
        <ele>19.07891845703125</ele>
        <time>2021-03-24T13:14:15Z</time>
      </trkpt>
      <trkpt lat="30.52348053339434" lon="114.39243780765459">
        <ele>19.5802001953125</ele>
        <time>2021-03-24T13:14:18Z</time>
      </trkpt>
      <trkpt lat="30.523394580960204" lon="114.39237486453759">
        <ele>20.552978515625</ele>
        <time>2021-03-24T13:14:21Z</time>
      </trkpt>
      <trkpt lat="30.523086256756834" lon="114.39232767863871">
        <ele>22.10150146484375</ele>
        <time>2021-03-24T13:14:30Z</time>
      </trkpt>
      <trkpt lat="30.522807482078722" lon="114.39232770300355">
        <ele>24.14697265625</ele>
        <time>2021-03-24T13:14:39Z</time>
      </trkpt>
      <trkpt lat="30.522580501862073" lon="114.39233369227581">
        <ele>21.20599365234375</ele>
        <time>2021-03-24T13:14:48Z</time>
      </trkpt>
      <trkpt lat="30.52236057443917" lon="114.39232882741418">
        <ele>20.982177734375</ele>
        <time>2021-03-24T13:14:57Z</time>
      </trkpt>
      <trkpt lat="30.52226972231491" lon="114.39236085325184">
        <ele>21.24188232421875</ele>
        <time>2021-03-24T13:15:00Z</time>
      </trkpt>
      <trkpt lat="30.522209502863365" lon="114.39244985767567">
        <ele>18.477294921875</ele>
        <time>2021-03-24T13:15:03Z</time>
      </trkpt>
      <trkpt lat="30.522142458593454" lon="114.39279094007756">
        <ele>20.1451416015625</ele>
        <time>2021-03-24T13:15:15Z</time>
      </trkpt>
      <trkpt lat="30.522198558625234" lon="114.39299308740888">
        <ele>19.75860595703125</ele>
        <time>2021-03-24T13:15:21Z</time>
      </trkpt>
      <trkpt lat="30.522316770641545" lon="114.39313499184054">
        <ele>17.94989013671875</ele>
        <time>2021-03-24T13:15:27Z</time>
      </trkpt>
      <trkpt lat="30.522497640375704" lon="114.39318816040202">
        <ele>17.32611083984375</ele>
        <time>2021-03-24T13:15:33Z</time>
      </trkpt>
      <trkpt lat="30.522772615766588" lon="114.39320604542297">
        <ele>18.228271484375</ele>
        <time>2021-03-24T13:15:42Z</time>
      </trkpt>
      <trkpt lat="30.522920682816398" lon="114.39319409311184">
        <ele>16.55218505859375</ele>
        <time>2021-03-24T13:15:48Z</time>
      </trkpt>
      <trkpt lat="30.523179656808047" lon="114.39322201946943">
        <ele>17.47265625</ele>
        <time>2021-03-24T13:15:57Z</time>
      </trkpt>
      <trkpt lat="30.523244743661834" lon="114.39320111987104">
        <ele>19.15283203125</ele>
        <time>2021-03-24T13:16:00Z</time>
      </trkpt>
      <trkpt lat="30.523400675724293" lon="114.39318401124119">
        <ele>19.94866943359375</ele>
        <time>2021-03-24T13:16:06Z</time>
      </trkpt>
      <trkpt lat="30.523475529299336" lon="114.39313706135509">
        <ele>16.8984375</ele>
        <time>2021-03-24T13:16:09Z</time>
      </trkpt>
      <trkpt lat="30.523598668444496" lon="114.39299784928102">
        <ele>17.24163818359375</ele>
        <time>2021-03-24T13:16:15Z</time>
      </trkpt>
      <trkpt lat="30.523639648927606" lon="114.3928098033106">
        <ele>20.7825927734375</ele>
        <time>2021-03-24T13:16:21Z</time>
      </trkpt>
      <trkpt lat="30.52357135863122" lon="114.39254687841456">
        <ele>22.7745361328125</ele>
        <time>2021-03-24T13:16:30Z</time>
      </trkpt>
      <trkpt lat="30.523525539842435" lon="114.39248881557805">
        <ele>21.812255859375</ele>
        <time>2021-03-24T13:16:33Z</time>
      </trkpt>
      <trkpt lat="30.523498438853352" lon="114.3923987332627">
        <ele>23.78277587890625</ele>
        <time>2021-03-24T13:16:36Z</time>
      </trkpt>
      <trkpt lat="30.5234303835508" lon="114.39234067278456">
        <ele>24.75537109375</ele>
        <time>2021-03-24T13:16:39Z</time>
      </trkpt>
      <trkpt lat="30.523294528635315" lon="114.39230486806534">
        <ele>22.16998291015625</ele>
        <time>2021-03-24T13:16:45Z</time>
      </trkpt>
      <trkpt lat="30.523210459069038" lon="114.39232169835063">
        <ele>22.67877197265625</ele>
        <time>2021-03-24T13:16:48Z</time>
      </trkpt>
      <trkpt lat="30.523108227940835" lon="114.39229972893453">
        <ele>22.14398193359375</ele>
        <time>2021-03-24T13:16:51Z</time>
      </trkpt>
      <trkpt lat="30.52285927835238" lon="114.39232471376">
        <ele>21.7991943359375</ele>
        <time>2021-03-24T13:17:00Z</time>
      </trkpt>
      <trkpt lat="30.522639353918496" lon="114.39230492532752">
        <ele>22.06732177734375</ele>
        <time>2021-03-24T13:17:06Z</time>
      </trkpt>
      <trkpt lat="30.522548504914205" lon="114.3923209421917">
        <ele>23.26177978515625</ele>
        <time>2021-03-24T13:17:09Z</time>
      </trkpt>
      <trkpt lat="30.522468509287922" lon="114.39230575427186">
        <ele>23.490234375</ele>
        <time>2021-03-24T13:17:12Z</time>
      </trkpt>
      <trkpt lat="30.52236545512776" lon="114.39233181170478">
        <ele>24.2666015625</ele>
        <time>2021-03-24T13:17:15Z</time>
      </trkpt>
      <trkpt lat="30.522300633936766" lon="114.39237685951747">
        <ele>18.55133056640625</ele>
        <time>2021-03-24T13:17:18Z</time>
      </trkpt>
      <trkpt lat="30.52221872036524" lon="114.39246396652824">
        <ele>18.7003173828125</ele>
        <time>2021-03-24T13:17:21Z</time>
      </trkpt>
      <trkpt lat="30.522171514510934" lon="114.39257196412457">
        <ele>19.1009521484375</ele>
        <time>2021-03-24T13:17:24Z</time>
      </trkpt>
      <trkpt lat="30.52215249251092" lon="114.39278985382485">
        <ele>17.51531982421875</ele>
        <time>2021-03-24T13:17:30Z</time>
      </trkpt>
      <trkpt lat="30.52217443559761" lon="114.39292091144561">
        <ele>19.09588623046875</ele>
        <time>2021-03-24T13:17:33Z</time>
      </trkpt>
      <trkpt lat="30.522216447500256" lon="114.39304816928014">
        <ele>18.43902587890625</ele>
        <time>2021-03-24T13:17:36Z</time>
      </trkpt>
      <trkpt lat="30.52226768800707" lon="114.39312712702599">
        <ele>19.44085693359375</ele>
        <time>2021-03-24T13:17:39Z</time>
      </trkpt>
      <trkpt lat="30.522348763066677" lon="114.39317894754363">
        <ele>18.653564453125</ele>
        <time>2021-03-24T13:17:42Z</time>
      </trkpt>
      <trkpt lat="30.522460755251405" lon="114.39321611260908">
        <ele>20.803955078125</ele>
        <time>2021-03-24T13:17:45Z</time>
      </trkpt>
      <trkpt lat="30.522762580806738" lon="114.39321391543426">
        <ele>19.7530517578125</ele>
        <time>2021-03-24T13:17:54Z</time>
      </trkpt>
      <trkpt lat="30.523063868582437" lon="114.39318214123413">
        <ele>17.2293701171875</ele>
        <time>2021-03-24T13:18:03Z</time>
      </trkpt>
      <trkpt lat="30.523267794090163" lon="114.39320111785645">
        <ele>14.88543701171875</ele>
        <time>2021-03-24T13:18:09Z</time>
      </trkpt>
      <trkpt lat="30.523445701916092" lon="114.3931210544067">
        <ele>15.90301513671875</ele>
        <time>2021-03-24T13:18:15Z</time>
      </trkpt>
      <trkpt lat="30.52358565672839" lon="114.39296800230588">
        <ele>16.9400634765625</ele>
        <time>2021-03-24T13:18:21Z</time>
      </trkpt>
      <trkpt lat="30.523614690352986" lon="114.39286678785349">
        <ele>16.084228515625</ele>
        <time>2021-03-24T13:18:24Z</time>
      </trkpt>
      <trkpt lat="30.523612562911097" lon="114.39262990525198">
        <ele>19.635498046875</ele>
        <time>2021-03-24T13:18:30Z</time>
      </trkpt>
      <trkpt lat="30.52349842816796" lon="114.39245462913595">
        <ele>19.7701416015625</ele>
        <time>2021-03-24T13:18:36Z</time>
      </trkpt>
      <trkpt lat="30.523318657152018" lon="114.39233878318325">
        <ele>25.70208740234375</ele>
        <time>2021-03-24T13:18:42Z</time>
      </trkpt>
      <trkpt lat="30.523045309667644" lon="114.39232089877135">
        <ele>26.6097412109375</ele>
        <time>2021-03-24T13:18:51Z</time>
      </trkpt>
      <trkpt lat="30.522741321373243" lon="114.39228890750391">
        <ele>24.99615478515625</ele>
        <time>2021-03-24T13:19:00Z</time>
      </trkpt>
      <trkpt lat="30.522540649717936" lon="114.39227481550326">
        <ele>26.09423828125</ele>
        <time>2021-03-24T13:19:06Z</time>
      </trkpt>
      <trkpt lat="30.5223516252293" lon="114.39232991354797">
        <ele>23.4708251953125</ele>
        <time>2021-03-24T13:19:15Z</time>
      </trkpt>
      <trkpt lat="30.52221872149763" lon="114.39245799705621">
        <ele>23.4771728515625</ele>
        <time>2021-03-24T13:19:21Z</time>
      </trkpt>
      <trkpt lat="30.522187524691997" lon="114.39251579519674">
        <ele>22.47003173828125</ele>
        <time>2021-03-24T13:19:24Z</time>
      </trkpt>
      <trkpt lat="30.522169605225983" lon="114.39263193075814">
        <ele>21.093505859375</ele>
        <time>2021-03-24T13:19:27Z</time>
      </trkpt>
      <trkpt lat="30.522144647057946" lon="114.39268403064415">
        <ele>19.952392578125</ele>
        <time>2021-03-24T13:19:30Z</time>
      </trkpt>
      <trkpt lat="30.522143538432122" lon="114.39281888842942">
        <ele>19.1123046875</ele>
        <time>2021-03-24T13:19:33Z</time>
      </trkpt>
      <trkpt lat="30.522217800959872" lon="114.39306309327041">
        <ele>18.48248291015625</ele>
        <time>2021-03-24T13:19:42Z</time>
      </trkpt>
      <trkpt lat="30.522360691070052" lon="114.39320418197812">
        <ele>19.7774658203125</ele>
        <time>2021-03-24T13:19:48Z</time>
      </trkpt>
      <trkpt lat="30.52243769979321" lon="114.39324813389429">
        <ele>19.16302490234375</ele>
        <time>2021-03-24T13:19:51Z</time>
      </trkpt>
      <trkpt lat="30.52270265107208" lon="114.39320496614012">
        <ele>14.9793701171875</ele>
        <time>2021-03-24T13:20:00Z</time>
      </trkpt>
      <trkpt lat="30.52302969562934" lon="114.39320792240065">
        <ele>17.73406982421875</ele>
        <time>2021-03-24T13:20:12Z</time>
      </trkpt>
      <trkpt lat="30.523214638458818" lon="114.39322690070576">
        <ele>17.6514892578125</ele>
        <time>2021-03-24T13:20:18Z</time>
      </trkpt>
      <trkpt lat="30.523316605049462" lon="114.39321196756693">
        <ele>17.746826171875</ele>
        <time>2021-03-24T13:20:21Z</time>
      </trkpt>
      <trkpt lat="30.523446511621213" lon="114.39314493299926">
        <ele>14.26611328125</ele>
        <time>2021-03-24T13:20:27Z</time>
      </trkpt>
      <trkpt lat="30.523549576833304" lon="114.39304479659926">
        <ele>12.745361328125</ele>
        <time>2021-03-24T13:20:33Z</time>
      </trkpt>
      <trkpt lat="30.523627730004858" lon="114.392735727517">
        <ele>16.37921142578125</ele>
        <time>2021-03-24T13:20:42Z</time>
      </trkpt>
      <trkpt lat="30.523620695832964" lon="114.39264374297996">
        <ele>18.46771240234375</ele>
        <time>2021-03-24T13:20:45Z</time>
      </trkpt>
      <trkpt lat="30.5234995168721" lon="114.39243373590584">
        <ele>19.30279541015625</ele>
        <time>2021-03-24T13:20:54Z</time>
      </trkpt>
      <trkpt lat="30.523426581581216" lon="114.39236862095593">
        <ele>22.44140625</ele>
        <time>2021-03-24T13:20:57Z</time>
      </trkpt>
      <trkpt lat="30.523249511546666" lon="114.3923097560771">
        <ele>23.14892578125</ele>
        <time>2021-03-24T13:21:03Z</time>
      </trkpt>
      <trkpt lat="30.52295148126603" lon="114.39231873626964">
        <ele>23.1744384765625</ele>
        <time>2021-03-24T13:21:15Z</time>
      </trkpt>
      <trkpt lat="30.522658607817345" lon="114.39230492364476">
        <ele>23.4044189453125</ele>
        <time>2021-03-24T13:21:24Z</time>
      </trkpt>
      <trkpt lat="30.52249156288307" lon="114.39228974334463">
        <ele>23.54150390625</ele>
        <time>2021-03-24T13:21:30Z</time>
      </trkpt>
      <trkpt lat="30.522379560081998" lon="114.39231390217552">
        <ele>23.38323974609375</ele>
        <time>2021-03-24T13:21:33Z</time>
      </trkpt>
      <trkpt lat="30.522227676804047" lon="114.39242489286953">
        <ele>24.38970947265625</ele>
        <time>2021-03-24T13:21:39Z</time>
      </trkpt>
      <trkpt lat="30.52216147822916" lon="114.39258580340169">
        <ele>23.135498046875</ele>
        <time>2021-03-24T13:21:45Z</time>
      </trkpt>
      <trkpt lat="30.52214245878398" lon="114.39278985470176">
        <ele>21.36175537109375</ele>
        <time>2021-03-24T13:21:51Z</time>
      </trkpt>
      <trkpt lat="30.522158435179918" lon="114.39292498302929">
        <ele>18.97894287109375</ele>
        <time>2021-03-24T13:21:54Z</time>
      </trkpt>
      <trkpt lat="30.52225982680211" lon="114.39310813333604">
        <ele>15.76092529296875</ele>
        <time>2021-03-24T13:22:00Z</time>
      </trkpt>
      <trkpt lat="30.522396757942854" lon="114.39320607827177">
        <ele>15.89068603515625</ele>
        <time>2021-03-24T13:22:06Z</time>
      </trkpt>
      <trkpt lat="30.522492753118268" lon="114.39322614974792">
        <ele>16.1114501953125</ele>
        <time>2021-03-24T13:22:09Z</time>
      </trkpt>
      <trkpt lat="30.522632686672427" lon="114.39320198741171">
        <ele>15.821044921875</ele>
        <time>2021-03-24T13:22:15Z</time>
      </trkpt>
      <trkpt lat="30.522913899640173" lon="114.39321715840371">
        <ele>15.6488037109375</ele>
        <time>2021-03-24T13:22:24Z</time>
      </trkpt>
      <trkpt lat="30.523237691701706" lon="114.39320898961978">
        <ele>11.40576171875</ele>
        <time>2021-03-24T13:22:36Z</time>
      </trkpt>
      <trkpt lat="30.523323656708527" lon="114.39320599726281">
        <ele>13.33526611328125</ele>
        <time>2021-03-24T13:22:39Z</time>
      </trkpt>
      <trkpt lat="30.52340854046045" lon="114.39318102571374">
        <ele>18.05377197265625</ele>
        <time>2021-03-24T13:22:42Z</time>
      </trkpt>
      <trkpt lat="30.523459532170385" lon="114.39312105319793">
        <ele>16.61737060546875</ele>
        <time>2021-03-24T13:22:45Z</time>
      </trkpt>
      <trkpt lat="30.523529500230797" lon="114.39310096731903">
        <ele>16.59136962890625</ele>
        <time>2021-03-24T13:22:48Z</time>
      </trkpt>
      <trkpt lat="30.523599501767624" lon="114.3928808991233">
        <ele>22.3326416015625</ele>
        <time>2021-03-24T13:22:54Z</time>
      </trkpt>
      <trkpt lat="30.523590327719834" lon="114.39262068157464">
        <ele>24.37921142578125</ele>
        <time>2021-03-24T13:23:03Z</time>
      </trkpt>
      <trkpt lat="30.523483516028172" lon="114.39243970676932">
        <ele>24.1793212890625</ele>
        <time>2021-03-24T13:23:09Z</time>
      </trkpt>
      <trkpt lat="30.52340054816033" lon="114.39236862323129">
        <ele>25.52178955078125</ele>
        <time>2021-03-24T13:23:12Z</time>
      </trkpt>
      <trkpt lat="30.523295609267407" lon="114.39232576097602">
        <ele>27.51611328125</ele>
        <time>2021-03-24T13:23:15Z</time>
      </trkpt>
      <trkpt lat="30.523024432251756" lon="114.39230272097127">
        <ele>22.55560302734375</ele>
        <time>2021-03-24T13:23:24Z</time>
      </trkpt>
      <trkpt lat="30.52278633341772" lon="114.39230979655889">
        <ele>20.38916015625</ele>
        <time>2021-03-24T13:23:33Z</time>
      </trkpt>
      <trkpt lat="30.522506478679702" lon="114.39228567198052">
        <ele>25.265625</ele>
        <time>2021-03-24T13:23:42Z</time>
      </trkpt>
      <trkpt lat="30.52237657474571" lon="114.39232584129905">
        <ele>22.139404296875</ele>
        <time>2021-03-24T13:23:48Z</time>
      </trkpt>
      <trkpt lat="30.522192678978215" lon="114.39250602649597">
        <ele>20.31524658203125</ele>
        <time>2021-03-24T13:23:57Z</time>
      </trkpt>
      <trkpt lat="30.522124577115434" lon="114.39269787087304">
        <ele>19.41015625</ele>
        <time>2021-03-24T13:24:03Z</time>
      </trkpt>
      <trkpt lat="30.522145438789003" lon="114.39280694911665">
        <ele>19.07568359375</ele>
        <time>2021-03-24T13:24:06Z</time>
      </trkpt>
      <trkpt lat="30.522145420852542" lon="114.3929108741944">
        <ele>19.53948974609375</ele>
        <time>2021-03-24T13:24:09Z</time>
      </trkpt>
      <trkpt lat="30.522365578364123" lon="114.3931661926727">
        <ele>16.3153076171875</ele>
        <time>2021-03-24T13:24:18Z</time>
      </trkpt>
      <trkpt lat="30.522419536909563" lon="114.39320797572691">
        <ele>17.28961181640625</ele>
        <time>2021-03-24T13:24:21Z</time>
      </trkpt>
      <trkpt lat="30.522510652218436" lon="114.39321909309339">
        <ele>18.165283203125</ele>
        <time>2021-03-24T13:24:24Z</time>
      </trkpt>
      <trkpt lat="30.52269858587712" lon="114.39318895688753">
        <ele>16.5648193359375</ele>
        <time>2021-03-24T13:24:30Z</time>
      </trkpt>
      <trkpt lat="30.522971662899767" lon="114.39320711342432">
        <ele>16.27252197265625</ele>
        <time>2021-03-24T13:24:39Z</time>
      </trkpt>
      <trkpt lat="30.523191587859177" lon="114.39322798811911">
        <ele>17.1982421875</ele>
        <time>2021-03-24T13:24:45Z</time>
      </trkpt>
      <trkpt lat="30.52344460996857" lon="114.39316609836739">
        <ele>16.01263427734375</ele>
        <time>2021-03-24T13:24:54Z</time>
      </trkpt>
      <trkpt lat="30.523593522860033" lon="114.39295687642387">
        <ele>16.75970458984375</ele>
        <time>2021-03-24T13:25:03Z</time>
      </trkpt>
      <trkpt lat="30.523614694290192" lon="114.3928439948897">
        <ele>18.754638671875</ele>
        <time>2021-03-24T13:25:06Z</time>
      </trkpt>
      <trkpt lat="30.523606580320475" lon="114.39272189086522">
        <ele>19.9342041015625</ele>
        <time>2021-03-24T13:25:09Z</time>
      </trkpt>
      <trkpt lat="30.52352635078236" lon="114.39250265385175">
        <ele>20.6241455078125</ele>
        <time>2021-03-24T13:25:15Z</time>
      </trkpt>
      <trkpt lat="30.5234564055198" lon="114.39239982229178">
        <ele>23.10528564453125</ele>
        <time>2021-03-24T13:25:18Z</time>
      </trkpt>
      <trkpt lat="30.523374521914377" lon="114.39233172351287">
        <ele>23.8779296875</ele>
        <time>2021-03-24T13:25:21Z</time>
      </trkpt>
      <trkpt lat="30.52320558189918" lon="114.39230080577588">
        <ele>22.42486572265625</ele>
        <time>2021-03-24T13:25:27Z</time>
      </trkpt>
      <trkpt lat="30.522913517597345" lon="114.39230978544306">
        <ele>22.48565673828125</ele>
        <time>2021-03-24T13:25:39Z</time>
      </trkpt>
      <trkpt lat="30.52274755502865" lon="114.39230681523411">
        <ele>22.735595703125</ele>
        <time>2021-03-24T13:25:45Z</time>
      </trkpt>
      <trkpt lat="30.522686543909426" lon="114.39228267153254">
        <ele>23.0576171875</ele>
        <time>2021-03-24T13:25:48Z</time>
      </trkpt>
      <trkpt lat="30.522464447281063" lon="114.39227672152369">
        <ele>24.676025390625</ele>
        <time>2021-03-24T13:25:57Z</time>
      </trkpt>
      <trkpt lat="30.522383632340308" lon="114.39229083812715">
        <ele>25.1768798828125</ele>
        <time>2021-03-24T13:26:00Z</time>
      </trkpt>
      <trkpt lat="30.522241515942536" lon="114.39237876405403">
        <ele>23.4986572265625</ele>
        <time>2021-03-24T13:26:06Z</time>
      </trkpt>
      <trkpt lat="30.522128673526158" lon="114.39254103500807">
        <ele>23.31781005859375</ele>
        <time>2021-03-24T13:26:12Z</time>
      </trkpt>
      <trkpt lat="30.522104523424023" lon="114.39262189679926">
        <ele>23.41998291015625</ele>
        <time>2021-03-24T13:26:15Z</time>
      </trkpt>
      <trkpt lat="30.52210367224998" lon="114.39283300182309">
        <ele>19.2354736328125</ele>
        <time>2021-03-24T13:26:21Z</time>
      </trkpt>
      <trkpt lat="30.522129417345873" lon="114.39293312593831">
        <ele>19.16497802734375</ele>
        <time>2021-03-24T13:26:24Z</time>
      </trkpt>
      <trkpt lat="30.522276634781218" lon="114.39314096501548">
        <ele>17.9998779296875</ele>
        <time>2021-03-24T13:26:33Z</time>
      </trkpt>
      <trkpt lat="30.522403532927743" lon="114.39323511208644">
        <ele>16.29931640625</ele>
        <time>2021-03-24T13:26:39Z</time>
      </trkpt>
      <trkpt lat="30.52272054322945" lon="114.39324213947647">
        <ele>17.3721923828125</ele>
        <time>2021-03-24T13:26:51Z</time>
      </trkpt>
      <trkpt lat="30.522954844320896" lon="114.3932410335996">
        <ele>16.25274658203125</ele>
        <time>2021-03-24T13:27:00Z</time>
      </trkpt>
      <trkpt lat="30.523225759074254" lon="114.39321306090476">
        <ele>18.17626953125</ele>
        <time>2021-03-24T13:27:09Z</time>
      </trkpt>
      <trkpt lat="30.52332772349063" lon="114.39321196659517">
        <ele>15.01611328125</ele>
        <time>2021-03-24T13:27:12Z</time>
      </trkpt>
      <trkpt lat="30.523408539513763" lon="114.3931869953944">
        <ele>15.21282958984375</ele>
        <time>2021-03-24T13:27:15Z</time>
      </trkpt>
      <trkpt lat="30.52353248764268" lon="114.39307383227312">
        <ele>15.1387939453125</ele>
        <time>2021-03-24T13:27:21Z</time>
      </trkpt>
      <trkpt lat="30.523582671050452" lon="114.39298401200357">
        <ele>17.05743408203125</ele>
        <time>2021-03-24T13:27:24Z</time>
      </trkpt>
      <trkpt lat="30.523630704124937" lon="114.39278592581613">
        <ele>18.310791015625</ele>
        <time>2021-03-24T13:27:30Z</time>
      </trkpt>
      <trkpt lat="30.523582467088595" lon="114.39260087432515">
        <ele>22.72491455078125</ele>
        <time>2021-03-24T13:27:36Z</time>
      </trkpt>
      <trkpt lat="30.523466437513278" lon="114.39240877559845">
        <ele>21.889404296875</ele>
        <time>2021-03-24T13:27:42Z</time>
      </trkpt>
      <trkpt lat="30.52340543253257" lon="114.39235261384341">
        <ele>19.215087890625</ele>
        <time>2021-03-24T13:27:45Z</time>
      </trkpt>
      <trkpt lat="30.52331242448509" lon="114.39231572000774">
        <ele>17.3643798828125</ele>
        <time>2021-03-24T13:27:48Z</time>
      </trkpt>
      <trkpt lat="30.523209648076595" lon="114.39230867421061">
        <ele>19.57537841796875</ele>
        <time>2021-03-24T13:27:51Z</time>
      </trkpt>
      <trkpt lat="30.52312123954818" lon="114.39232577621605">
        <ele>18.547607421875</ele>
        <time>2021-03-24T13:27:54Z</time>
      </trkpt>
      <trkpt lat="30.522832434082023" lon="114.39231087788039">
        <ele>21.59906005859375</ele>
        <time>2021-03-24T13:28:03Z</time>
      </trkpt>
      <trkpt lat="30.52250050873068" lon="114.39230575147516">
        <ele>20.39923095703125</ele>
        <time>2021-03-24T13:28:15Z</time>
      </trkpt>
      <trkpt lat="30.522419424809044" lon="114.39230874327559">
        <ele>17.5806884765625</ele>
        <time>2021-03-24T13:28:18Z</time>
      </trkpt>
      <trkpt lat="30.522211672111318" lon="114.39245094284406">
        <ele>13.2999267578125</ele>
        <time>2021-03-24T13:28:27Z</time>
      </trkpt>
      <trkpt lat="30.52215850671556" lon="114.39252393794492">
        <ele>12.34283447265625</ele>
        <time>2021-03-24T13:28:30Z</time>
      </trkpt>
      <trkpt lat="30.522115630066455" lon="114.39268701794842">
        <ele>12.77252197265625</ele>
        <time>2021-03-24T13:28:36Z</time>
      </trkpt>
      <trkpt lat="30.52211857214488" lon="114.39292091632785">
        <ele>16.75421142578125</ele>
        <time>2021-03-24T13:28:42Z</time>
      </trkpt>
      <trkpt lat="30.52216248662069" lon="114.39302212466878">
        <ele>15.44500732421875</ele>
        <time>2021-03-24T13:28:45Z</time>
      </trkpt>
      <trkpt lat="30.52226470213041" lon="114.39314503628698">
        <ele>12.6978759765625</ele>
        <time>2021-03-24T13:28:51Z</time>
      </trkpt>
      <trkpt lat="30.522335746816562" lon="114.39317596384187">
        <ele>14.22052001953125</ele>
        <time>2021-03-24T13:28:54Z</time>
      </trkpt>
      <trkpt lat="30.522402720486884" lon="114.39322805706419">
        <ele>14.13494873046875</ele>
        <time>2021-03-24T13:28:57Z</time>
      </trkpt>
      <trkpt lat="30.522579531731697" lon="114.3932231573176">
        <ele>13.14892578125</ele>
        <time>2021-03-24T13:29:03Z</time>
      </trkpt>
      <trkpt lat="30.52264760119376" lon="114.39320497095132">
        <ele>14.40496826171875</ele>
        <time>2021-03-24T13:29:06Z</time>
      </trkpt>
      <trkpt lat="30.52279240746749" lon="114.39323507810005">
        <ele>15.58843994140625</ele>
        <time>2021-03-24T13:29:12Z</time>
      </trkpt>
      <trkpt lat="30.523082846873915" lon="114.39321008855086">
        <ele>15.4619140625</ele>
        <time>2021-03-24T13:29:24Z</time>
      </trkpt>
      <trkpt lat="30.523303591506494" lon="114.39319188885221">
        <ele>14.172607421875</ele>
        <time>2021-03-24T13:29:33Z</time>
      </trkpt>
      <trkpt lat="30.52350754268436" lon="114.39305104126164">
        <ele>17.9908447265625</ele>
        <time>2021-03-24T13:29:42Z</time>
      </trkpt>
      <trkpt lat="30.523586487812874" lon="114.39286489090384">
        <ele>16.57305908203125</ele>
        <time>2021-03-24T13:29:48Z</time>
      </trkpt>
      <trkpt lat="30.52360575701026" lon="114.39277697365007">
        <ele>17.45977783203125</ele>
        <time>2021-03-24T13:29:51Z</time>
      </trkpt>
      <trkpt lat="30.52357135234713" lon="114.3925807960378">
        <ele>17.8240966796875</ele>
        <time>2021-03-24T13:29:57Z</time>
      </trkpt>
      <trkpt lat="30.523532321631873" lon="114.3924768760288">
        <ele>17.3389892578125</ele>
        <time>2021-03-24T13:30:00Z</time>
      </trkpt>
      <trkpt lat="30.523311607226944" lon="114.39233471372928">
        <ele>17.6953125</ele>
        <time>2021-03-24T13:30:09Z</time>
      </trkpt>
      <trkpt lat="30.5230434042039" lon="114.39235780091173">
        <ele>18.62750244140625</ele>
        <time>2021-03-24T13:30:18Z</time>
      </trkpt>
      <trkpt lat="30.522907278081306" lon="114.3923217248487">
        <ele>16.197509765625</ele>
        <time>2021-03-24T13:30:24Z</time>
      </trkpt>
      <trkpt lat="30.522640436144105" lon="114.39231767810368">
        <ele>16.3387451171875</ele>
        <time>2021-03-24T13:30:33Z</time>
      </trkpt>
      <trkpt lat="30.52255447484986" lon="114.39230086268235">
        <ele>16.2220458984375</ele>
        <time>2021-03-24T13:30:36Z</time>
      </trkpt>
      <trkpt lat="30.522294668305094" lon="114.39237496066922">
        <ele>15.58306884765625</ele>
        <time>2021-03-24T13:30:48Z</time>
      </trkpt>
      <trkpt lat="30.522222512958972" lon="114.39248485936203">
        <ele>13.2308349609375</ele>
        <time>2021-03-24T13:30:54Z</time>
      </trkpt>
      <trkpt lat="30.5221495249172" lon="114.3927030242053">
        <ele>11.43450927734375</ele>
        <time>2021-03-24T13:31:03Z</time>
      </trkpt>
      <trkpt lat="30.522138638033308" lon="114.39293014032866">
        <ele>14.88946533203125</ele>
        <time>2021-03-24T13:31:09Z</time>
      </trkpt>
      <trkpt lat="30.52217658843395" lon="114.39301995266055">
        <ele>13.6322021484375</ele>
        <time>2021-03-24T13:31:12Z</time>
      </trkpt>
      <trkpt lat="30.522355815518466" lon="114.39316809296817">
        <ele>16.45489501953125</ele>
        <time>2021-03-24T13:31:21Z</time>
      </trkpt>
      <trkpt lat="30.522504687970926" lon="114.39320796828501">
        <ele>15.74871826171875</ele>
        <time>2021-03-24T13:31:27Z</time>
      </trkpt>
      <trkpt lat="30.52273953508103" lon="114.39318406902399">
        <ele>15.8780517578125</ele>
        <time>2021-03-24T13:31:36Z</time>
      </trkpt>
      <trkpt lat="30.52308582846279" lon="114.39321904282437">
        <ele>16.729248046875</ele>
        <time>2021-03-24T13:31:48Z</time>
      </trkpt>
      <trkpt lat="30.52331660710292" lon="114.3931989427956">
        <ele>16.1163330078125</ele>
        <time>2021-03-24T13:31:57Z</time>
      </trkpt>
      <trkpt lat="30.523429698066312" lon="114.39314683390907">
        <ele>14.48541259765625</ele>
        <time>2021-03-24T13:32:03Z</time>
      </trkpt>
      <trkpt lat="30.52355147657879" lon="114.39303584197464">
        <ele>16.8453369140625</ele>
        <time>2021-03-24T13:32:09Z</time>
      </trkpt>
      <trkpt lat="30.52358460768456" lon="114.39276096622206">
        <ele>18.42413330078125</ele>
        <time>2021-03-24T13:32:18Z</time>
      </trkpt>
      <trkpt lat="30.523544506688726" lon="114.39257374351406">
        <ele>20.33258056640625</ele>
        <time>2021-03-24T13:32:24Z</time>
      </trkpt>
      <trkpt lat="30.52345152081634" lon="114.39241773108954">
        <ele>21.48663330078125</ele>
        <time>2021-03-24T13:32:30Z</time>
      </trkpt>
      <trkpt lat="30.523383464673866" lon="114.39236374063331">
        <ele>20.162841796875</ele>
        <time>2021-03-24T13:32:33Z</time>
      </trkpt>
      <trkpt lat="30.523064299681877" lon="114.39228372386609">
        <ele>13.41741943359375</ele>
        <time>2021-03-24T13:32:45Z</time>
      </trkpt>
      <trkpt lat="30.522747556628083" lon="114.39229867510704">
        <ele>13.46673583984375</ele>
        <time>2021-03-24T13:32:57Z</time>
      </trkpt>
      <trkpt lat="30.52262145694075" lon="114.3922997714781">
        <ele>10.801177978515625</ele>
        <time>2021-03-24T13:33:06Z</time>
      </trkpt>
      <trkpt lat="30.52262145694075" lon="114.3922997714781">
        <ele>10.801177978515625</ele>
        <time>2021-03-24T13:33:08Z</time>
      </trkpt>
    </trkseg>
  </trk>
</gpx>