<?xml version="1.0" encoding="UTF-8"?>
<gpx xmlns="http://www.topografix.com/GPX/1/1" xmlns:gpxtpx="http://www.garmin.com/xmlschemas/TrackPointExtension/v1" xmlns:xsi="http://www.w3.org/2001/XMLSchema-instance" xsi:schemaLocation="http://www.topografix.com/GPX/1/1 http://www.topografix.com/GPX/1/1/gpx.xsd" version="1.1" creator="gpx.py -- https://github.com/tkrajina/gpxpy">
  <trk>
    <name>gpx from keep</name>
    <type>Run</type>
    <trkseg>
      <trkpt lat="36.0180449741009" lon="119.38264721609478">
        <ele>58.54547119140625</ele>
        <time>2023-02-09T13:35:38Z</time>
      </trkpt>
      <trkpt lat="36.01796900228295" lon="119.38262923246988">
        <ele>58.04833984375</ele>
        <time>2023-02-09T13:35:44Z</time>
      </trkpt>
      <trkpt lat="36.01782507812427" lon="119.38255728017756">
        <ele>59.5777587890625</ele>
        <time>2023-02-09T13:35:56Z</time>
      </trkpt>
      <trkpt lat="36.01777511637535" lon="119.3825123056389">
        <ele>58.60406494140625</ele>
        <time>2023-02-09T13:36:02Z</time>
      </trkpt>
      <trkpt lat="36.01762315808592" lon="119.38250132756501">
        <ele>59.53350830078125</ele>
        <time>2023-02-09T13:36:35Z</time>
      </trkpt>
      <trkpt lat="36.017564194350925" lon="119.38246335104937">
        <ele>54.2003173828125</ele>
        <time>2023-02-09T13:36:41Z</time>
      </trkpt>
      <trkpt lat="36.01718840918601" lon="119.38225048911723">
        <ele>0.0</ele>
        <time>2023-02-09T13:37:38Z</time>
      </trkpt>
      <trkpt lat="36.01686360913832" lon="119.38204562002062">
        <ele>0.0</ele>
        <time>2023-02-09T13:37:47Z</time>
      </trkpt>
      <trkpt lat="36.01654584483118" lon="119.38348003923488">
        <ele>0.0</ele>
        <time>2023-02-09T13:39:57Z</time>
      </trkpt>
      <trkpt lat="36.01661073544634" lon="119.38365096547122">
        <ele>24.7933349609375</ele>
        <time>2023-02-09T13:40:07Z</time>
      </trkpt>
      <trkpt lat="36.01658469937722" lon="119.38372793894645">
        <ele>48.99249267578125</ele>
        <time>2023-02-09T13:40:13Z</time>
      </trkpt>
      <trkpt lat="36.01660666599126" lon="119.38377991676555">
        <ele>57.75421142578125</ele>
        <time>2023-02-09T13:40:16Z</time>
      </trkpt>
      <trkpt lat="36.01663257951052" lon="119.38392885813172">
        <ele>61.80706787109375</ele>
        <time>2023-02-09T13:40:25Z</time>
      </trkpt>
      <trkpt lat="36.016685499895424" lon="119.38405480595551">
        <ele>62.94134521484375</ele>
        <time>2023-02-09T13:40:31Z</time>
      </trkpt>
      <trkpt lat="36.016720466834734" lon="119.38410178499208">
        <ele>57.40814208984375</ele>
        <time>2023-02-09T13:40:37Z</time>
      </trkpt>
      <trkpt lat="36.01671640497784" lon="119.38422074281577">
        <ele>66.1407470703125</ele>
        <time>2023-02-09T13:40:43Z</time>
      </trkpt>
      <trkpt lat="36.0175283913708" lon="119.385901127484">
        <ele>0.0</ele>
        <time>2023-02-09T13:41:58Z</time>
      </trkpt>
      <trkpt lat="36.01726264219945" lon="119.38549427080336">
        <ele>67.19818115234375</ele>
        <time>2023-02-09T13:42:13Z</time>
      </trkpt>
      <trkpt lat="36.01732558518052" lon="119.38558423790053">
        <ele>65.00146484375</ele>
        <time>2023-02-09T13:42:28Z</time>
      </trkpt>
      <trkpt lat="36.01732055963434" lon="119.38564122231936">
        <ele>58.9407958984375</ele>
        <time>2023-02-09T13:42:31Z</time>
      </trkpt>
      <trkpt lat="36.01720051731726" lon="119.38579219384175">
        <ele>60.71142578125</ele>
        <time>2023-02-09T13:42:46Z</time>
      </trkpt>
      <trkpt lat="36.0171355066074" lon="119.38584818588271">
        <ele>59.83697509765625</ele>
        <time>2023-02-09T13:42:52Z</time>
      </trkpt>
      <trkpt lat="36.01591560549534" lon="119.38241455795355">
        <ele>0.0</ele>
        <time>2023-02-09T13:43:46Z</time>
      </trkpt>
      <trkpt lat="36.016073352517104" lon="119.38675708035575">
        <ele>60.12841796875</ele>
        <time>2023-02-09T13:44:34Z</time>
      </trkpt>
      <trkpt lat="36.0158343133169" lon="119.38698405781156">
        <ele>61.35772705078125</ele>
        <time>2023-02-09T13:44:58Z</time>
      </trkpt>
      <trkpt lat="36.01559328438191" lon="119.38719204200076">
        <ele>63.20208740234375</ele>
        <time>2023-02-09T13:45:22Z</time>
      </trkpt>
      <trkpt lat="36.0155332777735" lon="119.38724303857344">
        <ele>62.961669921875</ele>
        <time>2023-02-09T13:45:28Z</time>
      </trkpt>
      <trkpt lat="36.014516178106646" lon="119.38811899959606">
        <ele>62.73382568359375</ele>
        <time>2023-02-09T13:47:19Z</time>
      </trkpt>
      <trkpt lat="36.01467007454112" lon="119.38830695473898">
        <ele>68.983154296875</ele>
        <time>2023-02-09T13:47:25Z</time>
      </trkpt>
      <trkpt lat="36.01474799777725" lon="119.38847292319714">
        <ele>63.21905517578125</ele>
        <time>2023-02-09T13:47:37Z</time>
      </trkpt>
      <trkpt lat="36.01487086547147" lon="119.38877487168993">
        <ele>61.39752197265625</ele>
        <time>2023-02-09T13:48:01Z</time>
      </trkpt>
      <trkpt lat="36.0150217185224" lon="119.38911381820415">
        <ele>62.1595458984375</ele>
        <time>2023-02-09T13:48:25Z</time>
      </trkpt>
      <trkpt lat="36.01765334102281" lon="119.385948100906">
        <ele>0.0</ele>
        <time>2023-02-09T13:49:46Z</time>
      </trkpt>
      <trkpt lat="36.01762897612848" lon="119.39467681137724">
        <ele>61.89752197265625</ele>
        <time>2023-02-09T13:55:05Z</time>
      </trkpt>
      <trkpt lat="36.017759921988464" lon="119.39498186121841">
        <ele>60.7021484375</ele>
        <time>2023-02-09T13:55:29Z</time>
      </trkpt>
      <trkpt lat="36.01779890086958" lon="119.3951608971127">
        <ele>61.685302734375</ele>
        <time>2023-02-09T13:55:41Z</time>
      </trkpt>
      <trkpt lat="36.017935850585225" lon="119.39548996037131">
        <ele>57.4669189453125</ele>
        <time>2023-02-09T13:56:05Z</time>
      </trkpt>
      <trkpt lat="36.01804381118929" lon="119.395835037143">
        <ele>59.343994140625</ele>
        <time>2023-02-09T13:56:29Z</time>
      </trkpt>
      <trkpt lat="36.01806879938655" lon="119.39603708944654">
        <ele>62.510009765625</ele>
        <time>2023-02-09T13:56:41Z</time>
      </trkpt>
      <trkpt lat="36.01809478789351" lon="119.39632416872031">
        <ele>65.88836669921875</ele>
        <time>2023-02-09T13:56:59Z</time>
      </trkpt>
      <trkpt lat="36.018180766180095" lon="119.39666326204393">
        <ele>62.74505615234375</ele>
        <time>2023-02-09T13:57:20Z</time>
      </trkpt>
      <trkpt lat="36.0182367565574" lon="119.39700836712004">
        <ele>58.43634033203125</ele>
        <time>2023-02-09T13:57:41Z</time>
      </trkpt>
      <trkpt lat="36.018282749335285" lon="119.39717241721782">
        <ele>60.341552734375</ele>
        <time>2023-02-09T13:57:50Z</time>
      </trkpt>
      <trkpt lat="36.018350747632226" lon="119.39758955685055">
        <ele>60.9852294921875</ele>
        <time>2023-02-09T13:58:14Z</time>
      </trkpt>
      <trkpt lat="36.01845174028848" lon="119.39791066548736">
        <ele>60.41015625</ele>
        <time>2023-02-09T13:58:38Z</time>
      </trkpt>
      <trkpt lat="36.0184817389621" lon="119.39800569873033">
        <ele>59.3660888671875</ele>
        <time>2023-02-09T13:58:44Z</time>
      </trkpt>
      <trkpt lat="36.018487743847245" lon="119.3981047367458">
        <ele>58.12835693359375</ele>
        <time>2023-02-09T13:58:50Z</time>
      </trkpt>
      <trkpt lat="36.01856173873296" lon="119.39827779736318">
        <ele>57.56536865234375</ele>
        <time>2023-02-09T13:59:02Z</time>
      </trkpt>
      <trkpt lat="36.018807722258835" lon="119.39875997061858">
        <ele>0.0</ele>
        <time>2023-02-09T13:59:32Z</time>
      </trkpt>
      <trkpt lat="36.01920770666803" lon="119.39945924016713">
        <ele>0.0</ele>
        <time>2023-02-09T13:59:59Z</time>
      </trkpt>
      <trkpt lat="36.01916468570609" lon="119.39920112573758">
        <ele>58.1077880859375</ele>
        <time>2023-02-09T14:00:14Z</time>
      </trkpt>
      <trkpt lat="36.019312686561854" lon="119.3994922439043">
        <ele>64.53106689453125</ele>
        <time>2023-02-09T14:00:32Z</time>
      </trkpt>
      <trkpt lat="36.019430686792454" lon="119.3997013303957">
        <ele>65.5406494140625</ele>
        <time>2023-02-09T14:00:47Z</time>
      </trkpt>
      <trkpt lat="36.01954067803826" lon="119.3998213764235">
        <ele>63.6329345703125</ele>
        <time>2023-02-09T14:00:59Z</time>
      </trkpt>
      <trkpt lat="36.019891752046625" lon="119.40077482941051">
        <ele>55.00189208984375</ele>
        <time>2023-02-09T14:02:53Z</time>
      </trkpt>
      <trkpt lat="36.01991475635976" lon="119.40082685516859">
        <ele>53.44744873046875</ele>
        <time>2023-02-09T14:02:56Z</time>
      </trkpt>
      <trkpt lat="36.020020810364095" lon="119.40122906750932">
        <ele>61.501953125</ele>
        <time>2023-02-09T14:03:23Z</time>
      </trkpt>
      <trkpt lat="36.02007383751515" lon="119.4014181701402">
        <ele>60.58544921875</ele>
        <time>2023-02-09T14:03:35Z</time>
      </trkpt>
      <trkpt lat="36.02006785713858" lon="119.4015032203039">
        <ele>57.7276611328125</ele>
        <time>2023-02-09T14:03:41Z</time>
      </trkpt>
      <trkpt lat="36.02016192183432" lon="119.4018874384239">
        <ele>61.23443603515625</ele>
        <time>2023-02-09T14:04:05Z</time>
      </trkpt>
      <trkpt lat="36.02019124035697" lon="119.40313223329737">
        <ele>0.0</ele>
        <time>2023-02-09T14:05:26Z</time>
      </trkpt>
      <trkpt lat="36.020211411693" lon="119.40371463458571">
        <ele>71.4263916015625</ele>
        <time>2023-02-09T14:05:41Z</time>
      </trkpt>
      <trkpt lat="36.02016254676228" lon="119.40409691540277">
        <ele>61.36431884765625</ele>
        <time>2023-02-09T14:06:17Z</time>
      </trkpt>
      <trkpt lat="36.020107685227565" lon="119.40446619539813">
        <ele>63.61236572265625</ele>
        <time>2023-02-09T14:06:41Z</time>
      </trkpt>
      <trkpt lat="36.02009471066514" lon="119.40453024513718">
        <ele>63.23468017578125</ele>
        <time>2023-02-09T14:06:47Z</time>
      </trkpt>
      <trkpt lat="36.01999680532152" lon="119.40473241004693">
        <ele>0.0</ele>
        <time>2023-02-09T14:07:14Z</time>
      </trkpt>
      <trkpt lat="36.01999193484428" lon="119.40508068120829">
        <ele>65.97796630859375</ele>
        <time>2023-02-09T14:07:20Z</time>
      </trkpt>
      <trkpt lat="36.01999695902856" lon="119.40514773353674">
        <ele>66.37628173828125</ele>
        <time>2023-02-09T14:07:23Z</time>
      </trkpt>
      <trkpt lat="36.01991611814437" lon="119.40551003280778">
        <ele>62.28240966796875</ele>
        <time>2023-02-09T14:07:47Z</time>
      </trkpt>
      <trkpt lat="36.01986329280031" lon="119.40591136891129">
        <ele>60.63446044921875</ele>
        <time>2023-02-09T14:08:11Z</time>
      </trkpt>
      <trkpt lat="36.0198623725106" lon="119.40610152865527">
        <ele>62.21759033203125</ele>
        <time>2023-02-09T14:08:23Z</time>
      </trkpt>
      <trkpt lat="36.01990285583357" lon="119.40720348970248">
        <ele>61.39178466796875</ele>
        <time>2023-02-09T14:09:23Z</time>
      </trkpt>
      <trkpt lat="36.019953889110255" lon="119.40729857053152">
        <ele>61.114501953125</ele>
        <time>2023-02-09T14:09:29Z</time>
      </trkpt>
      <trkpt lat="36.01997694756395" lon="119.40743168998735">
        <ele>61.19097900390625</ele>
        <time>2023-02-09T14:09:38Z</time>
      </trkpt>
      <trkpt lat="36.02011007949504" lon="119.4077639841016">
        <ele>61.75921630859375</ele>
        <time>2023-02-09T14:10:02Z</time>
      </trkpt>
      <trkpt lat="36.020158174364624" lon="119.40797517839043">
        <ele>61.454345703125</ele>
        <time>2023-02-09T14:10:14Z</time>
      </trkpt>
      <trkpt lat="36.02021823550963" lon="119.40812231227001">
        <ele>60.28582763671875</ele>
        <time>2023-02-09T14:10:23Z</time>
      </trkpt>
      <trkpt lat="36.020398353190195" lon="119.40842858873228">
        <ele>61.640869140625</ele>
        <time>2023-02-09T14:10:44Z</time>
      </trkpt>
      <trkpt lat="36.020631441787565" lon="119.40869582580635">
        <ele>60.4622802734375</ele>
        <time>2023-02-09T14:11:08Z</time>
      </trkpt>
      <trkpt lat="36.021233624921294" lon="119.40927934714846">
        <ele>46.673095703125</ele>
        <time>2023-02-09T14:11:44Z</time>
      </trkpt>
      <trkpt lat="36.02109261123675" lon="119.40919727896673">
        <ele>58.5999755859375</ele>
        <time>2023-02-09T14:11:47Z</time>
      </trkpt>
      <trkpt lat="36.021122635852535" lon="119.40925333292486">
        <ele>59.7479248046875</ele>
        <time>2023-02-09T14:11:53Z</time>
      </trkpt>
      <trkpt lat="36.021259680846015" lon="119.40938845648309">
        <ele>59.05828857421875</ele>
        <time>2023-02-09T14:12:05Z</time>
      </trkpt>
      <trkpt lat="36.02130072291776" lon="119.4094785450795">
        <ele>59.7967529296875</ele>
        <time>2023-02-09T14:12:11Z</time>
      </trkpt>
      <trkpt lat="36.02154181470904" lon="119.40973278355803">
        <ele>62.07684326171875</ele>
        <time>2023-02-09T14:12:35Z</time>
      </trkpt>
      <trkpt lat="36.021800894516666" lon="119.40996900450267">
        <ele>64.35211181640625</ele>
        <time>2023-02-09T14:12:59Z</time>
      </trkpt>
      <trkpt lat="36.02204097455107" lon="119.41019421888704">
        <ele>62.70166015625</ele>
        <time>2023-02-09T14:13:23Z</time>
      </trkpt>
      <trkpt lat="36.0220759901793" lon="119.41023325708122">
        <ele>63.26287841796875</ele>
        <time>2023-02-09T14:13:26Z</time>
      </trkpt>
      <trkpt lat="36.02219099047427" lon="119.41027729180604">
        <ele>62.97698974609375</ele>
        <time>2023-02-09T14:13:35Z</time>
      </trkpt>
      <trkpt lat="36.022427034933784" lon="119.410438440538">
        <ele>60.0635986328125</ele>
        <time>2023-02-09T14:13:56Z</time>
      </trkpt>
      <trkpt lat="36.02275304857228" lon="119.41058156082767">
        <ele>58.91986083984375</ele>
        <time>2023-02-09T14:14:20Z</time>
      </trkpt>
      <trkpt lat="36.02308003583758" lon="119.41068163453212">
        <ele>61.29559326171875</ele>
        <time>2023-02-09T14:14:44Z</time>
      </trkpt>
      <trkpt lat="36.02340498863539" lon="119.41072564682673">
        <ele>59.599365234375</ele>
        <time>2023-02-09T14:15:08Z</time>
      </trkpt>
      <trkpt lat="36.023615958320235" lon="119.41075465534982">
        <ele>60.9095458984375</ele>
        <time>2023-02-09T14:15:23Z</time>
      </trkpt>
      <trkpt lat="36.02367997206308" lon="119.41079969821757">
        <ele>59.401123046875</ele>
        <time>2023-02-09T14:15:29Z</time>
      </trkpt>
      <trkpt lat="36.02372811385111" lon="119.41103896057322">
        <ele>64.3699951171875</ele>
        <time>2023-02-09T14:15:44Z</time>
      </trkpt>
      <trkpt lat="36.02376031054444" lon="119.41135231255019">
        <ele>62.18798828125</ele>
        <time>2023-02-09T14:16:02Z</time>
      </trkpt>
      <trkpt lat="36.02373849854826" lon="119.41162763202733">
        <ele>64.1512451171875</ele>
        <time>2023-02-09T14:16:20Z</time>
      </trkpt>
      <trkpt lat="36.02380248178717" lon="119.41162462136754">
        <ele>61.72332763671875</ele>
        <time>2023-02-09T14:16:23Z</time>
      </trkpt>
      <trkpt lat="36.02378552673585" lon="119.41168569416672">
        <ele>63.69830322265625</ele>
        <time>2023-02-09T14:16:26Z</time>
      </trkpt>
      <trkpt lat="36.023803567171846" lon="119.41175176909015">
        <ele>63.85400390625</ele>
        <time>2023-02-09T14:16:29Z</time>
      </trkpt>
      <trkpt lat="36.02380977782139" lon="119.4120621331354">
        <ele>65.2896728515625</ele>
        <time>2023-02-09T14:16:47Z</time>
      </trkpt>
      <trkpt lat="36.023835835588855" lon="119.41215423951245">
        <ele>63.78729248046875</ele>
        <time>2023-02-09T14:16:53Z</time>
      </trkpt>
      <trkpt lat="36.02382295178041" lon="119.41231643459379">
        <ele>63.71478271484375</ele>
        <time>2023-02-09T14:17:05Z</time>
      </trkpt>
      <trkpt lat="36.02384000702274" lon="119.41240053367332">
        <ele>63.7720947265625</ele>
        <time>2023-02-09T14:17:11Z</time>
      </trkpt>
      <trkpt lat="36.02383911724989" lon="119.4125557211842">
        <ele>64.45440673828125</ele>
        <time>2023-02-09T14:17:23Z</time>
      </trkpt>
      <trkpt lat="36.023947575067965" lon="119.41321952610143">
        <ele>88.65460205078125</ele>
        <time>2023-02-09T14:18:03Z</time>
      </trkpt>
      <trkpt lat="36.0239316338569" lon="119.41329362064003">
        <ele>80.9942626953125</ele>
        <time>2023-02-09T14:18:09Z</time>
      </trkpt>
      <trkpt lat="36.02388567434311" lon="119.41333367606019">
        <ele>76.67474365234375</ele>
        <time>2023-02-09T14:18:15Z</time>
      </trkpt>
      <trkpt lat="36.024038752566916" lon="119.41348484946282">
        <ele>70.87744140625</ele>
        <time>2023-02-09T14:18:33Z</time>
      </trkpt>
      <trkpt lat="36.02407279768556" lon="119.41355493442929">
        <ele>68.4044189453125</ele>
        <time>2023-02-09T14:18:39Z</time>
      </trkpt>
      <trkpt lat="36.02408212571613" lon="119.41398548489244">
        <ele>68.91949462890625</ele>
        <time>2023-02-09T14:19:03Z</time>
      </trkpt>
      <trkpt lat="36.02411729290398" lon="119.41420977241201">
        <ele>71.6788330078125</ele>
        <time>2023-02-09T14:19:15Z</time>
      </trkpt>
      <trkpt lat="36.02416933062009" lon="119.41427284906412">
        <ele>70.9215087890625</ele>
        <time>2023-02-09T14:19:21Z</time>
      </trkpt>
      <trkpt lat="36.02439227609249" lon="119.41426881881677">
        <ele>69.19586181640625</ele>
        <time>2023-02-09T14:19:36Z</time>
      </trkpt>
      <trkpt lat="36.02470418213397" lon="119.41424074715304">
        <ele>65.280029296875</ele>
        <time>2023-02-09T14:19:57Z</time>
      </trkpt>
      <trkpt lat="36.02496808589548" lon="119.41419565869366">
        <ele>67.574951171875</ele>
        <time>2023-02-09T14:20:15Z</time>
      </trkpt>
      <trkpt lat="36.02531902083549" lon="119.41421564548129">
        <ele>65.7269287109375</ele>
        <time>2023-02-09T14:20:39Z</time>
      </trkpt>
      <trkpt lat="36.025467015154874" lon="119.41425167600433">
        <ele>68.96673583984375</ele>
        <time>2023-02-09T14:20:51Z</time>
      </trkpt>
      <trkpt lat="36.02543723359682" lon="119.41451802980238">
        <ele>66.09356689453125</ele>
        <time>2023-02-09T14:21:09Z</time>
      </trkpt>
      <trkpt lat="36.025495265989804" lon="119.41457509891521">
        <ele>64.884033203125</ele>
        <time>2023-02-09T14:21:15Z</time>
      </trkpt>
      <trkpt lat="36.02579716677981" lon="119.41453801594795">
        <ele>63.34130859375</ele>
        <time>2023-02-09T14:21:36Z</time>
      </trkpt>
      <trkpt lat="36.02608910761674" lon="119.41454799647082">
        <ele>61.22344970703125</ele>
        <time>2023-02-09T14:22:00Z</time>
      </trkpt>
      <trkpt lat="36.026372035292" lon="119.41453895280043">
        <ele>62.97149658203125</ele>
        <time>2023-02-09T14:22:21Z</time>
      </trkpt>
      <trkpt lat="36.02670398301643" lon="119.41456895538448">
        <ele>63.17779541015625</ele>
        <time>2023-02-09T14:22:45Z</time>
      </trkpt>
      <trkpt lat="36.02700391081624" lon="119.41456491643397">
        <ele>64.97283935546875</ele>
        <time>2023-02-09T14:23:06Z</time>
      </trkpt>
      <trkpt lat="36.02825484181665" lon="119.41483513670053">
        <ele>0.0</ele>
        <time>2023-02-09T14:24:58Z</time>
      </trkpt>
      <trkpt lat="36.028121105996526" lon="119.41511953543471">
        <ele>65.582275390625</ele>
        <time>2023-02-09T14:25:07Z</time>
      </trkpt>
      <trkpt lat="36.02814516937424" lon="119.41520264574818">
        <ele>71.06201171875</ele>
        <time>2023-02-09T14:25:13Z</time>
      </trkpt>
      <trkpt lat="36.02815333649111" lon="119.41540492150742">
        <ele>71.5206298828125</ele>
        <time>2023-02-09T14:25:25Z</time>
      </trkpt>
      <trkpt lat="36.028192356990445" lon="119.41543996530535">
        <ele>71.2906494140625</ele>
        <time>2023-02-09T14:25:28Z</time>
      </trkpt>
      <trkpt lat="36.028239340295364" lon="119.41543295039583">
        <ele>69.74566650390625</ele>
        <time>2023-02-09T14:25:31Z</time>
      </trkpt>
      <trkpt lat="36.02831234796591" lon="119.41546198216486">
        <ele>67.1663818359375</ele>
        <time>2023-02-09T14:25:37Z</time>
      </trkpt>
      <trkpt lat="36.02831748830403" lon="119.41562921261273">
        <ele>66.39154052734375</ele>
        <time>2023-02-09T14:25:46Z</time>
      </trkpt>
      <trkpt lat="36.028303577696256" lon="119.41573035466136">
        <ele>68.75665283203125</ele>
        <time>2023-02-09T14:25:52Z</time>
      </trkpt>
      <trkpt lat="36.02882146127314" lon="119.41573330076447">
        <ele>158.40472412109375</ele>
        <time>2023-02-09T14:26:46Z</time>
      </trkpt>
      <trkpt lat="36.0288884416078" lon="119.41572828628341">
        <ele>105.74224853515625</ele>
        <time>2023-02-09T14:26:52Z</time>
      </trkpt>
      <trkpt lat="36.02895337202626" lon="119.41566418991857">
        <ele>90.39892578125</ele>
        <time>2023-02-09T14:26:58Z</time>
      </trkpt>
      <trkpt lat="36.02925813659565" lon="119.41546888574511">
        <ele>68.96832275390625</ele>
        <time>2023-02-09T14:27:22Z</time>
      </trkpt>
      <trkpt lat="36.029500016193694" lon="119.41539175259777">
        <ele>69.19854736328125</ele>
        <time>2023-02-09T14:27:40Z</time>
      </trkpt>
      <trkpt lat="36.02964797213656" lon="119.4153797195113">
        <ele>69.15167236328125</ele>
        <time>2023-02-09T14:27:52Z</time>
      </trkpt>
      <trkpt lat="36.0297929758472" lon="119.41542376375973">
        <ele>69.42822265625</ele>
        <time>2023-02-09T14:28:04Z</time>
      </trkpt>
      <trkpt lat="36.02994201420653" lon="119.41550986563409">
        <ele>72.41748046875</ele>
        <time>2023-02-09T14:28:19Z</time>
      </trkpt>
    </trkseg>
  </trk>
</gpx>