<?xml version="1.0" encoding="UTF-8"?>
<gpx xmlns="http://www.topografix.com/GPX/1/1" xmlns:gpxtpx="http://www.garmin.com/xmlschemas/TrackPointExtension/v1" xmlns:xsi="http://www.w3.org/2001/XMLSchema-instance" xsi:schemaLocation="http://www.topografix.com/GPX/1/1 http://www.topografix.com/GPX/1/1/gpx.xsd" version="1.1" creator="gpx.py -- https://github.com/tkrajina/gpxpy">
  <trk>
    <name>gpx from keep</name>
    <type>Run</type>
    <trkseg>
      <trkpt lat="36.030124576104875" lon="119.40166018410558">
        <ele>57.115234375</ele>
        <time>2023-05-30T08:55:10Z</time>
      </trkpt>
      <trkpt lat="36.03012354222831" lon="119.40150509288338">
        <ele>58.79254150390625</ele>
        <time>2023-05-30T08:55:16Z</time>
      </trkpt>
      <trkpt lat="36.030035494796564" lon="119.40118191679922">
        <ele>64.49560546875</ele>
        <time>2023-05-30T08:55:28Z</time>
      </trkpt>
      <trkpt lat="36.02986747038058" lon="119.40085875559181">
        <ele>63.5301513671875</ele>
        <time>2023-05-30T08:55:37Z</time>
      </trkpt>
      <trkpt lat="36.029785463169894" lon="119.40071768803887">
        <ele>61.10540771484375</ele>
        <time>2023-05-30T08:55:43Z</time>
      </trkpt>
      <trkpt lat="36.02944650351421" lon="119.40050561280344">
        <ele>65.0177001953125</ele>
        <time>2023-05-30T08:55:55Z</time>
      </trkpt>
      <trkpt lat="36.029260524893665" lon="119.40037956755043">
        <ele>62.5999755859375</ele>
        <time>2023-05-30T08:56:04Z</time>
      </trkpt>
      <trkpt lat="36.02917853792335" lon="119.40034455854517">
        <ele>64.152587890625</ele>
        <time>2023-05-30T08:56:07Z</time>
      </trkpt>
      <trkpt lat="36.02889860221888" lon="119.40034458998676">
        <ele>68.11309814453125</ele>
        <time>2023-05-30T08:56:16Z</time>
      </trkpt>
      <trkpt lat="36.02867265362814" lon="119.40034161380642">
        <ele>73.531005859375</ele>
        <time>2023-05-30T08:56:25Z</time>
      </trkpt>
      <trkpt lat="36.028405724754094" lon="119.40040067451957">
        <ele>78.03271484375</ele>
        <time>2023-05-30T08:56:37Z</time>
      </trkpt>
      <trkpt lat="36.02830975353755" lon="119.400440706246">
        <ele>73.53448486328125</ele>
        <time>2023-05-30T08:56:40Z</time>
      </trkpt>
      <trkpt lat="36.02825477417175" lon="119.40048773714952">
        <ele>74.54949951171875</ele>
        <time>2023-05-30T08:56:43Z</time>
      </trkpt>
      <trkpt lat="36.02818979357214" lon="119.40051375818082">
        <ele>75.428955078125</ele>
        <time>2023-05-30T08:56:46Z</time>
      </trkpt>
      <trkpt lat="36.02813082018211" lon="119.40058880463265">
        <ele>73.4493408203125</ele>
        <time>2023-05-30T08:56:49Z</time>
      </trkpt>
      <trkpt lat="36.02785590677336" lon="119.40071990583621">
        <ele>74.7481689453125</ele>
        <time>2023-05-30T08:57:01Z</time>
      </trkpt>
      <trkpt lat="36.02778092564428" lon="119.40072891912452">
        <ele>73.1173095703125</ele>
        <time>2023-05-30T08:57:04Z</time>
      </trkpt>
      <trkpt lat="36.027640945010944" lon="119.4006578965729">
        <ele>71.47576904296875</ele>
        <time>2023-05-30T08:57:10Z</time>
      </trkpt>
      <trkpt lat="36.02761393094811" lon="119.40054283821914">
        <ele>63.43603515625</ele>
        <time>2023-05-30T08:57:13Z</time>
      </trkpt>
      <trkpt lat="36.02736494550037" lon="119.4002887332383">
        <ele>65.40423583984375</ele>
        <time>2023-05-30T08:57:25Z</time>
      </trkpt>
      <trkpt lat="36.02715595707089" lon="119.40005663845733">
        <ele>58.52166748046875</ele>
        <time>2023-05-30T08:57:37Z</time>
      </trkpt>
      <trkpt lat="36.026939007874816" lon="119.40006266584284">
        <ele>64.0723876953125</ele>
        <time>2023-05-30T08:57:46Z</time>
      </trkpt>
      <trkpt lat="36.02678903585668" lon="119.40001966108709">
        <ele>63.40386962890625</ele>
        <time>2023-05-30T08:57:52Z</time>
      </trkpt>
      <trkpt lat="36.02661006205494" lon="119.39991863086446">
        <ele>63.2025146484375</ele>
        <time>2023-05-30T08:58:01Z</time>
      </trkpt>
      <trkpt lat="36.026357107858416" lon="119.39983261687672">
        <ele>63.7188720703125</ele>
        <time>2023-05-30T08:58:13Z</time>
      </trkpt>
      <trkpt lat="36.02627912523186" lon="119.39982862367295">
        <ele>62.2862548828125</ele>
        <time>2023-05-30T08:58:16Z</time>
      </trkpt>
      <trkpt lat="36.02616114394032" lon="119.39976860760417">
        <ele>61.425537109375</ele>
        <time>2023-05-30T08:58:22Z</time>
      </trkpt>
      <trkpt lat="36.0260431576523" lon="119.39967057340291">
        <ele>59.4688720703125</ele>
        <time>2023-05-30T08:58:28Z</time>
      </trkpt>
      <trkpt lat="36.02590118006622" lon="119.39959355244326">
        <ele>59.04791259765625</ele>
        <time>2023-05-30T08:58:34Z</time>
      </trkpt>
      <trkpt lat="36.02563221827485" lon="119.3994074948783">
        <ele>61.9619140625</ele>
        <time>2023-05-30T08:58:49Z</time>
      </trkpt>
      <trkpt lat="36.025485242507585" lon="119.39932847469382">
        <ele>63.33880615234375</ele>
        <time>2023-05-30T08:58:55Z</time>
      </trkpt>
      <trkpt lat="36.02542025001255" lon="119.39926545298445">
        <ele>61.99102783203125</ele>
        <time>2023-05-30T08:58:58Z</time>
      </trkpt>
      <trkpt lat="36.025344264016695" lon="119.39923544778297">
        <ele>64.48193359375</ele>
        <time>2023-05-30T08:59:01Z</time>
      </trkpt>
      <trkpt lat="36.02508530236356" lon="119.39904439060389">
        <ele>66.85809326171875</ele>
        <time>2023-05-30T08:59:13Z</time>
      </trkpt>
      <trkpt lat="36.024895329531034" lon="119.39888434125378">
        <ele>65.39263916015625</ele>
        <time>2023-05-30T08:59:22Z</time>
      </trkpt>
      <trkpt lat="36.024621389442196" lon="119.39885235805392">
        <ele>62.36578369140625</ele>
        <time>2023-05-30T08:59:34Z</time>
      </trkpt>
      <trkpt lat="36.024376446556055" lon="119.39885938861173">
        <ele>63.57135009765625</ele>
        <time>2023-05-30T08:59:46Z</time>
      </trkpt>
      <trkpt lat="36.024340464446475" lon="119.39895443431512">
        <ele>66.56591796875</ele>
        <time>2023-05-30T08:59:52Z</time>
      </trkpt>
      <trkpt lat="36.02433247436266" lon="119.39903146935251">
        <ele>64.16455078125</ele>
        <time>2023-05-30T08:59:55Z</time>
      </trkpt>
      <trkpt lat="36.024375490841194" lon="119.39926757123207">
        <ele>62.12042236328125</ele>
        <time>2023-05-30T09:00:04Z</time>
      </trkpt>
      <trkpt lat="36.02432355547374" lon="119.39968477326487">
        <ele>63.3056640625</ele>
        <time>2023-05-30T09:00:19Z</time>
      </trkpt>
      <trkpt lat="36.02433259799783" lon="119.39999792594202">
        <ele>62.5240478515625</ele>
        <time>2023-05-30T09:00:31Z</time>
      </trkpt>
      <trkpt lat="36.02429363886684" lon="119.4002050349899">
        <ele>62.74578857421875</ele>
        <time>2023-05-30T09:00:40Z</time>
      </trkpt>
      <trkpt lat="36.024332640936436" lon="119.40027406603738">
        <ele>62.16278076171875</ele>
        <time>2023-05-30T09:00:46Z</time>
      </trkpt>
      <trkpt lat="36.024617605469636" lon="119.4004561287701">
        <ele>58.62957763671875</ele>
        <time>2023-05-30T09:01:01Z</time>
      </trkpt>
      <trkpt lat="36.02482957577763" lon="119.4005671636602">
        <ele>58.57855224609375</ele>
        <time>2023-05-30T09:01:10Z</time>
      </trkpt>
      <trkpt lat="36.02510352717576" lon="119.40064917670185">
        <ele>58.04144287109375</ele>
        <time>2023-05-30T09:01:22Z</time>
      </trkpt>
      <trkpt lat="36.02537847393619" lon="119.40070517595994">
        <ele>57.4625244140625</ele>
        <time>2023-05-30T09:01:37Z</time>
      </trkpt>
      <trkpt lat="36.02557143861862" lon="119.40075518134522">
        <ele>57.43145751953125</ele>
        <time>2023-05-30T09:01:46Z</time>
      </trkpt>
      <trkpt lat="36.02584237278691" lon="119.4007361406219">
        <ele>58.3138427734375</ele>
        <time>2023-05-30T09:01:58Z</time>
      </trkpt>
      <trkpt lat="36.02599533794937" lon="119.40073812452682">
        <ele>58.8265380859375</ele>
        <time>2023-05-30T09:02:04Z</time>
      </trkpt>
      <trkpt lat="36.026142297413706" lon="119.40070108802422">
        <ele>59.15771484375</ele>
        <time>2023-05-30T09:02:10Z</time>
      </trkpt>
      <trkpt lat="36.026372245049416" lon="119.4007040638192">
        <ele>61.74212646484375</ele>
        <time>2023-05-30T09:02:19Z</time>
      </trkpt>
      <trkpt lat="36.02642923465684" lon="119.40071906552001">
        <ele>63.24755859375</ele>
        <time>2023-05-30T09:02:25Z</time>
      </trkpt>
      <trkpt lat="36.02659519249558" lon="119.40069703500536">
        <ele>61.83056640625</ele>
        <time>2023-05-30T09:02:34Z</time>
      </trkpt>
      <trkpt lat="36.026867139761194" lon="119.40075103366593">
        <ele>61.60009765625</ele>
        <time>2023-05-30T09:02:46Z</time>
      </trkpt>
      <trkpt lat="36.02710409170042" lon="119.40078602606974">
        <ele>60.16937255859375</ele>
        <time>2023-05-30T09:02:58Z</time>
      </trkpt>
      <trkpt lat="36.027384054746435" lon="119.40093207469289">
        <ele>63.02252197265625</ele>
        <time>2023-05-30T09:03:10Z</time>
      </trkpt>
      <trkpt lat="36.02766402649148" lon="119.40111714643085">
        <ele>61.16656494140625</ele>
        <time>2023-05-30T09:03:34Z</time>
      </trkpt>
      <trkpt lat="36.027770017809495" lon="119.40119517860983">
        <ele>58.64886474609375</ele>
        <time>2023-05-30T09:03:40Z</time>
      </trkpt>
      <trkpt lat="36.02782401887844" lon="119.40126121011419">
        <ele>60.98016357421875</ele>
        <time>2023-05-30T09:03:43Z</time>
      </trkpt>
      <trkpt lat="36.02793601246387" lon="119.4013542508926">
        <ele>61.571044921875</ele>
        <time>2023-05-30T09:03:49Z</time>
      </trkpt>
      <trkpt lat="36.02796602015561" lon="119.40142328742513">
        <ele>60.39678955078125</ele>
        <time>2023-05-30T09:03:52Z</time>
      </trkpt>
      <trkpt lat="36.02795510406114" lon="119.40179150601097">
        <ele>63.79058837890625</ele>
        <time>2023-05-30T09:04:04Z</time>
      </trkpt>
      <trkpt lat="36.028002150794684" lon="119.40203664968521">
        <ele>62.32257080078125</ele>
        <time>2023-05-30T09:04:13Z</time>
      </trkpt>
      <trkpt lat="36.0281322075149" lon="119.40238585313686">
        <ele>61.5142822265625</ele>
        <time>2023-05-30T09:04:25Z</time>
      </trkpt>
      <trkpt lat="36.02834923510298" lon="119.40268101846415">
        <ele>60.7412109375</ele>
        <time>2023-05-30T09:04:37Z</time>
      </trkpt>
      <trkpt lat="36.02856624247935" lon="119.40289013147762">
        <ele>59.94342041015625</ele>
        <time>2023-05-30T09:04:55Z</time>
      </trkpt>
      <trkpt lat="36.02865525294053" lon="119.40300019478394">
        <ele>60.69085693359375</ele>
        <time>2023-05-30T09:05:01Z</time>
      </trkpt>
      <trkpt lat="36.02870425106299" lon="119.40303321140603">
        <ele>60.16912841796875</ele>
        <time>2023-05-30T09:05:04Z</time>
      </trkpt>
      <trkpt lat="36.028741258301444" lon="119.40308824426164">
        <ele>60.62548828125</ele>
        <time>2023-05-30T09:05:07Z</time>
      </trkpt>
      <trkpt lat="36.02873236671843" lon="119.40344849175634">
        <ele>61.052734375</ele>
        <time>2023-05-30T09:05:22Z</time>
      </trkpt>
      <trkpt lat="36.028713487082854" lon="119.40382075631976">
        <ele>60.47247314453125</ele>
        <time>2023-05-30T09:05:37Z</time>
      </trkpt>
      <trkpt lat="36.02870954045875" lon="119.40398287351006">
        <ele>60.93048095703125</ele>
        <time>2023-05-30T09:05:43Z</time>
      </trkpt>
      <trkpt lat="36.02843665948016" lon="119.40415302826787">
        <ele>65.0184326171875</ele>
        <time>2023-05-30T09:05:55Z</time>
      </trkpt>
      <trkpt lat="36.02814081023192" lon="119.40439624175306">
        <ele>67.61676025390625</ele>
        <time>2023-05-30T09:06:07Z</time>
      </trkpt>
      <trkpt lat="36.02804087645667" lon="119.40452034625503">
        <ele>66.37225341796875</ele>
        <time>2023-05-30T09:06:13Z</time>
      </trkpt>
      <trkpt lat="36.027996914480376" lon="119.40459941107628">
        <ele>67.70672607421875</ele>
        <time>2023-05-30T09:06:16Z</time>
      </trkpt>
      <trkpt lat="36.027915967390655" lon="119.40469549341474">
        <ele>69.34967041015625</ele>
        <time>2023-05-30T09:06:19Z</time>
      </trkpt>
      <trkpt lat="36.02777711515546" lon="119.40501175382205">
        <ele>66.52587890625</ele>
        <time>2023-05-30T09:06:31Z</time>
      </trkpt>
      <trkpt lat="36.02770720495527" lon="119.40520691558086">
        <ele>67.52618408203125</ele>
        <time>2023-05-30T09:06:37Z</time>
      </trkpt>
      <trkpt lat="36.02761736781257" lon="119.40557121875788">
        <ele>69.4744873046875</ele>
        <time>2023-05-30T09:06:49Z</time>
      </trkpt>
      <trkpt lat="36.02760240894347" lon="119.4056652973516">
        <ele>66.99224853515625</ele>
        <time>2023-05-30T09:06:52Z</time>
      </trkpt>
      <trkpt lat="36.02757143789617" lon="119.40571934524118">
        <ele>66.98077392578125</ele>
        <time>2023-05-30T09:06:58Z</time>
      </trkpt>
      <trkpt lat="36.02749245564863" lon="119.4057183532846">
        <ele>62.57257080078125</ele>
        <time>2023-05-30T09:07:07Z</time>
      </trkpt>
      <trkpt lat="36.027305456716604" lon="119.40561428889825">
        <ele>62.8648681640625</ele>
        <time>2023-05-30T09:07:16Z</time>
      </trkpt>
      <trkpt lat="36.02720640689927" lon="119.40543115127745">
        <ele>59.07342529296875</ele>
        <time>2023-05-30T09:07:25Z</time>
      </trkpt>
      <trkpt lat="36.02713430470335" lon="119.40512291333866">
        <ele>61.643310546875</ele>
        <time>2023-05-30T09:07:37Z</time>
      </trkpt>
      <trkpt lat="36.0271312700013" lon="119.4050288396669">
        <ele>60.61444091796875</ele>
        <time>2023-05-30T09:07:40Z</time>
      </trkpt>
      <trkpt lat="36.027162195479065" lon="119.40484669432357">
        <ele>60.58941650390625</ele>
        <time>2023-05-30T09:07:46Z</time>
      </trkpt>
      <trkpt lat="36.02713913916006" lon="119.404676566098">
        <ele>62.2369384765625</ele>
        <time>2023-05-30T09:07:52Z</time>
      </trkpt>
      <trkpt lat="36.02710711300974" lon="119.40458249806727">
        <ele>64.36676025390625</ele>
        <time>2023-05-30T09:07:55Z</time>
      </trkpt>
      <trkpt lat="36.027013092074384" lon="119.40446141716369">
        <ele>61.94085693359375</ele>
        <time>2023-05-30T09:08:01Z</time>
      </trkpt>
      <trkpt lat="36.026884094311484" lon="119.40438237238322">
        <ele>60.6141357421875</ele>
        <time>2023-05-30T09:08:07Z</time>
      </trkpt>
      <trkpt lat="36.02678710627562" lon="119.40435236086057">
        <ele>60.23077392578125</ele>
        <time>2023-05-30T09:08:10Z</time>
      </trkpt>
      <trkpt lat="36.02660514744173" lon="119.40435037979836">
        <ele>63.15533447265625</ele>
        <time>2023-05-30T09:08:16Z</time>
      </trkpt>
      <trkpt lat="36.02656006027164" lon="119.40406117160904">
        <ele>61.7344970703125</ele>
        <time>2023-05-30T09:08:28Z</time>
      </trkpt>
      <trkpt lat="36.02656802490848" lon="119.40395909658302">
        <ele>61.595703125</ele>
        <time>2023-05-30T09:08:31Z</time>
      </trkpt>
      <trkpt lat="36.026538900922276" lon="119.40354680643546">
        <ele>61.48468017578125</ele>
        <time>2023-05-30T09:08:46Z</time>
      </trkpt>
      <trkpt lat="36.026540866260596" lon="119.40343472811746">
        <ele>60.9234619140625</ele>
        <time>2023-05-30T09:08:52Z</time>
      </trkpt>
      <trkpt lat="36.026502841063305" lon="119.4033216543143">
        <ele>61.622314453125</ele>
        <time>2023-05-30T09:09:01Z</time>
      </trkpt>
      <trkpt lat="36.026482847152764" lon="119.40332665999857">
        <ele>61.49420166015625</ele>
        <time>2023-05-30T09:16:17Z</time>
      </trkpt>
      <trkpt lat="36.02640789897163" lon="119.40344174790792">
        <ele>60.35247802734375</ele>
        <time>2023-05-30T09:16:26Z</time>
      </trkpt>
      <trkpt lat="36.02641491869369" lon="119.40351179587482">
        <ele>59.4384765625</ele>
        <time>2023-05-30T09:16:29Z</time>
      </trkpt>
      <trkpt lat="36.02643893132413" lon="119.40357083448828">
        <ele>59.6234130859375</ele>
        <time>2023-05-30T09:16:32Z</time>
      </trkpt>
      <trkpt lat="36.026443058231465" lon="119.40397312075434">
        <ele>62.480712890625</ele>
        <time>2023-05-30T09:16:47Z</time>
      </trkpt>
      <trkpt lat="36.026462130595874" lon="119.40420428752998">
        <ele>62.19378662109375</ele>
        <time>2023-05-30T09:16:56Z</time>
      </trkpt>
      <trkpt lat="36.02644626501048" lon="119.40458257226544">
        <ele>64.61016845703125</ele>
        <time>2023-05-30T09:17:11Z</time>
      </trkpt>
      <trkpt lat="36.02645828788003" lon="119.40465462573302">
        <ele>63.94085693359375</ele>
        <time>2023-05-30T09:17:14Z</time>
      </trkpt>
      <trkpt lat="36.026439320278406" lon="119.40473268758099">
        <ele>62.488525390625</ele>
        <time>2023-05-30T09:17:17Z</time>
      </trkpt>
      <trkpt lat="36.026455377527064" lon="119.40489981480086">
        <ele>61.5404052734375</ele>
        <time>2023-05-30T09:17:23Z</time>
      </trkpt>
      <trkpt lat="36.026506433249374" lon="119.40508095070017">
        <ele>64.84393310546875</ele>
        <time>2023-05-30T09:17:29Z</time>
      </trkpt>
      <trkpt lat="36.026606449292565" lon="119.40518402090079">
        <ele>62.94622802734375</ele>
        <time>2023-05-30T09:17:35Z</time>
      </trkpt>
      <trkpt lat="36.02676152889632" lon="119.4054812416743">
        <ele>64.22406005859375</ele>
        <time>2023-05-30T09:17:47Z</time>
      </trkpt>
      <trkpt lat="36.02694960774176" lon="119.40578546956073">
        <ele>62.3489990234375</ele>
        <time>2023-05-30T09:18:02Z</time>
      </trkpt>
      <trkpt lat="36.02712571891646" lon="119.406149754864">
        <ele>63.95147705078125</ele>
        <time>2023-05-30T09:18:17Z</time>
      </trkpt>
      <trkpt lat="36.02727680665767" lon="119.4064339811727">
        <ele>62.40020751953125</ele>
        <time>2023-05-30T09:18:29Z</time>
      </trkpt>
      <trkpt lat="36.02739083771711" lon="119.40656408126182">
        <ele>63.974609375</ele>
        <time>2023-05-30T09:18:35Z</time>
      </trkpt>
      <trkpt lat="36.02741386492056" lon="119.40663714249165">
        <ele>64.29547119140625</ele>
        <time>2023-05-30T09:18:38Z</time>
      </trkpt>
      <trkpt lat="36.02764891255802" lon="119.40686231470693">
        <ele>63.46429443359375</ele>
        <time>2023-05-30T09:18:53Z</time>
      </trkpt>
      <trkpt lat="36.027791939927965" lon="119.40699341561131">
        <ele>63.571533203125</ele>
        <time>2023-05-30T09:19:02Z</time>
      </trkpt>
      <trkpt lat="36.02787197318691" lon="119.40710450649709">
        <ele>63.44366455078125</ele>
        <time>2023-05-30T09:19:08Z</time>
      </trkpt>
      <trkpt lat="36.02792003330152" lon="119.40725563809">
        <ele>64.45965576171875</ele>
        <time>2023-05-30T09:19:14Z</time>
      </trkpt>
      <trkpt lat="36.028003075342056" lon="119.40738374590906">
        <ele>65.2503662109375</ele>
        <time>2023-05-30T09:19:20Z</time>
      </trkpt>
      <trkpt lat="36.0282421335683" lon="119.40761693470682">
        <ele>65.46759033203125</ele>
        <time>2023-05-30T09:19:35Z</time>
      </trkpt>
      <trkpt lat="36.02852616439492" lon="119.4078110847273">
        <ele>65.31329345703125</ele>
        <time>2023-05-30T09:19:50Z</time>
      </trkpt>
      <trkpt lat="36.02875616780102" lon="119.40792316490358">
        <ele>66.73907470703125</ele>
        <time>2023-05-30T09:20:02Z</time>
      </trkpt>
      <trkpt lat="36.029068138696715" lon="119.4080072098499">
        <ele>65.2947998046875</ele>
        <time>2023-05-30T09:20:17Z</time>
      </trkpt>
      <trkpt lat="36.02934608860825" lon="119.40803420443773">
        <ele>66.86614990234375</ele>
        <time>2023-05-30T09:20:29Z</time>
      </trkpt>
      <trkpt lat="36.029629013455825" lon="119.40801415357055">
        <ele>68.20794677734375</ele>
        <time>2023-05-30T09:20:41Z</time>
      </trkpt>
      <trkpt lat="36.02967400210873" lon="119.4080121466108">
        <ele>67.66265869140625</ele>
        <time>2023-05-30T09:20:44Z</time>
      </trkpt>
      <trkpt lat="36.0299398572424" lon="119.40784595907685">
        <ele>62.98858642578125</ele>
        <time>2023-05-30T09:21:02Z</time>
      </trkpt>
      <trkpt lat="36.03015272529656" lon="119.40767877812706">
        <ele>62.37078857421875</ele>
        <time>2023-05-30T09:21:14Z</time>
      </trkpt>
      <trkpt lat="36.03020270938192" lon="119.40766976409695">
        <ele>62.9232177734375</ele>
        <time>2023-05-30T09:21:17Z</time>
      </trkpt>
      <trkpt lat="36.03039761602959" lon="119.40757064991465">
        <ele>65.07562255859375</ele>
        <time>2023-05-30T09:21:29Z</time>
      </trkpt>
      <trkpt lat="36.030517529687636" lon="119.40744952439907">
        <ele>62.9129638671875</ele>
        <time>2023-05-30T09:21:35Z</time>
      </trkpt>
      <trkpt lat="36.03065935179943" lon="119.4071442297347">
        <ele>60.31402587890625</ele>
        <time>2023-05-30T09:21:50Z</time>
      </trkpt>
      <trkpt lat="36.03077521608719" lon="119.40690900557726">
        <ele>58.6446533203125</ele>
        <time>2023-05-30T09:22:05Z</time>
      </trkpt>
      <trkpt lat="36.03086006538282" lon="119.40661873982559">
        <ele>58.7457275390625</ele>
        <time>2023-05-30T09:22:17Z</time>
      </trkpt>
      <trkpt lat="36.03096492384727" lon="119.40635149638854">
        <ele>58.19622802734375</ele>
        <time>2023-05-30T09:22:29Z</time>
      </trkpt>
      <trkpt lat="36.03098684654495" lon="119.40618335024435">
        <ele>60.36016845703125</ele>
        <time>2023-05-30T09:22:35Z</time>
      </trkpt>
      <trkpt lat="36.03097574389628" lon="119.40593314065583">
        <ele>60.3326416015625</ele>
        <time>2023-05-30T09:22:44Z</time>
      </trkpt>
      <trkpt lat="36.03098571265868" lon="119.40586308114096">
        <ele>59.27880859375</ele>
        <time>2023-05-30T09:22:47Z</time>
      </trkpt>
      <trkpt lat="36.03094865662546" lon="119.40570495452117">
        <ele>62.39581298828125</ele>
        <time>2023-05-30T09:22:53Z</time>
      </trkpt>
      <trkpt lat="36.03094459295356" lon="119.40554382317677">
        <ele>63.361572265625</ele>
        <time>2023-05-30T09:22:59Z</time>
      </trkpt>
      <trkpt lat="36.03091857277669" lon="119.40547777249516">
        <ele>64.0277099609375</ele>
        <time>2023-05-30T09:23:02Z</time>
      </trkpt>
      <trkpt lat="36.03083345919833" lon="119.40513350668184">
        <ele>61.64483642578125</ele>
        <time>2023-05-30T09:23:14Z</time>
      </trkpt>
      <trkpt lat="36.03073536594919" lon="119.40482227454189">
        <ele>58.6451416015625</ele>
        <time>2023-05-30T09:23:35Z</time>
      </trkpt>
      <trkpt lat="36.03053931891327" lon="119.40456610053415">
        <ele>62.77899169921875</ele>
        <time>2023-05-30T09:23:50Z</time>
      </trkpt>
      <trkpt lat="36.03046629703462" lon="119.40445602565106">
        <ele>63.925048828125</ele>
        <time>2023-05-30T09:23:56Z</time>
      </trkpt>
      <trkpt lat="36.030293284247826" lon="119.4043039314066">
        <ele>65.1455078125</ele>
        <time>2023-05-30T09:24:05Z</time>
      </trkpt>
      <trkpt lat="36.03026327273684" lon="119.40424989470927">
        <ele>64.2557373046875</ele>
        <time>2023-05-30T09:24:08Z</time>
      </trkpt>
      <trkpt lat="36.03004927843182" lon="119.40412082369446">
        <ele>63.8394775390625</ele>
        <time>2023-05-30T09:24:20Z</time>
      </trkpt>
      <trkpt lat="36.029999284907014" lon="119.40410581831816">
        <ele>64.874755859375</ele>
        <time>2023-05-30T09:24:23Z</time>
      </trkpt>
      <trkpt lat="36.029972275172874" lon="119.40405778626796">
        <ele>66.16204833984375</ele>
        <time>2023-05-30T09:24:26Z</time>
      </trkpt>
      <trkpt lat="36.02985827567025" lon="119.4039797423387">
        <ele>64.4364013671875</ele>
        <time>2023-05-30T09:24:35Z</time>
      </trkpt>
      <trkpt lat="36.02981126787398" lon="119.40392270637898">
        <ele>64.92486572265625</ele>
        <time>2023-05-30T09:24:38Z</time>
      </trkpt>
      <trkpt lat="36.02972126912737" lon="119.40386267327604">
        <ele>65.38787841796875</ele>
        <time>2023-05-30T09:24:44Z</time>
      </trkpt>
      <trkpt lat="36.02940532242482" lon="119.40380266575085">
        <ele>65.07379150390625</ele>
        <time>2023-05-30T09:24:59Z</time>
      </trkpt>
      <trkpt lat="36.02909340526563" lon="119.40383772583876">
        <ele>67.42919921875</ele>
        <time>2023-05-30T09:25:14Z</time>
      </trkpt>
      <trkpt lat="36.02903542018922" lon="119.40384273593597">
        <ele>65.205810546875</ele>
        <time>2023-05-30T09:25:17Z</time>
      </trkpt>
      <trkpt lat="36.02900039633459" lon="119.40374266842191">
        <ele>63.18878173828125</ele>
        <time>2023-05-30T09:25:23Z</time>
      </trkpt>
      <trkpt lat="36.029024317337594" lon="119.40350649937298">
        <ele>64.3968505859375</ele>
        <time>2023-05-30T09:25:32Z</time>
      </trkpt>
      <trkpt lat="36.02905028702373" lon="119.40342644078035">
        <ele>65.538330078125</ele>
        <time>2023-05-30T09:25:35Z</time>
      </trkpt>
      <trkpt lat="36.02929917730515" lon="119.40325029162132">
        <ele>62.03753662109375</ele>
        <time>2023-05-30T09:25:50Z</time>
      </trkpt>
      <trkpt lat="36.02942413334801" lon="119.40319824211339">
        <ele>59.5372314453125</ele>
        <time>2023-05-30T09:25:56Z</time>
      </trkpt>
      <trkpt lat="36.02960104595436" lon="119.40303611270996">
        <ele>63.2730712890625</ele>
        <time>2023-05-30T09:26:05Z</time>
      </trkpt>
      <trkpt lat="36.02966801949311" lon="119.40299707904124">
        <ele>62.59619140625</ele>
        <time>2023-05-30T09:26:08Z</time>
      </trkpt>
      <trkpt lat="36.029771968633995" lon="119.40290100337208">
        <ele>63.377197265625</ele>
        <time>2023-05-30T09:26:14Z</time>
      </trkpt>
      <trkpt lat="36.029801939298665" lon="119.40281994641674">
        <ele>62.74530029296875</ele>
        <time>2023-05-30T09:26:17Z</time>
      </trkpt>
      <trkpt lat="36.02993784939008" lon="119.40260278941963">
        <ele>65.4998779296875</ele>
        <time>2023-05-30T09:26:26Z</time>
      </trkpt>
      <trkpt lat="36.03001274145051" lon="119.40225055677539">
        <ele>58.95892333984375</ele>
        <time>2023-05-30T09:26:44Z</time>
      </trkpt>
      <trkpt lat="36.03009566372152" lon="119.40201039859986">
        <ele>59.2945556640625</ele>
        <time>2023-05-30T09:26:53Z</time>
      </trkpt>
      <trkpt lat="36.03014158501583" lon="119.40171721612587">
        <ele>64.34515380859375</ele>
        <time>2023-05-30T09:27:08Z</time>
      </trkpt>
      <trkpt lat="36.03012454525253" lon="119.40152010155053">
        <ele>62.4794921875</ele>
        <time>2023-05-30T09:27:17Z</time>
      </trkpt>
      <trkpt lat="36.030029490530424" lon="119.40115390162975">
        <ele>63.055419921875</ele>
        <time>2023-05-30T09:27:32Z</time>
      </trkpt>
      <trkpt lat="36.02988745794373" lon="119.40081673036369">
        <ele>60.1263427734375</ele>
        <time>2023-05-30T09:27:50Z</time>
      </trkpt>
      <trkpt lat="36.02977147038652" lon="119.40073970151398">
        <ele>63.91583251953125</ele>
        <time>2023-05-30T09:27:56Z</time>
      </trkpt>
      <trkpt lat="36.029601466042756" lon="119.40049458958832">
        <ele>60.17724609375</ele>
        <time>2023-05-30T09:28:05Z</time>
      </trkpt>
      <trkpt lat="36.029333505973746" lon="119.40036655258011">
        <ele>64.00982666015625</ele>
        <time>2023-05-30T09:28:29Z</time>
      </trkpt>
      <trkpt lat="36.02927452051544" lon="119.40037256233018">
        <ele>62.68927001953125</ele>
        <time>2023-05-30T09:28:32Z</time>
      </trkpt>
      <trkpt lat="36.029171539695504" lon="119.40034555985062">
        <ele>62.9140625</ele>
        <time>2023-05-30T09:28:38Z</time>
      </trkpt>
      <trkpt lat="36.02908154409203" lon="119.40024551829391">
        <ele>65.98638916015625</ele>
        <time>2023-05-30T09:28:44Z</time>
      </trkpt>
      <trkpt lat="36.02878760332263" lon="119.40019352466558">
        <ele>64.70648193359375</ele>
        <time>2023-05-30T09:29:02Z</time>
      </trkpt>
      <trkpt lat="36.02847568294709" lon="119.40024358531458">
        <ele>62.8642578125</ele>
        <time>2023-05-30T09:29:17Z</time>
      </trkpt>
      <trkpt lat="36.028342726471585" lon="119.40032364152499">
        <ele>61.61859130859375</ele>
        <time>2023-05-30T09:29:26Z</time>
      </trkpt>
      <trkpt lat="36.028088816604914" lon="119.40051276899285">
        <ele>63.61236572265625</ele>
        <time>2023-05-30T09:29:41Z</time>
      </trkpt>
      <trkpt lat="36.027896896444624" lon="119.40071489853064">
        <ele>63.9107666015625</ele>
        <time>2023-05-30T09:29:53Z</time>
      </trkpt>
      <trkpt lat="36.027842912489234" lon="119.40073491541015">
        <ele>63.64520263671875</ele>
        <time>2023-05-30T09:29:56Z</time>
      </trkpt>
      <trkpt lat="36.02771191033874" lon="119.40055383305472">
        <ele>65.61712646484375</ele>
        <time>2023-05-30T09:30:05Z</time>
      </trkpt>
      <trkpt lat="36.02749093316564" lon="119.40038977151679">
        <ele>67.4864501953125</ele>
        <time>2023-05-30T09:30:14Z</time>
      </trkpt>
      <trkpt lat="36.02730894062319" lon="119.40017768257219">
        <ele>69.9432373046875</ele>
        <time>2023-05-30T09:30:23Z</time>
      </trkpt>
      <trkpt lat="36.027243948525516" lon="119.40013266697893">
        <ele>68.6600341796875</ele>
        <time>2023-05-30T09:30:26Z</time>
      </trkpt>
      <trkpt lat="36.027149951352634" lon="119.40000961554479">
        <ele>69.60302734375</ele>
        <time>2023-05-30T09:30:32Z</time>
      </trkpt>
      <trkpt lat="36.027083961452874" lon="119.3999756059707">
        <ele>70.187744140625</ele>
        <time>2023-05-30T09:30:35Z</time>
      </trkpt>
      <trkpt lat="36.02686901506028" lon="119.40000364409448">
        <ele>69.6126708984375</ele>
        <time>2023-05-30T09:30:44Z</time>
      </trkpt>
      <trkpt lat="36.02681902476412" lon="119.39999164371062">
        <ele>69.43304443359375</ele>
        <time>2023-05-30T09:30:47Z</time>
      </trkpt>
      <trkpt lat="36.02663004492827" lon="119.39983158573314">
        <ele>72.00836181640625</ele>
        <time>2023-05-30T09:30:56Z</time>
      </trkpt>
      <trkpt lat="36.02636608456667" lon="119.39967954147109">
        <ele>71.00213623046875</ele>
        <time>2023-05-30T09:31:08Z</time>
      </trkpt>
      <trkpt lat="36.026350093831724" lon="119.3997205630744">
        <ele>65.9493408203125</ele>
        <time>2023-05-30T09:31:17Z</time>
      </trkpt>
      <trkpt lat="36.026375078591386" lon="119.39965052650793">
        <ele>68.5908203125</ele>
        <time>2023-05-30T09:39:27Z</time>
      </trkpt>
      <trkpt lat="36.0263010925419" lon="119.3996275237846">
        <ele>69.48040771484375</ele>
        <time>2023-05-30T09:39:33Z</time>
      </trkpt>
      <trkpt lat="36.02616112315361" lon="119.39961553375998">
        <ele>66.8131103515625</ele>
        <time>2023-05-30T09:39:45Z</time>
      </trkpt>
      <trkpt lat="36.02589416760846" lon="119.39948450155912">
        <ele>62.2239990234375</ele>
        <time>2023-05-30T09:40:03Z</time>
      </trkpt>
      <trkpt lat="36.02560621730598" lon="119.39935047129005">
        <ele>66.84033203125</ele>
        <time>2023-05-30T09:40:18Z</time>
      </trkpt>
      <trkpt lat="36.02549323274435" lon="119.39926144295377">
        <ele>67.3984375</ele>
        <time>2023-05-30T09:40:24Z</time>
      </trkpt>
      <trkpt lat="36.02519728352889" lon="119.39910840670412">
        <ele>66.15631103515625</ele>
        <time>2023-05-30T09:40:39Z</time>
      </trkpt>
      <trkpt lat="36.025031303995135" lon="119.39894135099995">
        <ele>67.6177978515625</ele>
        <time>2023-05-30T09:40:48Z</time>
      </trkpt>
      <trkpt lat="36.024916324496154" lon="119.39888233802147">
        <ele>67.730712890625</ele>
        <time>2023-05-30T09:40:54Z</time>
      </trkpt>
      <trkpt lat="36.024649380640206" lon="119.39882834447461">
        <ele>69.21087646484375</ele>
        <time>2023-05-30T09:41:06Z</time>
      </trkpt>
      <trkpt lat="36.02451841316149" lon="119.39885236961855">
        <ele>68.33831787109375</ele>
        <time>2023-05-30T09:41:12Z</time>
      </trkpt>
      <trkpt lat="36.02437444701669" lon="119.39885938883627">
        <ele>68.918701171875</ele>
        <time>2023-05-30T09:41:18Z</time>
      </trkpt>
      <trkpt lat="36.02433546313532" lon="119.3989304243037">
        <ele>67.90716552734375</ele>
        <time>2023-05-30T09:41:24Z</time>
      </trkpt>
      <trkpt lat="36.02438049381254" lon="119.39930258676226">
        <ele>64.03070068359375</ele>
        <time>2023-05-30T09:41:42Z</time>
      </trkpt>
      <trkpt lat="36.02436754412169" lon="119.39967576398725">
        <ele>65.8070068359375</ele>
        <time>2023-05-30T09:41:54Z</time>
      </trkpt>
      <trkpt lat="36.02433460249284" lon="119.40003094224224">
        <ele>70.25701904296875</ele>
        <time>2023-05-30T09:42:06Z</time>
      </trkpt>
      <trkpt lat="36.02430062844025" lon="119.40014900564958">
        <ele>68.115966796875</ele>
        <time>2023-05-30T09:42:12Z</time>
      </trkpt>
      <trkpt lat="36.024299639710236" lon="119.40021904148247">
        <ele>66.33892822265625</ele>
        <time>2023-05-30T09:42:18Z</time>
      </trkpt>
      <trkpt lat="36.02445562337792" lon="119.40034008636496">
        <ele>65.15673828125</ele>
        <time>2023-05-30T09:42:36Z</time>
      </trkpt>
      <trkpt lat="36.02471659570721" lon="119.40053215776547">
        <ele>65.9078369140625</ele>
        <time>2023-05-30T09:42:51Z</time>
      </trkpt>
      <trkpt lat="36.02498955592204" lon="119.40066319701738">
        <ele>66.15576171875</ele>
        <time>2023-05-30T09:43:06Z</time>
      </trkpt>
      <trkpt lat="36.02523350658799" lon="119.40070119008118">
        <ele>65.58447265625</ele>
        <time>2023-05-30T09:43:15Z</time>
      </trkpt>
      <trkpt lat="36.02554645191774" lon="119.4007962064415">
        <ele>65.4847412109375</ele>
        <time>2023-05-30T09:43:27Z</time>
      </trkpt>
      <trkpt lat="36.02561943216461" lon="119.40078018953595">
        <ele>63.2591552734375</ele>
        <time>2023-05-30T09:43:30Z</time>
      </trkpt>
      <trkpt lat="36.02588437580679" lon="119.40080517339858">
        <ele>66.07421875</ele>
        <time>2023-05-30T09:43:42Z</time>
      </trkpt>
      <trkpt lat="36.02601133829125" lon="119.40076013465777">
        <ele>64.98309326171875</ele>
        <time>2023-05-30T09:43:48Z</time>
      </trkpt>
      <trkpt lat="36.02621928459635" lon="119.40072809396457">
        <ele>66.41986083984375</ele>
        <time>2023-05-30T09:43:57Z</time>
      </trkpt>
      <trkpt lat="36.026269268018346" lon="119.4007000732257">
        <ele>66.0556640625</ele>
        <time>2023-05-30T09:44:00Z</time>
      </trkpt>
      <trkpt lat="36.026544201881364" lon="119.40068403372642">
        <ele>65.8046875</ele>
        <time>2023-05-30T09:44:12Z</time>
      </trkpt>
      <trkpt lat="36.02660119039388" lon="119.40069303217527">
        <ele>68.06182861328125</ele>
        <time>2023-05-30T09:44:15Z</time>
      </trkpt>
      <trkpt lat="36.02667218222742" lon="119.40073804851552">
        <ele>68.82281494140625</ele>
        <time>2023-05-30T09:44:21Z</time>
      </trkpt>
      <trkpt lat="36.02673016761406" lon="119.40073103821399">
        <ele>66.23553466796875</ele>
        <time>2023-05-30T09:44:27Z</time>
      </trkpt>
      <trkpt lat="36.02615828600308" lon="119.40065806308375">
        <ele>0.0</ele>
        <time>2023-05-30T09:55:06Z</time>
      </trkpt>
      <trkpt lat="36.02857023683293" lon="119.40287311976178">
        <ele>62.1829833984375</ele>
        <time>2023-05-30T09:57:24Z</time>
      </trkpt>
      <trkpt lat="36.02869223483247" lon="119.40296616790062">
        <ele>54.90692138671875</ele>
        <time>2023-05-30T09:57:33Z</time>
      </trkpt>
      <trkpt lat="36.028756272468016" lon="119.40314928382543">
        <ele>61.1712646484375</ele>
        <time>2023-05-30T09:57:45Z</time>
      </trkpt>
      <trkpt lat="36.02877638257133" lon="119.40353354608771">
        <ele>66.90618896484375</ele>
        <time>2023-05-30T09:58:00Z</time>
      </trkpt>
      <trkpt lat="36.028780426996335" lon="119.40367964840331">
        <ele>66.51947021484375</ele>
        <time>2023-05-30T09:58:06Z</time>
      </trkpt>
      <trkpt lat="36.02876049816387" lon="119.40388879986413">
        <ele>67.5440673828125</ele>
        <time>2023-05-30T09:58:15Z</time>
      </trkpt>
      <trkpt lat="36.02873252374313" lon="119.40394784557978">
        <ele>68.96868896484375</ele>
        <time>2023-05-30T09:58:18Z</time>
      </trkpt>
      <trkpt lat="36.028650571097764" lon="119.40403491792235">
        <ele>69.39520263671875</ele>
        <time>2023-05-30T09:58:24Z</time>
      </trkpt>
      <trkpt lat="36.02837369042522" lon="119.40420207141813">
        <ele>67.56280517578125</ele>
        <time>2023-05-30T09:58:39Z</time>
      </trkpt>
      <trkpt lat="36.028195797249495" lon="119.40439523483012">
        <ele>67.6063232421875</ele>
        <time>2023-05-30T09:58:51Z</time>
      </trkpt>
      <trkpt lat="36.027980944558124" lon="119.40467346928632">
        <ele>67.18212890625</ele>
        <time>2023-05-30T09:59:06Z</time>
      </trkpt>
      <trkpt lat="36.027816106940314" lon="119.40501375101171">
        <ele>68.07769775390625</ele>
        <time>2023-05-30T09:59:21Z</time>
      </trkpt>
      <trkpt lat="36.02770528279412" lon="119.40540707590156">
        <ele>72.37457275390625</ele>
        <time>2023-05-30T09:59:36Z</time>
      </trkpt>
      <trkpt lat="36.02766339492374" lon="119.4056652905046">
        <ele>71.46087646484375</ele>
        <time>2023-05-30T09:59:45Z</time>
      </trkpt>
      <trkpt lat="36.027625423863626" lon="119.40571533588461">
        <ele>67.6259765625</ele>
        <time>2023-05-30T09:59:51Z</time>
      </trkpt>
      <trkpt lat="36.0275764395861" lon="119.40572635044896">
        <ele>66.630126953125</ele>
        <time>2023-05-30T09:59:57Z</time>
      </trkpt>
      <trkpt lat="36.02733844152536" lon="119.4055952696632">
        <ele>58.93017578125</ele>
        <time>2023-05-30T10:00:15Z</time>
      </trkpt>
      <trkpt lat="36.027253417748554" lon="119.40548619050261">
        <ele>59.5247802734375</ele>
        <time>2023-05-30T10:00:21Z</time>
      </trkpt>
      <trkpt lat="36.0271663488702" lon="119.40525801691552">
        <ele>61.7479248046875</ele>
        <time>2023-05-30T10:00:30Z</time>
      </trkpt>
      <trkpt lat="36.02713026349938" lon="119.40501082566468">
        <ele>60.6298828125</ele>
        <time>2023-05-30T10:00:39Z</time>
      </trkpt>
      <trkpt lat="36.02717219244775" lon="119.4048446916526">
        <ele>60.675537109375</ele>
        <time>2023-05-30T10:00:45Z</time>
      </trkpt>
      <trkpt lat="36.02709108743211" lon="119.40449943703973">
        <ele>63.3978271484375</ele>
        <time>2023-05-30T10:01:00Z</time>
      </trkpt>
      <trkpt lat="36.026963072350426" lon="119.40437135529177">
        <ele>63.70733642578125</ele>
        <time>2023-05-30T10:01:06Z</time>
      </trkpt>
      <trkpt lat="36.02689107514678" lon="119.40433133352877">
        <ele>63.8499755859375</ele>
        <time>2023-05-30T10:01:09Z</time>
      </trkpt>
      <trkpt lat="36.026772099082024" lon="119.40432133943987">
        <ele>64.10443115234375</ele>
        <time>2023-05-30T10:01:15Z</time>
      </trkpt>
      <trkpt lat="36.02668210406548" lon="119.40427531535931">
        <ele>65.6234130859375</ele>
        <time>2023-05-30T10:01:21Z</time>
      </trkpt>
      <trkpt lat="36.02663111988404" lon="119.40428732999004">
        <ele>63.87701416015625</ele>
        <time>2023-05-30T10:01:27Z</time>
      </trkpt>
      <trkpt lat="36.02657611045656" lon="119.40422228802218">
        <ele>57.1319580078125</ele>
        <time>2023-05-30T10:01:36Z</time>
      </trkpt>
      <trkpt lat="36.0265729971471" lon="119.40387703685737">
        <ele>61.3515625</ele>
        <time>2023-05-30T10:01:51Z</time>
      </trkpt>
      <trkpt lat="36.02655291532468" lon="119.40360384488133">
        <ele>62.9913330078125</ele>
        <time>2023-05-30T10:02:03Z</time>
      </trkpt>
      <trkpt lat="36.02657288879673" lon="119.40353279281803">
        <ele>62.28143310546875</ele>
        <time>2023-05-30T10:02:06Z</time>
      </trkpt>
      <trkpt lat="36.026543821534545" lon="119.40328762636368">
        <ele>60.55426025390625</ele>
        <time>2023-05-30T10:02:27Z</time>
      </trkpt>
      <trkpt lat="36.02647284736772" lon="119.40331965630689">
        <ele>63.34112548828125</ele>
        <time>2023-05-30T10:14:46Z</time>
      </trkpt>
      <trkpt lat="36.026423869084994" lon="119.40335468590682">
        <ele>65.022705078125</ele>
        <time>2023-05-30T10:14:52Z</time>
      </trkpt>
      <trkpt lat="36.026397892498515" lon="119.40341272891445">
        <ele>63.55322265625</ele>
        <time>2023-05-30T10:14:58Z</time>
      </trkpt>
      <trkpt lat="36.0263849216157" lon="119.40349879016746">
        <ele>63.32958984375</ele>
        <time>2023-05-30T10:15:04Z</time>
      </trkpt>
      <trkpt lat="36.02641995774349" lon="119.40364188659245">
        <ele>65.125732421875</ele>
        <time>2023-05-30T10:15:13Z</time>
      </trkpt>
      <trkpt lat="36.02641407210648" lon="119.40399513996559">
        <ele>67.4476318359375</ele>
        <time>2023-05-30T10:15:28Z</time>
      </trkpt>
      <trkpt lat="36.026462188252694" lon="119.40437341302511">
        <ele>66.8944091796875</ele>
        <time>2023-05-30T10:15:43Z</time>
      </trkpt>
      <trkpt lat="36.02643727027148" lon="119.40459158011139">
        <ele>67.88653564453125</ele>
        <time>2023-05-30T10:15:52Z</time>
      </trkpt>
      <trkpt lat="36.026465391859375" lon="119.40494484871458">
        <ele>66.11578369140625</ele>
        <time>2023-05-30T10:16:04Z</time>
      </trkpt>
      <trkpt lat="36.02660549754455" lon="119.40530912064132">
        <ele>68.8829345703125</ele>
        <time>2023-05-30T10:16:19Z</time>
      </trkpt>
      <trkpt lat="36.02676856259522" lon="119.40557031323806">
        <ele>66.1148681640625</ele>
        <time>2023-05-30T10:16:31Z</time>
      </trkpt>
      <trkpt lat="36.026797584751556" lon="119.40564236884308">
        <ele>67.64739990234375</ele>
        <time>2023-05-30T10:16:34Z</time>
      </trkpt>
      <trkpt lat="36.02684159398003" lon="119.40569040330853">
        <ele>67.83428955078125</ele>
        <time>2023-05-30T10:16:37Z</time>
      </trkpt>
      <trkpt lat="36.02689963930428" lon="119.4058345157984">
        <ele>70.19384765625</ele>
        <time>2023-05-30T10:16:43Z</time>
      </trkpt>
      <trkpt lat="36.02695365036557" lon="119.40589155716795">
        <ele>69.1435546875</ele>
        <time>2023-05-30T10:16:46Z</time>
      </trkpt>
      <trkpt lat="36.02714774969953" lon="119.40623382386504">
        <ele>68.2413330078125</ele>
        <time>2023-05-30T10:17:01Z</time>
      </trkpt>
      <trkpt lat="36.027327816429" lon="119.40648301788409">
        <ele>67.23486328125</ele>
        <time>2023-05-30T10:17:13Z</time>
      </trkpt>
      <trkpt lat="36.02742888386479" lon="119.4066871846898">
        <ele>66.7144775390625</ele>
        <time>2023-05-30T10:17:29Z</time>
      </trkpt>
      <trkpt lat="36.027680944659444" lon="119.40694838778388">
        <ele>59.30810546875</ele>
        <time>2023-05-30T10:17:47Z</time>
      </trkpt>
      <trkpt lat="36.027918014814766" lon="119.40721560190173">
        <ele>62.71875</ele>
        <time>2023-05-30T10:18:02Z</time>
      </trkpt>
      <trkpt lat="36.02816008704159" lon="119.40748281952607">
        <ele>64.5242919921875</ele>
        <time>2023-05-30T10:18:17Z</time>
      </trkpt>
      <trkpt lat="36.02840810279986" lon="119.40763193006404">
        <ele>63.57366943359375</ele>
        <time>2023-05-30T10:18:29Z</time>
      </trkpt>
      <trkpt lat="36.028581142277545" lon="119.40779206064553">
        <ele>64.95269775390625</ele>
        <time>2023-05-30T10:18:38Z</time>
      </trkpt>
      <trkpt lat="36.028645132566545" lon="119.40780206288622">
        <ele>66.657470703125</ele>
        <time>2023-05-30T10:18:44Z</time>
      </trkpt>
      <trkpt lat="36.028683148853126" lon="119.40785210582384">
        <ele>69.415771484375</ele>
        <time>2023-05-30T10:18:50Z</time>
      </trkpt>
      <trkpt lat="36.028906110689206" lon="119.40787810539837">
        <ele>64.6156005859375</ele>
        <time>2023-05-30T10:19:08Z</time>
      </trkpt>
      <trkpt lat="36.02918909923102" lon="119.40798417433584">
        <ele>63.5560302734375</ele>
        <time>2023-05-30T10:19:23Z</time>
      </trkpt>
      <trkpt lat="36.029371070650505" lon="119.40801017870763">
        <ele>65.268798828125</ele>
        <time>2023-05-30T10:19:32Z</time>
      </trkpt>
      <trkpt lat="36.029426073809816" lon="119.4080412021518">
        <ele>67.1923828125</ele>
        <time>2023-05-30T10:19:35Z</time>
      </trkpt>
      <trkpt lat="36.02970796994182" lon="119.40796409703916">
        <ele>62.2255859375</ele>
        <time>2023-05-30T10:19:50Z</time>
      </trkpt>
      <trkpt lat="36.02990388005711" lon="119.40787499055047">
        <ele>60.11981201171875</ele>
        <time>2023-05-30T10:20:02Z</time>
      </trkpt>
      <trkpt lat="36.03003179916645" lon="119.40777187896676">
        <ele>60.85662841796875</ele>
        <time>2023-05-30T10:20:11Z</time>
      </trkpt>
      <trkpt lat="36.03019574562375" lon="119.40773983047968">
        <ele>65.40399169921875</ele>
        <time>2023-05-30T10:20:20Z</time>
      </trkpt>
      <trkpt lat="36.03030167730168" lon="119.4076507352287">
        <ele>65.31231689453125</ele>
        <time>2023-05-30T10:20:26Z</time>
      </trkpt>
      <trkpt lat="36.030510512479246" lon="119.40741048924852">
        <ele>57.92822265625</ele>
        <time>2023-05-30T10:20:41Z</time>
      </trkpt>
      <trkpt lat="36.03056846988217" lon="119.4073494267045">
        <ele>57.21734619140625</ele>
        <time>2023-05-30T10:20:44Z</time>
      </trkpt>
      <trkpt lat="36.030557441855386" lon="119.40728536937762">
        <ele>55.23712158203125</ele>
        <time>2023-05-30T10:20:47Z</time>
      </trkpt>
      <trkpt lat="36.03064631782754" lon="119.40706515986456">
        <ele>51.6658935546875</ele>
        <time>2023-05-30T10:20:59Z</time>
      </trkpt>
      <trkpt lat="36.03073520602628" lon="119.40686697266388">
        <ele>52.4659423828125</ele>
        <time>2023-05-30T10:21:08Z</time>
      </trkpt>
      <trkpt lat="36.03077313872126" lon="119.4067378541458">
        <ele>54.6871337890625</ele>
        <time>2023-05-30T10:21:14Z</time>
      </trkpt>
      <trkpt lat="36.03089499976756" lon="119.40648862260048">
        <ele>58.0042724609375</ele>
        <time>2023-05-30T10:21:29Z</time>
      </trkpt>
      <trkpt lat="36.03092989386835" lon="119.40626342485874">
        <ele>57.1014404296875</ele>
        <time>2023-05-30T10:21:41Z</time>
      </trkpt>
      <trkpt lat="36.0309527816834" lon="119.40601120863235">
        <ele>57.9609375</ele>
        <time>2023-05-30T10:21:53Z</time>
      </trkpt>
      <trkpt lat="36.030926734025996" lon="119.40588210358597">
        <ele>54.72760009765625</ele>
        <time>2023-05-30T10:21:59Z</time>
      </trkpt>
      <trkpt lat="36.03091561953938" lon="119.40559386720392">
        <ele>54.9208984375</ele>
        <time>2023-05-30T10:22:11Z</time>
      </trkpt>
      <trkpt lat="36.030830511091324" lon="119.40526761347809">
        <ele>58.19366455078125</ele>
        <time>2023-05-30T10:22:26Z</time>
      </trkpt>
      <trkpt lat="36.030795445249304" lon="119.40507346361086">
        <ele>61.75091552734375</ele>
        <time>2023-05-30T10:22:35Z</time>
      </trkpt>
      <trkpt lat="36.03067035504946" lon="119.40475122710279">
        <ele>61.61773681640625</ele>
        <time>2023-05-30T10:22:50Z</time>
      </trkpt>
      <trkpt lat="36.0305403215143" lon="119.40457410649084">
        <ele>65.8131103515625</ele>
        <time>2023-05-30T10:22:59Z</time>
      </trkpt>
      <trkpt lat="36.030483318355955" lon="119.40452807804348">
        <ele>65.1846923828125</ele>
        <time>2023-05-30T10:23:02Z</time>
      </trkpt>
      <trkpt lat="36.0302852836916" lon="119.40429692710173">
        <ele>64.52410888671875</ele>
        <time>2023-05-30T10:23:17Z</time>
      </trkpt>
      <trkpt lat="36.03019027831117" lon="119.4042168785022">
        <ele>62.7841796875</ele>
        <time>2023-05-30T10:23:23Z</time>
      </trkpt>
      <trkpt lat="36.03013028465572" lon="119.40419486900429">
        <ele>60.86993408203125</ele>
        <time>2023-05-30T10:23:29Z</time>
      </trkpt>
      <trkpt lat="36.03008627394764" lon="119.40413282834153">
        <ele>61.4654541015625</ele>
        <time>2023-05-30T10:23:35Z</time>
      </trkpt>
      <trkpt lat="36.02997328920975" lon="119.40410081757675">
        <ele>61.9737548828125</ele>
        <time>2023-05-30T10:23:44Z</time>
      </trkpt>
      <trkpt lat="36.02980529833175" lon="119.40401177152026">
        <ele>62.6748046875</ele>
        <time>2023-05-30T10:23:56Z</time>
      </trkpt>
      <trkpt lat="36.02959532070403" lon="119.40393273785048">
        <ele>64.9317626953125</ele>
        <time>2023-05-30T10:24:08Z</time>
      </trkpt>
      <trkpt lat="36.02937233095932" lon="119.40380567160102">
        <ele>67.704833984375</ele>
        <time>2023-05-30T10:24:23Z</time>
      </trkpt>
      <trkpt lat="36.02921835866178" lon="119.40378167174269">
        <ele>70.9427490234375</ele>
        <time>2023-05-30T10:24:32Z</time>
      </trkpt>
      <trkpt lat="36.02911138865002" lon="119.40379869589846">
        <ele>72.87677001953125</ele>
        <time>2023-05-30T10:24:38Z</time>
      </trkpt>
      <trkpt lat="36.02898243364485" lon="119.40384674475573">
        <ele>72.874755859375</ele>
        <time>2023-05-30T10:24:47Z</time>
      </trkpt>
      <trkpt lat="36.028976398049025" lon="119.40373066258132">
        <ele>70.0516357421875</ele>
        <time>2023-05-30T10:24:53Z</time>
      </trkpt>
      <trkpt lat="36.02902730657224" lon="119.40347347602678">
        <ele>67.12298583984375</ele>
        <time>2023-05-30T10:25:05Z</time>
      </trkpt>
      <trkpt lat="36.02911627005438" lon="119.40342042920956">
        <ele>65.88189697265625</ele>
        <time>2023-05-30T10:25:14Z</time>
      </trkpt>
      <trkpt lat="36.02925119777622" lon="119.40328231891662">
        <ele>64.592529296875</ele>
        <time>2023-05-30T10:25:23Z</time>
      </trkpt>
      <trkpt lat="36.029414136228425" lon="119.40320024459767">
        <ele>59.13507080078125</ele>
        <time>2023-05-30T10:25:32Z</time>
      </trkpt>
      <trkpt lat="36.02954905732128" lon="119.40303411720541">
        <ele>58.44158935546875</ele>
        <time>2023-05-30T10:25:41Z</time>
      </trkpt>
      <trkpt lat="36.02961202725609" lon="119.40297907329041">
        <ele>59.0413818359375</ele>
        <time>2023-05-30T10:25:44Z</time>
      </trkpt>
      <trkpt lat="36.029655999170124" lon="119.40291502569599">
        <ele>58.53997802734375</ele>
        <time>2023-05-30T10:25:47Z</time>
      </trkpt>
      <trkpt lat="36.02966197584453" lon="119.40283597269136">
        <ele>58.7108154296875</ele>
        <time>2023-05-30T10:25:50Z</time>
      </trkpt>
      <trkpt lat="36.02973792370152" lon="119.4027088807729">
        <ele>57.89599609375</ele>
        <time>2023-05-30T10:25:56Z</time>
      </trkpt>
      <trkpt lat="36.029852869164145" lon="119.40260379961053">
        <ele>59.02880859375</ele>
        <time>2023-05-30T10:26:02Z</time>
      </trkpt>
      <trkpt lat="36.02997179553038" lon="119.40242667261305">
        <ele>60.06378173828125</ele>
        <time>2023-05-30T10:26:11Z</time>
      </trkpt>
      <trkpt lat="36.030076683478256" lon="119.40207444010933">
        <ele>61.56597900390625</ele>
        <time>2023-05-30T10:26:26Z</time>
      </trkpt>
      <trkpt lat="36.030112593027795" lon="119.40172322296443">
        <ele>63.4130859375</ele>
        <time>2023-05-30T10:26:41Z</time>
      </trkpt>
      <trkpt lat="36.03010152945465" lon="119.40142204700402">
        <ele>67.7337646484375</ele>
        <time>2023-05-30T10:27:05Z</time>
      </trkpt>
      <trkpt lat="36.0299784833491" lon="119.40105885393284">
        <ele>69.08233642578125</ele>
        <time>2023-05-30T10:27:20Z</time>
      </trkpt>
      <trkpt lat="36.02983546303108" lon="119.40077971603907">
        <ele>68.3648681640625</ele>
        <time>2023-05-30T10:27:32Z</time>
      </trkpt>
      <trkpt lat="36.02970546537973" lon="119.40062764861244">
        <ele>67.14886474609375</ele>
        <time>2023-05-30T10:27:41Z</time>
      </trkpt>
      <trkpt lat="36.02946448846291" lon="119.4004415770757">
        <ele>64.9703369140625</ele>
        <time>2023-05-30T10:27:59Z</time>
      </trkpt>
      <trkpt lat="36.02942149327891" lon="119.40041156618386">
        <ele>64.03173828125</ele>
        <time>2023-05-30T10:28:05Z</time>
      </trkpt>
      <trkpt lat="36.029406483930025" lon="119.40033452775135">
        <ele>64.68109130859375</ele>
        <time>2023-05-30T10:28:11Z</time>
      </trkpt>
      <trkpt lat="36.02936048713667" lon="119.40028950962659">
        <ele>65.1136474609375</ele>
        <time>2023-05-30T10:28:17Z</time>
      </trkpt>
      <trkpt lat="36.02903255422146" lon="119.40023852020092">
        <ele>69.49945068359375</ele>
        <time>2023-05-30T10:28:32Z</time>
      </trkpt>
      <trkpt lat="36.02875161795213" lon="119.40023354918839">
        <ele>71.02392578125</ele>
        <time>2023-05-30T10:28:44Z</time>
      </trkpt>
      <trkpt lat="36.028678632005814" lon="119.40021654867044">
        <ele>70.510009765625</ele>
        <time>2023-05-30T10:28:47Z</time>
      </trkpt>
      <trkpt lat="36.02841670457433" lon="119.40029361769489">
        <ele>69.28631591796875</ele>
        <time>2023-05-30T10:28:59Z</time>
      </trkpt>
      <trkpt lat="36.02821677068837" lon="119.4004157035864">
        <ele>68.89013671875</ele>
        <time>2023-05-30T10:29:08Z</time>
      </trkpt>
      <trkpt lat="36.028084817523954" lon="119.400512769442">
        <ele>72.1856689453125</ele>
        <time>2023-05-30T10:29:14Z</time>
      </trkpt>
      <trkpt lat="36.02796586409431" lon="119.40062284131909">
        <ele>70.33563232421875</ele>
        <time>2023-05-30T10:29:20Z</time>
      </trkpt>
      <trkpt lat="36.02790888235083" lon="119.40065186325968">
        <ele>71.00872802734375</ele>
        <time>2023-05-30T10:29:26Z</time>
      </trkpt>
      <trkpt lat="36.02785890300376" lon="119.40070289631853">
        <ele>69.454345703125</ele>
        <time>2023-05-30T10:29:32Z</time>
      </trkpt>
      <trkpt lat="36.02779792046492" lon="119.40072191342983">
        <ele>66.58349609375</ele>
        <time>2023-05-30T10:29:41Z</time>
      </trkpt>
      <trkpt lat="36.02771491454362" lon="119.40058184761257">
        <ele>66.303466796875</ele>
        <time>2023-05-30T10:29:47Z</time>
      </trkpt>
      <trkpt lat="36.027515931941295" lon="119.40041678282202">
        <ele>65.1822509765625</ele>
        <time>2023-05-30T10:29:56Z</time>
      </trkpt>
      <trkpt lat="36.02741293122835" lon="119.4002687175354">
        <ele>67.48114013671875</ele>
        <time>2023-05-30T10:30:02Z</time>
      </trkpt>
      <trkpt lat="36.02731294365359" lon="119.40020269488997">
        <ele>65.72076416015625</ele>
        <time>2023-05-30T10:30:08Z</time>
      </trkpt>
      <trkpt lat="36.02712696010133" lon="119.40003262965399">
        <ele>69.31396484375</ele>
        <time>2023-05-30T10:30:23Z</time>
      </trkpt>
      <trkpt lat="36.027047975553224" lon="119.40001462950104">
        <ele>70.22039794921875</ele>
        <time>2023-05-30T10:30:26Z</time>
      </trkpt>
      <trkpt lat="36.026827024268876" lon="119.40000064731012">
        <ele>68.88812255859375</ele>
        <time>2023-05-30T10:30:35Z</time>
      </trkpt>
      <trkpt lat="36.02676003358049" lon="119.39995963438024">
        <ele>71.00213623046875</ele>
        <time>2023-05-30T10:30:38Z</time>
      </trkpt>
      <trkpt lat="36.02671603346525" lon="119.39988960461994">
        <ele>69.51837158203125</ele>
        <time>2023-05-30T10:30:41Z</time>
      </trkpt>
      <trkpt lat="36.026499063556614" lon="119.39974956041108">
        <ele>69.25579833984375</ele>
        <time>2023-05-30T10:30:50Z</time>
      </trkpt>
      <trkpt lat="36.02638408560015" lon="119.39971755780431">
        <ele>70.5400390625</ele>
        <time>2023-05-30T10:30:56Z</time>
      </trkpt>
      <trkpt lat="36.0263400912241" lon="119.39968454680081">
        <ele>72.24774169921875</ele>
        <time>2023-05-30T10:30:59Z</time>
      </trkpt>
      <trkpt lat="36.0263400912241" lon="119.39968454680081">
        <ele>72.24774169921875</ele>
        <time>2023-05-30T10:31:07Z</time>
      </trkpt>
      <trkpt lat="36.02632510802949" lon="119.39978159552507">
        <ele>67.96240234375</ele>
        <time>2023-05-30T10:33:32Z</time>
      </trkpt>
      <trkpt lat="36.02628810932883" lon="119.39972957439636">
        <ele>67.41046142578125</ele>
        <time>2023-05-30T10:33:38Z</time>
      </trkpt>
      <trkpt lat="36.026241118356005" lon="119.3997165733766">
        <ele>69.622802734375</ele>
        <time>2023-05-30T10:33:41Z</time>
      </trkpt>
      <trkpt lat="36.02617012735806" lon="119.39966255529353">
        <ele>65.64483642578125</ele>
        <time>2023-05-30T10:33:47Z</time>
      </trkpt>
      <trkpt lat="36.02598915890033" lon="119.3995865392242">
        <ele>65.37896728515625</ele>
        <time>2023-05-30T10:33:59Z</time>
      </trkpt>
      <trkpt lat="36.025935170407074" lon="119.39957954195181">
        <ele>67.2769775390625</ele>
        <time>2023-05-30T10:34:02Z</time>
      </trkpt>
      <trkpt lat="36.02570120636292" lon="119.3994395020924">
        <ele>69.381591796875</ele>
        <time>2023-05-30T10:34:14Z</time>
      </trkpt>
      <trkpt lat="36.02556223205037" lon="119.3993884938818">
        <ele>65.79339599609375</ele>
        <time>2023-05-30T10:34:20Z</time>
      </trkpt>
      <trkpt lat="36.025395248259585" lon="119.39920042609667">
        <ele>65.67242431640625</ele>
        <time>2023-05-30T10:34:29Z</time>
      </trkpt>
      <trkpt lat="36.025330259931366" lon="119.39917142022297">
        <ele>64.3748779296875</ele>
        <time>2023-05-30T10:34:32Z</time>
      </trkpt>
      <trkpt lat="36.025194278668614" lon="119.3990573841715">
        <ele>65.77557373046875</ele>
        <time>2023-05-30T10:34:38Z</time>
      </trkpt>
      <trkpt lat="36.02513029243338" lon="119.39904838733678">
        <ele>65.206787109375</ele>
        <time>2023-05-30T10:34:41Z</time>
      </trkpt>
      <trkpt lat="36.024980314610616" lon="119.39893035188433">
        <ele>64.18438720703125</ele>
        <time>2023-05-30T10:34:47Z</time>
      </trkpt>
      <trkpt lat="36.02480835116837" lon="119.39890035802576">
        <ele>63.57391357421875</ele>
        <time>2023-05-30T10:34:56Z</time>
      </trkpt>
      <trkpt lat="36.02475635776533" lon="119.39884634028441">
        <ele>62.87847900390625</ele>
        <time>2023-05-30T10:34:59Z</time>
      </trkpt>
      <trkpt lat="36.02470036909176" lon="119.39883033961681">
        <ele>63.79522705078125</ele>
        <time>2023-05-30T10:35:02Z</time>
      </trkpt>
      <trkpt lat="36.02455140714564" lon="119.39886837288832">
        <ele>69.51910400390625</ele>
        <time>2023-05-30T10:35:08Z</time>
      </trkpt>
      <trkpt lat="36.02438644385752" lon="119.39885538574589">
        <ele>68.316650390625</ele>
        <time>2023-05-30T10:35:14Z</time>
      </trkpt>
      <trkpt lat="36.02435145904223" lon="119.3989264207483">
        <ele>69.33233642578125</ele>
        <time>2023-05-30T10:35:17Z</time>
      </trkpt>
      <trkpt lat="36.024380484238606" lon="119.39922054917028">
        <ele>62.08367919921875</ele>
        <time>2023-05-30T10:35:29Z</time>
      </trkpt>
      <trkpt lat="36.0243545375016" lon="119.3996037309098">
        <ele>66.984619140625</ele>
        <time>2023-05-30T10:35:41Z</time>
      </trkpt>
      <trkpt lat="36.024359561797844" lon="119.39979082065337">
        <ele>68.42974853515625</ele>
        <time>2023-05-30T10:35:47Z</time>
      </trkpt>
      <trkpt lat="36.0243286191876" lon="119.40013099336531">
        <ele>62.22308349609375</ele>
        <time>2023-05-30T10:36:08Z</time>
      </trkpt>
      <trkpt lat="36.02436563609143" lon="119.40029107110182">
        <ele>63.593017578125</ele>
        <time>2023-05-30T10:36:20Z</time>
      </trkpt>
      <trkpt lat="36.02461660586975" lon="119.40045712940804">
        <ele>58.4129638671875</ele>
        <time>2023-05-30T10:36:35Z</time>
      </trkpt>
      <trkpt lat="36.02472859693938" lon="119.400555168621">
        <ele>58.4814453125</ele>
        <time>2023-05-30T10:36:41Z</time>
      </trkpt>
      <trkpt lat="36.02499954684881" lon="119.40062517551813">
        <ele>55.74725341796875</ele>
        <time>2023-05-30T10:36:53Z</time>
      </trkpt>
      <trkpt lat="36.02521851275664" lon="119.40071619986321">
        <ele>51.83441162109375</ele>
        <time>2023-05-30T10:37:05Z</time>
      </trkpt>
      <trkpt lat="36.02529949121549" lon="119.40070018213181">
        <ele>51.961669921875</ele>
        <time>2023-05-30T10:37:08Z</time>
      </trkpt>
      <trkpt lat="36.02560643166366" lon="119.40076118067161">
        <ele>54.49420166015625</ele>
        <time>2023-05-30T10:37:23Z</time>
      </trkpt>
      <trkpt lat="36.02593435600677" lon="119.40076014330295">
        <ele>58.87591552734375</ele>
        <time>2023-05-30T10:37:35Z</time>
      </trkpt>
      <trkpt lat="36.026100315436175" lon="119.40074711761399">
        <ele>59.36724853515625</ele>
        <time>2023-05-30T10:37:41Z</time>
      </trkpt>
      <trkpt lat="36.026309256112214" lon="119.40068506065012">
        <ele>59.10174560546875</ele>
        <time>2023-05-30T10:37:50Z</time>
      </trkpt>
      <trkpt lat="36.02663318357597" lon="119.4006960301996">
        <ele>56.1168212890625</ele>
        <time>2023-05-30T10:38:05Z</time>
      </trkpt>
      <trkpt lat="36.02668317460886" lon="119.40071003213956">
        <ele>56.28253173828125</ele>
        <time>2023-05-30T10:38:08Z</time>
      </trkpt>
      <trkpt lat="36.02668317460886" lon="119.40071003213956">
        <ele>56.28253173828125</ele>
        <time>2023-05-30T10:38:10Z</time>
      </trkpt>
      <trkpt lat="36.02670216969638" lon="119.40070702838665">
        <ele>54.9962158203125</ele>
        <time>2023-05-30T10:45:59Z</time>
      </trkpt>
      <trkpt lat="36.02696811947105" lon="119.40076703100928">
        <ele>57.98992919921875</ele>
        <time>2023-05-30T10:46:14Z</time>
      </trkpt>
      <trkpt lat="36.02704809997645" lon="119.40076101876889">
        <ele>57.13720703125</ele>
        <time>2023-05-30T10:46:17Z</time>
      </trkpt>
      <trkpt lat="36.02721607972783" lon="119.40086005392317">
        <ele>58.75018310546875</ele>
        <time>2023-05-30T10:46:26Z</time>
      </trkpt>
      <trkpt lat="36.027422042961184" lon="119.40091606159365">
        <ele>56.686279296875</ele>
        <time>2023-05-30T10:46:35Z</time>
      </trkpt>
      <trkpt lat="36.0276100229079" lon="119.40103610708155">
        <ele>56.7623291015625</ele>
        <time>2023-05-30T10:46:44Z</time>
      </trkpt>
      <trkpt lat="36.02787800852859" lon="119.40127120976456">
        <ele>58.331298828125</ele>
        <time>2023-05-30T10:46:59Z</time>
      </trkpt>
      <trkpt lat="36.02798201265384" lon="119.40140527519377">
        <ele>58.936767578125</ele>
        <time>2023-05-30T10:47:05Z</time>
      </trkpt>
      <trkpt lat="36.02807707557025" lon="119.40178949111107">
        <ele>60.667236328125</ele>
        <time>2023-05-30T10:47:20Z</time>
      </trkpt>
      <trkpt lat="36.02815513965003" lon="119.40213569365923">
        <ele>64.96124267578125</ele>
        <time>2023-05-30T10:47:32Z</time>
      </trkpt>
      <trkpt lat="36.028209174803" lon="119.40232680714529">
        <ele>65.198974609375</ele>
        <time>2023-05-30T10:47:38Z</time>
      </trkpt>
      <trkpt lat="36.02839220145073" lon="119.40259195588806">
        <ele>62.74639892578125</ele>
        <time>2023-05-30T10:47:50Z</time>
      </trkpt>
      <trkpt lat="36.02844821155364" lon="119.40267800539516">
        <ele>62.16156005859375</ele>
        <time>2023-05-30T10:47:56Z</time>
      </trkpt>
      <trkpt lat="36.02866623826902" lon="119.40295716481414">
        <ele>60.72393798828125</ele>
        <time>2023-05-30T10:48:14Z</time>
      </trkpt>
      <trkpt lat="36.02871824500094" lon="119.40302320312361">
        <ele>61.214111328125</ele>
        <time>2023-05-30T10:48:17Z</time>
      </trkpt>
      <trkpt lat="36.028744260200384" lon="119.40309724999729">
        <ele>62.4906005859375</ele>
        <time>2023-05-30T10:48:20Z</time>
      </trkpt>
      <trkpt lat="36.02876236073897" lon="119.40345149047319">
        <ele>64.375244140625</ele>
        <time>2023-05-30T10:48:32Z</time>
      </trkpt>
      <trkpt lat="36.02875041731546" lon="119.40362661432641">
        <ele>66.46014404296875</ele>
        <time>2023-05-30T10:48:38Z</time>
      </trkpt>
      <trkpt lat="36.02875546753275" lon="119.40378972943513">
        <ele>64.9976806640625</ele>
        <time>2023-05-30T10:48:44Z</time>
      </trkpt>
      <trkpt lat="36.028703545113515" lon="119.40399288143875">
        <ele>64.3428955078125</ele>
        <time>2023-05-30T10:48:53Z</time>
      </trkpt>
      <trkpt lat="36.02842567578296" lon="119.40419405968093">
        <ele>66.0147705078125</ele>
        <time>2023-05-30T10:49:08Z</time>
      </trkpt>
      <trkpt lat="36.02824978000438" lon="119.40438121829263">
        <ele>66.0562744140625</ele>
        <time>2023-05-30T10:49:17Z</time>
      </trkpt>
      <trkpt lat="36.028132841641515" lon="119.40448130649617">
        <ele>65.60247802734375</ele>
        <time>2023-05-30T10:49:23Z</time>
      </trkpt>
      <trkpt lat="36.02791699496986" lon="119.40477255243054">
        <ele>63.0557861328125</ele>
        <time>2023-05-30T10:49:44Z</time>
      </trkpt>
      <trkpt lat="36.02775916938253" lon="119.40514486057643">
        <ele>63.6033935546875</ele>
        <time>2023-05-30T10:50:02Z</time>
      </trkpt>
      <trkpt lat="36.027645340701945" lon="119.4055191732852">
        <ele>61.820068359375</ele>
        <time>2023-05-30T10:50:23Z</time>
      </trkpt>
      <trkpt lat="36.027580443132685" lon="119.40573735907121">
        <ele>64.40985107421875</ele>
        <time>2023-05-30T10:50:41Z</time>
      </trkpt>
      <trkpt lat="36.027417459938604" lon="119.40568633536773">
        <ele>61.9693603515625</ele>
        <time>2023-05-30T10:50:53Z</time>
      </trkpt>
      <trkpt lat="36.02724241830313" lon="119.40548118768469">
        <ele>60.5654296875</ele>
        <time>2023-05-30T10:51:05Z</time>
      </trkpt>
      <trkpt lat="36.02715134924261" lon="119.40525001221958">
        <ele>61.3709716796875</ele>
        <time>2023-05-30T10:51:14Z</time>
      </trkpt>
      <trkpt lat="36.02713329208612" lon="119.40508888662382">
        <ele>58.4190673828125</ele>
        <time>2023-05-30T10:51:20Z</time>
      </trkpt>
      <trkpt lat="36.02715718274493" lon="119.40480866550283">
        <ele>57.830322265625</ele>
        <time>2023-05-30T10:51:32Z</time>
      </trkpt>
      <trkpt lat="36.02710011001636" lon="119.40456948898732">
        <ele>60.24462890625</ele>
        <time>2023-05-30T10:51:41Z</time>
      </trkpt>
      <trkpt lat="36.026994093653045" lon="119.40445341327921">
        <ele>58.14385986328125</ele>
        <time>2023-05-30T10:51:53Z</time>
      </trkpt>
      <trkpt lat="36.02673811410562" lon="119.40434235890194">
        <ele>61.667724609375</ele>
        <time>2023-05-30T10:52:05Z</time>
      </trkpt>
      <trkpt lat="36.02660513440495" lon="119.40431235148864">
        <ele>62.895263671875</ele>
        <time>2023-05-30T10:52:11Z</time>
      </trkpt>
      <trkpt lat="36.02655204594894" lon="119.40401213682279">
        <ele>61.00860595703125</ele>
        <time>2023-05-30T10:52:23Z</time>
      </trkpt>
      <trkpt lat="36.026548916555086" lon="119.40360484603409">
        <ele>58.53814697265625</ele>
        <time>2023-05-30T10:52:41Z</time>
      </trkpt>
      <trkpt lat="36.026610871777855" lon="119.40350576968237">
        <ele>57.91064453125</ele>
        <time>2023-05-30T10:52:47Z</time>
      </trkpt>
      <trkpt lat="36.02660785024601" lon="119.403432719208">
        <ele>59.815673828125</ele>
        <time>2023-05-30T10:52:50Z</time>
      </trkpt>
      <trkpt lat="36.02651684321095" lon="119.40333966512989">
        <ele>61.26422119140625</ele>
        <time>2023-05-30T10:52:56Z</time>
      </trkpt>
      <trkpt lat="36.026457864259825" lon="119.40336468898825">
        <ele>62.0760498046875</ele>
        <time>2023-05-30T10:52:59Z</time>
      </trkpt>
      <trkpt lat="36.02641189350902" lon="119.40342673704806">
        <ele>62.64410400390625</ele>
        <time>2023-05-30T10:53:02Z</time>
      </trkpt>
      <trkpt lat="36.02638792184306" lon="119.40350179192409">
        <ele>63.72613525390625</ele>
        <time>2023-05-30T10:53:05Z</time>
      </trkpt>
      <trkpt lat="36.02642695582133" lon="119.40364088510084">
        <ele>62.0941162109375</ele>
        <time>2023-05-30T10:53:17Z</time>
      </trkpt>
      <trkpt lat="36.02643599756665" lon="119.40377998274266">
        <ele>61.98052978515625</ele>
        <time>2023-05-30T10:53:26Z</time>
      </trkpt>
      <trkpt lat="36.02642711614305" lon="119.40413724215581">
        <ele>62.1683349609375</ele>
        <time>2023-05-30T10:53:38Z</time>
      </trkpt>
      <trkpt lat="36.026453231690994" lon="119.40449250337615">
        <ele>61.52423095703125</ele>
        <time>2023-05-30T10:53:50Z</time>
      </trkpt>
      <trkpt lat="36.02644036113849" lon="119.40484577459327">
        <ele>64.6956787109375</ele>
        <time>2023-05-30T10:54:02Z</time>
      </trkpt>
      <trkpt lat="36.02643939043609" lon="119.40492483604714">
        <ele>64.95989990234375</ele>
        <time>2023-05-30T10:54:05Z</time>
      </trkpt>
      <trkpt lat="36.02653847256795" lon="119.40520404441419">
        <ele>63.747802734375</ele>
        <time>2023-05-30T10:54:23Z</time>
      </trkpt>
      <trkpt lat="36.02661150624153" lon="119.40533514080231">
        <ele>62.664306640625</ele>
        <time>2023-05-30T10:54:32Z</time>
      </trkpt>
      <trkpt lat="36.026637532634" lon="119.40541820465153">
        <ele>60.8798828125</ele>
        <time>2023-05-30T10:54:35Z</time>
      </trkpt>
      <trkpt lat="36.02682661078997" lon="119.40572343215861">
        <ele>60.29583740234375</ele>
        <time>2023-05-30T10:54:47Z</time>
      </trkpt>
      <trkpt lat="36.026949680317706" lon="119.4059616161182">
        <ele>59.82928466796875</ele>
        <time>2023-05-30T10:54:56Z</time>
      </trkpt>
      <trkpt lat="36.02700769539604" lon="119.4060296667055">
        <ele>57.6334228515625</ele>
        <time>2023-05-30T10:55:02Z</time>
      </trkpt>
      <trkpt lat="36.02707573211144" lon="119.40615376387017">
        <ele>60.1746826171875</ele>
        <time>2023-05-30T10:55:08Z</time>
      </trkpt>
      <trkpt lat="36.02716475523062" lon="119.40625584074185">
        <ele>59.30767822265625</ele>
        <time>2023-05-30T10:55:14Z</time>
      </trkpt>
      <trkpt lat="36.027205786382375" lon="119.40634991671354">
        <ele>62.8721923828125</ele>
        <time>2023-05-30T10:55:17Z</time>
      </trkpt>
      <trkpt lat="36.02740285540412" lon="119.40661012008941">
        <ele>62.16217041015625</ele>
        <time>2023-05-30T10:55:35Z</time>
      </trkpt>
      <trkpt lat="36.02763089936711" lon="119.40682428298477">
        <ele>57.796630859375</ele>
        <time>2023-05-30T10:55:47Z</time>
      </trkpt>
      <trkpt lat="36.02787196570859" lon="119.40708849205886">
        <ele>61.43072509765625</ele>
        <time>2023-05-30T10:56:02Z</time>
      </trkpt>
      <trkpt lat="36.02802904971226" lon="119.40734270536973">
        <ele>66.06915283203125</ele>
        <time>2023-05-30T10:56:14Z</time>
      </trkpt>
      <trkpt lat="36.02806705871546" lon="119.4073797350517">
        <ele>64.73681640625</ele>
        <time>2023-05-30T10:56:17Z</time>
      </trkpt>
      <trkpt lat="36.02814905285511" lon="119.40740675067002">
        <ele>61.6622314453125</ele>
        <time>2023-05-30T10:56:23Z</time>
      </trkpt>
      <trkpt lat="36.028283102107174" lon="119.40757188822052">
        <ele>60.898193359375</ele>
        <time>2023-05-30T10:56:32Z</time>
      </trkpt>
      <trkpt lat="36.02855913537474" lon="119.40776804052184">
        <ele>58.648193359375</ele>
        <time>2023-05-30T10:56:47Z</time>
      </trkpt>
      <trkpt lat="36.02886711562648" lon="119.40787010220147">
        <ele>58.99139404296875</ele>
        <time>2023-05-30T10:57:02Z</time>
      </trkpt>
      <trkpt lat="36.02906510188691" lon="119.40793313972299">
        <ele>62.2218017578125</ele>
        <time>2023-05-30T10:57:11Z</time>
      </trkpt>
      <trkpt lat="36.02912807682388" lon="119.40791211271299">
        <ele>59.7950439453125</ele>
        <time>2023-05-30T10:57:14Z</time>
      </trkpt>
      <trkpt lat="36.02943701495886" lon="119.40793009512322">
        <ele>56.34259033203125</ele>
        <time>2023-05-30T10:57:26Z</time>
      </trkpt>
      <trkpt lat="36.029579988698416" lon="119.40794309142807">
        <ele>56.06591796875</ele>
        <time>2023-05-30T10:57:32Z</time>
      </trkpt>
      <trkpt lat="36.029730948478495" lon="119.40793206402701">
        <ele>60.68072509765625</ele>
        <time>2023-05-30T10:57:38Z</time>
      </trkpt>
      <trkpt lat="36.029976810793485" lon="119.407769883258">
        <ele>57.81146240234375</ele>
        <time>2023-05-30T10:57:56Z</time>
      </trkpt>
      <trkpt lat="36.030159715798035" lon="119.40766276237883">
        <ele>57.324951171875</ele>
        <time>2023-05-30T10:58:05Z</time>
      </trkpt>
      <trkpt lat="36.03038659222656" lon="119.40751660104179">
        <ele>56.56256103515625</ele>
        <time>2023-05-30T10:58:17Z</time>
      </trkpt>
      <trkpt lat="36.030466485629255" lon="119.40733342349097">
        <ele>54.19110107421875</ele>
        <time>2023-05-30T10:58:29Z</time>
      </trkpt>
      <trkpt lat="36.03052845374653" lon="119.40729638268131">
        <ele>51.93865966796875</ele>
        <time>2023-05-30T10:58:32Z</time>
      </trkpt>
      <trkpt lat="36.03059437611162" lon="119.40716425514515">
        <ele>54.4884033203125</ele>
        <time>2023-05-30T10:58:38Z</time>
      </trkpt>
      <trkpt lat="36.030673311633414" lon="119.40706515683391">
        <ele>53.4183349609375</ele>
        <time>2023-05-30T10:58:44Z</time>
      </trkpt>
      <trkpt lat="36.0307172427214" lon="119.40693803797245">
        <ele>54.68157958984375</ele>
        <time>2023-05-30T10:58:50Z</time>
      </trkpt>
      <trkpt lat="36.03083912628977" lon="119.40674385203033">
        <ele>57.83917236328125</ele>
        <time>2023-05-30T10:58:59Z</time>
      </trkpt>
      <trkpt lat="36.03094495935361" lon="119.4064225598369">
        <ele>58.79052734375</ele>
        <time>2023-05-30T10:59:17Z</time>
      </trkpt>
      <trkpt lat="36.0309748599693" lon="119.40620837286968">
        <ele>59.3837890625</ele>
        <time>2023-05-30T10:59:26Z</time>
      </trkpt>
      <trkpt lat="36.03106372828072" lon="119.40594413997836">
        <ele>58.86541748046875</ele>
        <time>2023-05-30T10:59:38Z</time>
      </trkpt>
      <trkpt lat="36.03106260747747" lon="119.40564789489471">
        <ele>61.87310791015625</ele>
        <time>2023-05-30T10:59:50Z</time>
      </trkpt>
      <trkpt lat="36.03104654973677" lon="119.40549377109677">
        <ele>63.3726806640625</ele>
        <time>2023-05-30T10:59:56Z</time>
      </trkpt>
      <trkpt lat="36.03091543811517" lon="119.40512749273313">
        <ele>63.32257080078125</ele>
        <time>2023-05-30T11:00:11Z</time>
      </trkpt>
      <trkpt lat="36.03083436890854" lon="119.40489231767381">
        <ele>63.34552001953125</ele>
        <time>2023-05-30T11:00:20Z</time>
      </trkpt>
      <trkpt lat="36.03069830551691" lon="119.40463113209897">
        <ele>63.03631591796875</ele>
        <time>2023-05-30T11:00:32Z</time>
      </trkpt>
      <trkpt lat="36.03047326836786" lon="119.40437796637181">
        <ele>66.2449951171875</ele>
        <time>2023-05-30T11:00:44Z</time>
      </trkpt>
      <trkpt lat="36.03026324505441" lon="119.40416783418621">
        <ele>65.13140869140625</ele>
        <time>2023-05-30T11:00:56Z</time>
      </trkpt>
      <trkpt lat="36.029987245409124" lon="119.40397772640574">
        <ele>63.9268798828125</ele>
        <time>2023-05-30T11:01:14Z</time>
      </trkpt>
      <trkpt lat="36.029936244386356" lon="119.4039387039016">
        <ele>61.99755859375</ele>
        <time>2023-05-30T11:01:20Z</time>
      </trkpt>
      <trkpt lat="36.029626284180566" lon="119.40384166886756">
        <ele>62.865966796875</ele>
        <time>2023-05-30T11:01:38Z</time>
      </trkpt>
      <trkpt lat="36.02947530731291" lon="119.40380566003721">
        <ele>63.97064208984375</ele>
        <time>2023-05-30T11:01:44Z</time>
      </trkpt>
      <trkpt lat="36.02928336517286" lon="119.40384871239806">
        <ele>63.671142578125</ele>
        <time>2023-05-30T11:01:53Z</time>
      </trkpt>
      <trkpt lat="36.02908839616673" lon="119.40380570348545">
        <ele>64.6502685546875</ele>
        <time>2023-05-30T11:02:02Z</time>
      </trkpt>
      <trkpt lat="36.02901642102216" lon="119.40383173018247">
        <ele>66.17816162109375</ele>
        <time>2023-05-30T11:02:08Z</time>
      </trkpt>
      <trkpt lat="36.028967431312566" lon="119.4038287335339">
        <ele>66.89208984375</ele>
        <time>2023-05-30T11:02:14Z</time>
      </trkpt>
      <trkpt lat="36.02899633697057" lon="119.40354953259124">
        <ele>64.12890625</ele>
        <time>2023-05-30T11:02:26Z</time>
      </trkpt>
      <trkpt lat="36.02902030513583" lon="119.40346346985234">
        <ele>62.9637451171875</ele>
        <time>2023-05-30T11:02:29Z</time>
      </trkpt>
      <trkpt lat="36.029084281335045" lon="119.40343344182006">
        <ele>61.9083251953125</ele>
        <time>2023-05-30T11:02:32Z</time>
      </trkpt>
      <trkpt lat="36.02913325439799" lon="119.40338140030507">
        <ele>61.6123046875</ele>
        <time>2023-05-30T11:02:35Z</time>
      </trkpt>
      <trkpt lat="36.029391142093566" lon="119.40320224854175">
        <ele>61.7342529296875</ele>
        <time>2023-05-30T11:02:47Z</time>
      </trkpt>
      <trkpt lat="36.02946511722498" lon="119.40317522186878">
        <ele>59.9432373046875</ele>
        <time>2023-05-30T11:02:50Z</time>
      </trkpt>
      <trkpt lat="36.0296070597459" lon="119.40308914770654">
        <ele>58.94769287109375</ele>
        <time>2023-05-30T11:02:56Z</time>
      </trkpt>
      <trkpt lat="36.02977297007909" lon="119.402907007244">
        <ele>61.94061279296875</ele>
        <time>2023-05-30T11:03:05Z</time>
      </trkpt>
      <trkpt lat="36.02994983815897" lon="119.40257076739823">
        <ele>64.5294189453125</ele>
        <time>2023-05-30T11:03:17Z</time>
      </trkpt>
      <trkpt lat="36.0300747567634" lon="119.40236762356366">
        <ele>61.9515380859375</ele>
        <time>2023-05-30T11:03:26Z</time>
      </trkpt>
      <trkpt lat="36.03015567774955" lon="119.40212546278258">
        <ele>63.14080810546875</ele>
        <time>2023-05-30T11:03:35Z</time>
      </trkpt>
      <trkpt lat="36.03019159752332" lon="119.40182227349374">
        <ele>63.88555908203125</ele>
        <time>2023-05-30T11:03:47Z</time>
      </trkpt>
      <trkpt lat="36.03024357708438" lon="119.40178524538983">
        <ele>64.3282470703125</ele>
        <time>2023-05-30T11:03:50Z</time>
      </trkpt>
      <trkpt lat="36.03035755069744" lon="119.40178423198823">
        <ele>63.68389892578125</ele>
        <time>2023-05-30T11:03:56Z</time>
      </trkpt>
      <trkpt lat="36.03040454358391" lon="119.40180023632834">
        <ele>62.2371826171875</ele>
        <time>2023-05-30T11:03:59Z</time>
      </trkpt>
      <trkpt lat="36.03043053532318" lon="119.40179022739606">
        <ele>62.107666015625</ele>
        <time>2023-05-30T11:04:02Z</time>
      </trkpt>
    </trkseg>
  </trk>
</gpx>