<?xml version="1.0" encoding="UTF-8"?>
<gpx xmlns="http://www.topografix.com/GPX/1/1" xmlns:gpxtpx="http://www.garmin.com/xmlschemas/TrackPointExtension/v1" xmlns:xsi="http://www.w3.org/2001/XMLSchema-instance" xsi:schemaLocation="http://www.topografix.com/GPX/1/1 http://www.topografix.com/GPX/1/1/gpx.xsd" version="1.1" creator="gpx.py -- https://github.com/tkrajina/gpxpy">
  <trk>
    <name>gpx from keep</name>
    <type>Run</type>
    <trkseg>
      <trkpt lat="31.11745132793861" lon="121.36918358451247">
        <ele>43.09829808212817</ele>
        <time>2024-08-13T11:44:29Z</time>
        <extensions>
          <gpxtpx:TrackPointExtension>
            <gpxtpx:hr>90</gpxtpx:hr>
          </gpxtpx:TrackPointExtension>
        </extensions>
      </trkpt>
      <trkpt lat="31.11730326745137" lon="121.36905441514642">
        <ele>6.755484826862812</ele>
        <time>2024-08-13T11:44:44Z</time>
        <extensions>
          <gpxtpx:TrackPointExtension>
            <gpxtpx:hr>97</gpxtpx:hr>
          </gpxtpx:TrackPointExtension>
        </extensions>
      </trkpt>
      <trkpt lat="31.11723197501214" lon="121.36910328193174">
        <ele>7.462282828986645</ele>
        <time>2024-08-13T11:44:53Z</time>
        <extensions>
          <gpxtpx:TrackPointExtension>
            <gpxtpx:hr>97</gpxtpx:hr>
          </gpxtpx:TrackPointExtension>
        </extensions>
      </trkpt>
      <trkpt lat="31.117181938361412" lon="121.36911525724422">
        <ele>7.79194909054786</ele>
        <time>2024-08-13T11:44:59Z</time>
        <extensions>
          <gpxtpx:TrackPointExtension>
            <gpxtpx:hr>97</gpxtpx:hr>
          </gpxtpx:TrackPointExtension>
        </extensions>
      </trkpt>
      <trkpt lat="31.117151697790487" lon="121.36916306297952">
        <ele>7.412613061256707</ele>
        <time>2024-08-13T11:45:05Z</time>
      </trkpt>
      <trkpt lat="31.117081131043157" lon="121.36920958832404">
        <ele>7.410275437869132</ele>
        <time>2024-08-13T11:45:11Z</time>
      </trkpt>
      <trkpt lat="31.117008100325197" lon="121.36939084545844">
        <ele>7.671415228396654</ele>
        <time>2024-08-13T11:45:20Z</time>
      </trkpt>
      <trkpt lat="31.116974254209318" lon="121.36965452299401">
        <ele>8.464519110508263</ele>
        <time>2024-08-13T11:45:29Z</time>
      </trkpt>
      <trkpt lat="31.11700947392031" lon="121.36970939101955">
        <ele>8.301653457805514</ele>
        <time>2024-08-13T11:45:32Z</time>
      </trkpt>
      <trkpt lat="31.117017752563726" lon="121.36976916205954">
        <ele>8.663671576417983</ele>
        <time>2024-08-13T11:45:35Z</time>
      </trkpt>
      <trkpt lat="31.117128771608062" lon="121.36991525579616">
        <ele>7.920801573432982</ele>
        <time>2024-08-13T11:45:41Z</time>
      </trkpt>
      <trkpt lat="31.117185185562434" lon="121.36995249277001">
        <ele>7.967217963188887</ele>
        <time>2024-08-13T11:45:44Z</time>
      </trkpt>
      <trkpt lat="31.117267989493303" lon="121.36995803487157">
        <ele>8.839702314697206</ele>
        <time>2024-08-13T11:45:47Z</time>
      </trkpt>
      <trkpt lat="31.117340196843912" lon="121.37002328780741">
        <ele>8.870234092697501</ele>
        <time>2024-08-13T11:45:50Z</time>
      </trkpt>
      <trkpt lat="31.117473383346834" lon="121.36999709918983">
        <ele>10.00225032120943</ele>
        <time>2024-08-13T11:45:56Z</time>
      </trkpt>
      <trkpt lat="31.11757012541159" lon="121.36995604332478">
        <ele>9.34369139932096</ele>
        <time>2024-08-13T11:46:02Z</time>
      </trkpt>
      <trkpt lat="31.117600677645722" lon="121.36986417771996">
        <ele>8.402592030353844</ele>
        <time>2024-08-13T11:46:05Z</time>
      </trkpt>
      <trkpt lat="31.117770629147955" lon="121.36978008151283">
        <ele>7.696303658187389</ele>
        <time>2024-08-13T11:46:14Z</time>
      </trkpt>
      <trkpt lat="31.117813353947355" lon="121.36971633068224">
        <ele>8.595141340978444</ele>
        <time>2024-08-13T11:46:17Z</time>
      </trkpt>
      <trkpt lat="31.11788043889302" lon="121.36969642321039">
        <ele>8.280755243264139</ele>
        <time>2024-08-13T11:46:20Z</time>
      </trkpt>
      <trkpt lat="31.117964294608534" lon="121.36962492050611">
        <ele>8.009620987810194</ele>
        <time>2024-08-13T11:46:24Z</time>
      </trkpt>
      <trkpt lat="31.118034157663665" lon="121.36960671979519">
        <ele>8.008636891841888</ele>
        <time>2024-08-13T11:46:28Z</time>
      </trkpt>
      <trkpt lat="31.118078762675278" lon="121.36955489380918">
        <ele>8.252057196572423</ele>
        <time>2024-08-13T11:46:31Z</time>
      </trkpt>
      <trkpt lat="31.11819112246884" lon="121.36949603718931">
        <ele>7.248587374575436</ele>
        <time>2024-08-13T11:46:37Z</time>
      </trkpt>
      <trkpt lat="31.118278333339934" lon="121.3694011582132">
        <ele>6.539704957976937</ele>
        <time>2024-08-13T11:46:43Z</time>
      </trkpt>
      <trkpt lat="31.118328699876756" lon="121.36926006701042">
        <ele>4.952673181891441</ele>
        <time>2024-08-13T11:46:49Z</time>
      </trkpt>
      <trkpt lat="31.118366092050653" lon="121.36919849271565">
        <ele>4.663359606638551</ele>
        <time>2024-08-13T11:46:52Z</time>
      </trkpt>
      <trkpt lat="31.11841378594957" lon="121.36915633671458">
        <ele>6.033542235381901</ele>
        <time>2024-08-13T11:46:55Z</time>
      </trkpt>
      <trkpt lat="31.11836707556216" lon="121.36908100227414">
        <ele>6.320663065649569</ele>
        <time>2024-08-13T11:46:58Z</time>
      </trkpt>
      <trkpt lat="31.11826547077904" lon="121.36878511470702">
        <ele>8.694794777780771</ele>
        <time>2024-08-13T11:47:10Z</time>
      </trkpt>
      <trkpt lat="31.118192680070692" lon="121.36875429601696">
        <ele>9.240563133731484</ele>
        <time>2024-08-13T11:47:13Z</time>
      </trkpt>
      <trkpt lat="31.118125287003554" lon="121.36874954342395">
        <ele>9.483370309695601</ele>
        <time>2024-08-13T11:47:16Z</time>
      </trkpt>
      <trkpt lat="31.11802321592122" lon="121.36869769212666">
        <ele>8.736641866154969</ele>
        <time>2024-08-13T11:47:22Z</time>
      </trkpt>
      <trkpt lat="31.117857256010183" lon="121.36870548442235">
        <ele>8.25932698044926</ele>
        <time>2024-08-13T11:47:28Z</time>
      </trkpt>
      <trkpt lat="31.117791743134944" lon="121.36872551947161">
        <ele>8.900299306027591</ele>
        <time>2024-08-13T11:47:31Z</time>
      </trkpt>
      <trkpt lat="31.117762648968608" lon="121.36877798429758">
        <ele>10.165044141933322</ele>
        <time>2024-08-13T11:47:34Z</time>
      </trkpt>
      <trkpt lat="31.117653695092386" lon="121.36886439275271">
        <ele>9.837496244348586</ele>
        <time>2024-08-13T11:47:40Z</time>
      </trkpt>
      <trkpt lat="31.117582787941032" lon="121.36884265490734">
        <ele>9.341859146021307</ele>
        <time>2024-08-13T11:47:43Z</time>
      </trkpt>
      <trkpt lat="31.1174751333049" lon="121.36895302198467">
        <ele>6.662273412570357</ele>
        <time>2024-08-13T11:47:49Z</time>
      </trkpt>
      <trkpt lat="31.117357512524464" lon="121.36902379454551">
        <ele>8.727965804748237</ele>
        <time>2024-08-13T11:47:55Z</time>
      </trkpt>
      <trkpt lat="31.117200547326792" lon="121.36915491770408">
        <ele>9.162685551680624</ele>
        <time>2024-08-13T11:48:04Z</time>
      </trkpt>
      <trkpt lat="31.117049504066713" lon="121.36929430541224">
        <ele>10.256594098173082</ele>
        <time>2024-08-13T11:48:13Z</time>
      </trkpt>
      <trkpt lat="31.116996157756695" lon="121.36942552250663">
        <ele>7.588037913665175</ele>
        <time>2024-08-13T11:48:19Z</time>
      </trkpt>
      <trkpt lat="31.11700541936421" lon="121.36950852553503">
        <ele>8.128859695978463</ele>
        <time>2024-08-13T11:48:22Z</time>
      </trkpt>
      <trkpt lat="31.11698685809016" lon="121.36988404433296">
        <ele>8.45826499722898</ele>
        <time>2024-08-13T11:48:39Z</time>
      </trkpt>
      <trkpt lat="31.11714602311576" lon="121.36995508413968">
        <ele>7.400732451118529</ele>
        <time>2024-08-13T11:48:45Z</time>
      </trkpt>
      <trkpt lat="31.117185791851682" lon="121.36999488836263">
        <ele>7.113279008306563</ele>
        <time>2024-08-13T11:48:48Z</time>
      </trkpt>
      <trkpt lat="31.11731438167784" lon="121.37004036764402">
        <ele>7.919975898228586</ele>
        <time>2024-08-13T11:48:54Z</time>
      </trkpt>
      <trkpt lat="31.117454684723832" lon="121.37000873035787">
        <ele>6.648808908648789</ele>
        <time>2024-08-13T11:49:00Z</time>
      </trkpt>
      <trkpt lat="31.11763630785526" lon="121.36990072389115">
        <ele>7.516455172561109</ele>
        <time>2024-08-13T11:49:09Z</time>
      </trkpt>
      <trkpt lat="31.117670315025887" lon="121.3698439597488">
        <ele>7.629977164790034</ele>
        <time>2024-08-13T11:49:12Z</time>
      </trkpt>
      <trkpt lat="31.117955609236052" lon="121.36966598098155">
        <ele>6.509168081916869</ele>
        <time>2024-08-13T11:49:27Z</time>
      </trkpt>
      <trkpt lat="31.11821384868037" lon="121.36948164253819">
        <ele>6.3320306316018105</ele>
        <time>2024-08-13T11:49:42Z</time>
      </trkpt>
      <trkpt lat="31.118257812969137" lon="121.36942956490353">
        <ele>7.41543341986835</ele>
        <time>2024-08-13T11:49:45Z</time>
      </trkpt>
      <trkpt lat="31.118319982628325" lon="121.36939851654884">
        <ele>6.227496608160436</ele>
        <time>2024-08-13T11:49:48Z</time>
      </trkpt>
      <trkpt lat="31.11840683932434" lon="121.36913125329684">
        <ele>6.483198704198003</ele>
        <time>2024-08-13T11:50:00Z</time>
      </trkpt>
      <trkpt lat="31.11841025716098" lon="121.36906846500247">
        <ele>6.270826457999647</ele>
        <time>2024-08-13T11:50:03Z</time>
      </trkpt>
      <trkpt lat="31.118367013196362" lon="121.36889803200108">
        <ele>5.8109185649082065</ele>
        <time>2024-08-13T11:50:09Z</time>
      </trkpt>
      <trkpt lat="31.118274807973652" lon="121.36882708434646">
        <ele>8.491656622849405</ele>
        <time>2024-08-13T11:50:15Z</time>
      </trkpt>
      <trkpt lat="31.118253766272808" lon="121.36875731889594">
        <ele>8.916957258246839</ele>
        <time>2024-08-13T11:50:18Z</time>
      </trkpt>
      <trkpt lat="31.118137789523526" lon="121.36873102568175">
        <ele>8.308969112113118</ele>
        <time>2024-08-13T11:50:24Z</time>
      </trkpt>
      <trkpt lat="31.11808967470192" lon="121.36868535160929">
        <ele>10.373132541775703</ele>
        <time>2024-08-13T11:50:27Z</time>
      </trkpt>
      <trkpt lat="31.11803170776624" lon="121.36867604529306">
        <ele>9.175380594097078</ele>
        <time>2024-08-13T11:50:30Z</time>
      </trkpt>
      <trkpt lat="31.11789377350392" lon="121.36870303349637">
        <ele>9.108115355484188</ele>
        <time>2024-08-13T11:50:37Z</time>
      </trkpt>
      <trkpt lat="31.11767151219399" lon="121.36885414536779">
        <ele>9.347226329147816</ele>
        <time>2024-08-13T11:50:49Z</time>
      </trkpt>
      <trkpt lat="31.11763923992326" lon="121.36890745892948">
        <ele>9.845009096898139</ele>
        <time>2024-08-13T11:50:52Z</time>
      </trkpt>
      <trkpt lat="31.117463029670294" lon="121.36901914634487">
        <ele>7.71696934197098</ele>
        <time>2024-08-13T11:51:01Z</time>
      </trkpt>
      <trkpt lat="31.11731048708185" lon="121.36908218015515">
        <ele>8.287182993255556</ele>
        <time>2024-08-13T11:51:10Z</time>
      </trkpt>
      <trkpt lat="31.117268360957144" lon="121.36916040692188">
        <ele>9.320776592940092</ele>
        <time>2024-08-13T11:51:13Z</time>
      </trkpt>
      <trkpt lat="31.117159109580527" lon="121.36920836495112">
        <ele>10.615735637955368</ele>
        <time>2024-08-13T11:51:19Z</time>
      </trkpt>
      <trkpt lat="31.11705037120646" lon="121.36932441283858">
        <ele>9.81007307395339</ele>
        <time>2024-08-13T11:51:25Z</time>
      </trkpt>
      <trkpt lat="31.11696042676068" lon="121.3693579155415">
        <ele>9.111657959409058</ele>
        <time>2024-08-13T11:51:31Z</time>
      </trkpt>
      <trkpt lat="31.11699603930569" lon="121.36972509201308">
        <ele>8.008566746488214</ele>
        <time>2024-08-13T11:51:46Z</time>
      </trkpt>
      <trkpt lat="31.11703030445146" lon="121.36981040990173">
        <ele>6.743485605344176</ele>
        <time>2024-08-13T11:51:49Z</time>
      </trkpt>
      <trkpt lat="31.1170363456998" lon="121.36989292762954">
        <ele>6.022927670739591</ele>
        <time>2024-08-13T11:51:52Z</time>
      </trkpt>
      <trkpt lat="31.11706182824719" lon="121.36997371645944">
        <ele>7.733257921412587</ele>
        <time>2024-08-13T11:51:55Z</time>
      </trkpt>
      <trkpt lat="31.11718359044535" lon="121.37005739836259">
        <ele>7.635457471944392</ele>
        <time>2024-08-13T11:52:01Z</time>
      </trkpt>
      <trkpt lat="31.117262035687" lon="121.37004477906247">
        <ele>7.428012575954199</ele>
        <time>2024-08-13T11:52:04Z</time>
      </trkpt>
      <trkpt lat="31.117312941178074" lon="121.3700772821074">
        <ele>7.681938542984426</ele>
        <time>2024-08-13T11:52:07Z</time>
      </trkpt>
      <trkpt lat="31.117579618129966" lon="121.3699328642429">
        <ele>8.754481352865696</ele>
        <time>2024-08-13T11:52:19Z</time>
      </trkpt>
      <trkpt lat="31.117840934148933" lon="121.36974206780204">
        <ele>7.793449634686112</ele>
        <time>2024-08-13T11:52:34Z</time>
      </trkpt>
      <trkpt lat="31.117888393111844" lon="121.36968535350134">
        <ele>8.628912298940122</ele>
        <time>2024-08-13T11:52:37Z</time>
      </trkpt>
      <trkpt lat="31.118116611347197" lon="121.36957029104877">
        <ele>9.452370157465339</ele>
        <time>2024-08-13T11:52:48Z</time>
      </trkpt>
      <trkpt lat="31.118305211853684" lon="121.36940804285248">
        <ele>9.070617076940835</ele>
        <time>2024-08-13T11:52:59Z</time>
      </trkpt>
      <trkpt lat="31.11834064866224" lon="121.36936154883664">
        <ele>9.546953360550106</ele>
        <time>2024-08-13T11:53:02Z</time>
      </trkpt>
      <trkpt lat="31.11837972053572" lon="121.36921383369527">
        <ele>8.390418561175466</ele>
        <time>2024-08-13T11:53:08Z</time>
      </trkpt>
      <trkpt lat="31.118389875893655" lon="121.36901719078139">
        <ele>8.157265205867589</ele>
        <time>2024-08-13T11:53:17Z</time>
      </trkpt>
      <trkpt lat="31.118350104832313" lon="121.36889173883071">
        <ele>7.301766310818493</ele>
        <time>2024-08-13T11:53:23Z</time>
      </trkpt>
      <trkpt lat="31.118299168202505" lon="121.36882337737374">
        <ele>6.783729391172528</ele>
        <time>2024-08-13T11:53:26Z</time>
      </trkpt>
      <trkpt lat="31.11802289069844" lon="121.36866674382107">
        <ele>8.128508977591991</ele>
        <time>2024-08-13T11:53:41Z</time>
      </trkpt>
      <trkpt lat="31.117734945516677" lon="121.3688224198864">
        <ele>7.716950273141265</ele>
        <time>2024-08-13T11:53:56Z</time>
      </trkpt>
      <trkpt lat="31.117681732769658" lon="121.36885916485332">
        <ele>8.130011876113713</ele>
        <time>2024-08-13T11:53:59Z</time>
      </trkpt>
      <trkpt lat="31.117563676090455" lon="121.36888779412008">
        <ele>8.112647497095168</ele>
        <time>2024-08-13T11:54:05Z</time>
      </trkpt>
      <trkpt lat="31.11739429317588" lon="121.36906566309966">
        <ele>9.944877064786851</ele>
        <time>2024-08-13T11:54:17Z</time>
      </trkpt>
      <trkpt lat="31.117285145571312" lon="121.36912790857491">
        <ele>11.24851213209331</ele>
        <time>2024-08-13T11:54:23Z</time>
      </trkpt>
      <trkpt lat="31.11724071426098" lon="121.36917914252417">
        <ele>10.55075834877789</ele>
        <time>2024-08-13T11:54:26Z</time>
      </trkpt>
      <trkpt lat="31.117074791362114" lon="121.36928408957753">
        <ele>10.195416037924588</ele>
        <time>2024-08-13T11:54:35Z</time>
      </trkpt>
      <trkpt lat="31.116966944944316" lon="121.36940273607709">
        <ele>11.239894938655198</ele>
        <time>2024-08-13T11:54:41Z</time>
      </trkpt>
      <trkpt lat="31.116961009785747" lon="121.36947063245768">
        <ele>12.160113773308694</ele>
        <time>2024-08-13T11:54:44Z</time>
      </trkpt>
      <trkpt lat="31.11692695713485" lon="121.36956434524144">
        <ele>11.294701517559588</ele>
        <time>2024-08-13T11:54:48Z</time>
      </trkpt>
      <trkpt lat="31.11698356288502" lon="121.36976425426887">
        <ele>10.161975269205868</ele>
        <time>2024-08-13T11:54:56Z</time>
      </trkpt>
      <trkpt lat="31.11704367673529" lon="121.36982455729829">
        <ele>10.926170937716961</ele>
        <time>2024-08-13T11:55:00Z</time>
      </trkpt>
      <trkpt lat="31.117071607473" lon="121.36991812427856">
        <ele>10.473336049355567</ele>
        <time>2024-08-13T11:55:03Z</time>
      </trkpt>
      <trkpt lat="31.117231104104576" lon="121.37003252823419">
        <ele>11.460278345271945</ele>
        <time>2024-08-13T11:55:12Z</time>
      </trkpt>
      <trkpt lat="31.11735268004234" lon="121.37003918025235">
        <ele>11.190565031021833</ele>
        <time>2024-08-13T11:55:18Z</time>
      </trkpt>
      <trkpt lat="31.117395848905538" lon="121.37000779235927">
        <ele>10.929470660164952</ele>
        <time>2024-08-13T11:55:24Z</time>
      </trkpt>
      <trkpt lat="31.117559465328107" lon="121.37002240564289">
        <ele>10.210819158703089</ele>
        <time>2024-08-13T11:55:30Z</time>
      </trkpt>
      <trkpt lat="31.117554394724056" lon="121.3699472340778">
        <ele>8.906475832685828</ele>
        <time>2024-08-13T11:55:36Z</time>
      </trkpt>
      <trkpt lat="31.11764784935976" lon="121.3699315911225">
        <ele>9.321132165379822</ele>
        <time>2024-08-13T11:55:39Z</time>
      </trkpt>
      <trkpt lat="31.117706613127197" lon="121.36985903946544">
        <ele>8.289624094031751</ele>
        <time>2024-08-13T11:55:48Z</time>
      </trkpt>
      <trkpt lat="31.117765218502267" lon="121.36983249390211">
        <ele>7.494947756640613</ele>
        <time>2024-08-13T11:55:51Z</time>
      </trkpt>
      <trkpt lat="31.117937768744294" lon="121.36967825463925">
        <ele>7.5410180278122425</ele>
        <time>2024-08-13T11:56:12Z</time>
      </trkpt>
      <trkpt lat="31.118197285839724" lon="121.3695094209309">
        <ele>6.705735026858747</ele>
        <time>2024-08-13T11:56:36Z</time>
      </trkpt>
      <trkpt lat="31.118330209970186" lon="121.36940998954141">
        <ele>8.113853338174522</ele>
        <time>2024-08-13T11:56:48Z</time>
      </trkpt>
      <trkpt lat="31.118395723324916" lon="121.36929794499109">
        <ele>9.087856616824865</ele>
        <time>2024-08-13T11:56:58Z</time>
      </trkpt>
      <trkpt lat="31.118405148894617" lon="121.36921025359786">
        <ele>8.503091749735177</ele>
        <time>2024-08-13T11:57:05Z</time>
      </trkpt>
      <trkpt lat="31.11842950627954" lon="121.36914105003059">
        <ele>8.163992402143776</ele>
        <time>2024-08-13T11:57:08Z</time>
      </trkpt>
      <trkpt lat="31.11840991631669" lon="121.36903902058995">
        <ele>5.083278759382665</ele>
        <time>2024-08-13T11:57:17Z</time>
      </trkpt>
      <trkpt lat="31.118382731137913" lon="121.3689945069178">
        <ele>4.958099173381925</ele>
        <time>2024-08-13T11:57:20Z</time>
      </trkpt>
      <trkpt lat="31.118363779189796" lon="121.36887238871982">
        <ele>4.896247108466923</ele>
        <time>2024-08-13T11:57:26Z</time>
      </trkpt>
      <trkpt lat="31.118314500141203" lon="121.36884146582466">
        <ele>5.128207937814295</ele>
        <time>2024-08-13T11:57:32Z</time>
      </trkpt>
      <trkpt lat="31.11829209026264" lon="121.36875371498509">
        <ele>5.592670246958733</ele>
        <time>2024-08-13T11:57:35Z</time>
      </trkpt>
      <trkpt lat="31.11822523637248" lon="121.3686740887818">
        <ele>5.476034941151738</ele>
        <time>2024-08-13T11:57:44Z</time>
      </trkpt>
      <trkpt lat="31.118169557662497" lon="121.36868129823354">
        <ele>4.655223356559873</ele>
        <time>2024-08-13T11:57:50Z</time>
      </trkpt>
      <trkpt lat="31.118088516718842" lon="121.36863406961996">
        <ele>4.763192234560847</ele>
        <time>2024-08-13T11:57:56Z</time>
      </trkpt>
      <trkpt lat="31.11796101641522" lon="121.36862236154423">
        <ele>6.4575872821733356</ele>
        <time>2024-08-13T11:58:08Z</time>
      </trkpt>
      <trkpt lat="31.11787286973706" lon="121.36864045662736">
        <ele>7.003818996250629</ele>
        <time>2024-08-13T11:58:14Z</time>
      </trkpt>
      <trkpt lat="31.117760756916514" lon="121.36871325042236">
        <ele>8.59552457742393</ele>
        <time>2024-08-13T11:58:23Z</time>
      </trkpt>
      <trkpt lat="31.117644398186005" lon="121.36882633272063">
        <ele>9.614400475285947</ele>
        <time>2024-08-13T11:58:32Z</time>
      </trkpt>
      <trkpt lat="31.117463325356354" lon="121.36893383636163">
        <ele>6.631202897056937</ele>
        <time>2024-08-13T11:58:50Z</time>
      </trkpt>
      <trkpt lat="31.117219323546585" lon="121.36912532393664">
        <ele>8.14138828124851</ele>
        <time>2024-08-13T11:59:17Z</time>
      </trkpt>
      <trkpt lat="31.11698327158801" lon="121.3693303469907">
        <ele>11.226644723676145</ele>
        <time>2024-08-13T11:59:38Z</time>
      </trkpt>
      <trkpt lat="31.11697788921906" lon="121.36938532904246">
        <ele>10.197913678362966</ele>
        <time>2024-08-13T11:59:41Z</time>
      </trkpt>
      <trkpt lat="31.116939301384612" lon="121.36946320270826">
        <ele>9.85598456300795</ele>
        <time>2024-08-13T11:59:47Z</time>
      </trkpt>
      <trkpt lat="31.11692038770826" lon="121.36961885417789">
        <ele>8.002710839733481</ele>
        <time>2024-08-13T11:59:59Z</time>
      </trkpt>
      <trkpt lat="31.116950405490723" lon="121.3697617344397">
        <ele>6.691439608111978</ele>
        <time>2024-08-13T12:00:08Z</time>
      </trkpt>
      <trkpt lat="31.11702155024046" lon="121.36992235852888">
        <ele>8.69486871547997</ele>
        <time>2024-08-13T12:00:17Z</time>
      </trkpt>
      <trkpt lat="31.117165625163498" lon="121.37008117248213">
        <ele>6.834740253165364</ele>
        <time>2024-08-13T12:00:35Z</time>
      </trkpt>
      <trkpt lat="31.117212856674183" lon="121.3701025795909">
        <ele>7.7169155133888125</ele>
        <time>2024-08-13T12:00:38Z</time>
      </trkpt>
      <trkpt lat="31.11733735378545" lon="121.37009650442111">
        <ele>10.124649506993592</ele>
        <time>2024-08-13T12:00:47Z</time>
      </trkpt>
      <trkpt lat="31.1176260702413" lon="121.36994578301754">
        <ele>8.366267633624375</ele>
        <time>2024-08-13T12:01:10Z</time>
      </trkpt>
      <trkpt lat="31.117879175280493" lon="121.36975713946816">
        <ele>7.333528357557952</ele>
        <time>2024-08-13T12:01:34Z</time>
      </trkpt>
      <trkpt lat="31.118125433322266" lon="121.36959681204829">
        <ele>7.269445406273007</ele>
        <time>2024-08-13T12:01:58Z</time>
      </trkpt>
      <trkpt lat="31.118283111944095" lon="121.3694758797516">
        <ele>8.373791356571019</ele>
        <time>2024-08-13T12:02:16Z</time>
      </trkpt>
      <trkpt lat="31.118402560229786" lon="121.36923841028334">
        <ele>7.357399637810886</ele>
        <time>2024-08-13T12:02:34Z</time>
      </trkpt>
      <trkpt lat="31.118407094987514" lon="121.36905812108542">
        <ele>6.498259053565562</ele>
        <time>2024-08-13T12:02:46Z</time>
      </trkpt>
      <trkpt lat="31.118395142808264" lon="121.36896664311806">
        <ele>5.843198231421411</ele>
        <time>2024-08-13T12:02:52Z</time>
      </trkpt>
      <trkpt lat="31.118325491772158" lon="121.36881193956367">
        <ele>5.829769405536354</ele>
        <time>2024-08-13T12:03:04Z</time>
      </trkpt>
      <trkpt lat="31.118263257421077" lon="121.36873601191796">
        <ele>5.948805407620966</ele>
        <time>2024-08-13T12:03:10Z</time>
      </trkpt>
      <trkpt lat="31.118189384357706" lon="121.36870584760453">
        <ele>5.14360118471086</ele>
        <time>2024-08-13T12:03:18Z</time>
      </trkpt>
      <trkpt lat="31.1181595479139" lon="121.36865367255601">
        <ele>6.835706238634884</ele>
        <time>2024-08-13T12:03:22Z</time>
      </trkpt>
      <trkpt lat="31.11810187319271" lon="121.36868207329249">
        <ele>6.736762560904026</ele>
        <time>2024-08-13T12:03:26Z</time>
      </trkpt>
      <trkpt lat="31.118051685447174" lon="121.36868041543124">
        <ele>7.220695232972503</ele>
        <time>2024-08-13T12:03:29Z</time>
      </trkpt>
      <trkpt lat="31.118026784184405" lon="121.3686252756327">
        <ele>8.06422255653888</ele>
        <time>2024-08-13T12:03:32Z</time>
      </trkpt>
      <trkpt lat="31.117920265147372" lon="121.36863737889446">
        <ele>8.023638260550797</ele>
        <time>2024-08-13T12:03:41Z</time>
      </trkpt>
      <trkpt lat="31.117652214030183" lon="121.36882190419855">
        <ele>9.790960397571325</ele>
        <time>2024-08-13T12:04:05Z</time>
      </trkpt>
      <trkpt lat="31.11752697260581" lon="121.36892744315816">
        <ele>8.652718895114958</ele>
        <time>2024-08-13T12:04:17Z</time>
      </trkpt>
      <trkpt lat="31.11747072269596" lon="121.36894225729122">
        <ele>10.200489421375096</ele>
        <time>2024-08-13T12:04:23Z</time>
      </trkpt>
      <trkpt lat="31.11718237475206" lon="121.36914812827375">
        <ele>11.280959735624492</ele>
        <time>2024-08-13T12:04:53Z</time>
      </trkpt>
      <trkpt lat="31.117056745520834" lon="121.36924473448664">
        <ele>10.521234050393105</ele>
        <time>2024-08-13T12:05:05Z</time>
      </trkpt>
      <trkpt lat="31.117011148009595" lon="121.36930362879549">
        <ele>9.483142364770174</ele>
        <time>2024-08-13T12:05:11Z</time>
      </trkpt>
      <trkpt lat="31.116918390530646" lon="121.36962507527878">
        <ele>10.704706724733114</ele>
        <time>2024-08-13T12:05:36Z</time>
      </trkpt>
      <trkpt lat="31.116947431458385" lon="121.36968988636079">
        <ele>10.799595243297517</ele>
        <time>2024-08-13T12:05:42Z</time>
      </trkpt>
      <trkpt lat="31.116946498873112" lon="121.36979265875212">
        <ele>9.268827528692782</ele>
        <time>2024-08-13T12:05:48Z</time>
      </trkpt>
      <trkpt lat="31.117000428382166" lon="121.36990830281312">
        <ele>8.440385955385864</ele>
        <time>2024-08-13T12:05:54Z</time>
      </trkpt>
      <trkpt lat="31.117121524654276" lon="121.37004489858961">
        <ele>7.598297001793981</ele>
        <time>2024-08-13T12:06:06Z</time>
      </trkpt>
      <trkpt lat="31.11713549441112" lon="121.37009640729583">
        <ele>8.436589392833412</ele>
        <time>2024-08-13T12:06:09Z</time>
      </trkpt>
      <trkpt lat="31.117193204146673" lon="121.37011804703346">
        <ele>7.977589208632708</ele>
        <time>2024-08-13T12:06:15Z</time>
      </trkpt>
      <trkpt lat="31.11737227052093" lon="121.37013211364592">
        <ele>8.306516115553677</ele>
        <time>2024-08-13T12:06:27Z</time>
      </trkpt>
      <trkpt lat="31.117543054371424" lon="121.37003603188955">
        <ele>7.806033192202449</ele>
        <time>2024-08-13T12:06:39Z</time>
      </trkpt>
      <trkpt lat="31.117778175480638" lon="121.36983734965017">
        <ele>7.261479678563774</ele>
        <time>2024-08-13T12:07:03Z</time>
      </trkpt>
      <trkpt lat="31.117991900446896" lon="121.36972566014572">
        <ele>6.712404599413276</ele>
        <time>2024-08-13T12:07:21Z</time>
      </trkpt>
      <trkpt lat="31.11824149546417" lon="121.36953011101448">
        <ele>7.584754859097302</ele>
        <time>2024-08-13T12:07:46Z</time>
      </trkpt>
      <trkpt lat="31.118285826173043" lon="121.36946128126017">
        <ele>6.911718803457916</ele>
        <time>2024-08-13T12:07:52Z</time>
      </trkpt>
      <trkpt lat="31.118341659647204" lon="121.36942457544963">
        <ele>7.191840466111898</ele>
        <time>2024-08-13T12:07:58Z</time>
      </trkpt>
      <trkpt lat="31.11842919919079" lon="121.36917141023544">
        <ele>9.638942548073828</ele>
        <time>2024-08-13T12:08:16Z</time>
      </trkpt>
      <trkpt lat="31.118410839287215" lon="121.36901096305068">
        <ele>7.062937277369201</ele>
        <time>2024-08-13T12:08:28Z</time>
      </trkpt>
      <trkpt lat="31.118287650658058" lon="121.36879078794709">
        <ele>5.249437029473484</ele>
        <time>2024-08-13T12:08:46Z</time>
      </trkpt>
      <trkpt lat="31.118102114698505" lon="121.368671049355">
        <ele>7.062309970147908</ele>
        <time>2024-08-13T12:09:04Z</time>
      </trkpt>
      <trkpt lat="31.117961600273507" lon="121.36863534303248">
        <ele>7.543476605787873</ele>
        <time>2024-08-13T12:09:16Z</time>
      </trkpt>
      <trkpt lat="31.117819820413708" lon="121.36867865764835">
        <ele>6.744984051212668</ele>
        <time>2024-08-13T12:09:28Z</time>
      </trkpt>
      <trkpt lat="31.1177720098504" lon="121.36872213859134">
        <ele>7.462547897361219</ele>
        <time>2024-08-13T12:09:32Z</time>
      </trkpt>
      <trkpt lat="31.11769693400673" lon="121.36874773297782">
        <ele>7.830254997126758</ele>
        <time>2024-08-13T12:09:38Z</time>
      </trkpt>
      <trkpt lat="31.117637577338208" lon="121.36880304796956">
        <ele>7.12918661441654</ele>
        <time>2024-08-13T12:09:44Z</time>
      </trkpt>
      <trkpt lat="31.117553430479763" lon="121.36883298851606">
        <ele>6.985175335779786</ele>
        <time>2024-08-13T12:09:50Z</time>
      </trkpt>
      <trkpt lat="31.11746369565503" lon="121.36883947115531">
        <ele>7.440480846911669</ele>
        <time>2024-08-13T12:09:56Z</time>
      </trkpt>
      <trkpt lat="31.11742544317852" lon="121.36890960684744">
        <ele>7.404140939936042</ele>
        <time>2024-08-13T12:10:02Z</time>
      </trkpt>
      <trkpt lat="31.117374908242947" lon="121.36893113428539">
        <ele>7.653584468178451</ele>
        <time>2024-08-13T12:10:08Z</time>
      </trkpt>
      <trkpt lat="31.117303022567622" lon="121.36899628257284">
        <ele>6.245129656046629</ele>
        <time>2024-08-13T12:10:17Z</time>
      </trkpt>
      <trkpt lat="31.11730721208674" lon="121.36906079763277">
        <ele>6.923594375140965</ele>
        <time>2024-08-13T12:10:56Z</time>
      </trkpt>
      <trkpt lat="31.117194428232644" lon="121.36912510446906">
        <ele>6.175822812132537</ele>
        <time>2024-08-13T12:11:08Z</time>
      </trkpt>
      <trkpt lat="31.11704884729759" lon="121.36927311927484">
        <ele>5.407441948540509</ele>
        <time>2024-08-13T12:11:26Z</time>
      </trkpt>
      <trkpt lat="31.116975809145806" lon="121.3693920987307">
        <ele>6.918488096445799</ele>
        <time>2024-08-13T12:11:36Z</time>
      </trkpt>
      <trkpt lat="31.11694164594765" lon="121.36954781547837">
        <ele>6.081601052545011</ele>
        <time>2024-08-13T12:11:47Z</time>
      </trkpt>
      <trkpt lat="31.116947953824223" lon="121.3696878719261">
        <ele>6.903860135003924</ele>
        <time>2024-08-13T12:11:56Z</time>
      </trkpt>
      <trkpt lat="31.117001591086815" lon="121.36981749241184">
        <ele>8.08664780203253</ele>
        <time>2024-08-13T12:12:02Z</time>
      </trkpt>
      <trkpt lat="31.117043049874987" lon="121.36987708565789">
        <ele>8.054711816832423</ele>
        <time>2024-08-13T12:12:05Z</time>
      </trkpt>
      <trkpt lat="31.117058883206646" lon="121.36994777134313">
        <ele>7.494092312641442</ele>
        <time>2024-08-13T12:12:08Z</time>
      </trkpt>
      <trkpt lat="31.11710136903128" lon="121.37000700996612">
        <ele>8.862332317978144</ele>
        <time>2024-08-13T12:12:11Z</time>
      </trkpt>
      <trkpt lat="31.11729637866913" lon="121.37008653956867">
        <ele>11.236836973577738</ele>
        <time>2024-08-13T12:12:20Z</time>
      </trkpt>
      <trkpt lat="31.117424364429965" lon="121.37009032554982">
        <ele>13.04681086819619</ele>
        <time>2024-08-13T12:12:26Z</time>
      </trkpt>
      <trkpt lat="31.11747612763213" lon="121.37003015651266">
        <ele>11.637397863902152</ele>
        <time>2024-08-13T12:12:29Z</time>
      </trkpt>
      <trkpt lat="31.117607247209307" lon="121.36994553146235">
        <ele>11.053373877890408</ele>
        <time>2024-08-13T12:12:35Z</time>
      </trkpt>
      <trkpt lat="31.117646616932568" lon="121.36989915271478">
        <ele>10.387096553109586</ele>
        <time>2024-08-13T12:12:38Z</time>
      </trkpt>
      <trkpt lat="31.11772674980114" lon="121.36986213293045">
        <ele>9.859267735853791</ele>
        <time>2024-08-13T12:12:41Z</time>
      </trkpt>
      <trkpt lat="31.117820319841787" lon="121.36978672458581">
        <ele>9.705817877314985</ele>
        <time>2024-08-13T12:12:47Z</time>
      </trkpt>
      <trkpt lat="31.117857070219845" lon="121.36973156452541">
        <ele>9.70154996495694</ele>
        <time>2024-08-13T12:12:50Z</time>
      </trkpt>
      <trkpt lat="31.117907722565366" lon="121.3697170670111">
        <ele>8.971388448029757</ele>
        <time>2024-08-13T12:12:53Z</time>
      </trkpt>
      <trkpt lat="31.117995204021593" lon="121.36964274576287">
        <ele>8.865333529189229</ele>
        <time>2024-08-13T12:12:59Z</time>
      </trkpt>
      <trkpt lat="31.11806095915099" lon="121.36962345832785">
        <ele>8.382546068169177</ele>
        <time>2024-08-13T12:13:02Z</time>
      </trkpt>
      <trkpt lat="31.11809693837562" lon="121.3695647331777">
        <ele>7.432785698212683</ele>
        <time>2024-08-13T12:13:05Z</time>
      </trkpt>
      <trkpt lat="31.118253012936773" lon="121.36946924195655">
        <ele>8.16871727630496</ele>
        <time>2024-08-13T12:13:14Z</time>
      </trkpt>
      <trkpt lat="31.11836119597753" lon="121.3692917775981">
        <ele>7.599505757912993</ele>
        <time>2024-08-13T12:13:23Z</time>
      </trkpt>
      <trkpt lat="31.118390913544278" lon="121.36915304198683">
        <ele>7.478942532092333</ele>
        <time>2024-08-13T12:13:29Z</time>
      </trkpt>
      <trkpt lat="31.11835954722318" lon="121.3689585566548">
        <ele>6.691734079271555</ele>
        <time>2024-08-13T12:13:38Z</time>
      </trkpt>
      <trkpt lat="31.11820937322481" lon="121.36876386877697">
        <ele>6.749202538281679</ele>
        <time>2024-08-13T12:13:48Z</time>
      </trkpt>
      <trkpt lat="31.118148414404356" lon="121.36877292420562">
        <ele>6.287516430020332</ele>
        <time>2024-08-13T12:13:51Z</time>
      </trkpt>
      <trkpt lat="31.118053725275008" lon="121.3687031296468">
        <ele>4.801169504411519</ele>
        <time>2024-08-13T12:13:57Z</time>
      </trkpt>
      <trkpt lat="31.117995703484386" lon="121.3687083809383">
        <ele>5.716041320934892</ele>
        <time>2024-08-13T12:14:00Z</time>
      </trkpt>
      <trkpt lat="31.117931807578728" lon="121.36869104814137">
        <ele>6.465106294490397</ele>
        <time>2024-08-13T12:14:03Z</time>
      </trkpt>
      <trkpt lat="31.11772589220759" lon="121.36881005949428">
        <ele>7.001275662332773</ele>
        <time>2024-08-13T12:14:15Z</time>
      </trkpt>
      <trkpt lat="31.117697410767082" lon="121.36885960764238">
        <ele>6.905240203253925</ele>
        <time>2024-08-13T12:14:18Z</time>
      </trkpt>
      <trkpt lat="31.117639581439803" lon="121.36885936835685">
        <ele>6.411934924311936</ele>
        <time>2024-08-13T12:14:24Z</time>
      </trkpt>
      <trkpt lat="31.117590573861616" lon="121.36892524872802">
        <ele>5.805651595816016</ele>
        <time>2024-08-13T12:14:27Z</time>
      </trkpt>
      <trkpt lat="31.117497250784467" lon="121.36896613038577">
        <ele>6.4173396760597825</ele>
        <time>2024-08-13T12:14:36Z</time>
      </trkpt>
      <trkpt lat="31.117356581823685" lon="121.36912221408991">
        <ele>6.6362468199804425</ele>
        <time>2024-08-13T12:14:45Z</time>
      </trkpt>
      <trkpt lat="31.11712537527855" lon="121.36923864957748">
        <ele>7.398114504292607</ele>
        <time>2024-08-13T12:14:57Z</time>
      </trkpt>
      <trkpt lat="31.11701031410025" lon="121.36932722498378">
        <ele>7.33032978605479</ele>
        <time>2024-08-13T12:15:03Z</time>
      </trkpt>
      <trkpt lat="31.116997276142655" lon="121.36945795105872">
        <ele>6.886078817769885</ele>
        <time>2024-08-13T12:15:06Z</time>
      </trkpt>
      <trkpt lat="31.11695789456238" lon="121.36957062106401">
        <ele>7.570200897753239</ele>
        <time>2024-08-13T12:15:12Z</time>
      </trkpt>
      <trkpt lat="31.116993929845478" lon="121.36971958793451">
        <ele>6.5926714995875955</ele>
        <time>2024-08-13T12:15:18Z</time>
      </trkpt>
      <trkpt lat="31.11698058750976" lon="121.36979086115845">
        <ele>6.491779056377709</ele>
        <time>2024-08-13T12:15:21Z</time>
      </trkpt>
      <trkpt lat="31.11703024464541" lon="121.36984296637704">
        <ele>5.87958250194788</ele>
        <time>2024-08-13T12:15:24Z</time>
      </trkpt>
      <trkpt lat="31.117117329355054" lon="121.37001309845587">
        <ele>8.508179142139852</ele>
        <time>2024-08-13T12:15:30Z</time>
      </trkpt>
      <trkpt lat="31.117235888719453" lon="121.37005279241112">
        <ele>9.355299841612577</ele>
        <time>2024-08-13T12:15:36Z</time>
      </trkpt>
      <trkpt lat="31.117383453886596" lon="121.37005354735928">
        <ele>9.224218778312206</ele>
        <time>2024-08-13T12:15:42Z</time>
      </trkpt>
      <trkpt lat="31.117525098216788" lon="121.36998548189817">
        <ele>8.249085239134729</ele>
        <time>2024-08-13T12:15:49Z</time>
      </trkpt>
      <trkpt lat="31.11759088431763" lon="121.3699354176568">
        <ele>7.806880078278482</ele>
        <time>2024-08-13T12:15:53Z</time>
      </trkpt>
      <trkpt lat="31.117620565055905" lon="121.36987347613297">
        <ele>7.995959675870836</ele>
        <time>2024-08-13T12:15:56Z</time>
      </trkpt>
      <trkpt lat="31.117883916551136" lon="121.36972061792287">
        <ele>8.316559180617332</ele>
        <time>2024-08-13T12:16:11Z</time>
      </trkpt>
      <trkpt lat="31.118095842611307" lon="121.3695798925281">
        <ele>8.535537741146982</ele>
        <time>2024-08-13T12:16:23Z</time>
      </trkpt>
      <trkpt lat="31.118159955325797" lon="121.36956164525056">
        <ele>9.096655720844865</ele>
        <time>2024-08-13T12:16:26Z</time>
      </trkpt>
      <trkpt lat="31.118224179621496" lon="121.3694608008139">
        <ele>8.017908099107444</ele>
        <time>2024-08-13T12:16:32Z</time>
      </trkpt>
      <trkpt lat="31.118295010231865" lon="121.36944085561629">
        <ele>8.283214325085282</ele>
        <time>2024-08-13T12:16:35Z</time>
      </trkpt>
      <trkpt lat="31.118355527473646" lon="121.36931779684365">
        <ele>9.413342049345374</ele>
        <time>2024-08-13T12:16:41Z</time>
      </trkpt>
      <trkpt lat="31.118377721760602" lon="121.36904070592907">
        <ele>8.354868371970952</ele>
        <time>2024-08-13T12:16:53Z</time>
      </trkpt>
      <trkpt lat="31.118316440975526" lon="121.36890598027158">
        <ele>8.696131714619696</ele>
        <time>2024-08-13T12:16:59Z</time>
      </trkpt>
      <trkpt lat="31.11810271222557" lon="121.36871902265493">
        <ele>7.7485234616324306</ele>
        <time>2024-08-13T12:17:11Z</time>
      </trkpt>
      <trkpt lat="31.118038498015945" lon="121.36870299867095">
        <ele>7.3142700754106045</ele>
        <time>2024-08-13T12:17:14Z</time>
      </trkpt>
      <trkpt lat="31.117968937271097" lon="121.36871714683264">
        <ele>6.884811462834477</ele>
        <time>2024-08-13T12:17:17Z</time>
      </trkpt>
      <trkpt lat="31.11791469762921" lon="121.36869727583961">
        <ele>7.529115232639015</ele>
        <time>2024-08-13T12:17:20Z</time>
      </trkpt>
      <trkpt lat="31.117866483249294" lon="121.36871003633225">
        <ele>8.112865472212434</ele>
        <time>2024-08-13T12:17:23Z</time>
      </trkpt>
      <trkpt lat="31.117810282228007" lon="121.3687764851848">
        <ele>7.516547832638025</ele>
        <time>2024-08-13T12:17:26Z</time>
      </trkpt>
      <trkpt lat="31.11775511097212" lon="121.3688071019686">
        <ele>7.2528622057288885</ele>
        <time>2024-08-13T12:17:29Z</time>
      </trkpt>
      <trkpt lat="31.11765210746948" lon="121.36890500525955">
        <ele>6.2082703365013</ele>
        <time>2024-08-13T12:17:35Z</time>
      </trkpt>
      <trkpt lat="31.11753228906898" lon="121.36894322958887">
        <ele>6.635698334313929</ele>
        <time>2024-08-13T12:17:41Z</time>
      </trkpt>
      <trkpt lat="31.117484576204593" lon="121.36899752961011">
        <ele>7.773879979737103</ele>
        <time>2024-08-13T12:17:44Z</time>
      </trkpt>
      <trkpt lat="31.11721280032528" lon="121.36916924593244">
        <ele>8.781442725099623</ele>
        <time>2024-08-13T12:18:00Z</time>
      </trkpt>
      <trkpt lat="31.117025677529853" lon="121.36932967139975">
        <ele>8.359328025951982</ele>
        <time>2024-08-13T12:18:12Z</time>
      </trkpt>
      <trkpt lat="31.11699679893094" lon="121.36937106693237">
        <ele>7.52345950435847</ele>
        <time>2024-08-13T12:18:15Z</time>
      </trkpt>
      <trkpt lat="31.11698658445739" lon="121.36947479048581">
        <ele>6.688003943301737</ele>
        <time>2024-08-13T12:18:21Z</time>
      </trkpt>
      <trkpt lat="31.11695809150869" lon="121.36951786817345">
        <ele>6.79308214224875</ele>
        <time>2024-08-13T12:18:24Z</time>
      </trkpt>
      <trkpt lat="31.116958507774918" lon="121.36959383152555">
        <ele>6.553756930865347</ele>
        <time>2024-08-13T12:18:30Z</time>
      </trkpt>
      <trkpt lat="31.116927992194512" lon="121.36966742769278">
        <ele>7.684361279942095</ele>
        <time>2024-08-13T12:18:36Z</time>
      </trkpt>
      <trkpt lat="31.116960504390285" lon="121.36972521850267">
        <ele>8.852978896349669</ele>
        <time>2024-08-13T12:18:42Z</time>
      </trkpt>
      <trkpt lat="31.116959516424853" lon="121.3697929030657">
        <ele>8.379755662754178</ele>
        <time>2024-08-13T12:18:45Z</time>
      </trkpt>
      <trkpt lat="31.11698309619757" lon="121.36985056364837">
        <ele>8.094166892580688</ele>
        <time>2024-08-13T12:18:48Z</time>
      </trkpt>
      <trkpt lat="31.117114362453197" lon="121.36997171495211">
        <ele>5.275300554931164</ele>
        <time>2024-08-13T12:19:00Z</time>
      </trkpt>
      <trkpt lat="31.11724966474199" lon="121.37004528483433">
        <ele>6.4224818758666515</ele>
        <time>2024-08-13T12:19:12Z</time>
      </trkpt>
      <trkpt lat="31.117318093635685" lon="121.37006459037934">
        <ele>6.562098289839923</ele>
        <time>2024-08-13T12:19:18Z</time>
      </trkpt>
      <trkpt lat="31.117440876300325" lon="121.37002995186197">
        <ele>4.731868180446327</ele>
        <time>2024-08-13T12:19:30Z</time>
      </trkpt>
      <trkpt lat="31.117671018294136" lon="121.36985446169705">
        <ele>5.241170935332775</ele>
        <time>2024-08-13T12:19:54Z</time>
      </trkpt>
      <trkpt lat="31.117916965722817" lon="121.36966806310694">
        <ele>6.57137350551784</ele>
        <time>2024-08-13T12:20:19Z</time>
      </trkpt>
      <trkpt lat="31.11815966973991" lon="121.36950129525448">
        <ele>6.636690093204379</ele>
        <time>2024-08-13T12:20:43Z</time>
      </trkpt>
      <trkpt lat="31.11825831030483" lon="121.36944490263842">
        <ele>5.149208268150687</ele>
        <time>2024-08-13T12:20:52Z</time>
      </trkpt>
      <trkpt lat="31.118367695181906" lon="121.36923905979408">
        <ele>7.420166835188866</ele>
        <time>2024-08-13T12:21:10Z</time>
      </trkpt>
      <trkpt lat="31.11837833617019" lon="121.36907802026192">
        <ele>7.137575865723193</ele>
        <time>2024-08-13T12:21:22Z</time>
      </trkpt>
      <trkpt lat="31.118360776021987" lon="121.36889150732743">
        <ele>5.899426664225757</ele>
        <time>2024-08-13T12:21:34Z</time>
      </trkpt>
      <trkpt lat="31.11830394414453" lon="121.36881776586294">
        <ele>5.633901475928724</ele>
        <time>2024-08-13T12:21:40Z</time>
      </trkpt>
      <trkpt lat="31.1182705440342" lon="121.3687279619718">
        <ele>6.200705687515438</ele>
        <time>2024-08-13T12:21:46Z</time>
      </trkpt>
      <trkpt lat="31.118153889268644" lon="121.3686507167177">
        <ele>7.426923788152635</ele>
        <time>2024-08-13T12:21:55Z</time>
      </trkpt>
      <trkpt lat="31.11789911607619" lon="121.36869252865314">
        <ele>8.772662995383143</ele>
        <time>2024-08-13T12:22:14Z</time>
      </trkpt>
      <trkpt lat="31.117656005928886" lon="121.3688425965488">
        <ele>9.876529916189611</ele>
        <time>2024-08-13T12:22:38Z</time>
      </trkpt>
      <trkpt lat="31.117483786350125" lon="121.36895711257885">
        <ele>11.022121645510197</ele>
        <time>2024-08-13T12:22:53Z</time>
      </trkpt>
      <trkpt lat="31.117263499281037" lon="121.36915552827763">
        <ele>7.371512786485255</ele>
        <time>2024-08-13T12:23:14Z</time>
      </trkpt>
      <trkpt lat="31.117064167492504" lon="121.3692670676404">
        <ele>8.67486400809139</ele>
        <time>2024-08-13T12:23:32Z</time>
      </trkpt>
      <trkpt lat="31.11698578305505" lon="121.36942384954105">
        <ele>9.177955627441406</ele>
        <time>2024-08-13T12:23:44Z</time>
      </trkpt>
      <trkpt lat="31.116957691204473" lon="121.3696846383824">
        <ele>8.794420753605664</ele>
        <time>2024-08-13T12:24:02Z</time>
      </trkpt>
      <trkpt lat="31.116976731188345" lon="121.36982249213617">
        <ele>9.255868039093912</ele>
        <time>2024-08-13T12:24:12Z</time>
      </trkpt>
      <trkpt lat="31.117011816308576" lon="121.36989780650731">
        <ele>9.135438930243254</ele>
        <time>2024-08-13T12:24:15Z</time>
      </trkpt>
      <trkpt lat="31.117057774637917" lon="121.36988452947463">
        <ele>9.37353669386357</ele>
        <time>2024-08-13T12:24:18Z</time>
      </trkpt>
      <trkpt lat="31.117062690059875" lon="121.36994691143934">
        <ele>9.561195209622383</ele>
        <time>2024-08-13T12:24:21Z</time>
      </trkpt>
      <trkpt lat="31.11716751652496" lon="121.37004675727198">
        <ele>7.441468047909439</ele>
        <time>2024-08-13T12:24:33Z</time>
      </trkpt>
      <trkpt lat="31.117393181947254" lon="121.37005283970124">
        <ele>7.413601114414632</ele>
        <time>2024-08-13T12:24:48Z</time>
      </trkpt>
      <trkpt lat="31.117518558772634" lon="121.37000453749047">
        <ele>6.686587926931679</ele>
        <time>2024-08-13T12:24:57Z</time>
      </trkpt>
      <trkpt lat="31.11758654252281" lon="121.369953543371">
        <ele>7.459217437542975</ele>
        <time>2024-08-13T12:25:03Z</time>
      </trkpt>
      <trkpt lat="31.11768041036339" lon="121.36990856711637">
        <ele>7.808029098436236</ele>
        <time>2024-08-13T12:25:09Z</time>
      </trkpt>
      <trkpt lat="31.117963552244895" lon="121.36968187453238">
        <ele>7.606775039806962</ele>
        <time>2024-08-13T12:25:36Z</time>
      </trkpt>
      <trkpt lat="31.11801974091766" lon="121.36965441812558">
        <ele>6.563482486642897</ele>
        <time>2024-08-13T12:25:39Z</time>
      </trkpt>
      <trkpt lat="31.118128570405815" lon="121.3695473077789">
        <ele>7.153549357317388</ele>
        <time>2024-08-13T12:25:51Z</time>
      </trkpt>
      <trkpt lat="31.11826710278434" lon="121.36946640494463">
        <ele>6.802495243027806</ele>
        <time>2024-08-13T12:26:03Z</time>
      </trkpt>
      <trkpt lat="31.118365883243357" lon="121.36932264645361">
        <ele>7.752831072546542</ele>
        <time>2024-08-13T12:26:15Z</time>
      </trkpt>
      <trkpt lat="31.1183901502204" lon="121.36916371830844">
        <ele>8.054343773983419</ele>
        <time>2024-08-13T12:26:26Z</time>
      </trkpt>
      <trkpt lat="31.118430875826796" lon="121.36910958289548">
        <ele>9.952826748602092</ele>
        <time>2024-08-13T12:26:30Z</time>
      </trkpt>
      <trkpt lat="31.11837551429851" lon="121.3690155335745">
        <ele>6.750668459571898</ele>
        <time>2024-08-13T12:26:36Z</time>
      </trkpt>
      <trkpt lat="31.118371851603573" lon="121.3689467485784">
        <ele>6.3316051391884685</ele>
        <time>2024-08-13T12:26:39Z</time>
      </trkpt>
      <trkpt lat="31.118270527261085" lon="121.3687978362647">
        <ele>4.541428819298744</ele>
        <time>2024-08-13T12:26:51Z</time>
      </trkpt>
      <trkpt lat="31.11807342579118" lon="121.36869855570329">
        <ele>4.248084568418562</ele>
        <time>2024-08-13T12:27:09Z</time>
      </trkpt>
      <trkpt lat="31.11790386534638" lon="121.36867385407069">
        <ele>8.23260151501745</ele>
        <time>2024-08-13T12:27:21Z</time>
      </trkpt>
      <trkpt lat="31.117759638884674" lon="121.36874924820776">
        <ele>8.832996940240264</ele>
        <time>2024-08-13T12:27:33Z</time>
      </trkpt>
      <trkpt lat="31.117713319079215" lon="121.36874990772219">
        <ele>9.311190919950604</ele>
        <time>2024-08-13T12:27:36Z</time>
      </trkpt>
      <trkpt lat="31.11765336545309" lon="121.368821398824">
        <ele>9.786545070819557</ele>
        <time>2024-08-13T12:27:42Z</time>
      </trkpt>
      <trkpt lat="31.117524675666417" lon="121.36891842473246">
        <ele>10.05774805881083</ele>
        <time>2024-08-13T12:27:54Z</time>
      </trkpt>
      <trkpt lat="31.117443368573706" lon="121.36894015874421">
        <ele>10.283911327831447</ele>
        <time>2024-08-13T12:28:00Z</time>
      </trkpt>
      <trkpt lat="31.117391171050553" lon="121.36900975723715">
        <ele>10.901061899028718</ele>
        <time>2024-08-13T12:28:06Z</time>
      </trkpt>
      <trkpt lat="31.117328235920578" lon="121.36904844295908">
        <ele>10.419811162166297</ele>
        <time>2024-08-13T12:28:12Z</time>
      </trkpt>
      <trkpt lat="31.117271859524188" lon="121.36911758910024">
        <ele>9.588292286731303</ele>
        <time>2024-08-13T12:28:18Z</time>
      </trkpt>
      <trkpt lat="31.117130185200352" lon="121.36919999762274">
        <ele>11.366584532894194</ele>
        <time>2024-08-13T12:28:31Z</time>
      </trkpt>
      <trkpt lat="31.117011448442312" lon="121.3693214639434">
        <ele>10.302338464185596</ele>
        <time>2024-08-13T12:28:40Z</time>
      </trkpt>
      <trkpt lat="31.11697149915955" lon="121.36938837895755">
        <ele>11.729002666659653</ele>
        <time>2024-08-13T12:28:46Z</time>
      </trkpt>
      <trkpt lat="31.11693669342952" lon="121.36955845825506">
        <ele>11.708652539178729</ele>
        <time>2024-08-13T12:28:58Z</time>
      </trkpt>
      <trkpt lat="31.117020298873197" lon="121.36978101180209">
        <ele>12.259481216780841</ele>
        <time>2024-08-13T12:29:10Z</time>
      </trkpt>
      <trkpt lat="31.1170661808415" lon="121.36981759779829">
        <ele>12.211383032612503</ele>
        <time>2024-08-13T12:29:13Z</time>
      </trkpt>
      <trkpt lat="31.117075759227838" lon="121.36992369624663">
        <ele>10.62423419393599</ele>
        <time>2024-08-13T12:29:19Z</time>
      </trkpt>
      <trkpt lat="31.11717187748054" lon="121.37003701400123">
        <ele>8.040778355672956</ele>
        <time>2024-08-13T12:29:31Z</time>
      </trkpt>
      <trkpt lat="31.117238979073328" lon="121.37006314822145">
        <ele>8.267058495432138</ele>
        <time>2024-08-13T12:29:37Z</time>
      </trkpt>
      <trkpt lat="31.11722424947456" lon="121.37011833538033">
        <ele>9.357888048514724</ele>
        <time>2024-08-13T12:29:43Z</time>
      </trkpt>
      <trkpt lat="31.117310155341595" lon="121.37012219377829">
        <ele>10.65271146968007</ele>
        <time>2024-08-13T12:29:46Z</time>
      </trkpt>
      <trkpt lat="31.117375856639207" lon="121.37008158246509">
        <ele>9.514660463668406</ele>
        <time>2024-08-13T12:29:49Z</time>
      </trkpt>
      <trkpt lat="31.11742684512677" lon="121.37007448600873">
        <ele>9.267706953920424</ele>
        <time>2024-08-13T12:29:52Z</time>
      </trkpt>
      <trkpt lat="31.117661439216533" lon="121.36987596805659">
        <ele>7.34150636382401</ele>
        <time>2024-08-13T12:30:13Z</time>
      </trkpt>
      <trkpt lat="31.11792908505571" lon="121.36967760172597">
        <ele>7.610488119535148</ele>
        <time>2024-08-13T12:30:40Z</time>
      </trkpt>
      <trkpt lat="31.118215059841525" lon="121.36948224280474">
        <ele>8.099470794200897</ele>
        <time>2024-08-13T12:31:08Z</time>
      </trkpt>
      <trkpt lat="31.11830726865429" lon="121.36939113576688">
        <ele>7.815628031268716</ele>
        <time>2024-08-13T12:31:17Z</time>
      </trkpt>
      <trkpt lat="31.11836596313788" lon="121.36927282226519">
        <ele>7.962442639283836</ele>
        <time>2024-08-13T12:31:26Z</time>
      </trkpt>
      <trkpt lat="31.118389279979354" lon="121.36905842114602">
        <ele>6.821812707930803</ele>
        <time>2024-08-13T12:31:41Z</time>
      </trkpt>
      <trkpt lat="31.118328949953447" lon="121.3689066225747">
        <ele>6.072378044016659</ele>
        <time>2024-08-13T12:31:53Z</time>
      </trkpt>
      <trkpt lat="31.118229193215093" lon="121.3687906326696">
        <ele>5.933275087736547</ele>
        <time>2024-08-13T12:32:05Z</time>
      </trkpt>
      <trkpt lat="31.11816110591658" lon="121.36873999281987">
        <ele>5.256287829950452</ele>
        <time>2024-08-13T12:32:11Z</time>
      </trkpt>
      <trkpt lat="31.118008537373758" lon="121.36870164967766">
        <ele>6.201870200224221</ele>
        <time>2024-08-13T12:32:23Z</time>
      </trkpt>
      <trkpt lat="31.117855631053317" lon="121.36874149971439">
        <ele>6.358265402726829</ele>
        <time>2024-08-13T12:32:36Z</time>
      </trkpt>
      <trkpt lat="31.117646646823754" lon="121.36885103719253">
        <ele>6.556645516306162</ele>
        <time>2024-08-13T12:32:52Z</time>
      </trkpt>
      <trkpt lat="31.117584875643203" lon="121.36890523394675">
        <ele>8.257346471771598</ele>
        <time>2024-08-13T12:32:55Z</time>
      </trkpt>
      <trkpt lat="31.117499958502304" lon="121.36893712703592">
        <ele>9.818832221440971</ele>
        <time>2024-08-13T12:32:58Z</time>
      </trkpt>
      <trkpt lat="31.117367924303505" lon="121.3690616780644">
        <ele>9.915039620362222</ele>
        <time>2024-08-13T12:33:04Z</time>
      </trkpt>
      <trkpt lat="31.117211996394282" lon="121.36913911022955">
        <ele>9.81707129906863</ele>
        <time>2024-08-13T12:33:10Z</time>
      </trkpt>
      <trkpt lat="31.11716838172471" lon="121.36922937133848">
        <ele>8.990991291590035</ele>
        <time>2024-08-13T12:33:13Z</time>
      </trkpt>
      <trkpt lat="31.117072798475018" lon="121.36928569631951">
        <ele>11.461901744827628</ele>
        <time>2024-08-13T12:33:16Z</time>
      </trkpt>
      <trkpt lat="31.116954172205016" lon="121.36948272114893">
        <ele>10.725252740085125</ele>
        <time>2024-08-13T12:33:22Z</time>
      </trkpt>
      <trkpt lat="31.116960843142138" lon="121.36960877804314">
        <ele>10.444770583882928</ele>
        <time>2024-08-13T12:33:25Z</time>
      </trkpt>
      <trkpt lat="31.1170215544258" lon="121.36971871561803">
        <ele>8.744131825864315</ele>
        <time>2024-08-13T12:33:28Z</time>
      </trkpt>
      <trkpt lat="31.117064100777597" lon="121.36985361868427">
        <ele>3.8453934444114566</ele>
        <time>2024-08-13T12:33:31Z</time>
      </trkpt>
      <trkpt lat="31.117398266689623" lon="121.36997992062035">
        <ele>2.1441093496978283</ele>
        <time>2024-08-13T12:33:40Z</time>
      </trkpt>
      <trkpt lat="31.117533369555467" lon="121.36996747718386">
        <ele>3.0672691678628325</ele>
        <time>2024-08-13T12:33:43Z</time>
      </trkpt>
      <trkpt lat="31.117487257671186" lon="121.36992573979572">
        <ele>2.325113458558917</ele>
        <time>2024-08-13T12:33:46Z</time>
      </trkpt>
      <trkpt lat="31.117533039021666" lon="121.36988531006597">
        <ele>17.25008540879935</ele>
        <time>2024-08-13T12:33:52Z</time>
      </trkpt>
      <trkpt lat="31.117548853534487" lon="121.36978861473523">
        <ele>16.299372701905668</ele>
        <time>2024-08-13T12:33:55Z</time>
      </trkpt>
      <trkpt lat="31.117826805569052" lon="121.36965133883584">
        <ele>11.804071454331279</ele>
        <time>2024-08-13T12:34:01Z</time>
      </trkpt>
      <trkpt lat="31.118037679473883" lon="121.36955964773759">
        <ele>12.680462785996497</ele>
        <time>2024-08-13T12:34:07Z</time>
      </trkpt>
      <trkpt lat="31.118234565840815" lon="121.36941557611969">
        <ele>12.417057117447257</ele>
        <time>2024-08-13T12:34:13Z</time>
      </trkpt>
      <trkpt lat="31.118265420327212" lon="121.36931387101988">
        <ele>11.246453163214028</ele>
        <time>2024-08-13T12:34:16Z</time>
      </trkpt>
      <trkpt lat="31.1183712249765" lon="121.36923211572648">
        <ele>10.077877471223474</ele>
        <time>2024-08-13T12:34:19Z</time>
      </trkpt>
      <trkpt lat="31.118393067116543" lon="121.36910572062132">
        <ele>12.978156125172973</ele>
        <time>2024-08-13T12:34:22Z</time>
      </trkpt>
      <trkpt lat="31.118378817272756" lon="121.36897142882117">
        <ele>10.232550877146423</ele>
        <time>2024-08-13T12:34:25Z</time>
      </trkpt>
      <trkpt lat="31.118299796370472" lon="121.36888702967356">
        <ele>10.00828224234283</ele>
        <time>2024-08-13T12:34:28Z</time>
      </trkpt>
      <trkpt lat="31.118247658630835" lon="121.36875377109544">
        <ele>11.704400855116546</ele>
        <time>2024-08-13T12:34:31Z</time>
      </trkpt>
      <trkpt lat="31.1181499300256" lon="121.36866954227911">
        <ele>11.214646890759468</ele>
        <time>2024-08-13T12:34:34Z</time>
      </trkpt>
      <trkpt lat="31.117882532397502" lon="121.36868665150557">
        <ele>10.984274126589298</ele>
        <time>2024-08-13T12:34:41Z</time>
      </trkpt>
      <trkpt lat="31.117823574764778" lon="121.36878624715352">
        <ele>10.659735419787467</ele>
        <time>2024-08-13T12:34:44Z</time>
      </trkpt>
      <trkpt lat="31.11772047846679" lon="121.36889345020619">
        <ele>10.914340678602457</ele>
        <time>2024-08-13T12:34:47Z</time>
      </trkpt>
      <trkpt lat="31.11744512669278" lon="121.36901545106208">
        <ele>14.527358415536582</ele>
        <time>2024-08-13T12:34:56Z</time>
      </trkpt>
      <trkpt lat="31.11727761417084" lon="121.36884257927167">
        <ele>12.004635765217245</ele>
        <time>2024-08-13T12:35:11Z</time>
      </trkpt>
      <trkpt lat="31.11721593695093" lon="121.3688887896423">
        <ele>11.275804988108575</ele>
        <time>2024-08-13T12:35:20Z</time>
      </trkpt>
      <trkpt lat="31.11707737590853" lon="121.36894986876038">
        <ele>13.593706663697958</ele>
        <time>2024-08-13T12:35:32Z</time>
      </trkpt>
    </trkseg>
  </trk>
</gpx>