<?xml version="1.0" encoding="UTF-8"?>
<gpx xmlns="http://www.topografix.com/GPX/1/1" xmlns:gpxtpx="http://www.garmin.com/xmlschemas/TrackPointExtension/v1" xmlns:xsi="http://www.w3.org/2001/XMLSchema-instance" xsi:schemaLocation="http://www.topografix.com/GPX/1/1 http://www.topografix.com/GPX/1/1/gpx.xsd" version="1.1" creator="gpx.py -- https://github.com/tkrajina/gpxpy">
  <trk>
    <name>gpx from keep</name>
    <type>Run</type>
    <trkseg>
      <trkpt lat="30.522214576105686" lon="114.3928880751387">
        <ele>28.9285888671875</ele>
        <time>2021-06-15T14:20:09Z</time>
      </trkpt>
      <trkpt lat="30.522116400618717" lon="114.39293312707592">
        <ele>22.2738037109375</ele>
        <time>2021-06-15T14:20:12Z</time>
      </trkpt>
      <trkpt lat="30.52218688379559" lon="114.39307802009179">
        <ele>28.8056640625</ele>
        <time>2021-06-15T14:20:18Z</time>
      </trkpt>
      <trkpt lat="30.522253857605293" lon="114.39312794227983">
        <ele>26.4306640625</ele>
        <time>2021-06-15T14:20:21Z</time>
      </trkpt>
      <trkpt lat="30.522419540683998" lon="114.3931840969905">
        <ele>24.59429931640625</ele>
        <time>2021-06-15T14:20:27Z</time>
      </trkpt>
      <trkpt lat="30.52256760671888" lon="114.39317892841747">
        <ele>23.00067138671875</ele>
        <time>2021-06-15T14:20:33Z</time>
      </trkpt>
      <trkpt lat="30.522738446708264" lon="114.39320713380691">
        <ele>23.82244873046875</ele>
        <time>2021-06-15T14:20:39Z</time>
      </trkpt>
      <trkpt lat="30.522965697247034" lon="114.39320494315048">
        <ele>23.25579833984375</ele>
        <time>2021-06-15T14:20:48Z</time>
      </trkpt>
      <trkpt lat="30.523117836257434" lon="114.39316612692723">
        <ele>22.9964599609375</ele>
        <time>2021-06-15T14:20:54Z</time>
      </trkpt>
      <trkpt lat="30.523273762142846" lon="114.39318809257054">
        <ele>20.83868408203125</ele>
        <time>2021-06-15T14:21:00Z</time>
      </trkpt>
      <trkpt lat="30.52343268071477" lon="114.39314900443753">
        <ele>20.61712646484375</ele>
        <time>2021-06-15T14:21:06Z</time>
      </trkpt>
      <trkpt lat="30.523547680038757" lon="114.39303584230646">
        <ele>21.05584716796875</ele>
        <time>2021-06-15T14:21:12Z</time>
      </trkpt>
      <trkpt lat="30.523606559035805" lon="114.39284291022216">
        <ele>23.9571533203125</ele>
        <time>2021-06-15T14:21:18Z</time>
      </trkpt>
      <trkpt lat="30.523600612539592" lon="114.39273193108218">
        <ele>24.1636962890625</ele>
        <time>2021-06-15T14:21:21Z</time>
      </trkpt>
      <trkpt lat="30.52355236286625" lon="114.39261770013405">
        <ele>23.29083251953125</ele>
        <time>2021-06-15T14:21:24Z</time>
      </trkpt>
      <trkpt lat="30.52353936504758" lon="114.39251567704703">
        <ele>23.51953125</ele>
        <time>2021-06-15T14:21:27Z</time>
      </trkpt>
      <trkpt lat="30.523379400641733" lon="114.39234474731185">
        <ele>24.07745361328125</ele>
        <time>2021-06-15T14:21:33Z</time>
      </trkpt>
      <trkpt lat="30.523082464893374" lon="114.39230380124951">
        <ele>26.29278564453125</ele>
        <time>2021-06-15T14:21:42Z</time>
      </trkpt>
      <trkpt lat="30.522886408531846" lon="114.39226366046212">
        <ele>24.86602783203125</ele>
        <time>2021-06-15T14:21:48Z</time>
      </trkpt>
      <trkpt lat="30.5228175179225" lon="114.39231684861365">
        <ele>22.99169921875</ele>
        <time>2021-06-15T14:21:51Z</time>
      </trkpt>
      <trkpt lat="30.52260952670894" lon="114.39229081838438">
        <ele>22.2733154296875</ele>
        <time>2021-06-15T14:21:57Z</time>
      </trkpt>
      <trkpt lat="30.52254959123551" lon="114.39231280196431">
        <ele>23.1353759765625</ele>
        <time>2021-06-15T14:22:00Z</time>
      </trkpt>
      <trkpt lat="30.522390678161333" lon="114.39231580056787">
        <ele>22.005615234375</ele>
        <time>2021-06-15T14:22:06Z</time>
      </trkpt>
      <trkpt lat="30.522233649314625" lon="114.39239097498022">
        <ele>22.158935546875</ele>
        <time>2021-06-15T14:22:12Z</time>
      </trkpt>
      <trkpt lat="30.522131657689357" lon="114.39253479391253">
        <ele>23.15228271484375</ele>
        <time>2021-06-15T14:22:18Z</time>
      </trkpt>
      <trkpt lat="30.52208553575251" lon="114.39264903265043">
        <ele>24.74658203125</ele>
        <time>2021-06-15T14:22:21Z</time>
      </trkpt>
      <trkpt lat="30.522103664655834" lon="114.3928769596805">
        <ele>26.4771728515625</ele>
        <time>2021-06-15T14:22:27Z</time>
      </trkpt>
      <trkpt lat="30.522182552100432" lon="114.39303406218609">
        <ele>27.4154052734375</ele>
        <time>2021-06-15T14:22:33Z</time>
      </trkpt>
      <trkpt lat="30.52229778487333" lon="114.39315398790153">
        <ele>26.709228515625</ele>
        <time>2021-06-15T14:22:39Z</time>
      </trkpt>
      <trkpt lat="30.52245353387632" lon="114.39318082355965">
        <ele>25.5625</ele>
        <time>2021-06-15T14:22:45Z</time>
      </trkpt>
      <trkpt lat="30.522549710928594" lon="114.39316509118466">
        <ele>24.92041015625</ele>
        <time>2021-06-15T14:22:48Z</time>
      </trkpt>
      <trkpt lat="30.522670657181678" lon="114.39316996489448">
        <ele>24.95062255859375</ele>
        <time>2021-06-15T14:22:51Z</time>
      </trkpt>
      <trkpt lat="30.522737646878102" lon="114.39312111628989">
        <ele>27.15301513671875</ele>
        <time>2021-06-15T14:22:54Z</time>
      </trkpt>
      <trkpt lat="30.522821433832195" lon="114.39317212250856">
        <ele>25.62933349609375</ele>
        <time>2021-06-15T14:22:57Z</time>
      </trkpt>
      <trkpt lat="30.52314278608479" lon="114.39315906967693">
        <ele>20.333740234375</ele>
        <time>2021-06-15T14:23:09Z</time>
      </trkpt>
      <trkpt lat="30.52322359468181" lon="114.39318104187792">
        <ele>20.506591796875</ele>
        <time>2021-06-15T14:23:12Z</time>
      </trkpt>
      <trkpt lat="30.523371664883935" lon="114.39314900977031">
        <ele>22.58984375</ele>
        <time>2021-06-15T14:23:18Z</time>
      </trkpt>
      <trkpt lat="30.52348069491921" lon="114.39305592786138">
        <ele>19.728515625</ele>
        <time>2021-06-15T14:23:24Z</time>
      </trkpt>
      <trkpt lat="30.52357970468616" lon="114.39288578506664">
        <ele>21.015625</ele>
        <time>2021-06-15T14:23:30Z</time>
      </trkpt>
      <trkpt lat="30.523594631392452" lon="114.39281794757294">
        <ele>22.9501953125</ele>
        <time>2021-06-15T14:23:33Z</time>
      </trkpt>
      <trkpt lat="30.523589521151983" lon="114.39258269383832">
        <ele>23.5062255859375</ele>
        <time>2021-06-15T14:23:39Z</time>
      </trkpt>
      <trkpt lat="30.52349842682885" lon="114.39246168396562">
        <ele>22.1114501953125</ele>
        <time>2021-06-15T14:23:45Z</time>
      </trkpt>
      <trkpt lat="30.523480539730294" lon="114.39240470428201">
        <ele>23.19964599609375</ele>
        <time>2021-06-15T14:23:48Z</time>
      </trkpt>
      <trkpt lat="30.523420622182044" lon="114.39233470420123">
        <ele>24.53955078125</ele>
        <time>2021-06-15T14:23:51Z</time>
      </trkpt>
      <trkpt lat="30.52310226216014" lon="114.39229864410586">
        <ele>23.00115966796875</ele>
        <time>2021-06-15T14:24:03Z</time>
      </trkpt>
      <trkpt lat="30.522790401355216" lon="114.39230871085276">
        <ele>21.35833740234375</ele>
        <time>2021-06-15T14:24:18Z</time>
      </trkpt>
      <trkpt lat="30.5224714926599" lon="114.39230385464799">
        <ele>23.5340576171875</ele>
        <time>2021-06-15T14:24:30Z</time>
      </trkpt>
      <trkpt lat="30.522358673996106" lon="114.39233995243733">
        <ele>21.0521240234375</ele>
        <time>2021-06-15T14:24:36Z</time>
      </trkpt>
      <trkpt lat="30.522171532831646" lon="114.39247401022257">
        <ele>18.37615966796875</ele>
        <time>2021-06-15T14:24:45Z</time>
      </trkpt>
      <trkpt lat="30.52212460468783" lon="114.39254700485948">
        <ele>19.21466064453125</ele>
        <time>2021-06-15T14:24:48Z</time>
      </trkpt>
      <trkpt lat="30.5220944875174" lon="114.39263383671634">
        <ele>20.10498046875</ele>
        <time>2021-06-15T14:24:51Z</time>
      </trkpt>
      <trkpt lat="30.522111525672912" lon="114.39289595315803">
        <ele>21.906982421875</ele>
        <time>2021-06-15T14:25:00Z</time>
      </trkpt>
      <trkpt lat="30.522144594443102" lon="114.39298712250063">
        <ele>23.9930419921875</ele>
        <time>2021-06-15T14:25:03Z</time>
      </trkpt>
      <trkpt lat="30.52225765380081" lon="114.39313011273521">
        <ele>26.4224853515625</ele>
        <time>2021-06-15T14:25:09Z</time>
      </trkpt>
      <trkpt lat="30.522395678587422" lon="114.39317215971829">
        <ele>22.68780517578125</ele>
        <time>2021-06-15T14:25:15Z</time>
      </trkpt>
      <trkpt lat="30.52267770566311" lon="114.39318407442771">
        <ele>21.87872314453125</ele>
        <time>2021-06-15T14:25:24Z</time>
      </trkpt>
      <trkpt lat="30.522926382586046" lon="114.39316288747366">
        <ele>22.08148193359375</ele>
        <time>2021-06-15T14:25:33Z</time>
      </trkpt>
      <trkpt lat="30.52305573206021" lon="114.39318892567368">
        <ele>20.55755615234375</ele>
        <time>2021-06-15T14:25:36Z</time>
      </trkpt>
      <trkpt lat="30.52335159923805" lon="114.3931378862321">
        <ele>23.91180419921875</ele>
        <time>2021-06-15T14:25:48Z</time>
      </trkpt>
      <trkpt lat="30.523432691718323" lon="114.39308089603594">
        <ele>24.71173095703125</ele>
        <time>2021-06-15T14:25:51Z</time>
      </trkpt>
      <trkpt lat="30.523551491065476" lon="114.39294901106109">
        <ele>22.59112548828125</ele>
        <time>2021-06-15T14:25:57Z</time>
      </trkpt>
      <trkpt lat="30.523595723489006" lon="114.39277588915193">
        <ele>22.490234375</ele>
        <time>2021-06-15T14:26:03Z</time>
      </trkpt>
      <trkpt lat="30.523576502743765" lon="114.39259192057999">
        <ele>21.45458984375</ele>
        <time>2021-06-15T14:26:09Z</time>
      </trkpt>
      <trkpt lat="30.52351552099064" lon="114.39241067068123">
        <ele>23.04205322265625</ele>
        <time>2021-06-15T14:26:15Z</time>
      </trkpt>
      <trkpt lat="30.523383472281573" lon="114.39232466794526">
        <ele>21.96795654296875</ele>
        <time>2021-06-15T14:26:21Z</time>
      </trkpt>
      <trkpt lat="30.523280429758753" lon="114.39229184509723">
        <ele>24.13458251953125</ele>
        <time>2021-06-15T14:26:24Z</time>
      </trkpt>
      <trkpt lat="30.522952298750933" lon="114.39229865721268">
        <ele>23.76861572265625</ele>
        <time>2021-06-15T14:26:36Z</time>
      </trkpt>
      <trkpt lat="30.522762470818503" lon="114.39230274386661">
        <ele>24.0311279296875</ele>
        <time>2021-06-15T14:26:42Z</time>
      </trkpt>
      <trkpt lat="30.522713389876937" lon="114.3922878245956">
        <ele>23.47906494140625</ele>
        <time>2021-06-15T14:26:45Z</time>
      </trkpt>
      <trkpt lat="30.52265155496483" lon="114.39231577776769">
        <ele>24.36956787109375</ele>
        <time>2021-06-15T14:26:48Z</time>
      </trkpt>
      <trkpt lat="30.522491560906996" lon="114.3922997828308">
        <ele>24.31878662109375</ele>
        <time>2021-06-15T14:26:54Z</time>
      </trkpt>
      <trkpt lat="30.522336435559936" lon="114.39234782318586">
        <ele>22.72454833984375</ele>
        <time>2021-06-15T14:27:00Z</time>
      </trkpt>
      <trkpt lat="30.522217638884918" lon="114.39244687223047">
        <ele>22.9161376953125</ele>
        <time>2021-06-15T14:27:06Z</time>
      </trkpt>
      <trkpt lat="30.522106694169178" lon="114.39261484172552">
        <ele>21.1568603515625</ele>
        <time>2021-06-15T14:27:12Z</time>
      </trkpt>
      <trkpt lat="30.522093649016526" lon="114.39277303565004">
        <ele>25.039306640625</ele>
        <time>2021-06-15T14:27:18Z</time>
      </trkpt>
      <trkpt lat="30.522142431229128" lon="114.39294994824864">
        <ele>28.09033203125</ele>
        <time>2021-06-15T14:27:24Z</time>
      </trkpt>
      <trkpt lat="30.522234611304185" lon="114.39308100074577">
        <ele>26.3426513671875</ele>
        <time>2021-06-15T14:27:30Z</time>
      </trkpt>
      <trkpt lat="30.52235473317326" lon="114.39315316887833">
        <ele>24.7447509765625</ele>
        <time>2021-06-15T14:27:36Z</time>
      </trkpt>
      <trkpt lat="30.522554589652778" lon="114.39318110034762">
        <ele>25.056396484375</ele>
        <time>2021-06-15T14:27:45Z</time>
      </trkpt>
      <trkpt lat="30.522707535000805" lon="114.39318814205787">
        <ele>21.90509033203125</ele>
        <time>2021-06-15T14:27:51Z</time>
      </trkpt>
      <trkpt lat="30.52292990033622" lon="114.39321091596652">
        <ele>19.24072265625</ele>
        <time>2021-06-15T14:28:00Z</time>
      </trkpt>
      <trkpt lat="30.52324474572139" lon="114.39318809510657">
        <ele>16.55194091796875</ele>
        <time>2021-06-15T14:28:12Z</time>
      </trkpt>
      <trkpt lat="30.52341668747234" lon="114.39310884627314">
        <ele>18.67022705078125</ele>
        <time>2021-06-15T14:28:21Z</time>
      </trkpt>
      <trkpt lat="30.52354660328586" lon="114.39298781400713">
        <ele>21.290283203125</ele>
        <time>2021-06-15T14:28:27Z</time>
      </trkpt>
      <trkpt lat="30.523616589277523" lon="114.39286298885854">
        <ele>22.0185546875</ele>
        <time>2021-06-15T14:28:33Z</time>
      </trkpt>
      <trkpt lat="30.52363450014034" lon="114.39278891026738">
        <ele>21.32135009765625</ele>
        <time>2021-06-15T14:28:36Z</time>
      </trkpt>
      <trkpt lat="30.523610663404625" lon="114.39263668896528">
        <ele>23.78466796875</ele>
        <time>2021-06-15T14:28:42Z</time>
      </trkpt>
      <trkpt lat="30.523552389468286" lon="114.39247470355619">
        <ele>23.7476806640625</ele>
        <time>2021-06-15T14:28:48Z</time>
      </trkpt>
      <trkpt lat="30.52343255474901" lon="114.39233171844072">
        <ele>24.021484375</ele>
        <time>2021-06-15T14:28:54Z</time>
      </trkpt>
      <trkpt lat="30.523367478643593" lon="114.39229373685112">
        <ele>25.13427734375</ele>
        <time>2021-06-15T14:28:57Z</time>
      </trkpt>
      <trkpt lat="30.52312721836417" lon="114.39226065470794">
        <ele>25.26763916015625</ele>
        <time>2021-06-15T14:29:06Z</time>
      </trkpt>
      <trkpt lat="30.52306023469286" lon="114.39226988602287">
        <ele>23.356689453125</ele>
        <time>2021-06-15T14:29:09Z</time>
      </trkpt>
      <trkpt lat="30.52294336000805" lon="114.3922468325941">
        <ele>21.47613525390625</ele>
        <time>2021-06-15T14:29:15Z</time>
      </trkpt>
      <trkpt lat="30.5227535259388" lon="114.3922818516665">
        <ele>20.60516357421875</ele>
        <time>2021-06-15T14:29:24Z</time>
      </trkpt>
      <trkpt lat="30.522657527845894" lon="114.39228077470749">
        <ele>20.8046875</ele>
        <time>2021-06-15T14:29:27Z</time>
      </trkpt>
      <trkpt lat="30.522572371882315" lon="114.39230574519445">
        <ele>22.52947998046875</ele>
        <time>2021-06-15T14:29:30Z</time>
      </trkpt>
      <trkpt lat="30.522320710349874" lon="114.39233073026362">
        <ele>21.7872314453125</ele>
        <time>2021-06-15T14:29:42Z</time>
      </trkpt>
      <trkpt lat="30.52228653211765" lon="114.39237876011974">
        <ele>19.80218505859375</ele>
        <time>2021-06-15T14:29:45Z</time>
      </trkpt>
      <trkpt lat="30.52219160755247" lon="114.39243574959114">
        <ele>19.37774658203125</ele>
        <time>2021-06-15T14:29:48Z</time>
      </trkpt>
      <trkpt lat="30.522152546725003" lon="114.39249192031663">
        <ele>18.3157958984375</ele>
        <time>2021-06-15T14:29:51Z</time>
      </trkpt>
      <trkpt lat="30.52210749965895" lon="114.3926590703908">
        <ele>21.23162841796875</ele>
        <time>2021-06-15T14:29:57Z</time>
      </trkpt>
      <trkpt lat="30.522091477651106" lon="114.39278388959147">
        <ele>23.00701904296875</ele>
        <time>2021-06-15T14:30:00Z</time>
      </trkpt>
      <trkpt lat="30.522121550870576" lon="114.39294615122928">
        <ele>26.60260009765625</ele>
        <time>2021-06-15T14:30:06Z</time>
      </trkpt>
      <trkpt lat="30.522150556646032" lon="114.39300991510054">
        <ele>28.27972412109375</ele>
        <time>2021-06-15T14:30:09Z</time>
      </trkpt>
      <trkpt lat="30.52220478259153" lon="114.39307313426909">
        <ele>27.4366455078125</ele>
        <time>2021-06-15T14:30:12Z</time>
      </trkpt>
      <trkpt lat="30.52240164363674" lon="114.39317812887494">
        <ele>25.70477294921875</ele>
        <time>2021-06-15T14:30:21Z</time>
      </trkpt>
      <trkpt lat="30.522516622021946" lon="114.39319494247346">
        <ele>23.35992431640625</ele>
        <time>2021-06-15T14:30:27Z</time>
      </trkpt>
      <trkpt lat="30.52277343615269" lon="114.39316290084086">
        <ele>22.28692626953125</ele>
        <time>2021-06-15T14:30:36Z</time>
      </trkpt>
      <trkpt lat="30.523074718909633" lon="114.3931628745093">
        <ele>22.0145263671875</ele>
        <time>2021-06-15T14:30:48Z</time>
      </trkpt>
      <trkpt lat="30.52321681626461" lon="114.39317398739553">
        <ele>18.56298828125</ele>
        <time>2021-06-15T14:30:54Z</time>
      </trkpt>
      <trkpt lat="30.523368684630725" lon="114.39313191507246">
        <ele>22.14019775390625</ele>
        <time>2021-06-15T14:31:00Z</time>
      </trkpt>
      <trkpt lat="30.523517585875894" lon="114.39299378616802">
        <ele>21.16448974609375</ele>
        <time>2021-06-15T14:31:06Z</time>
      </trkpt>
      <trkpt lat="30.523573735446448" lon="114.39290477976118">
        <ele>21.40869140625</ele>
        <time>2021-06-15T14:31:09Z</time>
      </trkpt>
      <trkpt lat="30.52360873405721" lon="114.39281089138944">
        <ele>21.839111328125</ele>
        <time>2021-06-15T14:31:12Z</time>
      </trkpt>
      <trkpt lat="30.523589771541502" lon="114.3926969287886">
        <ele>21.5255126953125</ele>
        <time>2021-06-15T14:31:15Z</time>
      </trkpt>
      <trkpt lat="30.523601444671105" lon="114.39262882085637">
        <ele>22.07940673828125</ele>
        <time>2021-06-15T14:31:18Z</time>
      </trkpt>
      <trkpt lat="30.523555365464016" lon="114.392511876884">
        <ele>21.82952880859375</ele>
        <time>2021-06-15T14:31:21Z</time>
      </trkpt>
      <trkpt lat="30.523462372869655" lon="114.39239276696173">
        <ele>23.67401123046875</ele>
        <time>2021-06-15T14:31:27Z</time>
      </trkpt>
      <trkpt lat="30.52327066647672" lon="114.39229564467483">
        <ele>21.04754638671875</ele>
        <time>2021-06-15T14:31:36Z</time>
      </trkpt>
      <trkpt lat="30.52313941933031" lon="114.39227177846213">
        <ele>21.5823974609375</ele>
        <time>2021-06-15T14:31:39Z</time>
      </trkpt>
      <trkpt lat="30.523073249048203" lon="114.39228182372278">
        <ele>21.21905517578125</ele>
        <time>2021-06-15T14:31:42Z</time>
      </trkpt>
      <trkpt lat="30.522967492421564" lon="114.39226066866803">
        <ele>23.15386962890625</ele>
        <time>2021-06-15T14:31:48Z</time>
      </trkpt>
      <trkpt lat="30.52269142694816" lon="114.39227371697676">
        <ele>22.16119384765625</ele>
        <time>2021-06-15T14:32:00Z</time>
      </trkpt>
      <trkpt lat="30.522615493080234" lon="114.39228891850117">
        <ele>23.44744873046875</ele>
        <time>2021-06-15T14:32:03Z</time>
      </trkpt>
      <trkpt lat="30.522532514642364" lon="114.39227291685394">
        <ele>25.05419921875</ele>
        <time>2021-06-15T14:32:06Z</time>
      </trkpt>
      <trkpt lat="30.522456580227207" lon="114.39229083175165">
        <ele>24.3321533203125</ele>
        <time>2021-06-15T14:32:09Z</time>
      </trkpt>
      <trkpt lat="30.522391497627076" lon="114.39228568202964">
        <ele>24.843505859375</ele>
        <time>2021-06-15T14:32:12Z</time>
      </trkpt>
      <trkpt lat="30.522266200644236" lon="114.3923418598857">
        <ele>24.76434326171875</ele>
        <time>2021-06-15T14:32:18Z</time>
      </trkpt>
      <trkpt lat="30.522209244157043" lon="114.3923847363236">
        <ele>24.5570068359375</ele>
        <time>2021-06-15T14:32:21Z</time>
      </trkpt>
      <trkpt lat="30.522125693513537" lon="114.39252502617454">
        <ele>24.4837646484375</ele>
        <time>2021-06-15T14:32:27Z</time>
      </trkpt>
      <trkpt lat="30.522086613269753" lon="114.39268891988262">
        <ele>24.75701904296875</ele>
        <time>2021-06-15T14:32:33Z</time>
      </trkpt>
      <trkpt lat="30.522082530418206" lon="114.39277385065294">
        <ele>25.2213134765625</ele>
        <time>2021-06-15T14:32:36Z</time>
      </trkpt>
      <trkpt lat="30.52216357053977" lon="114.39302700882043">
        <ele>28.35125732421875</ele>
        <time>2021-06-15T14:32:45Z</time>
      </trkpt>
      <trkpt lat="30.522195833104877" lon="114.39307611987569">
        <ele>26.90338134765625</ele>
        <time>2021-06-15T14:32:48Z</time>
      </trkpt>
      <trkpt lat="30.52236774479907" lon="114.39318518691375">
        <ele>20.53076171875</ele>
        <time>2021-06-15T14:32:57Z</time>
      </trkpt>
      <trkpt lat="30.52271756431164" lon="114.39321609016478">
        <ele>19.28759765625</ele>
        <time>2021-06-15T14:33:12Z</time>
      </trkpt>
      <trkpt lat="30.522980885129865" lon="114.39319408785026">
        <ele>19.40179443359375</ele>
        <time>2021-06-15T14:33:24Z</time>
      </trkpt>
      <trkpt lat="30.52304867799721" lon="114.39321009153717">
        <ele>19.40386962890625</ele>
        <time>2021-06-15T14:33:27Z</time>
      </trkpt>
      <trkpt lat="30.523368678379388" lon="114.39317098928424">
        <ele>20.26177978515625</ele>
        <time>2021-06-15T14:33:39Z</time>
      </trkpt>
      <trkpt lat="30.523432683457827" lon="114.39313190947897">
        <ele>20.871337890625</ele>
        <time>2021-06-15T14:33:42Z</time>
      </trkpt>
      <trkpt lat="30.523474725640863" lon="114.39307600810301">
        <ele>20.96124267578125</ele>
        <time>2021-06-15T14:33:45Z</time>
      </trkpt>
      <trkpt lat="30.52353357891766" lon="114.3930339441088">
        <ele>20.36181640625</ele>
        <time>2021-06-15T14:33:48Z</time>
      </trkpt>
      <trkpt lat="30.523599500232418" lon="114.3928898535149">
        <ele>21.3165283203125</ele>
        <time>2021-06-15T14:33:54Z</time>
      </trkpt>
      <trkpt lat="30.523622574331203" lon="114.39275390797225">
        <ele>22.56231689453125</ele>
        <time>2021-06-15T14:33:57Z</time>
      </trkpt>
      <trkpt lat="30.52362177637605" lon="114.39266680697075">
        <ele>22.43438720703125</ele>
        <time>2021-06-15T14:34:00Z</time>
      </trkpt>
      <trkpt lat="30.52358626712511" lon="114.39258188009907">
        <ele>22.24066162109375</ele>
        <time>2021-06-15T14:34:03Z</time>
      </trkpt>
      <trkpt lat="30.52356839773378" lon="114.39242965979676">
        <ele>22.58001708984375</ele>
        <time>2021-06-15T14:34:09Z</time>
      </trkpt>
      <trkpt lat="30.523443404341474" lon="114.39231977862634">
        <ele>22.95458984375</ele>
        <time>2021-06-15T14:34:15Z</time>
      </trkpt>
      <trkpt lat="30.523126403636617" lon="114.39226662419432">
        <ele>24.9700927734375</ele>
        <time>2021-06-15T14:34:27Z</time>
      </trkpt>
      <trkpt lat="30.522821326719477" lon="114.39225471202941">
        <ele>24.74505615234375</ele>
        <time>2021-06-15T14:34:42Z</time>
      </trkpt>
      <trkpt lat="30.52268247655937" lon="114.392280772527">
        <ele>23.77392578125</ele>
        <time>2021-06-15T14:34:48Z</time>
      </trkpt>
      <trkpt lat="30.522544450401377" lon="114.39225392221732">
        <ele>23.16595458984375</ele>
        <time>2021-06-15T14:34:54Z</time>
      </trkpt>
      <trkpt lat="30.522247221043855" lon="114.39232585260424">
        <ele>23.11602783203125</ele>
        <time>2021-06-15T14:35:06Z</time>
      </trkpt>
      <trkpt lat="30.522129491582152" lon="114.39251688563007">
        <ele>19.4075927734375</ele>
        <time>2021-06-15T14:35:12Z</time>
      </trkpt>
      <trkpt lat="30.522116453244863" lon="114.39263383479661">
        <ele>20.429443359375</ele>
        <time>2021-06-15T14:35:15Z</time>
      </trkpt>
      <trkpt lat="30.522080634588583" lon="114.392760012293">
        <ele>20.9111328125</ele>
        <time>2021-06-15T14:35:18Z</time>
      </trkpt>
      <trkpt lat="30.52213645998689" lon="114.39298115358876">
        <ele>21.9676513671875</ele>
        <time>2021-06-15T14:35:24Z</time>
      </trkpt>
      <trkpt lat="30.522196644395407" lon="114.393089958542">
        <ele>20.65631103515625</ele>
        <time>2021-06-15T14:35:27Z</time>
      </trkpt>
      <trkpt lat="30.522287747644214" lon="114.39317596803681">
        <ele>22.48333740234375</ele>
        <time>2021-06-15T14:35:30Z</time>
      </trkpt>
      <trkpt lat="30.522407612053634" lon="114.39316293281277">
        <ele>22.7117919921875</ele>
        <time>2021-06-15T14:35:33Z</time>
      </trkpt>
      <trkpt lat="30.522474588512985" lon="114.39319711694122">
        <ele>21.75628662109375</ele>
        <time>2021-06-15T14:35:36Z</time>
      </trkpt>
      <trkpt lat="30.522798646983762" lon="114.39322015332182">
        <ele>20.84228515625</ele>
        <time>2021-06-15T14:35:48Z</time>
      </trkpt>
      <trkpt lat="30.523115660311905" lon="114.39320710083916">
        <ele>19.2879638671875</ele>
        <time>2021-06-15T14:36:00Z</time>
      </trkpt>
      <trkpt lat="30.52336759348076" lon="114.39317207477488">
        <ele>23.0684814453125</ele>
        <time>2021-06-15T14:36:09Z</time>
      </trkpt>
      <trkpt lat="30.523579681599426" lon="114.3930228148494">
        <ele>23.08343505859375</ele>
        <time>2021-06-15T14:36:18Z</time>
      </trkpt>
      <trkpt lat="30.523646685612054" lon="114.3928909347719">
        <ele>22.99114990234375</ele>
        <time>2021-06-15T14:36:24Z</time>
      </trkpt>
      <trkpt lat="30.523664599372786" lon="114.39279976139674">
        <ele>22.250732421875</ele>
        <time>2021-06-15T14:36:27Z</time>
      </trkpt>
      <trkpt lat="30.52361934591934" lon="114.39261091073857">
        <ele>21.323974609375</ele>
        <time>2021-06-15T14:36:33Z</time>
      </trkpt>
      <trkpt lat="30.523543447126528" lon="114.39243970153125">
        <ele>22.6014404296875</ele>
        <time>2021-06-15T14:36:39Z</time>
      </trkpt>
      <trkpt lat="30.52335852300205" lon="114.39232765484243">
        <ele>20.568603515625</ele>
        <time>2021-06-15T14:36:48Z</time>
      </trkpt>
      <trkpt lat="30.52306348063979" lon="114.39231167169999">
        <ele>21.59906005859375</ele>
        <time>2021-06-15T14:36:57Z</time>
      </trkpt>
      <trkpt lat="30.522979417870797" lon="114.39229377076786">
        <ele>21.88494873046875</ele>
        <time>2021-06-15T14:37:00Z</time>
      </trkpt>
      <trkpt lat="30.522667549594352" lon="114.3923418248086">
        <ele>25.23193359375</ele>
        <time>2021-06-15T14:37:09Z</time>
      </trkpt>
      <trkpt lat="30.522603558949623" lon="114.39229977304235">
        <ele>23.29620361328125</ele>
        <time>2021-06-15T14:37:12Z</time>
      </trkpt>
      <trkpt lat="30.52241047405636" lon="114.39231769820198">
        <ele>24.779296875</ele>
        <time>2021-06-15T14:37:21Z</time>
      </trkpt>
      <trkpt lat="30.522362478775214" lon="114.39229789474972">
        <ele>24.53326416015625</ele>
        <time>2021-06-15T14:37:24Z</time>
      </trkpt>
      <trkpt lat="30.522254267114374" lon="114.39234972973432">
        <ele>23.47503662109375</ele>
        <time>2021-06-15T14:37:30Z</time>
      </trkpt>
      <trkpt lat="30.522116473331785" lon="114.39252502698034">
        <ele>22.14398193359375</ele>
        <time>2021-06-15T14:37:39Z</time>
      </trkpt>
      <trkpt lat="30.522067619638445" lon="114.39274997372155">
        <ele>23.4287109375</ele>
        <time>2021-06-15T14:37:48Z</time>
      </trkpt>
      <trkpt lat="30.52207762249197" lon="114.39292797489503">
        <ele>23.64752197265625</ele>
        <time>2021-06-15T14:37:54Z</time>
      </trkpt>
      <trkpt lat="30.522099575457045" lon="114.39300394992672">
        <ele>26.5267333984375</ele>
        <time>2021-06-15T14:37:57Z</time>
      </trkpt>
      <trkpt lat="30.52225683417382" lon="114.39316810161874">
        <ele>23.251220703125</ele>
        <time>2021-06-15T14:38:06Z</time>
      </trkpt>
      <trkpt lat="30.522439603716876" lon="114.39321204421499">
        <ele>21.5709228515625</ele>
        <time>2021-06-15T14:38:15Z</time>
      </trkpt>
      <trkpt lat="30.522740896456913" lon="114.39322144036858">
        <ele>22.85205078125</ele>
        <time>2021-06-15T14:38:27Z</time>
      </trkpt>
      <trkpt lat="30.52284608926029" lon="114.39319688019265">
        <ele>23.22869873046875</ele>
        <time>2021-06-15T14:38:33Z</time>
      </trkpt>
      <trkpt lat="30.5229887449925" lon="114.39322203615487">
        <ele>20.08953857421875</ele>
        <time>2021-06-15T14:38:39Z</time>
      </trkpt>
      <trkpt lat="30.523179660739462" lon="114.3931970553195">
        <ele>18.47576904296875</ele>
        <time>2021-06-15T14:38:48Z</time>
      </trkpt>
      <trkpt lat="30.52325775755442" lon="114.39321902779795">
        <ele>18.7403564453125</ele>
        <time>2021-06-15T14:38:51Z</time>
      </trkpt>
      <trkpt lat="30.523441627967895" lon="114.39315985760467">
        <ele>21.06121826171875</ele>
        <time>2021-06-15T14:39:00Z</time>
      </trkpt>
      <trkpt lat="30.523507531461853" lon="114.39311996360965">
        <ele>19.82733154296875</ele>
        <time>2021-06-15T14:39:03Z</time>
      </trkpt>
      <trkpt lat="30.523569643232655" lon="114.39305103583402">
        <ele>19.96588134765625</ele>
        <time>2021-06-15T14:39:06Z</time>
      </trkpt>
      <trkpt lat="30.523637729141313" lon="114.39293489353501">
        <ele>19.732177734375</ele>
        <time>2021-06-15T14:39:12Z</time>
      </trkpt>
      <trkpt lat="30.523667602069043" lon="114.39268878170594">
        <ele>21.42529296875</ele>
        <time>2021-06-15T14:39:21Z</time>
      </trkpt>
      <trkpt lat="30.523590340070008" lon="114.39255366027565">
        <ele>21.57513427734375</ele>
        <time>2021-06-15T14:39:27Z</time>
      </trkpt>
      <trkpt lat="30.523577334933194" lon="114.39249179579127">
        <ele>21.4925537109375</ele>
        <time>2021-06-15T14:39:30Z</time>
      </trkpt>
      <trkpt lat="30.52353856928108" lon="114.39242179356779">
        <ele>22.298095703125</ele>
        <time>2021-06-15T14:39:33Z</time>
      </trkpt>
      <trkpt lat="30.52336042536463" lon="114.39230676166912">
        <ele>20.096923828125</ele>
        <time>2021-06-15T14:39:42Z</time>
      </trkpt>
      <trkpt lat="30.52317440019333" lon="114.39227964418392">
        <ele>21.29449462890625</ele>
        <time>2021-06-15T14:39:51Z</time>
      </trkpt>
      <trkpt lat="30.523107414983215" lon="114.39229674429303">
        <ele>22.4056396484375</ele>
        <time>2021-06-15T14:39:54Z</time>
      </trkpt>
      <trkpt lat="30.522750540961226" lon="114.39229189140956">
        <ele>23.06396484375</ele>
        <time>2021-06-15T14:40:09Z</time>
      </trkpt>
      <trkpt lat="30.52262552349305" lon="114.39230574054906">
        <ele>23.6873779296875</ele>
        <time>2021-06-15T14:40:15Z</time>
      </trkpt>
      <trkpt lat="30.522454411950132" lon="114.39228486251905">
        <ele>22.2935791015625</ele>
        <time>2021-06-15T14:40:24Z</time>
      </trkpt>
      <trkpt lat="30.522375492941016" lon="114.39231091781639">
        <ele>22.650634765625</ele>
        <time>2021-06-15T14:40:27Z</time>
      </trkpt>
      <trkpt lat="30.52230824087707" lon="114.39230576827896">
        <ele>23.651123046875</ele>
        <time>2021-06-15T14:40:30Z</time>
      </trkpt>
      <trkpt lat="30.52214061908132" lon="114.39246885746871">
        <ele>21.32305908203125</ele>
        <time>2021-06-15T14:40:39Z</time>
      </trkpt>
      <trkpt lat="30.522078485961913" lon="114.39264387776738">
        <ele>19.58404541015625</ele>
        <time>2021-06-15T14:40:45Z</time>
      </trkpt>
      <trkpt lat="30.5220676075224" lon="114.39281889506547">
        <ele>23.0501708984375</ele>
        <time>2021-06-15T14:40:51Z</time>
      </trkpt>
      <trkpt lat="30.522124522156382" lon="114.39301615835383">
        <ele>26.5474853515625</ele>
        <time>2021-06-15T14:40:57Z</time>
      </trkpt>
      <trkpt lat="30.522160582267585" lon="114.39305902805859">
        <ele>28.3922119140625</ele>
        <time>2021-06-15T14:41:00Z</time>
      </trkpt>
      <trkpt lat="30.522388627862103" lon="114.3931721603345">
        <ele>24.78033447265625</ele>
        <time>2021-06-15T14:41:09Z</time>
      </trkpt>
      <trkpt lat="30.522712683981045" lon="114.39321012090234">
        <ele>26.58551025390625</ele>
        <time>2021-06-15T14:41:21Z</time>
      </trkpt>
      <trkpt lat="30.522810584498515" lon="114.39318514821093">
        <ele>25.209228515625</ele>
        <time>2021-06-15T14:41:27Z</time>
      </trkpt>
      <trkpt lat="30.523096682369452" lon="114.39317698273416">
        <ele>23.425537109375</ele>
        <time>2021-06-15T14:41:42Z</time>
      </trkpt>
      <trkpt lat="30.523284609875997" lon="114.3931851067818">
        <ele>20.25341796875</ele>
        <time>2021-06-15T14:41:51Z</time>
      </trkpt>
      <trkpt lat="30.52339471596132" lon="114.3931449375262">
        <ele>20.06365966796875</ele>
        <time>2021-06-15T14:41:57Z</time>
      </trkpt>
      <trkpt lat="30.52354958709796" lon="114.3929829295092">
        <ele>18.09747314453125</ele>
        <time>2021-06-15T14:42:06Z</time>
      </trkpt>
      <trkpt lat="30.523598697743104" lon="114.39282581620405">
        <ele>19.46051025390625</ele>
        <time>2021-06-15T14:42:12Z</time>
      </trkpt>
      <trkpt lat="30.523618521120287" lon="114.39267277678739">
        <ele>20.0880126953125</ele>
        <time>2021-06-15T14:42:18Z</time>
      </trkpt>
      <trkpt lat="30.523524462721063" lon="114.39244865739121">
        <ele>22.177734375</ele>
        <time>2021-06-15T14:42:27Z</time>
      </trkpt>
      <trkpt lat="30.523415467777497" lon="114.39234474415953">
        <ele>23.14349365234375</ele>
        <time>2021-06-15T14:42:33Z</time>
      </trkpt>
      <trkpt lat="30.523350663417364" lon="114.39230377780875">
        <ele>22.7012939453125</ele>
        <time>2021-06-15T14:42:36Z</time>
      </trkpt>
      <trkpt lat="30.52327663305739" lon="114.39229265944137">
        <ele>22.979736328125</ele>
        <time>2021-06-15T14:42:39Z</time>
      </trkpt>
      <trkpt lat="30.52321154496395" lon="114.39231572882471">
        <ele>24.069091796875</ele>
        <time>2021-06-15T14:42:42Z</time>
      </trkpt>
      <trkpt lat="30.522975351911548" lon="114.39228481698942">
        <ele>22.6636962890625</ele>
        <time>2021-06-15T14:42:51Z</time>
      </trkpt>
      <trkpt lat="30.52266240026684" lon="114.3923258163184">
        <ele>24.154296875</ele>
        <time>2021-06-15T14:43:06Z</time>
      </trkpt>
      <trkpt lat="30.522416443782163" lon="114.3922987040458">
        <ele>21.43060302734375</ele>
        <time>2021-06-15T14:43:18Z</time>
      </trkpt>
      <trkpt lat="30.522204626922846" lon="114.39242191015347">
        <ele>23.7099609375</ele>
        <time>2021-06-15T14:43:27Z</time>
      </trkpt>
      <trkpt lat="30.522105618837507" lon="114.39256382965266">
        <ele>24.6229248046875</ele>
        <time>2021-06-15T14:43:33Z</time>
      </trkpt>
      <trkpt lat="30.522078470479915" lon="114.39272989337006">
        <ele>22.81439208984375</ele>
        <time>2021-06-15T14:43:39Z</time>
      </trkpt>
      <trkpt lat="30.52208062160642" lon="114.39283408921567">
        <ele>22.2861328125</ele>
        <time>2021-06-15T14:43:42Z</time>
      </trkpt>
      <trkpt lat="30.522142420021062" lon="114.39301697083039">
        <ele>25.831298828125</ele>
        <time>2021-06-15T14:43:48Z</time>
      </trkpt>
      <trkpt lat="30.52230673369814" lon="114.39315507251435">
        <ele>22.7457275390625</ele>
        <time>2021-06-15T14:43:57Z</time>
      </trkpt>
      <trkpt lat="30.52237859638669" lon="114.39315805107013">
        <ele>22.94244384765625</ele>
        <time>2021-06-15T14:44:00Z</time>
      </trkpt>
      <trkpt lat="30.522602584564407" lon="114.39320795972917">
        <ele>20.57647705078125</ele>
        <time>2021-06-15T14:44:09Z</time>
      </trkpt>
      <trkpt lat="30.522735467528435" lon="114.39318298398304">
        <ele>22.8343505859375</ele>
        <time>2021-06-15T14:44:15Z</time>
      </trkpt>
      <trkpt lat="30.522932882352144" lon="114.39321715674465">
        <ele>24.491455078125</ele>
        <time>2021-06-15T14:44:24Z</time>
      </trkpt>
      <trkpt lat="30.52327755726718" lon="114.39319704676342">
        <ele>23.2255859375</ele>
        <time>2021-06-15T14:44:39Z</time>
      </trkpt>
      <trkpt lat="30.523365691252113" lon="114.39319703906055">
        <ele>20.55877685546875</ele>
        <time>2021-06-15T14:44:42Z</time>
      </trkpt>
      <trkpt lat="30.52348149804309" lon="114.39311996588498">
        <ele>21.49029541015625</ele>
        <time>2021-06-15T14:44:48Z</time>
      </trkpt>
      <trkpt lat="30.523529499263514" lon="114.39310693697654">
        <ele>22.43817138671875</ele>
        <time>2021-06-15T14:44:51Z</time>
      </trkpt>
      <trkpt lat="30.523589714638632" lon="114.3930268841779">
        <ele>22.693603515625</ele>
        <time>2021-06-15T14:44:54Z</time>
      </trkpt>
      <trkpt lat="30.52364072031834" lon="114.39288686511463">
        <ele>21.62322998046875</ele>
        <time>2021-06-15T14:45:00Z</time>
      </trkpt>
      <trkpt lat="30.523654564426476" lon="114.39280681722093">
        <ele>19.59649658203125</ele>
        <time>2021-06-15T14:45:03Z</time>
      </trkpt>
      <trkpt lat="30.523652695387057" lon="114.39264292615708">
        <ele>20.620849609375</ele>
        <time>2021-06-15T14:45:09Z</time>
      </trkpt>
      <trkpt lat="30.523619361840755" lon="114.39252489562915">
        <ele>16.260009765625</ele>
        <time>2021-06-15T14:45:15Z</time>
      </trkpt>
      <trkpt lat="30.523544539489123" lon="114.39239981458873">
        <ele>17.714111328125</ele>
        <time>2021-06-15T14:45:21Z</time>
      </trkpt>
      <trkpt lat="30.523475401207275" lon="114.39233280004767">
        <ele>19.0496826171875</ele>
        <time>2021-06-15T14:45:24Z</time>
      </trkpt>
      <trkpt lat="30.52331460538622" lon="114.39225765362322">
        <ele>23.12518310546875</ele>
        <time>2021-06-15T14:45:30Z</time>
      </trkpt>
      <trkpt lat="30.52325033612407" lon="114.39225386052311">
        <ele>22.31353759765625</ele>
        <time>2021-06-15T14:45:33Z</time>
      </trkpt>
      <trkpt lat="30.523127213802248" lon="114.39228371836737">
        <ele>22.42108154296875</ele>
        <time>2021-06-15T14:45:39Z</time>
      </trkpt>
      <trkpt lat="30.52280152744853" lon="114.39226990863384">
        <ele>24.0284423828125</ele>
        <time>2021-06-15T14:45:54Z</time>
      </trkpt>
      <trkpt lat="30.522748373701774" lon="114.39228076676766">
        <ele>23.403564453125</ele>
        <time>2021-06-15T14:45:57Z</time>
      </trkpt>
      <trkpt lat="30.52255041483754" lon="114.39226179046835">
        <ele>26.172119140625</ele>
        <time>2021-06-15T14:46:06Z</time>
      </trkpt>
      <trkpt lat="30.52231122307765" lon="114.39230983808277">
        <ele>24.875732421875</ele>
        <time>2021-06-15T14:46:18Z</time>
      </trkpt>
      <trkpt lat="30.522199207921012" lon="114.39239776145932">
        <ele>24.7562255859375</ele>
        <time>2021-06-15T14:46:24Z</time>
      </trkpt>
      <trkpt lat="30.522091518489535" lon="114.39255786138429">
        <ele>23.14288330078125</ele>
        <time>2021-06-15T14:46:33Z</time>
      </trkpt>
      <trkpt lat="30.522066542939857" lon="114.3927049308573">
        <ele>23.35125732421875</ele>
        <time>2021-06-15T14:46:39Z</time>
      </trkpt>
      <trkpt lat="30.522067614175263" lon="114.39278090689477">
        <ele>22.11767578125</ele>
        <time>2021-06-15T14:46:42Z</time>
      </trkpt>
      <trkpt lat="30.522086588313776" lon="114.3928300185268">
        <ele>20.7923583984375</ele>
        <time>2021-06-15T14:46:45Z</time>
      </trkpt>
      <trkpt lat="30.5220895570285" lon="114.392913049841">
        <ele>21.92022705078125</ele>
        <time>2021-06-15T14:46:48Z</time>
      </trkpt>
      <trkpt lat="30.522116392895928" lon="114.39297898457106">
        <ele>24.17864990234375</ele>
        <time>2021-06-15T14:46:51Z</time>
      </trkpt>
      <trkpt lat="30.52225765349525" lon="114.39313201217416">
        <ele>20.63922119140625</ele>
        <time>2021-06-15T14:47:03Z</time>
      </trkpt>
      <trkpt lat="30.52250469062763" lon="114.39319114462694">
        <ele>20.17864990234375</ele>
        <time>2021-06-15T14:47:15Z</time>
      </trkpt>
      <trkpt lat="30.522811668279395" lon="114.39319111779795">
        <ele>21.1680908203125</ele>
        <time>2021-06-15T14:47:30Z</time>
      </trkpt>
      <trkpt lat="30.52292990033622" lon="114.39321091596652">
        <ele>21.219970703125</ele>
        <time>2021-06-15T14:47:36Z</time>
      </trkpt>
      <trkpt lat="30.523173693332506" lon="114.3932060103695">
        <ele>21.82965087890625</ele>
        <time>2021-06-15T14:47:48Z</time>
      </trkpt>
      <trkpt lat="30.52323281519803" lon="114.39317887027954">
        <ele>20.99981689453125</ele>
        <time>2021-06-15T14:47:51Z</time>
      </trkpt>
      <trkpt lat="30.52330874614895" lon="114.39317804959609">
        <ele>20.08355712890625</ele>
        <time>2021-06-15T14:47:54Z</time>
      </trkpt>
      <trkpt lat="30.523430518517937" lon="114.39310396079856">
        <ele>20.28607177734375</ele>
        <time>2021-06-15T14:48:00Z</time>
      </trkpt>
      <trkpt lat="30.523589729525966" lon="114.39293788253474">
        <ele>17.35919189453125</ele>
        <time>2021-06-15T14:48:09Z</time>
      </trkpt>
      <trkpt lat="30.52360360467386" lon="114.39268091836497">
        <ele>19.2918701171875</ele>
        <time>2021-06-15T14:48:18Z</time>
      </trkpt>
      <trkpt lat="30.523574334592027" lon="114.3925848658956">
        <ele>19.5399169921875</ele>
        <time>2021-06-15T14:48:21Z</time>
      </trkpt>
      <trkpt lat="30.523566485787214" lon="114.39250183632336">
        <ele>21.0623779296875</ele>
        <time>2021-06-15T14:48:24Z</time>
      </trkpt>
      <trkpt lat="30.523454510910202" lon="114.39238082874765">
        <ele>23.87103271484375</ele>
        <time>2021-06-15T14:48:30Z</time>
      </trkpt>
      <trkpt lat="30.52327853330704" lon="114.3922826197927">
        <ele>26.6729736328125</ele>
        <time>2021-06-15T14:48:39Z</time>
      </trkpt>
      <trkpt lat="30.523069451114935" lon="114.39228887882548">
        <ele>24.329345703125</ele>
        <time>2021-06-15T14:48:48Z</time>
      </trkpt>
      <trkpt lat="30.52289942503398" lon="114.39226474467272">
        <ele>23.51025390625</ele>
        <time>2021-06-15T14:48:57Z</time>
      </trkpt>
      <trkpt lat="30.522729388632268" lon="114.39229270727054">
        <ele>22.3597412109375</ele>
        <time>2021-06-15T14:49:06Z</time>
      </trkpt>
      <trkpt lat="30.522561529315304" lon="114.39228186844676">
        <ele>21.83551025390625</ele>
        <time>2021-06-15T14:49:15Z</time>
      </trkpt>
      <trkpt lat="30.5223844450841" lon="114.39229490811763">
        <ele>23.216064453125</ele>
        <time>2021-06-15T14:49:24Z</time>
      </trkpt>
      <trkpt lat="30.522309323422324" lon="114.39231689302905">
        <ele>23.70782470703125</ele>
        <time>2021-06-15T14:49:27Z</time>
      </trkpt>
      <trkpt lat="30.522161501211695" lon="114.39246288617035">
        <ele>24.05462646484375</ele>
        <time>2021-06-15T14:49:36Z</time>
      </trkpt>
      <trkpt lat="30.5221145741465" lon="114.39252991127539">
        <ele>21.65264892578125</ele>
        <time>2021-06-15T14:49:39Z</time>
      </trkpt>
      <trkpt lat="30.52207849051465" lon="114.3926189143155">
        <ele>22.77587890625</ele>
        <time>2021-06-15T14:49:42Z</time>
      </trkpt>
      <trkpt lat="30.52207844232617" lon="114.39289107183397">
        <ele>24.53521728515625</ele>
        <time>2021-06-15T14:49:54Z</time>
      </trkpt>
      <trkpt lat="30.52219366201381" lon="114.39308615993268">
        <ele>21.43701171875</ele>
        <time>2021-06-15T14:50:03Z</time>
      </trkpt>
      <trkpt lat="30.522420625583088" lon="114.39318301149925">
        <ele>22.26214599609375</ele>
        <time>2021-06-15T14:50:15Z</time>
      </trkpt>
      <trkpt lat="30.52273763316331" lon="114.39320713387802">
        <ele>21.38616943359375</ele>
        <time>2021-06-15T14:50:30Z</time>
      </trkpt>
      <trkpt lat="30.5228534275928" lon="114.39320793780614">
        <ele>19.54241943359375</ele>
        <time>2021-06-15T14:50:36Z</time>
      </trkpt>
      <trkpt lat="30.522919862658114" lon="114.39323615235992">
        <ele>19.1986083984375</ele>
        <time>2021-06-15T14:50:39Z</time>
      </trkpt>
      <trkpt lat="30.522971664484107" lon="114.39319707349809">
        <ele>17.822021484375</ele>
        <time>2021-06-15T14:50:42Z</time>
      </trkpt>
      <trkpt lat="30.523149828587986" lon="114.39321089674513">
        <ele>18.0433349609375</ele>
        <time>2021-06-15T14:50:51Z</time>
      </trkpt>
      <trkpt lat="30.52319755889185" lon="114.3931959683581">
        <ele>18.877197265625</ele>
        <time>2021-06-15T14:50:54Z</time>
      </trkpt>
      <trkpt lat="30.52329274154769" lon="114.39320898480847">
        <ele>17.29217529296875</ele>
        <time>2021-06-15T14:51:00Z</time>
      </trkpt>
      <trkpt lat="30.52342074634593" lon="114.39316392966212">
        <ele>20.83929443359375</ele>
        <time>2021-06-15T14:51:06Z</time>
      </trkpt>
      <trkpt lat="30.523553651650445" lon="114.39300192341601">
        <ele>22.31549072265625</ele>
        <time>2021-06-15T14:51:15Z</time>
      </trkpt>
      <trkpt lat="30.52360249046877" lon="114.39284779478184">
        <ele>22.91192626953125</ele>
        <time>2021-06-15T14:51:24Z</time>
      </trkpt>
      <trkpt lat="30.523605774859156" lon="114.39267684803796">
        <ele>23.49468994140625</ele>
        <time>2021-06-15T14:51:33Z</time>
      </trkpt>
      <trkpt lat="30.52358735687285" lon="114.39255474589982">
        <ele>23.70098876953125</ele>
        <time>2021-06-15T14:51:39Z</time>
      </trkpt>
      <trkpt lat="30.523528536711158" lon="114.39241582498482">
        <ele>25.7763671875</ele>
        <time>2021-06-15T14:51:45Z</time>
      </trkpt>
      <trkpt lat="30.523444488111746" lon="114.39232466261238">
        <ele>21.855224609375</ele>
        <time>2021-06-15T14:51:51Z</time>
      </trkpt>
      <trkpt lat="30.523327619517243" lon="114.39227067666467">
        <ele>23.0760498046875</ele>
        <time>2021-06-15T14:51:57Z</time>
      </trkpt>
      <trkpt lat="30.52328449689364" lon="114.39229482945363">
        <ele>26.21270751953125</ele>
        <time>2021-06-15T14:52:00Z</time>
      </trkpt>
      <trkpt lat="30.52315027273131" lon="114.3922408451004">
        <ele>23.94403076171875</ele>
        <time>2021-06-15T14:52:06Z</time>
      </trkpt>
      <trkpt lat="30.522868512483168" lon="114.39225389389462">
        <ele>24.7113037109375</ele>
        <time>2021-06-15T14:52:21Z</time>
      </trkpt>
      <trkpt lat="30.522561534471368" lon="114.39225582008275">
        <ele>22.06719970703125</ele>
        <time>2021-06-15T14:52:36Z</time>
      </trkpt>
      <trkpt lat="30.52244845110486" lon="114.39225881467272">
        <ele>21.84246826171875</ele>
        <time>2021-06-15T14:52:42Z</time>
      </trkpt>
    </trkseg>
  </trk>
</gpx>