<?xml version="1.0" encoding="UTF-8"?>
<gpx xmlns="http://www.topografix.com/GPX/1/1" xmlns:gpxtpx="http://www.garmin.com/xmlschemas/TrackPointExtension/v1" xmlns:xsi="http://www.w3.org/2001/XMLSchema-instance" xsi:schemaLocation="http://www.topografix.com/GPX/1/1 http://www.topografix.com/GPX/1/1/gpx.xsd" version="1.1" creator="gpx.py -- https://github.com/tkrajina/gpxpy">
  <trk>
    <name>gpx from keep</name>
    <type>Run</type>
    <trkseg>
      <trkpt lat="30.522217394768298" lon="114.39230686156912">
        <ele>15.83099365234375</ele>
        <time>2021-05-24T14:21:27Z</time>
      </trkpt>
      <trkpt lat="30.52207660142766" lon="114.3925689876679">
        <ele>16.39154052734375</ele>
        <time>2021-05-24T14:21:36Z</time>
      </trkpt>
      <trkpt lat="30.522064642869946" lon="114.3927149707104">
        <ele>18.23004150390625</ele>
        <time>2021-05-24T14:21:39Z</time>
      </trkpt>
      <trkpt lat="30.52211341021401" lon="114.39297708540686">
        <ele>19.7818603515625</ele>
        <time>2021-05-24T14:21:45Z</time>
      </trkpt>
      <trkpt lat="30.522185795008834" lon="114.3931029841925">
        <ele>21.83837890625</ele>
        <time>2021-05-24T14:21:48Z</time>
      </trkpt>
      <trkpt lat="30.522290730169498" lon="114.39317895261547">
        <ele>21.769775390625</ele>
        <time>2021-05-24T14:21:51Z</time>
      </trkpt>
      <trkpt lat="30.522482718459642" lon="114.39323212031849">
        <ele>21.90167236328125</ele>
        <time>2021-05-24T14:21:57Z</time>
      </trkpt>
      <trkpt lat="30.52260854519997" lon="114.39324214926476">
        <ele>21.38641357421875</ele>
        <time>2021-05-24T14:22:00Z</time>
      </trkpt>
      <trkpt lat="30.522709700384965" lon="114.39321392005587">
        <ele>20.37530517578125</ele>
        <time>2021-05-24T14:22:03Z</time>
      </trkpt>
      <trkpt lat="30.522822508798278" lon="114.39323399007014">
        <ele>20.16400146484375</ele>
        <time>2021-05-24T14:22:06Z</time>
      </trkpt>
      <trkpt lat="30.522899798068842" lon="114.39321797368483">
        <ele>21.2606201171875</ele>
        <time>2021-05-24T14:22:09Z</time>
      </trkpt>
      <trkpt lat="30.52322467107035" lon="114.39323395492181">
        <ele>19.9521484375</ele>
        <time>2021-05-24T14:22:18Z</time>
      </trkpt>
      <trkpt lat="30.523289760434785" lon="114.39319704569688">
        <ele>20.0728759765625</ele>
        <time>2021-05-24T14:22:21Z</time>
      </trkpt>
      <trkpt lat="30.523392541098303" lon="114.39317885631958">
        <ele>21.519287109375</ele>
        <time>2021-05-24T14:22:24Z</time>
      </trkpt>
      <trkpt lat="30.523484480382674" lon="114.39312403584886">
        <ele>22.4091796875</ele>
        <time>2021-05-24T14:22:27Z</time>
      </trkpt>
      <trkpt lat="30.523564494452273" lon="114.39302878581164">
        <ele>21.17425537109375</ele>
        <time>2021-05-24T14:22:30Z</time>
      </trkpt>
      <trkpt lat="30.523659715309364" lon="114.39281577113013">
        <ele>23.54571533203125</ele>
        <time>2021-05-24T14:22:36Z</time>
      </trkpt>
      <trkpt lat="30.523664620490642" lon="114.3926809130321">
        <ele>26.517578125</ele>
        <time>2021-05-24T14:22:39Z</time>
      </trkpt>
      <trkpt lat="30.52359551489167" lon="114.39243481287258">
        <ele>24.68218994140625</ele>
        <time>2021-05-24T14:22:45Z</time>
      </trkpt>
      <trkpt lat="30.523427404635235" lon="114.39231978002475">
        <ele>23.9339599609375</ele>
        <time>2021-05-24T14:22:51Z</time>
      </trkpt>
      <trkpt lat="30.52333656748691" lon="114.392275831289">
        <ele>23.89501953125</ele>
        <time>2021-05-24T14:22:54Z</time>
      </trkpt>
      <trkpt lat="30.52323243857531" lon="114.39225169139208">
        <ele>27.33551025390625</ele>
        <time>2021-05-24T14:22:57Z</time>
      </trkpt>
      <trkpt lat="30.5229333213376" lon="114.39227179647513">
        <ele>21.727783203125</ele>
        <time>2021-05-24T14:23:06Z</time>
      </trkpt>
      <trkpt lat="30.522641532853534" lon="114.39225689843884">
        <ele>22.97906494140625</ele>
        <time>2021-05-24T14:23:15Z</time>
      </trkpt>
      <trkpt lat="30.522544452829294" lon="114.39224171205906">
        <ele>18.9573974609375</ele>
        <time>2021-05-24T14:23:18Z</time>
      </trkpt>
      <trkpt lat="30.522319360715745" lon="114.39229871253065">
        <ele>20.2191162109375</ele>
        <time>2021-05-24T14:23:24Z</time>
      </trkpt>
      <trkpt lat="30.522119734697412" lon="114.39248676772422">
        <ele>20.6177978515625</ele>
        <time>2021-05-24T14:23:33Z</time>
      </trkpt>
      <trkpt lat="30.522071711167484" lon="114.39261782954124">
        <ele>21.6766357421875</ele>
        <time>2021-05-24T14:23:36Z</time>
      </trkpt>
      <trkpt lat="30.522076577397343" lon="114.39270085983831">
        <ele>22.66961669921875</ele>
        <time>2021-05-24T14:23:39Z</time>
      </trkpt>
      <trkpt lat="30.522016627943152" lon="114.39280397558858">
        <ele>23.2647705078125</ele>
        <time>2021-05-24T14:23:42Z</time>
      </trkpt>
      <trkpt lat="30.52215841839962" lon="114.39302510984142">
        <ele>24.3720703125</ele>
        <time>2021-05-24T14:23:48Z</time>
      </trkpt>
      <trkpt lat="30.52224084280509" lon="114.39311600409208">
        <ele>22.281494140625</ele>
        <time>2021-05-24T14:23:51Z</time>
      </trkpt>
      <trkpt lat="30.522411674223182" lon="114.3931979364876">
        <ele>22.138671875</ele>
        <time>2021-05-24T14:23:57Z</time>
      </trkpt>
      <trkpt lat="30.52260367147561" lon="114.39319412081784">
        <ele>23.2470703125</ele>
        <time>2021-05-24T14:24:03Z</time>
      </trkpt>
      <trkpt lat="30.522680689781307" lon="114.39317701909108">
        <ele>22.24462890625</ele>
        <time>2021-05-24T14:24:06Z</time>
      </trkpt>
      <trkpt lat="30.52284854333881" lon="114.3932269327019">
        <ele>19.70660400390625</ele>
        <time>2021-05-24T14:24:15Z</time>
      </trkpt>
      <trkpt lat="30.523173693632003" lon="114.39320411092372">
        <ele>19.9749755859375</ele>
        <time>2021-05-24T14:24:27Z</time>
      </trkpt>
      <trkpt lat="30.52332365859366" lon="114.39319405789225">
        <ele>22.4085693359375</ele>
        <time>2021-05-24T14:24:33Z</time>
      </trkpt>
      <trkpt lat="30.52361168814305" lon="114.39297993927049">
        <ele>22.5577392578125</ele>
        <time>2021-05-24T14:24:45Z</time>
      </trkpt>
      <trkpt lat="30.52367461576499" lon="114.39289988672658">
        <ele>24.0806884765625</ele>
        <time>2021-05-24T14:24:48Z</time>
      </trkpt>
      <trkpt lat="30.52370446251521" lon="114.39280274269767">
        <ele>24.20166015625</ele>
        <time>2021-05-24T14:24:51Z</time>
      </trkpt>
      <trkpt lat="30.523656511666974" lon="114.39253574600389">
        <ele>23.366943359375</ele>
        <time>2021-05-24T14:25:00Z</time>
      </trkpt>
      <trkpt lat="30.52343554066358" lon="114.3923167945982">
        <ele>21.86505126953125</ele>
        <time>2021-05-24T14:25:09Z</time>
      </trkpt>
      <trkpt lat="30.523349583447796" lon="114.39227962887273">
        <ele>23.40625</ele>
        <time>2021-05-24T14:25:12Z</time>
      </trkpt>
      <trkpt lat="30.52317223724771" lon="114.39224681259016">
        <ele>25.99053955078125</ele>
        <time>2021-05-24T14:25:18Z</time>
      </trkpt>
      <trkpt lat="30.52285738652427" lon="114.39229188207133">
        <ele>25.212158203125</ele>
        <time>2021-05-24T14:25:27Z</time>
      </trkpt>
      <trkpt lat="30.52273833901703" lon="114.39228565171624">
        <ele>24.01190185546875</ele>
        <time>2021-05-24T14:25:30Z</time>
      </trkpt>
      <trkpt lat="30.522650482279683" lon="114.39225472696107">
        <ele>24.38623046875</ele>
        <time>2021-05-24T14:25:33Z</time>
      </trkpt>
      <trkpt lat="30.5224864167614" lon="114.39225772600666">
        <ele>21.2974853515625</ele>
        <time>2021-05-24T14:25:42Z</time>
      </trkpt>
      <trkpt lat="30.522391242750288" lon="114.39220373833692">
        <ele>21.39056396484375</ele>
        <time>2021-05-24T14:25:45Z</time>
      </trkpt>
      <trkpt lat="30.522289267202606" lon="114.39225991393305">
        <ele>23.30767822265625</ele>
        <time>2021-05-24T14:25:51Z</time>
      </trkpt>
      <trkpt lat="30.522243428592787" lon="114.39230495993061">
        <ele>23.06842041015625</ele>
        <time>2021-05-24T14:25:54Z</time>
      </trkpt>
      <trkpt lat="30.522173442003268" lon="114.39241675743627">
        <ele>23.7606201171875</ele>
        <time>2021-05-24T14:25:57Z</time>
      </trkpt>
      <trkpt lat="30.52211539937812" lon="114.3924677743139">
        <ele>23.4642333984375</ele>
        <time>2021-05-24T14:26:00Z</time>
      </trkpt>
      <trkpt lat="30.522070638042816" lon="114.39255487845948">
        <ele>23.1700439453125</ele>
        <time>2021-05-24T14:26:03Z</time>
      </trkpt>
      <trkpt lat="30.5220576042212" lon="114.39264794972318">
        <ele>23.28546142578125</ele>
        <time>2021-05-24T14:26:06Z</time>
      </trkpt>
      <trkpt lat="30.522080620053142" lon="114.39284304358694">
        <ele>22.18731689453125</ele>
        <time>2021-05-24T14:26:12Z</time>
      </trkpt>
      <trkpt lat="30.522128594716193" lon="114.39298712389893">
        <ele>23.17919921875</ele>
        <time>2021-05-24T14:26:18Z</time>
      </trkpt>
      <trkpt lat="30.522217794592525" lon="114.39310216735174">
        <ele>23.51141357421875</ele>
        <time>2021-05-24T14:26:21Z</time>
      </trkpt>
      <trkpt lat="30.52232761261578" lon="114.393168095433">
        <ele>22.11297607421875</ele>
        <time>2021-05-24T14:26:27Z</time>
      </trkpt>
      <trkpt lat="30.5224366216581" lon="114.39320607478783">
        <ele>20.537841796875</ele>
        <time>2021-05-24T14:26:30Z</time>
      </trkpt>
      <trkpt lat="30.522730581671205" lon="114.39321201878444">
        <ele>20.900634765625</ele>
        <time>2021-05-24T14:26:42Z</time>
      </trkpt>
      <trkpt lat="30.522986844383958" lon="114.39323696055527">
        <ele>20.7919921875</ele>
        <time>2021-05-24T14:26:51Z</time>
      </trkpt>
      <trkpt lat="30.523244744004586" lon="114.39319894907639">
        <ele>21.566162109375</ele>
        <time>2021-05-24T14:27:03Z</time>
      </trkpt>
      <trkpt lat="30.5233255533985" lon="114.39321603702751">
        <ele>23.4866943359375</ele>
        <time>2021-05-24T14:27:06Z</time>
      </trkpt>
      <trkpt lat="30.523437558645558" lon="114.39316989786836">
        <ele>25.59661865234375</ele>
        <time>2021-05-24T14:27:12Z</time>
      </trkpt>
      <trkpt lat="30.523651564512164" lon="114.39290477295883">
        <ele>26.7435302734375</ele>
        <time>2021-05-24T14:27:24Z</time>
      </trkpt>
      <trkpt lat="30.52366459657457" lon="114.39281577070349">
        <ele>26.50634765625</ele>
        <time>2021-05-24T14:27:27Z</time>
      </trkpt>
      <trkpt lat="30.52366164205733" lon="114.39265567845388">
        <ele>25.2957763671875</ele>
        <time>2021-05-24T14:27:33Z</time>
      </trkpt>
      <trkpt lat="30.52362532484444" lon="114.392540904202">
        <ele>21.11151123046875</ele>
        <time>2021-05-24T14:27:39Z</time>
      </trkpt>
      <trkpt lat="30.52353342068513" lon="114.39240171493248">
        <ele>22.1300048828125</ele>
        <time>2021-05-24T14:27:45Z</time>
      </trkpt>
      <trkpt lat="30.523331421388598" lon="114.39224381397236">
        <ele>21.44146728515625</ele>
        <time>2021-05-24T14:27:54Z</time>
      </trkpt>
      <trkpt lat="30.523151355676053" lon="114.3922497991206">
        <ele>22.73211669921875</ele>
        <time>2021-05-24T14:28:00Z</time>
      </trkpt>
      <trkpt lat="30.523069455080766" lon="114.3922687998685">
        <ele>22.60198974609375</ele>
        <time>2021-05-24T14:28:03Z</time>
      </trkpt>
      <trkpt lat="30.522791503119034" lon="114.39222269690222">
        <ele>25.36297607421875</ele>
        <time>2021-05-24T14:28:15Z</time>
      </trkpt>
      <trkpt lat="30.52252845310874" lon="114.39224171345741">
        <ele>25.001953125</ele>
        <time>2021-05-24T14:28:27Z</time>
      </trkpt>
      <trkpt lat="30.522457409297846" lon="114.3922126866529">
        <ele>23.85137939453125</ele>
        <time>2021-05-24T14:28:30Z</time>
      </trkpt>
      <trkpt lat="30.522276245754185" lon="114.39228379274108">
        <ele>23.7021484375</ele>
        <time>2021-05-24T14:28:39Z</time>
      </trkpt>
      <trkpt lat="30.522133301551165" lon="114.39244579424353">
        <ele>22.351806640625</ele>
        <time>2021-05-24T14:28:48Z</time>
      </trkpt>
      <trkpt lat="30.522086642216195" lon="114.3925309990787">
        <ele>23.80352783203125</ele>
        <time>2021-05-24T14:28:51Z</time>
      </trkpt>
      <trkpt lat="30.522056502049693" lon="114.39274509051224">
        <ele>21.3092041015625</ele>
        <time>2021-05-24T14:29:00Z</time>
      </trkpt>
      <trkpt lat="30.522090628445994" lon="114.3929920114551">
        <ele>22.03948974609375</ele>
        <time>2021-05-24T14:29:09Z</time>
      </trkpt>
      <trkpt lat="30.52217169096592" lon="114.3931189949663">
        <ele>22.4598388671875</ele>
        <time>2021-05-24T14:29:15Z</time>
      </trkpt>
      <trkpt lat="30.52234279213355" lon="114.39321015322966">
        <ele>26.2242431640625</ele>
        <time>2021-05-24T14:29:27Z</time>
      </trkpt>
      <trkpt lat="30.522624546658317" lon="114.3932310225242">
        <ele>21.63970947265625</ele>
        <time>2021-05-24T14:29:39Z</time>
      </trkpt>
      <trkpt lat="30.522969762111263" lon="114.39322312321244">
        <ele>19.7454833984375</ele>
        <time>2021-05-24T14:29:54Z</time>
      </trkpt>
      <trkpt lat="30.52314467205255" lon="114.39323694676136">
        <ele>17.94268798828125</ele>
        <time>2021-05-24T14:30:03Z</time>
      </trkpt>
      <trkpt lat="30.523202707536054" lon="114.39322011800762">
        <ele>17.79998779296875</ele>
        <time>2021-05-24T14:30:06Z</time>
      </trkpt>
      <trkpt lat="30.52333477485028" lon="114.39320789573704">
        <ele>24.47357177734375</ele>
        <time>2021-05-24T14:30:12Z</time>
      </trkpt>
      <trkpt lat="30.52356448329583" lon="114.39309689404149">
        <ele>22.440673828125</ele>
        <time>2021-05-24T14:30:24Z</time>
      </trkpt>
      <trkpt lat="30.523619552404025" lon="114.39297993858315">
        <ele>22.506103515625</ele>
        <time>2021-05-24T14:30:30Z</time>
      </trkpt>
      <trkpt lat="30.523644520121056" lon="114.39286787062616">
        <ele>21.257080078125</ele>
        <time>2021-05-24T14:30:36Z</time>
      </trkpt>
      <trkpt lat="30.523635352665035" lon="114.39257265020956">
        <ele>19.230224609375</ele>
        <time>2021-05-24T14:30:48Z</time>
      </trkpt>
      <trkpt lat="30.5235244767198" lon="114.39237566720003">
        <ele>20.4954833984375</ele>
        <time>2021-05-24T14:30:57Z</time>
      </trkpt>
      <trkpt lat="30.52340761746346" lon="114.39227365438155">
        <ele>21.4923095703125</ele>
        <time>2021-05-24T14:31:03Z</time>
      </trkpt>
      <trkpt lat="30.523355555947088" lon="114.39224679656792">
        <ele>21.3212890625</ele>
        <time>2021-05-24T14:31:06Z</time>
      </trkpt>
      <trkpt lat="30.5232826065618" lon="114.39225467171343">
        <ele>21.93072509765625</ele>
        <time>2021-05-24T14:31:09Z</time>
      </trkpt>
      <trkpt lat="30.523232442140117" lon="114.39223378316429">
        <ele>20.8349609375</ele>
        <time>2021-05-24T14:31:12Z</time>
      </trkpt>
      <trkpt lat="30.52298729863063" lon="114.3922107409864">
        <ele>19.52099609375</ele>
        <time>2021-05-24T14:31:27Z</time>
      </trkpt>
      <trkpt lat="30.52284546625811" lon="114.39223273163945">
        <ele>19.1676025390625</ele>
        <time>2021-05-24T14:31:36Z</time>
      </trkpt>
      <trkpt lat="30.52263557605641" lon="114.39221077172677">
        <ele>20.1136474609375</ele>
        <time>2021-05-24T14:31:45Z</time>
      </trkpt>
      <trkpt lat="30.52251462440966" lon="114.39223384590132">
        <ele>19.05816650390625</ele>
        <time>2021-05-24T14:31:51Z</time>
      </trkpt>
      <trkpt lat="30.522456594340312" lon="114.39221974147137">
        <ele>20.436767578125</ele>
        <time>2021-05-24T14:31:54Z</time>
      </trkpt>
      <trkpt lat="30.522317195755154" lon="114.39227592038151">
        <ele>21.3150634765625</ele>
        <time>2021-05-24T14:32:00Z</time>
      </trkpt>
      <trkpt lat="30.522182398311912" lon="114.39237876922074">
        <ele>24.77288818359375</ele>
        <time>2021-05-24T14:32:06Z</time>
      </trkpt>
      <trkpt lat="30.522068724502326" lon="114.39263790909676">
        <ele>24.66912841796875</ele>
        <time>2021-05-24T14:32:15Z</time>
      </trkpt>
      <trkpt lat="30.522051605857673" lon="114.39283002158412">
        <ele>25.12713623046875</ele>
        <time>2021-05-24T14:32:21Z</time>
      </trkpt>
      <trkpt lat="30.522200708865252" lon="114.39311003793959">
        <ele>25.8154296875</ele>
        <time>2021-05-24T14:32:33Z</time>
      </trkpt>
      <trkpt lat="30.522347673405154" lon="114.39321015280305">
        <ele>21.69500732421875</ele>
        <time>2021-05-24T14:32:39Z</time>
      </trkpt>
      <trkpt lat="30.522495734545366" lon="114.39323618942754">
        <ele>23.17156982421875</ele>
        <time>2021-05-24T14:32:45Z</time>
      </trkpt>
      <trkpt lat="30.522691525861045" lon="114.39324811171072">
        <ele>23.0469970703125</ele>
        <time>2021-05-24T14:32:54Z</time>
      </trkpt>
      <trkpt lat="30.52273762395887" lon="114.39326601678691">
        <ele>22.46502685546875</ele>
        <time>2021-05-24T14:32:57Z</time>
      </trkpt>
      <trkpt lat="30.522816541869407" lon="114.3932399602875">
        <ele>23.1927490234375</ele>
        <time>2021-05-24T14:33:00Z</time>
      </trkpt>
      <trkpt lat="30.52289382579839" lon="114.39325813398112">
        <ele>22.8089599609375</ele>
        <time>2021-05-24T14:33:03Z</time>
      </trkpt>
      <trkpt lat="30.523211653254833" lon="114.39324101115487">
        <ele>21.45404052734375</ele>
        <time>2021-05-24T14:33:15Z</time>
      </trkpt>
      <trkpt lat="30.523273759612337" lon="114.39320410217803">
        <ele>19.43902587890625</ele>
        <time>2021-05-24T14:33:18Z</time>
      </trkpt>
      <trkpt lat="30.52341369007289" lon="114.39319893431058">
        <ele>20.50531005859375</ele>
        <time>2021-05-24T14:33:24Z</time>
      </trkpt>
      <trkpt lat="30.523543601841407" lon="114.39309988069445">
        <ele>21.29766845703125</ele>
        <time>2021-05-24T14:33:30Z</time>
      </trkpt>
      <trkpt lat="30.5236645846074" lon="114.39288496361246">
        <ele>23.97711181640625</ele>
        <time>2021-05-24T14:33:39Z</time>
      </trkpt>
      <trkpt lat="30.52369063240675" lon="114.39280192987412">
        <ele>24.559326171875</ele>
        <time>2021-05-24T14:33:42Z</time>
      </trkpt>
      <trkpt lat="30.523646469949615" lon="114.39257889008405">
        <ele>20.7144775390625</ele>
        <time>2021-05-24T14:33:51Z</time>
      </trkpt>
      <trkpt lat="30.523538571412775" lon="114.39241066866659">
        <ele>22.7742919921875</ele>
        <time>2021-05-24T14:33:57Z</time>
      </trkpt>
      <trkpt lat="30.523362602519686" lon="114.39226768889871">
        <ele>20.395751953125</ele>
        <time>2021-05-24T14:34:06Z</time>
      </trkpt>
      <trkpt lat="30.523175228429245" lon="114.39220584050733">
        <ele>22.0869140625</ele>
        <time>2021-05-24T14:34:18Z</time>
      </trkpt>
      <trkpt lat="30.523035291374192" lon="114.3922427545072">
        <ele>19.4215087890625</ele>
        <time>2021-05-24T14:34:24Z</time>
      </trkpt>
      <trkpt lat="30.5227375447775" lon="114.39218878458115">
        <ele>20.162353515625</ele>
        <time>2021-05-24T14:34:39Z</time>
      </trkpt>
      <trkpt lat="30.522573478282595" lon="114.39219666766803">
        <ele>19.17620849609375</ele>
        <time>2021-05-24T14:34:48Z</time>
      </trkpt>
      <trkpt lat="30.52251950887878" lon="114.39221783661748">
        <ele>20.5587158203125</ele>
        <time>2021-05-24T14:34:51Z</time>
      </trkpt>
      <trkpt lat="30.522386356048017" lon="114.39223087240865">
        <ele>22.906982421875</ele>
        <time>2021-05-24T14:34:57Z</time>
      </trkpt>
      <trkpt lat="30.522238274594837" lon="114.3923128291727">
        <ele>21.577392578125</ele>
        <time>2021-05-24T14:35:06Z</time>
      </trkpt>
      <trkpt lat="30.52212923496101" lon="114.39243982513224">
        <ele>20.88134765625</ele>
        <time>2021-05-24T14:35:12Z</time>
      </trkpt>
      <trkpt lat="30.522048628635655" lon="114.39279691784579">
        <ele>21.1422119140625</ele>
        <time>2021-05-24T14:35:21Z</time>
      </trkpt>
      <trkpt lat="30.522049698074817" lon="114.39288510475106">
        <ele>23.5716552734375</ele>
        <time>2021-05-24T14:35:24Z</time>
      </trkpt>
      <trkpt lat="30.52216139368096" lon="114.39307205267048">
        <ele>24.54400634765625</ele>
        <time>2021-05-24T14:35:30Z</time>
      </trkpt>
      <trkpt lat="30.52227961249301" lon="114.3931740693048">
        <ele>24.6871337890625</ele>
        <time>2021-05-24T14:35:36Z</time>
      </trkpt>
      <trkpt lat="30.52252366987892" lon="114.39321312226588">
        <ele>23.6444091796875</ele>
        <time>2021-05-24T14:35:45Z</time>
      </trkpt>
      <trkpt lat="30.522627533407494" lon="114.39320714350043">
        <ele>23.9879150390625</ele>
        <time>2021-05-24T14:35:48Z</time>
      </trkpt>
      <trkpt lat="30.522715663061877" lon="114.3932350848073">
        <ele>22.18719482421875</ele>
        <time>2021-05-24T14:35:51Z</time>
      </trkpt>
      <trkpt lat="30.523002844097196" lon="114.39323695915692">
        <ele>24.790771484375</ele>
        <time>2021-05-24T14:36:03Z</time>
      </trkpt>
      <trkpt lat="30.52305762260486" lon="114.39323803976865">
        <ele>26.0003662109375</ele>
        <time>2021-05-24T14:36:06Z</time>
      </trkpt>
      <trkpt lat="30.523200812427138" lon="114.39320003831325">
        <ele>24.49334716796875</ele>
        <time>2021-05-24T14:36:12Z</time>
      </trkpt>
      <trkpt lat="30.523261554393972" lon="114.39321712801916">
        <ele>21.977294921875</ele>
        <time>2021-05-24T14:36:15Z</time>
      </trkpt>
      <trkpt lat="30.523473627206403" lon="114.39316094020316">
        <ele>22.6280517578125</ele>
        <time>2021-05-24T14:36:27Z</time>
      </trkpt>
      <trkpt lat="30.52357858733438" lon="114.3930808832846">
        <ele>23.8260498046875</ele>
        <time>2021-05-24T14:36:33Z</time>
      </trkpt>
      <trkpt lat="30.523625524646913" lon="114.39294276363272">
        <ele>21.92779541015625</ele>
        <time>2021-05-24T14:36:45Z</time>
      </trkpt>
      <trkpt lat="30.523629639166202" lon="114.39267494655503">
        <ele>21.41705322265625</ele>
        <time>2021-05-24T14:36:54Z</time>
      </trkpt>
      <trkpt lat="30.5235765183788" lon="114.39250780493109">
        <ele>19.09320068359375</ele>
        <time>2021-05-24T14:37:00Z</time>
      </trkpt>
      <trkpt lat="30.523446382834113" lon="114.3923428420908">
        <ele>20.71588134765625</ele>
        <time>2021-05-24T14:37:06Z</time>
      </trkpt>
      <trkpt lat="30.523376429985873" lon="114.39228179722451">
        <ele>20.2501220703125</ele>
        <time>2021-05-24T14:37:09Z</time>
      </trkpt>
      <trkpt lat="30.52323623971012" lon="114.39222862743642">
        <ele>21.4730224609375</ele>
        <time>2021-05-24T14:37:15Z</time>
      </trkpt>
      <trkpt lat="30.52296044882986" lon="114.39222485282868">
        <ele>20.4722900390625</ele>
        <time>2021-05-24T14:37:27Z</time>
      </trkpt>
      <trkpt lat="30.522646423323454" lon="114.39221077077873">
        <ele>17.64263916015625</ele>
        <time>2021-05-24T14:37:42Z</time>
      </trkpt>
      <trkpt lat="30.522337270581957" lon="114.3922387454622">
        <ele>18.3389892578125</ele>
        <time>2021-05-24T14:37:57Z</time>
      </trkpt>
      <trkpt lat="30.522216311800662" lon="114.39229790752435">
        <ele>22.2587890625</ele>
        <time>2021-05-24T14:38:03Z</time>
      </trkpt>
      <trkpt lat="30.522120293024088" lon="114.39240292379418">
        <ele>24.20684814453125</ele>
        <time>2021-05-24T14:38:09Z</time>
      </trkpt>
      <trkpt lat="30.522044605494127" lon="114.39254999659968">
        <ele>24.6298828125</ele>
        <time>2021-05-24T14:38:15Z</time>
      </trkpt>
      <trkpt lat="30.522025587320172" lon="114.39274509321406">
        <ele>26.4075927734375</ele>
        <time>2021-05-24T14:38:21Z</time>
      </trkpt>
      <trkpt lat="30.522057558589825" lon="114.39290708303614">
        <ele>24.92486572265625</ele>
        <time>2021-05-24T14:38:27Z</time>
      </trkpt>
      <trkpt lat="30.522138617342495" lon="114.39305414572429">
        <ele>22.79541015625</ele>
        <time>2021-05-24T14:38:33Z</time>
      </trkpt>
      <trkpt lat="30.522301573788962" lon="114.3932020163498">
        <ele>19.70147705078125</ele>
        <time>2021-05-24T14:38:42Z</time>
      </trkpt>
      <trkpt lat="30.52262156681218" lon="114.39321094291411">
        <ele>21.53192138671875</ele>
        <time>2021-05-24T14:38:54Z</time>
      </trkpt>
      <trkpt lat="30.522836612411698" lon="114.39322015000374">
        <ele>20.728759765625</ele>
        <time>2021-05-24T14:39:03Z</time>
      </trkpt>
      <trkpt lat="30.52294590034946" lon="114.39320901512195">
        <ele>21.23883056640625</ele>
        <time>2021-05-24T14:39:06Z</time>
      </trkpt>
      <trkpt lat="30.52307877697564" lon="114.39322392773362">
        <ele>20.1937255859375</ele>
        <time>2021-05-24T14:39:09Z</time>
      </trkpt>
      <trkpt lat="30.523288674595005" lon="114.39320410087447">
        <ele>23.1075439453125</ele>
        <time>2021-05-24T14:39:18Z</time>
      </trkpt>
      <trkpt lat="30.523535471614263" lon="114.39306786236445">
        <ele>21.8880615234375</ele>
        <time>2021-05-24T14:39:30Z</time>
      </trkpt>
      <trkpt lat="30.523584561698282" lon="114.39302986944608">
        <ele>20.21466064453125</ele>
        <time>2021-05-24T14:39:33Z</time>
      </trkpt>
      <trkpt lat="30.523660514007865" lon="114.39290178737689">
        <ele>23.347900390625</ele>
        <time>2021-05-24T14:39:39Z</time>
      </trkpt>
      <trkpt lat="30.52368466380863" lon="114.39281685432677">
        <ele>22.1373291015625</ele>
        <time>2021-05-24T14:39:42Z</time>
      </trkpt>
      <trkpt lat="30.523654584093673" lon="114.39269583775301">
        <ele>21.26611328125</ele>
        <time>2021-05-24T14:39:45Z</time>
      </trkpt>
      <trkpt lat="30.523654594397488" lon="114.39263885586125">
        <ele>21.776611328125</ele>
        <time>2021-05-24T14:39:48Z</time>
      </trkpt>
      <trkpt lat="30.523630475070526" lon="114.39255284274526">
        <ele>22.44696044921875</ele>
        <time>2021-05-24T14:39:51Z</time>
      </trkpt>
      <trkpt lat="30.523576528008707" lon="114.39245679302643">
        <ele>21.65533447265625</ele>
        <time>2021-05-24T14:39:54Z</time>
      </trkpt>
      <trkpt lat="30.52342848978612" lon="114.39231760922772">
        <ele>21.26666259765625</ele>
        <time>2021-05-24T14:40:03Z</time>
      </trkpt>
      <trkpt lat="30.523251420850116" lon="114.39225386042831">
        <ele>24.05047607421875</ele>
        <time>2021-05-24T14:40:09Z</time>
      </trkpt>
      <trkpt lat="30.5232034289158" lon="114.39221777684311">
        <ele>24.00238037109375</ele>
        <time>2021-05-24T14:40:12Z</time>
      </trkpt>
      <trkpt lat="30.522942275875472" lon="114.3922438479839">
        <ele>21.11907958984375</ele>
        <time>2021-05-24T14:40:24Z</time>
      </trkpt>
      <trkpt lat="30.522854407489724" lon="114.39227180337218">
        <ele>21.51416015625</ele>
        <time>2021-05-24T14:40:27Z</time>
      </trkpt>
      <trkpt lat="30.522572387899825" lon="114.39222488674493">
        <ele>18.9329833984375</ele>
        <time>2021-05-24T14:40:39Z</time>
      </trkpt>
      <trkpt lat="30.5224533401596" lon="114.39221974175578">
        <ele>20.13092041015625</ele>
        <time>2021-05-24T14:40:45Z</time>
      </trkpt>
      <trkpt lat="30.522234211187403" lon="114.3922908511862">
        <ele>20.635009765625</ele>
        <time>2021-05-24T14:40:57Z</time>
      </trkpt>
      <trkpt lat="30.522180239353588" lon="114.39232477310684">
        <ele>20.92926025390625</ele>
        <time>2021-05-24T14:41:00Z</time>
      </trkpt>
      <trkpt lat="30.522120294172122" lon="114.39239695433973">
        <ele>23.05682373046875</ele>
        <time>2021-05-24T14:41:03Z</time>
      </trkpt>
      <trkpt lat="30.52206955760908" lon="114.39253181459348">
        <ele>24.2755126953125</ele>
        <time>2021-05-24T14:41:09Z</time>
      </trkpt>
      <trkpt lat="30.522053496530724" lon="114.3928739792693">
        <ele>18.9654541015625</ele>
        <time>2021-05-24T14:41:24Z</time>
      </trkpt>
      <trkpt lat="30.5220955154032" lon="114.39295809273172">
        <ele>17.75238037109375</ele>
        <time>2021-05-24T14:41:30Z</time>
      </trkpt>
      <trkpt lat="30.5221744178119" lon="114.39302700787242">
        <ele>17.86871337890625</ele>
        <time>2021-05-24T14:41:36Z</time>
      </trkpt>
      <trkpt lat="30.522203692655655" lon="114.39310515341285">
        <ele>18.9658203125</ele>
        <time>2021-05-24T14:41:39Z</time>
      </trkpt>
      <trkpt lat="30.52227582429116" lon="114.39312197069658">
        <ele>17.74945068359375</ele>
        <time>2021-05-24T14:41:42Z</time>
      </trkpt>
      <trkpt lat="30.522316762327808" lon="114.39318709081343">
        <ele>17.874267578125</ele>
        <time>2021-05-24T14:41:45Z</time>
      </trkpt>
      <trkpt lat="30.522516614139025" lon="114.39324514214813">
        <ele>17.6077880859375</ele>
        <time>2021-05-24T14:41:54Z</time>
      </trkpt>
      <trkpt lat="30.522734646244558" lon="114.39323209830079">
        <ele>18.67437744140625</ele>
        <time>2021-05-24T14:42:03Z</time>
      </trkpt>
      <trkpt lat="30.522886773686874" lon="114.3932670891524">
        <ele>17.26226806640625</ele>
        <time>2021-05-24T14:42:09Z</time>
      </trkpt>
      <trkpt lat="30.522977622347057" lon="114.39324890075646">
        <ele>20.644775390625</ele>
        <time>2021-05-24T14:42:15Z</time>
      </trkpt>
      <trkpt lat="30.52314276909358" lon="114.39326706677885">
        <ele>17.5977783203125</ele>
        <time>2021-05-24T14:42:24Z</time>
      </trkpt>
      <trkpt lat="30.523343720386872" lon="114.39322987427079">
        <ele>15.888671875</ele>
        <time>2021-05-24T14:42:33Z</time>
      </trkpt>
      <trkpt lat="30.523399593845383" lon="114.39316610230179">
        <ele>17.525390625</ele>
        <time>2021-05-24T14:42:36Z</time>
      </trkpt>
      <trkpt lat="30.523502645355833" lon="114.39315008371727">
        <ele>18.21728515625</ele>
        <time>2021-05-24T14:42:39Z</time>
      </trkpt>
      <trkpt lat="30.52357262409185" lon="114.39306406025136">
        <ele>17.6636962890625</ele>
        <time>2021-05-24T14:42:45Z</time>
      </trkpt>
      <trkpt lat="30.52364451291663" lon="114.39290992913935">
        <ele>18.3916015625</ele>
        <time>2021-05-24T14:42:51Z</time>
      </trkpt>
      <trkpt lat="30.523675738390175" lon="114.39268389682825">
        <ele>21.3626708984375</ele>
        <time>2021-05-24T14:43:00Z</time>
      </trkpt>
      <trkpt lat="30.523633457159313" lon="114.39255772662027">
        <ele>18.81561279296875</ele>
        <time>2021-05-24T14:43:06Z</time>
      </trkpt>
      <trkpt lat="30.523499530549188" lon="114.39236264513556">
        <ele>19.970458984375</ele>
        <time>2021-05-24T14:43:15Z</time>
      </trkpt>
      <trkpt lat="30.523449371928457" lon="114.39231163797274">
        <ele>18.45025634765625</ele>
        <time>2021-05-24T14:43:18Z</time>
      </trkpt>
      <trkpt lat="30.523275289847582" lon="114.3922286240234">
        <ele>20.31524658203125</ele>
        <time>2021-05-24T14:43:27Z</time>
      </trkpt>
      <trkpt lat="30.523131295442642" lon="114.39221371310123">
        <ele>24.24951171875</ele>
        <time>2021-05-24T14:43:36Z</time>
      </trkpt>
      <trkpt lat="30.52308437604764" lon="114.39223868016587">
        <ele>22.600830078125</ele>
        <time>2021-05-24T14:43:39Z</time>
      </trkpt>
      <trkpt lat="30.523013330052155" lon="114.39222077815906">
        <ele>21.569091796875</ele>
        <time>2021-05-24T14:43:42Z</time>
      </trkpt>
      <trkpt lat="30.52278852050084" lon="114.39222079780737">
        <ele>22.68212890625</ele>
        <time>2021-05-24T14:43:51Z</time>
      </trkpt>
      <trkpt lat="30.522452519800147" lon="114.3922539302519">
        <ele>24.15802001953125</ele>
        <time>2021-05-24T14:44:06Z</time>
      </trkpt>
      <trkpt lat="30.52237333397871" lon="114.39225773588987">
        <ele>21.22747802734375</ele>
        <time>2021-05-24T14:44:09Z</time>
      </trkpt>
      <trkpt lat="30.5221525476967" lon="114.39248676485647">
        <ele>19.7418212890625</ele>
        <time>2021-05-24T14:44:24Z</time>
      </trkpt>
      <trkpt lat="30.52207062624161" lon="114.39261891500281">
        <ele>19.22918701171875</ele>
        <time>2021-05-24T14:44:30Z</time>
      </trkpt>
      <trkpt lat="30.522048646740277" lon="114.39269489273919">
        <ele>19.0762939453125</ele>
        <time>2021-05-24T14:44:33Z</time>
      </trkpt>
      <trkpt lat="30.522059469423677" lon="114.39283409106429">
        <ele>19.68804931640625</ele>
        <time>2021-05-24T14:44:39Z</time>
      </trkpt>
      <trkpt lat="30.522142421823006" lon="114.39300611695624">
        <ele>21.5137939453125</ele>
        <time>2021-05-24T14:44:45Z</time>
      </trkpt>
      <trkpt lat="30.52223081101052" lon="114.39310406565053">
        <ele>22.95281982421875</ele>
        <time>2021-05-24T14:44:48Z</time>
      </trkpt>
      <trkpt lat="30.52245858613896" lon="114.39321394200246">
        <ele>26.50897216796875</ele>
        <time>2021-05-24T14:44:54Z</time>
      </trkpt>
      <trkpt lat="30.52257954316866" lon="114.39315097844114">
        <ele>27.0924072265625</ele>
        <time>2021-05-24T14:44:57Z</time>
      </trkpt>
      <trkpt lat="30.522809494717922" lon="114.39321716752848">
        <ele>25.72186279296875</ele>
        <time>2021-05-24T14:45:03Z</time>
      </trkpt>
      <trkpt lat="30.522958644006827" lon="114.3932209533872">
        <ele>24.085205078125</ele>
        <time>2021-05-24T14:45:09Z</time>
      </trkpt>
      <trkpt lat="30.52318183384787" lon="114.39317399045296">
        <ele>23.66864013671875</ele>
        <time>2021-05-24T14:45:18Z</time>
      </trkpt>
      <trkpt lat="30.523277560276473" lon="114.39317805232172">
        <ele>25.234375</ele>
        <time>2021-05-24T14:45:21Z</time>
      </trkpt>
      <trkpt lat="30.523513499251212" lon="114.39310883781177">
        <ele>23.0272216796875</ele>
        <time>2021-05-24T14:45:30Z</time>
      </trkpt>
      <trkpt lat="30.5235834786336" lon="114.39301982970076">
        <ele>22.05816650390625</ele>
        <time>2021-05-24T14:45:36Z</time>
      </trkpt>
      <trkpt lat="30.52358268101627" lon="114.39292485855242">
        <ele>23.04583740234375</ele>
        <time>2021-05-24T14:45:39Z</time>
      </trkpt>
      <trkpt lat="30.523621741209933" lon="114.39286597320239">
        <ele>21.85400390625</ele>
        <time>2021-05-24T14:45:42Z</time>
      </trkpt>
      <trkpt lat="30.523660539055555" lon="114.39275770346302">
        <ele>22.08447265625</ele>
        <time>2021-05-24T14:45:45Z</time>
      </trkpt>
      <trkpt lat="30.523587351500435" lon="114.39258377939291">
        <ele>22.20220947265625</ele>
        <time>2021-05-24T14:45:51Z</time>
      </trkpt>
      <trkpt lat="30.523336558256677" lon="114.39232277268073">
        <ele>22.2806396484375</ele>
        <time>2021-05-24T14:46:03Z</time>
      </trkpt>
      <trkpt lat="30.523146198654153" lon="114.39227286321828">
        <ele>20.81768798828125</ele>
        <time>2021-05-24T14:46:12Z</time>
      </trkpt>
      <trkpt lat="30.522995419562818" lon="114.39228372988622">
        <ele>21.48028564453125</ele>
        <time>2021-05-24T14:46:18Z</time>
      </trkpt>
      <trkpt lat="30.522832446945674" lon="114.39224575694057">
        <ele>22.07952880859375</ele>
        <time>2021-05-24T14:46:24Z</time>
      </trkpt>
      <trkpt lat="30.522673531537222" lon="114.39226069436005">
        <ele>14.588623046875</ele>
        <time>2021-05-24T14:46:33Z</time>
      </trkpt>
      <trkpt lat="30.522504587498968" lon="114.3922498556478">
        <ele>15.862060546875</ele>
        <time>2021-05-24T14:46:42Z</time>
      </trkpt>
      <trkpt lat="30.522349193648886" lon="114.39228378636562">
        <ele>16.8970947265625</ele>
        <time>2021-05-24T14:46:48Z</time>
      </trkpt>
      <trkpt lat="30.522221453116384" lon="114.39235488802818">
        <ele>19.72674560546875</ele>
        <time>2021-05-24T14:46:54Z</time>
      </trkpt>
      <trkpt lat="30.522113492973823" lon="114.39251091754113">
        <ele>20.36785888671875</ele>
        <time>2021-05-24T14:47:00Z</time>
      </trkpt>
      <trkpt lat="30.522099649476182" lon="114.39258201002792">
        <ele>20.757568359375</ele>
        <time>2021-05-24T14:47:03Z</time>
      </trkpt>
      <trkpt lat="30.522057602940645" lon="114.39265500461859">
        <ele>20.51702880859375</ele>
        <time>2021-05-24T14:47:06Z</time>
      </trkpt>
      <trkpt lat="30.522084675432325" lon="114.39291494968661">
        <ele>18.3372802734375</ele>
        <time>2021-05-24T14:47:15Z</time>
      </trkpt>
      <trkpt lat="30.52212858956872" lon="114.39301805742681">
        <ele>20.6495361328125</ele>
        <time>2021-05-24T14:47:18Z</time>
      </trkpt>
      <trkpt lat="30.522220778076285" lon="114.39309918226277">
        <ele>20.51446533203125</ele>
        <time>2021-05-24T14:47:24Z</time>
      </trkpt>
      <trkpt lat="30.522370725265755" lon="114.3932011962582">
        <ele>20.5242919921875</ele>
        <time>2021-05-24T14:47:30Z</time>
      </trkpt>
      <trkpt lat="30.522503600089145" lon="114.39322804824769">
        <ele>18.9124755859375</ele>
        <time>2021-05-24T14:47:36Z</time>
      </trkpt>
      <trkpt lat="30.522655463412175" lon="114.39321799503907">
        <ele>21.00177001953125</ele>
        <time>2021-05-24T14:47:42Z</time>
      </trkpt>
      <trkpt lat="30.522715660563783" lon="114.39325109445117">
        <ele>21.4700927734375</ele>
        <time>2021-05-24T14:47:48Z</time>
      </trkpt>
      <trkpt lat="30.522889762136685" lon="114.39323208474401">
        <ele>20.82208251953125</ele>
        <time>2021-05-24T14:47:57Z</time>
      </trkpt>
      <trkpt lat="30.523090713536682" lon="114.39319489229919">
        <ele>21.4322509765625</ele>
        <time>2021-05-24T14:48:03Z</time>
      </trkpt>
      <trkpt lat="30.52320081054508" lon="114.39321197768727">
        <ele>20.94439697265625</ele>
        <time>2021-05-24T14:48:06Z</time>
      </trkpt>
      <trkpt lat="30.52338657510588" lon="114.393178856841">
        <ele>22.234619140625</ele>
        <time>2021-05-24T14:48:12Z</time>
      </trkpt>
      <trkpt lat="30.523526521473837" lon="114.39307491818528">
        <ele>21.96807861328125</ele>
        <time>2021-05-24T14:48:18Z</time>
      </trkpt>
      <trkpt lat="30.523603563691925" lon="114.39291481693827">
        <ele>21.77313232421875</ele>
        <time>2021-05-24T14:48:24Z</time>
      </trkpt>
      <trkpt lat="30.523623649556402" lon="114.39280790529962">
        <ele>19.37652587890625</ele>
        <time>2021-05-24T14:48:27Z</time>
      </trkpt>
      <trkpt lat="30.523608500903585" lon="114.39259870131812">
        <ele>20.066650390625</ele>
        <time>2021-05-24T14:48:33Z</time>
      </trkpt>
      <trkpt lat="30.52352446649737" lon="114.39242884961877">
        <ele>20.64068603515625</ele>
        <time>2021-05-24T14:48:39Z</time>
      </trkpt>
      <trkpt lat="30.523371539289027" lon="114.39232982440802">
        <ele>21.60699462890625</ele>
        <time>2021-05-24T14:48:45Z</time>
      </trkpt>
      <trkpt lat="30.52327744718984" lon="114.39228967465866">
        <ele>20.90625</ele>
        <time>2021-05-24T14:48:48Z</time>
      </trkpt>
      <trkpt lat="30.523201512045382" lon="114.39231165963598">
        <ele>22.45361328125</ele>
        <time>2021-05-24T14:48:51Z</time>
      </trkpt>
      <trkpt lat="30.523097385975817" lon="114.39227286748454">
        <ele>22.1705322265625</ele>
        <time>2021-05-24T14:48:54Z</time>
      </trkpt>
      <trkpt lat="30.522770330353655" lon="114.39232689223692">
        <ele>19.07733154296875</ele>
        <time>2021-05-24T14:49:03Z</time>
      </trkpt>
      <trkpt lat="30.522631491463503" lon="114.39229570053861">
        <ele>20.42352294921875</ele>
        <time>2021-05-24T14:49:06Z</time>
      </trkpt>
      <trkpt lat="30.52254254013896" lon="114.39231470194451">
        <ele>18.720458984375</ele>
        <time>2021-05-24T14:49:09Z</time>
      </trkpt>
      <trkpt lat="30.522329660302308" lon="114.39232584539927">
        <ele>18.48431396484375</ele>
        <time>2021-05-24T14:49:15Z</time>
      </trkpt>
      <trkpt lat="30.522150651268284" lon="114.3924769967856">
        <ele>18.0262451171875</ele>
        <time>2021-05-24T14:49:21Z</time>
      </trkpt>
      <trkpt lat="30.522088525334894" lon="114.39261294392196">
        <ele>17.6497802734375</ele>
        <time>2021-05-24T14:49:24Z</time>
      </trkpt>
      <trkpt lat="30.5220855144712" lon="114.39276788083093">
        <ele>18.60174560546875</ele>
        <time>2021-05-24T14:49:27Z</time>
      </trkpt>
      <trkpt lat="30.52212154603224" lon="114.39297491392476">
        <ele>17.98748779296875</ele>
        <time>2021-05-24T14:49:33Z</time>
      </trkpt>
      <trkpt lat="30.522249801567263" lon="114.3930560354392">
        <ele>19.90472412109375</ele>
        <time>2021-05-24T14:49:36Z</time>
      </trkpt>
      <trkpt lat="30.52235879882035" lon="114.39316619326519">
        <ele>19.2611083984375</ele>
        <time>2021-05-24T14:49:39Z</time>
      </trkpt>
      <trkpt lat="30.52244964155506" lon="114.3931859938037">
        <ele>21.28271484375</ele>
        <time>2021-05-24T14:49:42Z</time>
      </trkpt>
      <trkpt lat="30.522793507719644" lon="114.39313712096308">
        <ele>19.98077392578125</ele>
        <time>2021-05-24T14:49:51Z</time>
      </trkpt>
      <trkpt lat="30.523001768519762" lon="114.39317889047275">
        <ele>22.79254150390625</ele>
        <time>2021-05-24T14:49:57Z</time>
      </trkpt>
      <trkpt lat="30.523152816001584" lon="114.39318294750754">
        <ele>21.53533935546875</ele>
        <time>2021-05-24T14:50:03Z</time>
      </trkpt>
      <trkpt lat="30.52325071858916" lon="114.3931449501115">
        <ele>21.9605712890625</ele>
        <time>2021-05-24T14:50:06Z</time>
      </trkpt>
      <trkpt lat="30.523304682405232" lon="114.3931530858548">
        <ele>22.7264404296875</ele>
        <time>2021-05-24T14:50:09Z</time>
      </trkpt>
      <trkpt lat="30.523395533826623" lon="114.39311807396044">
        <ele>22.83343505859375</ele>
        <time>2021-05-24T14:50:12Z</time>
      </trkpt>
      <trkpt lat="30.523509718949594" lon="114.3930097963123">
        <ele>23.0875244140625</ele>
        <time>2021-05-24T14:50:18Z</time>
      </trkpt>
      <trkpt lat="30.523596536507657" lon="114.39277887386245">
        <ele>22.5142822265625</ele>
        <time>2021-05-24T14:50:27Z</time>
      </trkpt>
      <trkpt lat="30.523606337157574" lon="114.3925677686064">
        <ele>26.3248291015625</ele>
        <time>2021-05-24T14:50:33Z</time>
      </trkpt>
      <trkpt lat="30.52355944208613" lon="114.39246466336908">
        <ele>25.63330078125</ele>
        <time>2021-05-24T14:50:36Z</time>
      </trkpt>
      <trkpt lat="30.523357446104757" lon="114.392287768305">
        <ele>25.05889892578125</ele>
        <time>2021-05-24T14:50:45Z</time>
      </trkpt>
      <trkpt lat="30.523197185354984" lon="114.39224979511506">
        <ele>23.22930908203125</ele>
        <time>2021-05-24T14:50:48Z</time>
      </trkpt>
      <trkpt lat="30.522894551918267" lon="114.3922237732419">
        <ele>20.8056640625</ele>
        <time>2021-05-24T14:50:54Z</time>
      </trkpt>
      <trkpt lat="30.52277442204516" lon="114.39220587553783">
        <ele>18.60540771484375</ele>
        <time>2021-05-24T14:50:57Z</time>
      </trkpt>
      <trkpt lat="30.522589464033928" lon="114.3922666711226">
        <ele>15.989013671875</ele>
        <time>2021-05-24T14:51:03Z</time>
      </trkpt>
      <trkpt lat="30.522404248859072" lon="114.39225691917709">
        <ele>19.7685546875</ele>
        <time>2021-05-24T14:51:09Z</time>
      </trkpt>
      <trkpt lat="30.522404248859072" lon="114.39225691917709">
        <ele>19.7685546875</ele>
        <time>2021-05-24T14:51:15Z</time>
      </trkpt>
    </trkseg>
  </trk>
</gpx>