<?xml version="1.0" encoding="UTF-8"?>
<gpx xmlns="http://www.topografix.com/GPX/1/1" xmlns:gpxtpx="http://www.garmin.com/xmlschemas/TrackPointExtension/v1" xmlns:xsi="http://www.w3.org/2001/XMLSchema-instance" xsi:schemaLocation="http://www.topografix.com/GPX/1/1 http://www.topografix.com/GPX/1/1/gpx.xsd" version="1.1" creator="gpx.py -- https://github.com/tkrajina/gpxpy">
  <trk>
    <name>gpx from keep</name>
    <type>Run</type>
    <trkseg>
      <trkpt lat="31.472810866745057" lon="120.25381725121359">
        <ele>17.032074018381536</ele>
        <time>2024-09-19T13:54:52Z</time>
        <extensions>
          <gpxtpx:TrackPointExtension>
            <gpxtpx:hr>96</gpxtpx:hr>
          </gpxtpx:TrackPointExtension>
        </extensions>
      </trkpt>
      <trkpt lat="31.472824324663584" lon="120.25375974156472">
        <ele>7.90633986517787</ele>
        <time>2024-09-19T13:55:12Z</time>
        <extensions>
          <gpxtpx:TrackPointExtension>
            <gpxtpx:hr>89</gpxtpx:hr>
          </gpxtpx:TrackPointExtension>
        </extensions>
      </trkpt>
      <trkpt lat="31.472526459080456" lon="120.25368688252809">
        <ele>9.114140024408698</ele>
        <time>2024-09-19T13:55:32Z</time>
        <extensions>
          <gpxtpx:TrackPointExtension>
            <gpxtpx:hr>93</gpxtpx:hr>
          </gpxtpx:TrackPointExtension>
        </extensions>
      </trkpt>
      <trkpt lat="31.47224673530377" lon="120.25364852136086">
        <ele>8.337590467184782</ele>
        <time>2024-09-19T13:55:44Z</time>
      </trkpt>
      <trkpt lat="31.472150869474596" lon="120.2536388629332">
        <ele>8.136910553090274</ele>
        <time>2024-09-19T13:55:48Z</time>
      </trkpt>
      <trkpt lat="31.472057654347772" lon="120.25365807469137">
        <ele>8.812010229565203</ele>
        <time>2024-09-19T13:55:52Z</time>
      </trkpt>
      <trkpt lat="31.47191378159454" lon="120.25377725710551">
        <ele>9.29633263219148</ele>
        <time>2024-09-19T13:56:00Z</time>
      </trkpt>
      <trkpt lat="31.47181504612142" lon="120.25397140464625">
        <ele>7.013674985617399</ele>
        <time>2024-09-19T13:56:08Z</time>
      </trkpt>
      <trkpt lat="31.471804781023273" lon="120.25408462097592">
        <ele>8.663844339549541</ele>
        <time>2024-09-19T13:56:12Z</time>
      </trkpt>
      <trkpt lat="31.47181311339608" lon="120.25419819730298">
        <ele>9.702613047324121</ele>
        <time>2024-09-19T13:56:16Z</time>
      </trkpt>
      <trkpt lat="31.471889074568388" lon="120.2544022893102">
        <ele>11.92064489517361</ele>
        <time>2024-09-19T13:56:24Z</time>
      </trkpt>
      <trkpt lat="31.47193495954274" lon="120.25441368576459">
        <ele>9.718136424198747</ele>
        <time>2024-09-19T13:56:31Z</time>
      </trkpt>
      <trkpt lat="31.471977640769946" lon="120.25450070278193">
        <ele>8.95000721514225</ele>
        <time>2024-09-19T13:56:56Z</time>
      </trkpt>
      <trkpt lat="31.47209651618843" lon="120.25453907834509">
        <ele>7.867201767861843</ele>
        <time>2024-09-19T13:57:06Z</time>
      </trkpt>
      <trkpt lat="31.472287283029914" lon="120.25455492543482">
        <ele>8.326355212368071</ele>
        <time>2024-09-19T13:57:14Z</time>
      </trkpt>
      <trkpt lat="31.47259293788143" lon="120.25464745788133">
        <ele>9.12428209092468</ele>
        <time>2024-09-19T13:57:29Z</time>
      </trkpt>
      <trkpt lat="31.472822586621703" lon="120.25467309767639">
        <ele>8.960347007960081</ele>
        <time>2024-09-19T13:57:38Z</time>
      </trkpt>
      <trkpt lat="31.472988110732537" lon="120.25457423144914">
        <ele>10.678114756941795</ele>
        <time>2024-09-19T13:57:44Z</time>
      </trkpt>
      <trkpt lat="31.47312625269984" lon="120.25432205559545">
        <ele>6.888322655111551</ele>
        <time>2024-09-19T13:57:53Z</time>
      </trkpt>
      <trkpt lat="31.47313999319641" lon="120.25422407408287">
        <ele>8.036946387961507</ele>
        <time>2024-09-19T13:57:56Z</time>
      </trkpt>
      <trkpt lat="31.47313441445003" lon="120.2541384626555">
        <ele>9.071216109208763</ele>
        <time>2024-09-19T13:57:59Z</time>
      </trkpt>
      <trkpt lat="31.473054257322186" lon="120.25394857245057">
        <ele>10.763054955750704</ele>
        <time>2024-09-19T13:58:05Z</time>
      </trkpt>
      <trkpt lat="31.472983445355926" lon="120.25388560675356">
        <ele>9.838640360161662</ele>
        <time>2024-09-19T13:58:08Z</time>
      </trkpt>
      <trkpt lat="31.472835558634852" lon="120.25381323315254">
        <ele>8.372836328111589</ele>
        <time>2024-09-19T13:58:14Z</time>
      </trkpt>
      <trkpt lat="31.472518472077834" lon="120.25374695947826">
        <ele>7.170723563991487</ele>
        <time>2024-09-19T13:58:26Z</time>
      </trkpt>
      <trkpt lat="31.472195734125712" lon="120.25368329967031">
        <ele>7.689520299434662</ele>
        <time>2024-09-19T13:58:38Z</time>
      </trkpt>
      <trkpt lat="31.47208227052778" lon="120.2536492062991">
        <ele>7.681375385262072</ele>
        <time>2024-09-19T13:58:42Z</time>
      </trkpt>
      <trkpt lat="31.471992156525765" lon="120.2536585241454">
        <ele>8.922290018759668</ele>
        <time>2024-09-19T13:58:45Z</time>
      </trkpt>
      <trkpt lat="31.471841368656683" lon="120.25372622254932">
        <ele>8.240520468913019</ele>
        <time>2024-09-19T13:58:51Z</time>
      </trkpt>
      <trkpt lat="31.47173574185658" lon="120.25386183497957">
        <ele>8.93057410698384</ele>
        <time>2024-09-19T13:58:57Z</time>
      </trkpt>
      <trkpt lat="31.47171300060086" lon="120.25394673265404">
        <ele>8.594065790995955</ele>
        <time>2024-09-19T13:59:00Z</time>
      </trkpt>
      <trkpt lat="31.471698314065883" lon="120.25412731147566">
        <ele>10.593617158941925</ele>
        <time>2024-09-19T13:59:06Z</time>
      </trkpt>
      <trkpt lat="31.47171978322011" lon="120.25421058329349">
        <ele>8.212313825264573</ele>
        <time>2024-09-19T13:59:09Z</time>
      </trkpt>
      <trkpt lat="31.471765916129954" lon="120.2543814937808">
        <ele>7.962152655236423</ele>
        <time>2024-09-19T13:59:15Z</time>
      </trkpt>
      <trkpt lat="31.471885783529412" lon="120.25446405055506">
        <ele>11.516323736868799</ele>
        <time>2024-09-19T13:59:21Z</time>
      </trkpt>
      <trkpt lat="31.472167450093693" lon="120.25455998699574">
        <ele>9.13511854596436</ele>
        <time>2024-09-19T13:59:33Z</time>
      </trkpt>
      <trkpt lat="31.472374797256666" lon="120.25460365258496">
        <ele>8.90871662274003</ele>
        <time>2024-09-19T13:59:42Z</time>
      </trkpt>
      <trkpt lat="31.472671399691073" lon="120.25464642309159">
        <ele>8.708314693532884</ele>
        <time>2024-09-19T13:59:54Z</time>
      </trkpt>
      <trkpt lat="31.47281007668751" lon="120.25467352779646">
        <ele>9.933166391216218</ele>
        <time>2024-09-19T14:00:00Z</time>
      </trkpt>
      <trkpt lat="31.473017035463947" lon="120.25455412362653">
        <ele>10.386863144114614</ele>
        <time>2024-09-19T14:00:09Z</time>
      </trkpt>
      <trkpt lat="31.47310750982347" lon="120.25439104040305">
        <ele>10.403861006721854</ele>
        <time>2024-09-19T14:00:15Z</time>
      </trkpt>
      <trkpt lat="31.47314061169561" lon="120.25418447657232">
        <ele>10.901850164867938</ele>
        <time>2024-09-19T14:00:21Z</time>
      </trkpt>
      <trkpt lat="31.47310037865182" lon="120.25401964025326">
        <ele>7.301582410000265</ele>
        <time>2024-09-19T14:00:27Z</time>
      </trkpt>
      <trkpt lat="31.47303990957025" lon="120.25393551906738">
        <ele>9.285842104814947</ele>
        <time>2024-09-19T14:00:30Z</time>
      </trkpt>
      <trkpt lat="31.472913238375508" lon="120.25382357008753">
        <ele>9.076632618904114</ele>
        <time>2024-09-19T14:00:36Z</time>
      </trkpt>
      <trkpt lat="31.47275247781357" lon="120.25377201120722">
        <ele>7.863542246632278</ele>
        <time>2024-09-19T14:00:42Z</time>
      </trkpt>
      <trkpt lat="31.47267764153249" lon="120.25377233418885">
        <ele>7.202253325842321</ele>
        <time>2024-09-19T14:00:45Z</time>
      </trkpt>
      <trkpt lat="31.472397536256587" lon="120.2537246284079">
        <ele>9.910697513259947</ele>
        <time>2024-09-19T14:00:55Z</time>
      </trkpt>
      <trkpt lat="31.472312630654862" lon="120.25369128765641">
        <ele>8.837210224941373</ele>
        <time>2024-09-19T14:00:58Z</time>
      </trkpt>
      <trkpt lat="31.472157729817535" lon="120.25367846775012">
        <ele>8.016931335441768</ele>
        <time>2024-09-19T14:01:04Z</time>
      </trkpt>
      <trkpt lat="31.472073179277647" lon="120.25364977398912">
        <ele>9.09523877222091</ele>
        <time>2024-09-19T14:01:07Z</time>
      </trkpt>
      <trkpt lat="31.47190608148132" lon="120.25369403068673">
        <ele>7.791137360036373</ele>
        <time>2024-09-19T14:01:13Z</time>
      </trkpt>
      <trkpt lat="31.47177477598297" lon="120.25379133037349">
        <ele>6.78152762632817</ele>
        <time>2024-09-19T14:01:19Z</time>
      </trkpt>
      <trkpt lat="31.471734998285687" lon="120.25386381341453">
        <ele>6.815446613356471</ele>
        <time>2024-09-19T14:01:22Z</time>
      </trkpt>
      <trkpt lat="31.471693238848026" lon="120.25405557810346">
        <ele>6.740602503530681</ele>
        <time>2024-09-19T14:01:28Z</time>
      </trkpt>
      <trkpt lat="31.47176173549026" lon="120.25432531972677">
        <ele>11.100185227580369</ele>
        <time>2024-09-19T14:01:37Z</time>
      </trkpt>
      <trkpt lat="31.471873395241037" lon="120.25445594023964">
        <ele>10.043002074584365</ele>
        <time>2024-09-19T14:01:43Z</time>
      </trkpt>
      <trkpt lat="31.472023347945456" lon="120.25452927904733">
        <ele>10.30850334931165</ele>
        <time>2024-09-19T14:01:49Z</time>
      </trkpt>
      <trkpt lat="31.47210117629125" lon="120.25452261265947">
        <ele>12.865052809007466</ele>
        <time>2024-09-19T14:01:52Z</time>
      </trkpt>
      <trkpt lat="31.47224688419786" lon="120.2545788856502">
        <ele>9.962303601205349</ele>
        <time>2024-09-19T14:01:58Z</time>
      </trkpt>
      <trkpt lat="31.4725604931844" lon="120.25463587492762">
        <ele>10.328130815178156</ele>
        <time>2024-09-19T14:02:10Z</time>
      </trkpt>
      <trkpt lat="31.472708587770647" lon="120.2546611133735">
        <ele>9.190923437476158</ele>
        <time>2024-09-19T14:02:16Z</time>
      </trkpt>
      <trkpt lat="31.47286349113" lon="120.25463397449948">
        <ele>11.560873320326209</ele>
        <time>2024-09-19T14:02:22Z</time>
      </trkpt>
      <trkpt lat="31.47300904175385" lon="120.25454950388438">
        <ele>11.183852292597294</ele>
        <time>2024-09-19T14:02:28Z</time>
      </trkpt>
      <trkpt lat="31.473064864235077" lon="120.25447112678727">
        <ele>9.671877116896212</ele>
        <time>2024-09-19T14:02:31Z</time>
      </trkpt>
      <trkpt lat="31.473145645434656" lon="120.25419393116245">
        <ele>10.708587060682476</ele>
        <time>2024-09-19T14:02:40Z</time>
      </trkpt>
      <trkpt lat="31.473129452368987" lon="120.25408686932064">
        <ele>9.512357842177153</ele>
        <time>2024-09-19T14:02:43Z</time>
      </trkpt>
      <trkpt lat="31.47305328999175" lon="120.25392887125876">
        <ele>8.412835500203073</ele>
        <time>2024-09-19T14:02:49Z</time>
      </trkpt>
      <trkpt lat="31.472981983763574" lon="120.2538683091551">
        <ele>8.704048714600503</ele>
        <time>2024-09-19T14:02:52Z</time>
      </trkpt>
      <trkpt lat="31.472874945635272" lon="120.25380996996944">
        <ele>8.705909394659102</ele>
        <time>2024-09-19T14:02:56Z</time>
      </trkpt>
      <trkpt lat="31.472553071054953" lon="120.25374681678363">
        <ele>7.385133215226233</ele>
        <time>2024-09-19T14:03:08Z</time>
      </trkpt>
      <trkpt lat="31.47223429355592" lon="120.25368187344884">
        <ele>7.9747207425534725</ele>
        <time>2024-09-19T14:03:20Z</time>
      </trkpt>
      <trkpt lat="31.47215026390917" lon="120.25368943032275">
        <ele>9.55048684682697</ele>
        <time>2024-09-19T14:03:23Z</time>
      </trkpt>
      <trkpt lat="31.472074644489666" lon="120.25367153569006">
        <ele>10.680720861069858</ele>
        <time>2024-09-19T14:03:26Z</time>
      </trkpt>
      <trkpt lat="31.471937464907967" lon="120.25369422293886">
        <ele>8.124106915667653</ele>
        <time>2024-09-19T14:03:32Z</time>
      </trkpt>
      <trkpt lat="31.471858832523065" lon="120.253746296138">
        <ele>7.93216878734529</ele>
        <time>2024-09-19T14:03:35Z</time>
      </trkpt>
      <trkpt lat="31.471716615184132" lon="120.2539535514007">
        <ele>7.548149085603654</ele>
        <time>2024-09-19T14:03:44Z</time>
      </trkpt>
      <trkpt lat="31.471694824769287" lon="120.25411268265529">
        <ele>9.592601872980595</ele>
        <time>2024-09-19T14:03:50Z</time>
      </trkpt>
      <trkpt lat="31.471700717264408" lon="120.25420785973483">
        <ele>9.348837400786579</ele>
        <time>2024-09-19T14:03:53Z</time>
      </trkpt>
      <trkpt lat="31.47182559366357" lon="120.25442273754297">
        <ele>8.049588600173593</ele>
        <time>2024-09-19T14:04:02Z</time>
      </trkpt>
      <trkpt lat="31.47189756609071" lon="120.25451590670504">
        <ele>6.08153959736228</ele>
        <time>2024-09-19T14:04:32Z</time>
      </trkpt>
      <trkpt lat="31.472003005009242" lon="120.25455423485442">
        <ele>6.750020646490157</ele>
        <time>2024-09-19T14:04:38Z</time>
      </trkpt>
      <trkpt lat="31.472286009595095" lon="120.25460905204378">
        <ele>6.690409163013101</ele>
        <time>2024-09-19T14:04:50Z</time>
      </trkpt>
      <trkpt lat="31.472608635476085" lon="120.2546621720851">
        <ele>9.514947998337448</ele>
        <time>2024-09-19T14:05:04Z</time>
      </trkpt>
      <trkpt lat="31.472798497083485" lon="120.2546773666341">
        <ele>11.15903531666845</ele>
        <time>2024-09-19T14:05:12Z</time>
      </trkpt>
      <trkpt lat="31.47289312602089" lon="120.25465830976255">
        <ele>9.503129522316158</ele>
        <time>2024-09-19T14:05:16Z</time>
      </trkpt>
      <trkpt lat="31.472987636927037" lon="120.25459295081362">
        <ele>9.951008420437574</ele>
        <time>2024-09-19T14:05:20Z</time>
      </trkpt>
      <trkpt lat="31.473061134216216" lon="120.25450518421056">
        <ele>10.512633444741368</ele>
        <time>2024-09-19T14:05:24Z</time>
      </trkpt>
      <trkpt lat="31.473151251520964" lon="120.25430521206405">
        <ele>10.469928781501949</ele>
        <time>2024-09-19T14:05:31Z</time>
      </trkpt>
      <trkpt lat="31.473140403029767" lon="120.25410521193635">
        <ele>9.702112577855587</ele>
        <time>2024-09-19T14:05:37Z</time>
      </trkpt>
      <trkpt lat="31.47311479465109" lon="120.25402865669332">
        <ele>9.114969937130809</ele>
        <time>2024-09-19T14:05:40Z</time>
      </trkpt>
      <trkpt lat="31.47298539972537" lon="120.25385241900715">
        <ele>9.221949425525963</ele>
        <time>2024-09-19T14:05:46Z</time>
      </trkpt>
      <trkpt lat="31.472860670219728" lon="120.25378006762617">
        <ele>7.207670398056507</ele>
        <time>2024-09-19T14:05:52Z</time>
      </trkpt>
      <trkpt lat="31.47276619532506" lon="120.2537493840613">
        <ele>6.356793760322034</ele>
        <time>2024-09-19T14:05:55Z</time>
      </trkpt>
      <trkpt lat="31.47267694332653" lon="120.25377541455073">
        <ele>4.341878958046436</ele>
        <time>2024-09-19T14:05:58Z</time>
      </trkpt>
      <trkpt lat="31.47260204908481" lon="120.25373445453745">
        <ele>6.2845414243638515</ele>
        <time>2024-09-19T14:06:01Z</time>
      </trkpt>
      <trkpt lat="31.472519848443067" lon="120.25374259491906">
        <ele>6.0688994182273746</ele>
        <time>2024-09-19T14:06:04Z</time>
      </trkpt>
      <trkpt lat="31.47217672097027" lon="120.25365400845224">
        <ele>7.598460178822279</ele>
        <time>2024-09-19T14:06:16Z</time>
      </trkpt>
      <trkpt lat="31.472013562492076" lon="120.25363136604685">
        <ele>8.1556485183537</ele>
        <time>2024-09-19T14:06:22Z</time>
      </trkpt>
      <trkpt lat="31.47186147480083" lon="120.25366588307767">
        <ele>7.336464307270944</ele>
        <time>2024-09-19T14:06:28Z</time>
      </trkpt>
      <trkpt lat="31.471746947619227" lon="120.25379843003687">
        <ele>7.624178260564804</ele>
        <time>2024-09-19T14:06:34Z</time>
      </trkpt>
      <trkpt lat="31.47165960390371" lon="120.25410390257787">
        <ele>8.549213674850762</ele>
        <time>2024-09-19T14:06:43Z</time>
      </trkpt>
      <trkpt lat="31.47174555123346" lon="120.25439119277945">
        <ele>9.977839381434023</ele>
        <time>2024-09-19T14:06:52Z</time>
      </trkpt>
      <trkpt lat="31.4720332562293" lon="120.25454674500392">
        <ele>8.986778900958598</ele>
        <time>2024-09-19T14:07:04Z</time>
      </trkpt>
      <trkpt lat="31.472225539883386" lon="120.25460976770164">
        <ele>9.513516114093363</ele>
        <time>2024-09-19T14:07:12Z</time>
      </trkpt>
      <trkpt lat="31.472326114025414" lon="120.25460701008397">
        <ele>11.377497768960893</ele>
        <time>2024-09-19T14:07:16Z</time>
      </trkpt>
      <trkpt lat="31.47262344772815" lon="120.25468740346196">
        <ele>10.07385430764407</ele>
        <time>2024-09-19T14:07:28Z</time>
      </trkpt>
      <trkpt lat="31.47279780631642" lon="120.2547165400645">
        <ele>8.31566428951919</ele>
        <time>2024-09-19T14:07:35Z</time>
      </trkpt>
      <trkpt lat="31.472962369405924" lon="120.2546207962296">
        <ele>10.865571814589202</ele>
        <time>2024-09-19T14:07:41Z</time>
      </trkpt>
      <trkpt lat="31.473033301211498" lon="120.25455851977992">
        <ele>8.728619051165879</ele>
        <time>2024-09-19T14:07:44Z</time>
      </trkpt>
      <trkpt lat="31.47313445138139" lon="120.25438411976832">
        <ele>9.734683705493808</ele>
        <time>2024-09-19T14:07:50Z</time>
      </trkpt>
      <trkpt lat="31.473136000413884" lon="120.2541565082602">
        <ele>8.158010080456734</ele>
        <time>2024-09-19T14:08:11Z</time>
      </trkpt>
      <trkpt lat="31.473130188174927" lon="120.25406946729159">
        <ele>8.049787038937211</ele>
        <time>2024-09-19T14:08:17Z</time>
      </trkpt>
      <trkpt lat="31.473106791696114" lon="120.25400615546214">
        <ele>8.046935030259192</ele>
        <time>2024-09-19T14:08:20Z</time>
      </trkpt>
      <trkpt lat="31.472974246342883" lon="120.25383855568532">
        <ele>7.221266754902899</ele>
        <time>2024-09-19T14:08:29Z</time>
      </trkpt>
      <trkpt lat="31.47285043834265" lon="120.25376846012821">
        <ele>6.699891650117934</ele>
        <time>2024-09-19T14:08:35Z</time>
      </trkpt>
      <trkpt lat="31.472567581155328" lon="120.25372945776019">
        <ele>7.414920103736222</ele>
        <time>2024-09-19T14:08:47Z</time>
      </trkpt>
      <trkpt lat="31.4723010833662" lon="120.2536750429592">
        <ele>7.943025754764676</ele>
        <time>2024-09-19T14:08:59Z</time>
      </trkpt>
      <trkpt lat="31.471995778549957" lon="120.25361865473572">
        <ele>6.767646032385528</ele>
        <time>2024-09-19T14:09:20Z</time>
      </trkpt>
      <trkpt lat="31.471961942486683" lon="120.25365520355909">
        <ele>6.130162701942027</ele>
        <time>2024-09-19T14:09:24Z</time>
      </trkpt>
      <trkpt lat="31.47184728229814" lon="120.25366118234966">
        <ele>7.399220695719123</ele>
        <time>2024-09-19T14:09:32Z</time>
      </trkpt>
      <trkpt lat="31.471822793203817" lon="120.25371774799243">
        <ele>6.021620220504701</ele>
        <time>2024-09-19T14:09:36Z</time>
      </trkpt>
      <trkpt lat="31.47173515003713" lon="120.25378750191325">
        <ele>6.767193395644426</ele>
        <time>2024-09-19T14:09:44Z</time>
      </trkpt>
      <trkpt lat="31.47167291709772" lon="120.2539563969363">
        <ele>5.131161013618112</ele>
        <time>2024-09-19T14:09:56Z</time>
      </trkpt>
      <trkpt lat="31.471669013663405" lon="120.25416934400573">
        <ele>5.280716262757778</ele>
        <time>2024-09-19T14:10:08Z</time>
      </trkpt>
      <trkpt lat="31.47169708897967" lon="120.25427924146507">
        <ele>5.174278700724244</ele>
        <time>2024-09-19T14:10:14Z</time>
      </trkpt>
      <trkpt lat="31.471786624848676" lon="120.25441991951307">
        <ele>4.809587594121695</ele>
        <time>2024-09-19T14:10:23Z</time>
      </trkpt>
      <trkpt lat="31.47193817536808" lon="120.25451630856432">
        <ele>4.85909762326628</ele>
        <time>2024-09-19T14:10:32Z</time>
      </trkpt>
      <trkpt lat="31.4723115801975" lon="120.25461374298925">
        <ele>10.504095657728612</ele>
        <time>2024-09-19T14:10:50Z</time>
      </trkpt>
      <trkpt lat="31.472546889207834" lon="120.25466452512184">
        <ele>9.773520514369011</ele>
        <time>2024-09-19T14:10:59Z</time>
      </trkpt>
      <trkpt lat="31.47279178407287" lon="120.25468556763262">
        <ele>10.127334428019822</ele>
        <time>2024-09-19T14:11:08Z</time>
      </trkpt>
      <trkpt lat="31.472883933556695" lon="120.25466581661996">
        <ele>10.014743081294</ele>
        <time>2024-09-19T14:11:11Z</time>
      </trkpt>
      <trkpt lat="31.473045814524085" lon="120.25452915323342">
        <ele>12.3460011780262</ele>
        <time>2024-09-19T14:11:18Z</time>
      </trkpt>
      <trkpt lat="31.473134628595886" lon="120.25434052084744">
        <ele>10.092108850367367</ele>
        <time>2024-09-19T14:11:24Z</time>
      </trkpt>
      <trkpt lat="31.47315792340596" lon="120.25424509699282">
        <ele>10.532728834077716</ele>
        <time>2024-09-19T14:11:27Z</time>
      </trkpt>
      <trkpt lat="31.47312772695717" lon="120.25403599593491">
        <ele>9.98897473141551</ele>
        <time>2024-09-19T14:11:33Z</time>
      </trkpt>
      <trkpt lat="31.473097856912293" lon="120.25395520239302">
        <ele>9.82725182455033</ele>
        <time>2024-09-19T14:11:36Z</time>
      </trkpt>
      <trkpt lat="31.473039418153952" lon="120.25389000338606">
        <ele>11.438216052949429</ele>
        <time>2024-09-19T14:11:39Z</time>
      </trkpt>
      <trkpt lat="31.472776768508236" lon="120.25374687447928">
        <ele>8.385255480185151</ele>
        <time>2024-09-19T14:11:51Z</time>
      </trkpt>
      <trkpt lat="31.472560738549024" lon="120.25370479597323">
        <ele>8.0398107515648</ele>
        <time>2024-09-19T14:12:00Z</time>
      </trkpt>
      <trkpt lat="31.47246940891476" lon="120.25370996694845">
        <ele>8.200582621619105</ele>
        <time>2024-09-19T14:12:03Z</time>
      </trkpt>
      <trkpt lat="31.472228940332315" lon="120.25362771946871">
        <ele>6.943398801609874</ele>
        <time>2024-09-19T14:12:15Z</time>
      </trkpt>
      <trkpt lat="31.472104067229026" lon="120.2536306186549">
        <ele>5.977093627676368</ele>
        <time>2024-09-19T14:12:27Z</time>
      </trkpt>
      <trkpt lat="31.472034136320097" lon="120.25361228531894">
        <ele>6.204636681824923</ele>
        <time>2024-09-19T14:12:33Z</time>
      </trkpt>
      <trkpt lat="31.471955525777826" lon="120.25362242031132">
        <ele>7.292881567031145</ele>
        <time>2024-09-19T14:12:39Z</time>
      </trkpt>
      <trkpt lat="31.471940763462122" lon="120.2536791335757">
        <ele>5.076475950889289</ele>
        <time>2024-09-19T14:12:45Z</time>
      </trkpt>
      <trkpt lat="31.471874259566313" lon="120.25367216916668">
        <ele>5.434761127457023</ele>
        <time>2024-09-19T14:12:48Z</time>
      </trkpt>
      <trkpt lat="31.4718307777514" lon="120.25369799041204">
        <ele>5.653199605643749</ele>
        <time>2024-09-19T14:12:51Z</time>
      </trkpt>
      <trkpt lat="31.471676707307633" lon="120.25389853862896">
        <ele>6.172988025471568</ele>
        <time>2024-09-19T14:13:09Z</time>
      </trkpt>
      <trkpt lat="31.471654155524135" lon="120.2539898651629">
        <ele>6.28603825904429</ele>
        <time>2024-09-19T14:13:15Z</time>
      </trkpt>
      <trkpt lat="31.471711781949175" lon="120.25427268173837">
        <ele>3.368290006183088</ele>
        <time>2024-09-19T14:13:33Z</time>
      </trkpt>
      <trkpt lat="31.471785315183762" lon="120.25440375024891">
        <ele>4.718850538134575</ele>
        <time>2024-09-19T14:13:42Z</time>
      </trkpt>
      <trkpt lat="31.471929781055678" lon="120.25451942743564">
        <ele>6.772000554017723</ele>
        <time>2024-09-19T14:13:51Z</time>
      </trkpt>
      <trkpt lat="31.472148399247526" lon="120.25456946763285">
        <ele>9.340768807567656</ele>
        <time>2024-09-19T14:14:00Z</time>
      </trkpt>
      <trkpt lat="31.47228606533714" lon="120.25463321068439">
        <ele>8.245588690973818</ele>
        <time>2024-09-19T14:14:06Z</time>
      </trkpt>
      <trkpt lat="31.4725184683418" lon="120.25468412205598">
        <ele>5.792141436599195</ele>
        <time>2024-09-19T14:14:15Z</time>
      </trkpt>
      <trkpt lat="31.47279838520878" lon="120.25468376387755">
        <ele>8.857669626362622</ele>
        <time>2024-09-19T14:14:27Z</time>
      </trkpt>
      <trkpt lat="31.472884023767634" lon="120.25467599969222">
        <ele>9.154866129159927</ele>
        <time>2024-09-19T14:14:30Z</time>
      </trkpt>
      <trkpt lat="31.473012266878474" lon="120.2545813967555">
        <ele>7.742801986634731</ele>
        <time>2024-09-19T14:14:36Z</time>
      </trkpt>
      <trkpt lat="31.473068477982242" lon="120.25451464690023">
        <ele>7.104947611689568</ele>
        <time>2024-09-19T14:14:39Z</time>
      </trkpt>
      <trkpt lat="31.473144258180188" lon="120.25434790783848">
        <ele>8.041938351467252</ele>
        <time>2024-09-19T14:14:45Z</time>
      </trkpt>
      <trkpt lat="31.473150107254572" lon="120.25405099063015">
        <ele>9.098122727125883</ele>
        <time>2024-09-19T14:14:54Z</time>
      </trkpt>
      <trkpt lat="31.47312293561926" lon="120.25395303953435">
        <ele>8.109883197583258</ele>
        <time>2024-09-19T14:14:57Z</time>
      </trkpt>
      <trkpt lat="31.472988356016238" lon="120.25375590493184">
        <ele>4.762063268572092</ele>
        <time>2024-09-19T14:15:15Z</time>
      </trkpt>
      <trkpt lat="31.472812903986544" lon="120.25359238558063">
        <ele>6.712020414881408</ele>
        <time>2024-09-19T14:15:34Z</time>
      </trkpt>
      <trkpt lat="31.472852016851277" lon="120.25363634062987">
        <ele>4.824273379519582</ele>
        <time>2024-09-19T14:15:50Z</time>
      </trkpt>
      <trkpt lat="31.472795929006445" lon="120.25374808129604">
        <ele>6.636833256110549</ele>
        <time>2024-09-19T14:16:02Z</time>
      </trkpt>
      <trkpt lat="31.472784083300954" lon="120.25380603039184">
        <ele>6.672329233959317</ele>
        <time>2024-09-19T14:16:08Z</time>
      </trkpt>
      <trkpt lat="31.47291073160185" lon="120.25385099943992">
        <ele>6.194010623730719</ele>
        <time>2024-09-19T14:16:20Z</time>
      </trkpt>
      <trkpt lat="31.473064000754114" lon="120.25401955436456">
        <ele>6.704654203727841</ele>
        <time>2024-09-19T14:16:38Z</time>
      </trkpt>
      <trkpt lat="31.47313756325148" lon="120.25425113223811">
        <ele>5.894556003622711</ele>
        <time>2024-09-19T14:16:56Z</time>
      </trkpt>
      <trkpt lat="31.473063590556894" lon="120.25446323772925">
        <ele>6.405421388335526</ele>
        <time>2024-09-19T14:17:20Z</time>
      </trkpt>
    </trkseg>
  </trk>
</gpx>