<?xml version="1.0" encoding="UTF-8"?>
<gpx xmlns="http://www.topografix.com/GPX/1/1" xmlns:gpxtpx="http://www.garmin.com/xmlschemas/TrackPointExtension/v1" xmlns:xsi="http://www.w3.org/2001/XMLSchema-instance" xsi:schemaLocation="http://www.topografix.com/GPX/1/1 http://www.topografix.com/GPX/1/1/gpx.xsd" version="1.1" creator="gpx.py -- https://github.com/tkrajina/gpxpy">
  <trk>
    <name>gpx from keep</name>
    <type>Run</type>
    <trkseg>
      <trkpt lat="36.03051261735778" lon="119.41519236658209">
        <ele>0.0</ele>
        <time>2024-04-12T01:15:32Z</time>
      </trkpt>
      <trkpt lat="36.03039139957844" lon="119.41607961042547">
        <ele>0.0</ele>
        <time>2024-04-12T01:17:04Z</time>
      </trkpt>
      <trkpt lat="36.030271751593" lon="119.41644914933411">
        <ele>0.0</ele>
        <time>2024-04-12T01:17:10Z</time>
      </trkpt>
      <trkpt lat="36.030297265430555" lon="119.4170269836166">
        <ele>0.0</ele>
        <time>2024-04-12T01:17:58Z</time>
      </trkpt>
      <trkpt lat="36.03023458743509" lon="119.41736148382884">
        <ele>0.0</ele>
        <time>2024-04-12T01:18:07Z</time>
      </trkpt>
      <trkpt lat="36.030718546126025" lon="119.41743654117559">
        <ele>0.0</ele>
        <time>2024-04-12T01:18:40Z</time>
      </trkpt>
      <trkpt lat="36.03067222236492" lon="119.41707401059104">
        <ele>59.72821044921875</ele>
        <time>2024-04-12T01:19:01Z</time>
      </trkpt>
      <trkpt lat="36.030683339375635" lon="119.41699653741179">
        <ele>60.23876953125</ele>
        <time>2024-04-12T01:19:04Z</time>
      </trkpt>
      <trkpt lat="36.030717085224644" lon="119.41693480180007">
        <ele>63.08978271484375</ele>
        <time>2024-04-12T01:19:13Z</time>
      </trkpt>
      <trkpt lat="36.03066378813768" lon="119.41659130964561">
        <ele>63.02392578125</ele>
        <time>2024-04-12T01:19:37Z</time>
      </trkpt>
      <trkpt lat="36.030714697054044" lon="119.41650217577119">
        <ele>63.6536865234375</ele>
        <time>2024-04-12T01:19:43Z</time>
      </trkpt>
      <trkpt lat="36.03072965357646" lon="119.41644752542157">
        <ele>63.8011474609375</ele>
        <time>2024-04-12T01:19:46Z</time>
      </trkpt>
      <trkpt lat="36.03072518290561" lon="119.41639560495081">
        <ele>64.3487548828125</ele>
        <time>2024-04-12T01:19:49Z</time>
      </trkpt>
      <trkpt lat="36.03071667746794" lon="119.41633436178675">
        <ele>62.86907958984375</ele>
        <time>2024-04-12T01:19:52Z</time>
      </trkpt>
      <trkpt lat="36.03070745793078" lon="119.4161274459974">
        <ele>63.707763671875</ele>
        <time>2024-04-12T01:20:04Z</time>
      </trkpt>
      <trkpt lat="36.03072709215287" lon="119.41605791980989">
        <ele>64.6566162109375</ele>
        <time>2024-04-12T01:20:10Z</time>
      </trkpt>
      <trkpt lat="36.030737905076926" lon="119.41609456797049">
        <ele>65.0538330078125</ele>
        <time>2024-04-12T01:20:13Z</time>
      </trkpt>
      <trkpt lat="36.03071159465588" lon="119.41613232578607">
        <ele>64.7913818359375</ele>
        <time>2024-04-12T01:20:19Z</time>
      </trkpt>
      <trkpt lat="36.03068350966046" lon="119.41613553290583">
        <ele>63.1341552734375</ele>
        <time>2024-04-12T01:20:25Z</time>
      </trkpt>
      <trkpt lat="36.03064661905018" lon="119.41607696706637">
        <ele>63.8590087890625</ele>
        <time>2024-04-12T01:20:37Z</time>
      </trkpt>
      <trkpt lat="36.03064008056282" lon="119.4159144730716">
        <ele>61.87261962890625</ele>
        <time>2024-04-12T01:20:49Z</time>
      </trkpt>
      <trkpt lat="36.030688219470804" lon="119.41580961425608">
        <ele>60.77496337890625</ele>
        <time>2024-04-12T01:20:55Z</time>
      </trkpt>
      <trkpt lat="36.03074433801088" lon="119.4157778252377">
        <ele>60.95281982421875</ele>
        <time>2024-04-12T01:20:58Z</time>
      </trkpt>
      <trkpt lat="36.03078200622523" lon="119.4157384953884">
        <ele>59.29840087890625</ele>
        <time>2024-04-12T01:21:01Z</time>
      </trkpt>
      <trkpt lat="36.03080804542855" lon="119.41567306055074">
        <ele>57.0787353515625</ele>
        <time>2024-04-12T01:21:04Z</time>
      </trkpt>
      <trkpt lat="36.03081039037569" lon="119.41558680950395">
        <ele>62.82293701171875</ele>
        <time>2024-04-12T01:21:10Z</time>
      </trkpt>
      <trkpt lat="36.03082609959482" lon="119.4155018408659">
        <ele>62.7904052734375</ele>
        <time>2024-04-12T01:21:16Z</time>
      </trkpt>
      <trkpt lat="36.0308234516204" lon="119.41540823233798">
        <ele>63.62579345703125</ele>
        <time>2024-04-12T01:21:22Z</time>
      </trkpt>
      <trkpt lat="36.03074857185606" lon="119.41508074065332">
        <ele>64.43505859375</ele>
        <time>2024-04-12T01:21:43Z</time>
      </trkpt>
      <trkpt lat="36.03071608694472" lon="119.4150109403572">
        <ele>65.1331787109375</ele>
        <time>2024-04-12T01:21:49Z</time>
      </trkpt>
      <trkpt lat="36.03066666395426" lon="119.41486270769491">
        <ele>63.73284912109375</ele>
        <time>2024-04-12T01:22:01Z</time>
      </trkpt>
      <trkpt lat="36.03066451469183" lon="119.41468458212229">
        <ele>64.34576416015625</ele>
        <time>2024-04-12T01:22:10Z</time>
      </trkpt>
      <trkpt lat="36.03069482823908" lon="119.4146010110081">
        <ele>63.947021484375</ele>
        <time>2024-04-12T01:22:16Z</time>
      </trkpt>
      <trkpt lat="36.03076454879695" lon="119.41455462876135">
        <ele>63.5399169921875</ele>
        <time>2024-04-12T01:22:22Z</time>
      </trkpt>
      <trkpt lat="36.031084930898665" lon="119.41451138838245">
        <ele>62.29180908203125</ele>
        <time>2024-04-12T01:22:46Z</time>
      </trkpt>
      <trkpt lat="36.03111690514923" lon="119.41448835433991">
        <ele>61.6505126953125</ele>
        <time>2024-04-12T01:22:49Z</time>
      </trkpt>
      <trkpt lat="36.03114092766908" lon="119.41452339800277">
        <ele>63.75140380859375</ele>
        <time>2024-04-12T01:23:13Z</time>
      </trkpt>
      <trkpt lat="36.03120875267392" lon="119.4143231264309">
        <ele>61.65679931640625</ele>
        <time>2024-04-12T01:23:25Z</time>
      </trkpt>
      <trkpt lat="36.031237611945095" lon="119.414152900612">
        <ele>64.3487548828125</ele>
        <time>2024-04-12T01:23:37Z</time>
      </trkpt>
      <trkpt lat="36.0312436019381" lon="119.41414188559428">
        <ele>63.02410888671875</ele>
        <time>2024-04-12T01:23:52Z</time>
      </trkpt>
      <trkpt lat="36.03148059945473" lon="119.4142079451847">
        <ele>60.6651611328125</ele>
        <time>2024-04-12T01:24:04Z</time>
      </trkpt>
      <trkpt lat="36.03158556829347" lon="119.41419892164274">
        <ele>63.82769775390625</ele>
        <time>2024-04-12T01:24:10Z</time>
      </trkpt>
      <trkpt lat="36.03161452549207" lon="119.41415285832812">
        <ele>60.63275146484375</ele>
        <time>2024-04-12T01:24:13Z</time>
      </trkpt>
      <trkpt lat="36.03158833818508" lon="119.41390453950454">
        <ele>63.80938720703125</ele>
        <time>2024-04-12T01:24:28Z</time>
      </trkpt>
      <trkpt lat="36.031625095039736" lon="119.41359814318973">
        <ele>71.30889892578125</ele>
        <time>2024-04-12T01:24:46Z</time>
      </trkpt>
      <trkpt lat="36.0316108618275" lon="119.41328374788122">
        <ele>63.3736572265625</ele>
        <time>2024-04-12T01:25:04Z</time>
      </trkpt>
      <trkpt lat="36.03161878266475" lon="119.41317961677066">
        <ele>64.53082275390625</ele>
        <time>2024-04-12T01:25:10Z</time>
      </trkpt>
      <trkpt lat="36.03172449734146" lon="119.41282316381198">
        <ele>58.5633544921875</ele>
        <time>2024-04-12T01:25:34Z</time>
      </trkpt>
      <trkpt lat="36.03173429233294" lon="119.41254081842825">
        <ele>67.266357421875</ele>
        <time>2024-04-12T01:25:52Z</time>
      </trkpt>
      <trkpt lat="36.03172222618289" lon="119.41244370240537">
        <ele>64.8233642578125</ele>
        <time>2024-04-12T01:25:58Z</time>
      </trkpt>
      <trkpt lat="36.03164112992575" lon="119.41228051547156">
        <ele>60.264892578125</ele>
        <time>2024-04-12T01:26:10Z</time>
      </trkpt>
      <trkpt lat="36.03165808964691" lon="119.41222845134868">
        <ele>60.7061767578125</ele>
        <time>2024-04-12T01:26:13Z</time>
      </trkpt>
      <trkpt lat="36.03165889081262" lon="119.41194111062656">
        <ele>65.34539794921875</ele>
        <time>2024-04-12T01:26:31Z</time>
      </trkpt>
      <trkpt lat="36.03167581722369" lon="119.41183898879723">
        <ele>65.95220947265625</ele>
        <time>2024-04-12T01:26:37Z</time>
      </trkpt>
      <trkpt lat="36.03164368792783" lon="119.41163675664544">
        <ele>66.7412109375</ele>
        <time>2024-04-12T01:26:49Z</time>
      </trkpt>
      <trkpt lat="36.03164662428486" lon="119.41154264740047">
        <ele>65.84710693359375</ele>
        <time>2024-04-12T01:26:55Z</time>
      </trkpt>
      <trkpt lat="36.03170241449501" lon="119.41124429918553">
        <ele>63.61431884765625</ele>
        <time>2024-04-12T01:27:13Z</time>
      </trkpt>
      <trkpt lat="36.03174512559436" lon="119.41081080655452">
        <ele>61.62939453125</ele>
        <time>2024-04-12T01:27:37Z</time>
      </trkpt>
      <trkpt lat="36.03175085485688" lon="119.41037933095161">
        <ele>64.295654296875</ele>
        <time>2024-04-12T01:28:01Z</time>
      </trkpt>
      <trkpt lat="36.0317577797458" lon="119.41025919982174">
        <ele>63.25665283203125</ele>
        <time>2024-04-12T01:28:13Z</time>
      </trkpt>
      <trkpt lat="36.03179468149927" lon="119.41011103604349">
        <ele>62.3865966796875</ele>
        <time>2024-04-12T01:28:22Z</time>
      </trkpt>
      <trkpt lat="36.03178362273187" lon="119.41000892799285">
        <ele>65.001953125</ele>
        <time>2024-04-12T01:28:28Z</time>
      </trkpt>
      <trkpt lat="36.03170645757796" lon="119.40969960918896">
        <ele>66.74249267578125</ele>
        <time>2024-04-12T01:28:46Z</time>
      </trkpt>
      <trkpt lat="36.031710262195546" lon="119.40936225783726">
        <ele>65.91119384765625</ele>
        <time>2024-04-12T01:29:04Z</time>
      </trkpt>
      <trkpt lat="36.031735044432374" lon="119.40898386915103">
        <ele>68.62042236328125</ele>
        <time>2024-04-12T01:29:25Z</time>
      </trkpt>
      <trkpt lat="36.0317838479857" lon="119.40864352353067">
        <ele>65.608154296875</ele>
        <time>2024-04-12T01:29:43Z</time>
      </trkpt>
      <trkpt lat="36.03183860963654" lon="119.40821509858624">
        <ele>63.5545654296875</ele>
        <time>2024-04-12T01:30:07Z</time>
      </trkpt>
      <trkpt lat="36.031893435659455" lon="119.40789878993567">
        <ele>71.93408203125</ele>
        <time>2024-04-12T01:30:25Z</time>
      </trkpt>
      <trkpt lat="36.031894382807415" lon="119.40779369057806">
        <ele>71.487548828125</ele>
        <time>2024-04-12T01:30:31Z</time>
      </trkpt>
      <trkpt lat="36.031857329784735" lon="119.4076695783373">
        <ele>68.934814453125</ele>
        <time>2024-04-12T01:30:37Z</time>
      </trkpt>
      <trkpt lat="36.03188127323217" lon="119.40756547869933">
        <ele>65.58056640625</ele>
        <time>2024-04-12T01:30:43Z</time>
      </trkpt>
      <trkpt lat="36.03192923056923" lon="119.4075004130348">
        <ele>63.9283447265625</ele>
        <time>2024-04-12T01:30:46Z</time>
      </trkpt>
      <trkpt lat="36.03196615406608" lon="119.40735927895614">
        <ele>61.724365234375</ele>
        <time>2024-04-12T01:30:58Z</time>
      </trkpt>
      <trkpt lat="36.03193012697829" lon="119.40728521526314">
        <ele>64.044921875</ele>
        <time>2024-04-12T01:31:04Z</time>
      </trkpt>
      <trkpt lat="36.031872122697" lon="119.40724818802381">
        <ele>63.61553955078125</ele>
        <time>2024-04-12T01:31:10Z</time>
      </trkpt>
      <trkpt lat="36.03184209790168" lon="119.40718113047558">
        <ele>64.46649169921875</ele>
        <time>2024-04-12T01:31:25Z</time>
      </trkpt>
      <trkpt lat="36.0317630906331" lon="119.40712709043348">
        <ele>62.79864501953125</ele>
        <time>2024-04-12T01:31:28Z</time>
      </trkpt>
      <trkpt lat="36.03169107117753" lon="119.40705002906144">
        <ele>62.74688720703125</ele>
        <time>2024-04-12T01:31:31Z</time>
      </trkpt>
      <trkpt lat="36.031595079249335" lon="119.40702001286907">
        <ele>59.70849609375</ele>
        <time>2024-04-12T01:31:40Z</time>
      </trkpt>
      <trkpt lat="36.03140724831926" lon="119.407288276709">
        <ele>64.4019775390625</ele>
        <time>2024-04-12T01:32:01Z</time>
      </trkpt>
      <trkpt lat="36.03136434847239" lon="119.40747645425893">
        <ele>64.08349609375</ele>
        <time>2024-04-12T01:32:13Z</time>
      </trkpt>
      <trkpt lat="36.031280411524605" lon="119.40756654708787">
        <ele>63.2745361328125</ele>
        <time>2024-04-12T01:32:22Z</time>
      </trkpt>
      <trkpt lat="36.031235459598264" lon="119.4076436238593">
        <ele>62.832275390625</ele>
        <time>2024-04-12T01:32:28Z</time>
      </trkpt>
      <trkpt lat="36.03117948771628" lon="119.40767465911485">
        <ele>62.215576171875</ele>
        <time>2024-04-12T01:32:34Z</time>
      </trkpt>
      <trkpt lat="36.03103252340535" lon="119.40767867935644">
        <ele>62.48712158203125</ele>
        <time>2024-04-12T01:32:46Z</time>
      </trkpt>
      <trkpt lat="36.030744555514914" lon="119.40760964725959">
        <ele>60.1981201171875</ele>
        <time>2024-04-12T01:33:10Z</time>
      </trkpt>
      <trkpt lat="36.03055060934913" lon="119.40762868674652">
        <ele>61.39886474609375</ele>
        <time>2024-04-12T01:33:25Z</time>
      </trkpt>
      <trkpt lat="36.03040067530455" lon="119.40769276339633">
        <ele>62.90472412109375</ele>
        <time>2024-04-12T01:33:37Z</time>
      </trkpt>
      <trkpt lat="36.03031270440028" lon="119.40771079013805">
        <ele>61.30389404296875</ele>
        <time>2024-04-12T01:33:43Z</time>
      </trkpt>
      <trkpt lat="36.03018476654455" lon="119.40777686649997">
        <ele>56.9068603515625</ele>
        <time>2024-04-12T01:33:56Z</time>
      </trkpt>
      <trkpt lat="36.029946920659086" lon="119.40797508068964">
        <ele>55.22027587890625</ele>
        <time>2024-04-12T01:34:17Z</time>
      </trkpt>
      <trkpt lat="36.029709014456024" lon="119.40805218091293">
        <ele>56.36444091796875</ele>
        <time>2024-04-12T01:34:35Z</time>
      </trkpt>
      <trkpt lat="36.02955305128719" lon="119.40805420033485">
        <ele>56.65313720703125</ele>
        <time>2024-04-12T01:34:47Z</time>
      </trkpt>
      <trkpt lat="36.02935212096408" lon="119.40810026697582">
        <ele>59.15869140625</ele>
        <time>2024-04-12T01:34:59Z</time>
      </trkpt>
      <trkpt lat="36.02904616871469" lon="119.40805625914923">
        <ele>58.014404296875</ele>
        <time>2024-04-12T01:35:14Z</time>
      </trkpt>
      <trkpt lat="36.028801207135146" lon="119.40802125318089">
        <ele>55.480712890625</ele>
        <time>2024-04-12T01:35:26Z</time>
      </trkpt>
      <trkpt lat="36.02854819391922" lon="119.40788014747022">
        <ele>52.6177978515625</ele>
        <time>2024-04-12T01:35:38Z</time>
      </trkpt>
      <trkpt lat="36.0283181673979" lon="119.40772102342017">
        <ele>51.44488525390625</ele>
        <time>2024-04-12T01:35:50Z</time>
      </trkpt>
      <trkpt lat="36.02812508878476" lon="119.40746981144159">
        <ele>53.1219482421875</ele>
        <time>2024-04-12T01:36:02Z</time>
      </trkpt>
      <trkpt lat="36.02809206306426" lon="119.40740075154775">
        <ele>53.782958984375</ele>
        <time>2024-04-12T01:36:05Z</time>
      </trkpt>
      <trkpt lat="36.02787002300923" lon="119.4072096018348">
        <ele>54.58221435546875</ele>
        <time>2024-04-12T01:36:17Z</time>
      </trkpt>
      <trkpt lat="36.027769986347415" lon="119.40708249809605">
        <ele>56.649169921875</ele>
        <time>2024-04-12T01:36:26Z</time>
      </trkpt>
      <trkpt lat="36.027617875127596" lon="119.40676423133405">
        <ele>61.51318359375</ele>
        <time>2024-04-12T01:36:50Z</time>
      </trkpt>
      <trkpt lat="36.02739680276731" lon="119.40648801447759">
        <ele>62.3599853515625</ele>
        <time>2024-04-12T01:37:14Z</time>
      </trkpt>
      <trkpt lat="36.02729178879397" lon="119.4064009509873">
        <ele>63.3944091796875</ele>
        <time>2024-04-12T01:37:23Z</time>
      </trkpt>
      <trkpt lat="36.027254758234065" lon="119.40631087772334">
        <ele>60.34039306640625</ele>
        <time>2024-04-12T01:37:29Z</time>
      </trkpt>
      <trkpt lat="36.02728172146608" lon="119.4062398139455">
        <ele>58.84832763671875</ele>
        <time>2024-04-12T01:37:35Z</time>
      </trkpt>
      <trkpt lat="36.02706165498263" lon="119.40596260438507">
        <ele>54.18609619140625</ele>
        <time>2024-04-12T01:37:56Z</time>
      </trkpt>
      <trkpt lat="36.02704263817476" lon="119.4059115638647">
        <ele>55.41143798828125</ele>
        <time>2024-04-12T01:37:59Z</time>
      </trkpt>
      <trkpt lat="36.02700463368444" lon="119.4058795414429">
        <ele>56.11572265625</ele>
        <time>2024-04-12T01:38:02Z</time>
      </trkpt>
      <trkpt lat="36.026890594046" lon="119.40571842085502">
        <ele>59.66168212890625</ele>
        <time>2024-04-12T01:38:14Z</time>
      </trkpt>
      <trkpt lat="36.026823584807396" lon="119.40565737822446">
        <ele>56.99151611328125</ele>
        <time>2024-04-12T01:38:20Z</time>
      </trkpt>
      <trkpt lat="36.02669651319232" lon="119.4054031859337">
        <ele>62.04278564453125</ele>
        <time>2024-04-12T01:38:38Z</time>
      </trkpt>
      <trkpt lat="36.02661548404104" lon="119.40528009632585">
        <ele>62.85028076171875</ele>
        <time>2024-04-12T01:38:47Z</time>
      </trkpt>
      <trkpt lat="36.0264244547478" lon="119.40508796541893">
        <ele>63.86737060546875</ele>
        <time>2024-04-12T01:39:05Z</time>
      </trkpt>
      <trkpt lat="36.026363412727136" lon="119.4049378547061">
        <ele>66.375244140625</ele>
        <time>2024-04-12T01:39:17Z</time>
      </trkpt>
      <trkpt lat="36.02634538372214" lon="119.40484778680533">
        <ele>64.726806640625</ele>
        <time>2024-04-12T01:39:23Z</time>
      </trkpt>
      <trkpt lat="36.0264172417233" lon="119.40449751118861">
        <ele>63.611328125</ele>
        <time>2024-04-12T01:39:47Z</time>
      </trkpt>
      <trkpt lat="36.026458201620365" lon="119.40440944041661">
        <ele>63.18682861328125</ele>
        <time>2024-04-12T01:39:53Z</time>
      </trkpt>
      <trkpt lat="36.026427145740705" lon="119.40422530696455">
        <ele>60.4212646484375</ele>
        <time>2024-04-12T01:40:05Z</time>
      </trkpt>
      <trkpt lat="36.026428081382264" lon="119.40403316601892">
        <ele>61.805419921875</ele>
        <time>2024-04-12T01:40:17Z</time>
      </trkpt>
      <trkpt lat="36.02640103154943" lon="119.40386104466567">
        <ele>60.31793212890625</ele>
        <time>2024-04-12T01:40:26Z</time>
      </trkpt>
      <trkpt lat="36.02646793146204" lon="119.40359284668624">
        <ele>64.343505859375</ele>
        <time>2024-04-12T01:40:44Z</time>
      </trkpt>
      <trkpt lat="36.026464871962744" lon="119.4033957096231">
        <ele>65.14862060546875</ele>
        <time>2024-04-12T01:40:56Z</time>
      </trkpt>
      <trkpt lat="36.02652885032929" lon="119.4033726865405">
        <ele>61.01361083984375</ele>
        <time>2024-04-12T01:41:02Z</time>
      </trkpt>
      <trkpt lat="36.02657785744826" lon="119.4034337232698">
        <ele>63.29547119140625</ele>
        <time>2024-04-12T01:41:08Z</time>
      </trkpt>
      <trkpt lat="36.02657487516622" lon="119.40348976256112">
        <ele>62.776123046875</ele>
        <time>2024-04-12T01:41:11Z</time>
      </trkpt>
      <trkpt lat="36.02652890815406" lon="119.4035628187724">
        <ele>62.5220947265625</ele>
        <time>2024-04-12T01:41:17Z</time>
      </trkpt>
      <trkpt lat="36.02645301380086" lon="119.4038430259086">
        <ele>68.73785400390625</ele>
        <time>2024-04-12T01:41:35Z</time>
      </trkpt>
      <trkpt lat="36.026481058993234" lon="119.40400213752716">
        <ele>67.327392578125</ele>
        <time>2024-04-12T01:41:47Z</time>
      </trkpt>
      <trkpt lat="36.02652205844388" lon="119.40402915255524">
        <ele>65.24041748046875</ele>
        <time>2024-04-12T01:41:50Z</time>
      </trkpt>
      <trkpt lat="36.0265261368793" lon="119.40426632619685">
        <ele>65.2359619140625</ele>
        <time>2024-04-12T01:42:14Z</time>
      </trkpt>
      <trkpt lat="36.02657813958803" lon="119.404309352288">
        <ele>64.49078369140625</ele>
        <time>2024-04-12T01:42:20Z</time>
      </trkpt>
      <trkpt lat="36.02661819234158" lon="119.40448848183858">
        <ele>62.625732421875</ele>
        <time>2024-04-12T01:42:29Z</time>
      </trkpt>
      <trkpt lat="36.026664203556834" lon="119.40455052352742">
        <ele>65.510009765625</ele>
        <time>2024-04-12T01:42:35Z</time>
      </trkpt>
      <trkpt lat="36.02670522750025" lon="119.4046445903765">
        <ele>61.57293701171875</ele>
        <time>2024-04-12T01:42:41Z</time>
      </trkpt>
      <trkpt lat="36.026710325522984" lon="119.40491780017838">
        <ele>63.88299560546875</ele>
        <time>2024-04-12T01:42:59Z</time>
      </trkpt>
      <trkpt lat="36.026750341547945" lon="119.40498584874635">
        <ele>61.1119384765625</ele>
        <time>2024-04-12T01:43:05Z</time>
      </trkpt>
      <trkpt lat="36.02683134047704" lon="119.40503287648049">
        <ele>63.20074462890625</ele>
        <time>2024-04-12T01:43:11Z</time>
      </trkpt>
      <trkpt lat="36.026973381339594" lon="119.40522701387832">
        <ele>64.16448974609375</ele>
        <time>2024-04-12T01:43:26Z</time>
      </trkpt>
      <trkpt lat="36.02698940035367" lon="119.4052860591407">
        <ele>62.07525634765625</ele>
        <time>2024-04-12T01:43:32Z</time>
      </trkpt>
      <trkpt lat="36.02717946172108" lon="119.40555425406599">
        <ele>63.9307861328125</ele>
        <time>2024-04-12T01:43:56Z</time>
      </trkpt>
      <trkpt lat="36.0273584909121" lon="119.40572937739154">
        <ele>60.364990234375</ele>
        <time>2024-04-12T01:44:14Z</time>
      </trkpt>
      <trkpt lat="36.02751947139919" lon="119.40577239482697">
        <ele>64.21392822265625</ele>
        <time>2024-04-12T01:44:26Z</time>
      </trkpt>
      <trkpt lat="36.027590447339925" lon="119.40575337115558">
        <ele>61.70404052734375</ele>
        <time>2024-04-12T01:44:32Z</time>
      </trkpt>
      <trkpt lat="36.02767129413249" lon="119.40541608697588">
        <ele>60.99896240234375</ele>
        <time>2024-04-12T01:44:56Z</time>
      </trkpt>
      <trkpt lat="36.027783146830124" lon="119.40509982233343">
        <ele>59.12261962890625</ele>
        <time>2024-04-12T01:45:20Z</time>
      </trkpt>
      <trkpt lat="36.0278890093984" lon="119.40479457252937">
        <ele>59.60284423828125</ele>
        <time>2024-04-12T01:45:44Z</time>
      </trkpt>
      <trkpt lat="36.02806587141563" lon="119.4045223449602">
        <ele>60.63287353515625</ele>
        <time>2024-04-12T01:46:08Z</time>
      </trkpt>
      <trkpt lat="36.02828173562038" lon="119.4042731342642">
        <ele>61.189208984375</ele>
        <time>2024-04-12T01:46:32Z</time>
      </trkpt>
      <trkpt lat="36.028526615460926" lon="119.40408296686128">
        <ele>59.662353515625</ele>
        <time>2024-04-12T01:46:56Z</time>
      </trkpt>
      <trkpt lat="36.02866156034078" lon="119.40400989850062">
        <ele>59.12060546875</ele>
        <time>2024-04-12T01:47:08Z</time>
      </trkpt>
      <trkpt lat="36.02870753013684" lon="119.40394984983301">
        <ele>60.07000732421875</ele>
        <time>2024-04-12T01:47:14Z</time>
      </trkpt>
      <trkpt lat="36.028736495931476" lon="119.40386478529763">
        <ele>60.32122802734375</ele>
        <time>2024-04-12T01:47:20Z</time>
      </trkpt>
      <trkpt lat="36.028749365547206" lon="119.40345749610411">
        <ele>61.35894775390625</ele>
        <time>2024-04-12T01:47:50Z</time>
      </trkpt>
      <trkpt lat="36.0287312683729" lon="119.40311526361558">
        <ele>61.79638671875</ele>
        <time>2024-04-12T01:48:14Z</time>
      </trkpt>
      <trkpt lat="36.02868823237183" lon="119.40295416034328">
        <ele>62.48272705078125</ele>
        <time>2024-04-12T01:48:26Z</time>
      </trkpt>
      <trkpt lat="36.02844123973701" lon="119.4027760702719">
        <ele>63.93377685546875</ele>
        <time>2024-04-12T01:48:50Z</time>
      </trkpt>
      <trkpt lat="36.02822422763386" lon="119.40254494443495">
        <ele>63.40618896484375</ele>
        <time>2024-04-12T01:49:14Z</time>
      </trkpt>
      <trkpt lat="36.02811120036129" lon="119.40233882572814">
        <ele>61.720703125</ele>
        <time>2024-04-12T01:49:32Z</time>
      </trkpt>
      <trkpt lat="36.028020162373004" lon="119.40210168775216">
        <ele>60.5537109375</ele>
        <time>2024-04-12T01:49:50Z</time>
      </trkpt>
      <trkpt lat="36.02795209356576" lon="119.40174247696508">
        <ele>60.1861572265625</ele>
        <time>2024-04-12T01:50:14Z</time>
      </trkpt>
      <trkpt lat="36.02795501864578" lon="119.40140427764615">
        <ele>59.42730712890625</ele>
        <time>2024-04-12T01:50:38Z</time>
      </trkpt>
      <trkpt lat="36.027929002598675" lon="119.40129922006616">
        <ele>58.92718505859375</ele>
        <time>2024-04-12T01:50:44Z</time>
      </trkpt>
      <trkpt lat="36.0277910037045" lon="119.40114915021402">
        <ele>60.5989990234375</ele>
        <time>2024-04-12T01:50:56Z</time>
      </trkpt>
      <trkpt lat="36.02751303065352" lon="119.40096107625459">
        <ele>60.30303955078125</ele>
        <time>2024-04-12T01:51:20Z</time>
      </trkpt>
      <trkpt lat="36.027265061917554" lon="119.40082502926118">
        <ele>59.59320068359375</ele>
        <time>2024-04-12T01:51:41Z</time>
      </trkpt>
      <trkpt lat="36.0269761083228" lon="119.40071600248254">
        <ele>62.8944091796875</ele>
        <time>2024-04-12T01:52:02Z</time>
      </trkpt>
      <trkpt lat="36.026690160963824" lon="119.4006429953031">
        <ele>62.014404296875</ele>
        <time>2024-04-12T01:52:23Z</time>
      </trkpt>
      <trkpt lat="36.026371231485534" lon="119.40062702254822">
        <ele>55.95501708984375</ele>
        <time>2024-04-12T01:52:47Z</time>
      </trkpt>
      <trkpt lat="36.02605031228056" lon="119.40066607950754">
        <ele>58.427490234375</ele>
        <time>2024-04-12T01:53:11Z</time>
      </trkpt>
      <trkpt lat="36.02574037931925" lon="119.40064210142977">
        <ele>59.1583251953125</ele>
        <time>2024-04-12T01:53:35Z</time>
      </trkpt>
      <trkpt lat="36.02541644855893" lon="119.40061212174842">
        <ele>59.12158203125</ele>
        <time>2024-04-12T01:53:59Z</time>
      </trkpt>
      <trkpt lat="36.02509051516467" lon="119.400564132762">
        <ele>60.92529296875</ele>
        <time>2024-04-12T01:54:23Z</time>
      </trkpt>
      <trkpt lat="36.025017525885595" lon="119.40052912238241">
        <ele>63.37786865234375</ele>
        <time>2024-04-12T01:54:29Z</time>
      </trkpt>
      <trkpt lat="36.024828564570996" lon="119.40050112879109">
        <ele>64.2369384765625</ele>
        <time>2024-04-12T01:54:44Z</time>
      </trkpt>
      <trkpt lat="36.02454760400449" lon="119.40035108174942">
        <ele>62.65625</ele>
        <time>2024-04-12T01:55:08Z</time>
      </trkpt>
      <trkpt lat="36.02429863077794" lon="119.40016101197806">
        <ele>63.21258544921875</ele>
        <time>2024-04-12T01:55:32Z</time>
      </trkpt>
      <trkpt lat="36.02404765461308" lon="119.39993692755489">
        <ele>64.8397216796875</ele>
        <time>2024-04-12T01:55:56Z</time>
      </trkpt>
      <trkpt lat="36.02380867751331" lon="119.39970984315764">
        <ele>65.80218505859375</ele>
        <time>2024-04-12T01:56:20Z</time>
      </trkpt>
      <trkpt lat="36.023818662561304" lon="119.39961579682365">
        <ele>65.42840576171875</ele>
        <time>2024-04-12T01:56:26Z</time>
      </trkpt>
      <trkpt lat="36.024148580751444" lon="119.39957173878187">
        <ele>63.3056640625</ele>
        <time>2024-04-12T01:56:47Z</time>
      </trkpt>
      <trkpt lat="36.024427524666706" lon="119.39963373706883">
        <ele>64.18426513671875</ele>
        <time>2024-04-12T01:57:11Z</time>
      </trkpt>
      <trkpt lat="36.024697474388596" lon="119.3997217491548">
        <ele>62.5028076171875</ele>
        <time>2024-04-12T01:57:32Z</time>
      </trkpt>
      <trkpt lat="36.024949435432895" lon="119.39985778724578">
        <ele>63.35137939453125</ele>
        <time>2024-04-12T01:57:53Z</time>
      </trkpt>
      <trkpt lat="36.0252613831994" lon="119.39999181864191">
        <ele>65.64666748046875</ele>
        <time>2024-04-12T01:58:17Z</time>
      </trkpt>
      <trkpt lat="36.02559630849046" lon="119.40000778902831">
        <ele>64.946044921875</ele>
        <time>2024-04-12T01:58:41Z</time>
      </trkpt>
      <trkpt lat="36.02590622809807" lon="119.39994672380291">
        <ele>63.11090087890625</ele>
        <time>2024-04-12T01:59:05Z</time>
      </trkpt>
      <trkpt lat="36.026056193734824" lon="119.399947707458">
        <ele>61.67742919921875</ele>
        <time>2024-04-12T01:59:17Z</time>
      </trkpt>
      <trkpt lat="36.02625613336984" lon="119.39984863607309">
        <ele>60.6741943359375</ele>
        <time>2024-04-12T01:59:35Z</time>
      </trkpt>
      <trkpt lat="36.02654706486966" lon="119.39983759799657">
        <ele>62.02081298828125</ele>
        <time>2024-04-12T01:59:59Z</time>
      </trkpt>
      <trkpt lat="36.02668104151393" lon="119.39988960854984">
        <ele>63.89813232421875</ele>
        <time>2024-04-12T02:00:11Z</time>
      </trkpt>
      <trkpt lat="36.02678703451482" lon="119.40000765530283">
        <ele>62.38916015625</ele>
        <time>2024-04-12T02:00:23Z</time>
      </trkpt>
      <trkpt lat="36.0268510259808" lon="119.40004866868034">
        <ele>62.89697265625</ele>
        <time>2024-04-12T02:00:29Z</time>
      </trkpt>
      <trkpt lat="36.02699899286226" lon="119.40005465507969">
        <ele>63.49365234375</ele>
        <time>2024-04-12T02:00:41Z</time>
      </trkpt>
      <trkpt lat="36.027062973156994" lon="119.4000216313237">
        <ele>62.70062255859375</ele>
        <time>2024-04-12T02:00:47Z</time>
      </trkpt>
      <trkpt lat="36.0271339554811" lon="119.40001261884314">
        <ele>62.97174072265625</ele>
        <time>2024-04-12T02:00:53Z</time>
      </trkpt>
      <trkpt lat="36.02720294474761" lon="119.40004662815119">
        <ele>63.0440673828125</ele>
        <time>2024-04-12T02:00:59Z</time>
      </trkpt>
      <trkpt lat="36.02726294013141" lon="119.40010665167118">
        <ele>61.58538818359375</ele>
        <time>2024-04-12T02:01:05Z</time>
      </trkpt>
      <trkpt lat="36.02731995099314" lon="119.40025872282963">
        <ele>64.623046875</ele>
        <time>2024-04-12T02:01:14Z</time>
      </trkpt>
      <trkpt lat="36.02741294478512" lon="119.40035176048274">
        <ele>67.33203125</ele>
        <time>2024-04-12T02:01:23Z</time>
      </trkpt>
      <trkpt lat="36.027551921820894" lon="119.40040577302535">
        <ele>63.823486328125</ele>
        <time>2024-04-12T02:01:35Z</time>
      </trkpt>
      <trkpt lat="36.027616918209816" lon="119.40047280088235">
        <ele>64.85693359375</ele>
        <time>2024-04-12T02:01:41Z</time>
      </trkpt>
      <trkpt lat="36.02780492579144" lon="119.4007599332289">
        <ele>66.698486328125</ele>
        <time>2024-04-12T02:02:05Z</time>
      </trkpt>
      <trkpt lat="36.02788990680904" lon="119.40076292531342">
        <ele>67.8948974609375</ele>
        <time>2024-04-12T02:02:11Z</time>
      </trkpt>
      <trkpt lat="36.02796787795704" lon="119.40070288407956">
        <ele>64.64752197265625</ele>
        <time>2024-04-12T02:02:17Z</time>
      </trkpt>
      <trkpt lat="36.028094812989586" lon="119.40049976144877">
        <ele>64.35418701171875</ele>
        <time>2024-04-12T02:02:32Z</time>
      </trkpt>
      <trkpt lat="36.028153789884726" lon="119.40044372533742">
        <ele>65.22393798828125</ele>
        <time>2024-04-12T02:02:38Z</time>
      </trkpt>
      <trkpt lat="36.02819578806906" lon="119.40048974482944">
        <ele>66.798583984375</ele>
        <time>2024-04-12T02:02:59Z</time>
      </trkpt>
      <trkpt lat="36.02835172407629" lon="119.40032163947811">
        <ele>63.6513671875</ele>
        <time>2024-04-12T02:03:14Z</time>
      </trkpt>
      <trkpt lat="36.02842170293817" lon="119.40029061558415">
        <ele>65.56524658203125</ele>
        <time>2024-04-12T02:03:20Z</time>
      </trkpt>
      <trkpt lat="36.028476682236466" lon="119.40024058366146">
        <ele>64.334228515625</ele>
        <time>2024-04-12T02:03:26Z</time>
      </trkpt>
      <trkpt lat="36.02862264027065" lon="119.40018754012928">
        <ele>63.457763671875</ele>
        <time>2024-04-12T02:03:39Z</time>
      </trkpt>
      <trkpt lat="36.028683615626896" lon="119.40011949869283">
        <ele>60.75006103515625</ele>
        <time>2024-04-12T02:03:45Z</time>
      </trkpt>
      <trkpt lat="36.028754597619475" lon="119.40010848514973">
        <ele>57.75238037109375</ele>
        <time>2024-04-12T02:03:51Z</time>
      </trkpt>
      <trkpt lat="36.02897955607603" lon="119.40017349289923">
        <ele>67.5521240234375</ele>
        <time>2024-04-12T02:04:09Z</time>
      </trkpt>
      <trkpt lat="36.02904853881802" lon="119.40016448056555">
        <ele>68.11456298828125</ele>
        <time>2024-04-12T02:04:15Z</time>
      </trkpt>
      <trkpt lat="36.02910453529137" lon="119.40022350442094">
        <ele>67.21685791015625</ele>
        <time>2024-04-12T02:04:21Z</time>
      </trkpt>
      <trkpt lat="36.02942448292975" lon="119.40035353559799">
        <ele>70.22607421875</ele>
        <time>2024-04-12T02:04:51Z</time>
      </trkpt>
      <trkpt lat="36.02955246589723" lon="119.40042755985138">
        <ele>67.40625</ele>
        <time>2024-04-12T02:05:03Z</time>
      </trkpt>
      <trkpt lat="36.029608462209595" lon="119.40048158194502">
        <ele>65.6612548828125</ele>
        <time>2024-04-12T02:05:09Z</time>
      </trkpt>
      <trkpt lat="36.029799465969575" lon="119.40075070433154">
        <ele>65.6820068359375</ele>
        <time>2024-04-12T02:05:33Z</time>
      </trkpt>
      <trkpt lat="36.029888472349086" lon="119.400894773012">
        <ele>64.0037841796875</ele>
        <time>2024-04-12T02:05:45Z</time>
      </trkpt>
      <trkpt lat="36.02995046802696" lon="119.40094679474775">
        <ele>64.7542724609375</ele>
        <time>2024-04-12T02:05:51Z</time>
      </trkpt>
      <trkpt lat="36.03008947716312" lon="119.40115589602246">
        <ele>64.9207763671875</ele>
        <time>2024-04-12T02:06:09Z</time>
      </trkpt>
      <trkpt lat="36.030168533852915" lon="119.40151409309648">
        <ele>63.9693603515625</ele>
        <time>2024-04-12T02:06:33Z</time>
      </trkpt>
      <trkpt lat="36.03018557198417" lon="119.40170420343077">
        <ele>64.1986083984375</ele>
        <time>2024-04-12T02:06:45Z</time>
      </trkpt>
      <trkpt lat="36.03023657503098" lon="119.40176923657175">
        <ele>63.0679931640625</ele>
        <time>2024-04-12T02:06:51Z</time>
      </trkpt>
      <trkpt lat="36.030297570895144" lon="119.401812255566">
        <ele>60.4739990234375</ele>
        <time>2024-04-12T02:06:57Z</time>
      </trkpt>
      <trkpt lat="36.03052052365132" lon="119.40182924077178">
        <ele>61.3182373046875</ele>
        <time>2024-04-12T02:07:12Z</time>
      </trkpt>
      <trkpt lat="36.0305525436485" lon="119.40194630814017">
        <ele>63.75396728515625</ele>
        <time>2024-04-12T02:07:24Z</time>
      </trkpt>
      <trkpt lat="36.030542559722086" lon="119.40200434472781">
        <ele>65.58819580078125</ele>
        <time>2024-04-12T02:07:27Z</time>
      </trkpt>
      <trkpt lat="36.030564588555" lon="119.40214442864665">
        <ele>64.04205322265625</ele>
        <time>2024-04-12T02:07:36Z</time>
      </trkpt>
      <trkpt lat="36.030548660298784" lon="119.40241560082151">
        <ele>63.57745361328125</ele>
        <time>2024-04-12T02:07:54Z</time>
      </trkpt>
      <trkpt lat="36.03048873789851" lon="119.40265876387127">
        <ele>67.43548583984375</ele>
        <time>2024-04-12T02:08:09Z</time>
      </trkpt>
      <trkpt lat="36.03048179402624" lon="119.40285889582067">
        <ele>70.99346923828125</ele>
        <time>2024-04-12T02:08:21Z</time>
      </trkpt>
      <trkpt lat="36.03037991656814" lon="119.40320714090541">
        <ele>63.06988525390625</ele>
        <time>2024-04-12T02:08:42Z</time>
      </trkpt>
      <trkpt lat="36.030357949325946" lon="119.40330120766174">
        <ele>61.03515625</ele>
        <time>2024-04-12T02:08:48Z</time>
      </trkpt>
      <trkpt lat="36.03036500097236" lon="119.40347832928668">
        <ele>60.92413330078125</ele>
        <time>2024-04-12T02:09:00Z</time>
      </trkpt>
      <trkpt lat="36.030386024697165" lon="119.40357139195929">
        <ele>62.1885986328125</ele>
        <time>2024-04-12T02:09:06Z</time>
      </trkpt>
      <trkpt lat="36.030384066965" lon="119.4037054867473">
        <ele>66.653076171875</ele>
        <time>2024-04-12T02:09:15Z</time>
      </trkpt>
      <trkpt lat="36.03040208404156" lon="119.40377253239055">
        <ele>70.26751708984375</ele>
        <time>2024-04-12T02:09:18Z</time>
      </trkpt>
      <trkpt lat="36.03045709604287" lon="119.40384958130868">
        <ele>70.9290771484375</ele>
        <time>2024-04-12T02:09:24Z</time>
      </trkpt>
      <trkpt lat="36.03058717878656" lon="119.40419181548472">
        <ele>65.355712890625</ele>
        <time>2024-04-12T02:09:45Z</time>
      </trkpt>
      <trkpt lat="36.0307252642451" lon="119.40453205389962">
        <ele>58.7996826171875</ele>
        <time>2024-04-12T02:10:09Z</time>
      </trkpt>
      <trkpt lat="36.030810295556" lon="119.40467515311182">
        <ele>59.45098876953125</ele>
        <time>2024-04-12T02:10:21Z</time>
      </trkpt>
      <trkpt lat="36.03087234329876" lon="119.40484627772855">
        <ele>52.42791748046875</ele>
        <time>2024-04-12T02:10:33Z</time>
      </trkpt>
      <trkpt lat="36.03091335005095" lon="119.40489030725091">
        <ele>56.69378662109375</ele>
        <time>2024-04-12T02:10:36Z</time>
      </trkpt>
      <trkpt lat="36.03096340182375" lon="119.40506043452078">
        <ele>51.12030029296875</ele>
        <time>2024-04-12T02:10:48Z</time>
      </trkpt>
      <trkpt lat="36.03101841828083" lon="119.40513748907576">
        <ele>56.8087158203125</ele>
        <time>2024-04-12T02:10:54Z</time>
      </trkpt>
      <trkpt lat="36.03111349115868" lon="119.40538367469198">
        <ele>54.76202392578125</ele>
        <time>2024-04-12T02:11:09Z</time>
      </trkpt>
      <trkpt lat="36.031127528788105" lon="119.40548775713751">
        <ele>55.1474609375</ele>
        <time>2024-04-12T02:11:15Z</time>
      </trkpt>
      <trkpt lat="36.03111064995535" lon="119.40577999823363">
        <ele>53.8436279296875</ele>
        <time>2024-04-12T02:11:33Z</time>
      </trkpt>
      <trkpt lat="36.03112372867441" lon="119.40597816172688">
        <ele>55.7239990234375</ele>
        <time>2024-04-12T02:11:45Z</time>
      </trkpt>
      <trkpt lat="36.03111476930092" lon="119.40607024014204">
        <ele>56.051025390625</ele>
        <time>2024-04-12T02:11:51Z</time>
      </trkpt>
      <trkpt lat="36.03112780866715" lon="119.40617032336553">
        <ele>55.8106689453125</ele>
        <time>2024-04-12T02:11:57Z</time>
      </trkpt>
      <trkpt lat="36.03119287632958" lon="119.40636248025777">
        <ele>59.6339111328125</ele>
        <time>2024-04-12T02:12:09Z</time>
      </trkpt>
      <trkpt lat="36.03120991389954" lon="119.40645756036592">
        <ele>59.57708740234375</ele>
        <time>2024-04-12T02:12:15Z</time>
      </trkpt>
      <trkpt lat="36.03135198700953" lon="119.40669575215831">
        <ele>60.974365234375</ele>
        <time>2024-04-12T02:12:33Z</time>
      </trkpt>
      <trkpt lat="36.031579052855285" lon="119.40695495640955">
        <ele>65.0140380859375</ele>
        <time>2024-04-12T02:12:57Z</time>
      </trkpt>
      <trkpt lat="36.0316210742159" lon="119.40702201174683">
        <ele>63.4967041015625</ele>
        <time>2024-04-12T02:13:03Z</time>
      </trkpt>
      <trkpt lat="36.031636156925906" lon="119.4072061762988">
        <ele>65.3575439453125</ele>
        <time>2024-04-12T02:13:15Z</time>
      </trkpt>
      <trkpt lat="36.03160021597938" lon="119.40731327789753">
        <ele>66.2427978515625</ele>
        <time>2024-04-12T02:13:21Z</time>
      </trkpt>
      <trkpt lat="36.0315872697933" lon="119.40741937664679">
        <ele>65.29608154296875</ele>
        <time>2024-04-12T02:13:27Z</time>
      </trkpt>
      <trkpt lat="36.03158445338251" lon="119.40779272443136">
        <ele>64.70489501953125</ele>
        <time>2024-04-12T02:13:51Z</time>
      </trkpt>
      <trkpt lat="36.03157354590457" lon="119.40797189522286">
        <ele>64.74700927734375</ele>
        <time>2024-04-12T02:14:03Z</time>
      </trkpt>
      <trkpt lat="36.031648707291" lon="119.40831922070734">
        <ele>65.98504638671875</ele>
        <time>2024-04-12T02:14:24Z</time>
      </trkpt>
      <trkpt lat="36.03165476418723" lon="119.40843032829501">
        <ele>65.6146240234375</ele>
        <time>2024-04-12T02:14:30Z</time>
      </trkpt>
      <trkpt lat="36.031564933203306" lon="119.40870861262268">
        <ele>60.1217041015625</ele>
        <time>2024-04-12T02:14:48Z</time>
      </trkpt>
      <trkpt lat="36.03154014460918" lon="119.40908399232693">
        <ele>58.97021484375</ele>
        <time>2024-04-12T02:15:06Z</time>
      </trkpt>
      <trkpt lat="36.031568255002924" lon="119.40929220169863">
        <ele>64.7384033203125</ele>
        <time>2024-04-12T02:15:18Z</time>
      </trkpt>
      <trkpt lat="36.0315593202031" lon="119.40940331712824">
        <ele>65.28997802734375</ele>
        <time>2024-04-12T02:15:24Z</time>
      </trkpt>
      <trkpt lat="36.031601430959206" lon="119.40961252976238">
        <ele>67.1490478515625</ele>
        <time>2024-04-12T02:15:36Z</time>
      </trkpt>
      <trkpt lat="36.03160549536582" lon="119.40972464681292">
        <ele>66.42071533203125</ele>
        <time>2024-04-12T02:15:42Z</time>
      </trkpt>
      <trkpt lat="36.0315336376674" lon="119.409937880327">
        <ele>69.6776123046875</ele>
        <time>2024-04-12T02:15:54Z</time>
      </trkpt>
      <trkpt lat="36.031402742480985" lon="119.4100630285301">
        <ele>57.75701904296875</ele>
        <time>2024-04-12T02:16:06Z</time>
      </trkpt>
      <trkpt lat="36.03139297641327" lon="119.41044344097638">
        <ele>57.92083740234375</ele>
        <time>2024-04-12T02:16:24Z</time>
      </trkpt>
      <trkpt lat="36.03132320967455" lon="119.4107908316328">
        <ele>52.86871337890625</ele>
        <time>2024-04-12T02:16:45Z</time>
      </trkpt>
      <trkpt lat="36.031307457434295" lon="119.41117126051579">
        <ele>55.94873046875</ele>
        <time>2024-04-12T02:17:06Z</time>
      </trkpt>
      <trkpt lat="36.031349555815126" lon="119.41133644381438">
        <ele>52.7061767578125</ele>
        <time>2024-04-12T02:17:15Z</time>
      </trkpt>
      <trkpt lat="36.03135762202839" lon="119.41143956106852">
        <ele>57.215576171875</ele>
        <time>2024-04-12T02:17:21Z</time>
      </trkpt>
      <trkpt lat="36.031329691635776" lon="119.41153467372132">
        <ele>55.83160400390625</ele>
        <time>2024-04-12T02:17:27Z</time>
      </trkpt>
      <trkpt lat="36.03131789931543" lon="119.41183902896223">
        <ele>53.9591064453125</ele>
        <time>2024-04-12T02:17:45Z</time>
      </trkpt>
      <trkpt lat="36.031353963493295" lon="119.41194514955984">
        <ele>58.46331787109375</ele>
        <time>2024-04-12T02:17:51Z</time>
      </trkpt>
      <trkpt lat="36.031368088606065" lon="119.41213136823913">
        <ele>60.67706298828125</ele>
        <time>2024-04-12T02:18:03Z</time>
      </trkpt>
      <trkpt lat="36.03138814318053" lon="119.41221646730378">
        <ele>60.24383544921875</ele>
        <time>2024-04-12T02:18:09Z</time>
      </trkpt>
      <trkpt lat="36.03133818749889" lon="119.41226352910749">
        <ele>62.1199951171875</ele>
        <time>2024-04-12T02:18:15Z</time>
      </trkpt>
      <trkpt lat="36.03134724932492" lon="119.41235463725751">
        <ele>65.924560546875</ele>
        <time>2024-04-12T02:18:21Z</time>
      </trkpt>
      <trkpt lat="36.03130938907468" lon="119.41253986489335">
        <ele>63.82464599609375</ele>
        <time>2024-04-12T02:18:30Z</time>
      </trkpt>
      <trkpt lat="36.031245532724185" lon="119.41272009128019">
        <ele>65.84405517578125</ele>
        <time>2024-04-12T02:18:42Z</time>
      </trkpt>
      <trkpt lat="36.031263570464255" lon="119.41277816028759">
        <ele>65.8956298828125</ele>
        <time>2024-04-12T02:18:45Z</time>
      </trkpt>
      <trkpt lat="36.031319618526496" lon="119.4128622572115">
        <ele>69.20660400390625</ele>
        <time>2024-04-12T02:18:51Z</time>
      </trkpt>
      <trkpt lat="36.03136068350676" lon="119.41296437847402">
        <ele>72.38909912109375</ele>
        <time>2024-04-12T02:18:57Z</time>
      </trkpt>
      <trkpt lat="36.03137775666747" lon="119.41306950674955">
        <ele>71.25921630859375</ele>
        <time>2024-04-12T02:19:03Z</time>
      </trkpt>
      <trkpt lat="36.031349960524054" lon="119.41333584249541">
        <ele>68.05743408203125</ele>
        <time>2024-04-12T02:19:21Z</time>
      </trkpt>
      <trkpt lat="36.03131103398092" lon="119.41342195526555">
        <ele>67.2464599609375</ele>
        <time>2024-04-12T02:19:27Z</time>
      </trkpt>
      <trkpt lat="36.03128331944353" lon="119.41378942570782">
        <ele>67.56640625</ele>
        <time>2024-04-12T02:19:48Z</time>
      </trkpt>
      <trkpt lat="36.031256484137415" lon="119.41399469309816">
        <ele>65.753173828125</ele>
        <time>2024-04-12T02:20:00Z</time>
      </trkpt>
      <trkpt lat="36.03118361491451" lon="119.41414089102003">
        <ele>68.046630859375</ele>
        <time>2024-04-12T02:20:12Z</time>
      </trkpt>
      <trkpt lat="36.03120261683303" lon="119.41414889932044">
        <ele>67.13372802734375</ele>
        <time>2024-04-12T02:20:18Z</time>
      </trkpt>
    </trkseg>
  </trk>
</gpx>