<?xml version="1.0" encoding="UTF-8"?>
<gpx xmlns="http://www.topografix.com/GPX/1/1" xmlns:gpxtpx="http://www.garmin.com/xmlschemas/TrackPointExtension/v1" xmlns:xsi="http://www.w3.org/2001/XMLSchema-instance" xsi:schemaLocation="http://www.topografix.com/GPX/1/1 http://www.topografix.com/GPX/1/1/gpx.xsd" version="1.1" creator="gpx.py -- https://github.com/tkrajina/gpxpy">
  <trk>
    <name>gpx from keep</name>
    <type>Run</type>
    <trkseg>
      <trkpt lat="31.473035605110145" lon="120.2546396395111">
        <ele>6.558380126953125</ele>
        <time>2024-10-25T13:41:27Z</time>
        <extensions>
          <gpxtpx:TrackPointExtension>
            <gpxtpx:hr>107</gpxtpx:hr>
          </gpxtpx:TrackPointExtension>
        </extensions>
      </trkpt>
      <trkpt lat="31.47313438044739" lon="120.25456300908951">
        <ele>7.480133411474526</ele>
        <time>2024-10-25T13:41:33Z</time>
        <extensions>
          <gpxtpx:TrackPointExtension>
            <gpxtpx:hr>107</gpxtpx:hr>
          </gpxtpx:TrackPointExtension>
        </extensions>
      </trkpt>
      <trkpt lat="31.473230774312874" lon="120.2544087472092">
        <ele>6.0567324766889215</ele>
        <time>2024-10-25T13:41:42Z</time>
        <extensions>
          <gpxtpx:TrackPointExtension>
            <gpxtpx:hr>107</gpxtpx:hr>
          </gpxtpx:TrackPointExtension>
        </extensions>
      </trkpt>
      <trkpt lat="31.473243173712994" lon="120.25420186109153">
        <ele>7.439927714876831</ele>
        <time>2024-10-25T13:41:54Z</time>
        <extensions>
          <gpxtpx:TrackPointExtension>
            <gpxtpx:hr>107</gpxtpx:hr>
          </gpxtpx:TrackPointExtension>
        </extensions>
      </trkpt>
      <trkpt lat="31.473202035001876" lon="120.25401129855558">
        <ele>8.148869224824011</ele>
        <time>2024-10-25T13:42:00Z</time>
      </trkpt>
      <trkpt lat="31.473168339300095" lon="120.25392664923966">
        <ele>8.118117563426495</ele>
        <time>2024-10-25T13:42:03Z</time>
      </trkpt>
      <trkpt lat="31.473096953543035" lon="120.2538460897793">
        <ele>8.536764921620488</ele>
        <time>2024-10-25T13:42:06Z</time>
      </trkpt>
      <trkpt lat="31.472903507412628" lon="120.25374854483915">
        <ele>9.129913726821542</ele>
        <time>2024-10-25T13:42:12Z</time>
      </trkpt>
      <trkpt lat="31.472692687162212" lon="120.25367967003532">
        <ele>10.383127042092383</ele>
        <time>2024-10-25T13:42:18Z</time>
      </trkpt>
      <trkpt lat="31.47237772271438" lon="120.25363893470083">
        <ele>11.90080463513732</ele>
        <time>2024-10-25T13:42:27Z</time>
      </trkpt>
      <trkpt lat="31.47208133571131" lon="120.25359899378067">
        <ele>12.172977485693991</ele>
        <time>2024-10-25T13:42:36Z</time>
      </trkpt>
      <trkpt lat="31.471970396319215" lon="120.2536287561677">
        <ele>13.576293596066535</ele>
        <time>2024-10-25T13:42:39Z</time>
      </trkpt>
      <trkpt lat="31.471821355732203" lon="120.25376189602831">
        <ele>12.264598484151065</ele>
        <time>2024-10-25T13:42:45Z</time>
      </trkpt>
      <trkpt lat="31.47174525037706" lon="120.25386795771843">
        <ele>14.388575312681496</ele>
        <time>2024-10-25T13:42:48Z</time>
      </trkpt>
      <trkpt lat="31.471694315582692" lon="120.25397899825215">
        <ele>18.47470669541508</ele>
        <time>2024-10-25T13:42:51Z</time>
      </trkpt>
      <trkpt lat="31.471684242090138" lon="120.25408867419323">
        <ele>22.043198478408158</ele>
        <time>2024-10-25T13:42:54Z</time>
      </trkpt>
      <trkpt lat="31.47169387256524" lon="120.25417568079448">
        <ele>20.37659273017198</ele>
        <time>2024-10-25T13:42:57Z</time>
      </trkpt>
      <trkpt lat="31.47177693953077" lon="120.25424419618078">
        <ele>20.66817643493414</ele>
        <time>2024-10-25T13:43:00Z</time>
      </trkpt>
      <trkpt lat="31.471729585650362" lon="120.25426619076296">
        <ele>18.687971820123494</ele>
        <time>2024-10-25T13:43:03Z</time>
      </trkpt>
      <trkpt lat="31.471773246527487" lon="120.25435938613184">
        <ele>22.58092402201146</ele>
        <time>2024-10-25T13:43:12Z</time>
      </trkpt>
      <trkpt lat="31.47187746876961" lon="120.25450649760232">
        <ele>21.044669607654214</ele>
        <time>2024-10-25T13:43:15Z</time>
      </trkpt>
      <trkpt lat="31.472227686037453" lon="120.2545678214743">
        <ele>14.815645043738186</ele>
        <time>2024-10-25T13:43:24Z</time>
      </trkpt>
      <trkpt lat="31.472497449607378" lon="120.25462993635539">
        <ele>11.652558927424252</ele>
        <time>2024-10-25T13:43:31Z</time>
      </trkpt>
      <trkpt lat="31.472832330016157" lon="120.25464886968776">
        <ele>10.63308865763247</ele>
        <time>2024-10-25T13:43:40Z</time>
      </trkpt>
      <trkpt lat="31.473035374057446" lon="120.25462605301684">
        <ele>24.60005894675851</ele>
        <time>2024-10-25T13:43:46Z</time>
      </trkpt>
      <trkpt lat="31.473095351540774" lon="120.25454181304696">
        <ele>21.91117552574724</ele>
        <time>2024-10-25T13:43:49Z</time>
      </trkpt>
      <trkpt lat="31.473115949863907" lon="120.2544021745334">
        <ele>23.28237609565258</ele>
        <time>2024-10-25T13:43:52Z</time>
      </trkpt>
      <trkpt lat="31.47319042361953" lon="120.25430956808259">
        <ele>24.140658262185752</ele>
        <time>2024-10-25T13:43:55Z</time>
      </trkpt>
      <trkpt lat="31.47316758287253" lon="120.2541580836919">
        <ele>23.065438603051007</ele>
        <time>2024-10-25T13:43:58Z</time>
      </trkpt>
      <trkpt lat="31.473191152086788" lon="120.25404844275354">
        <ele>23.410608927719295</ele>
        <time>2024-10-25T13:44:01Z</time>
      </trkpt>
      <trkpt lat="31.473154655512772" lon="120.25394824401997">
        <ele>25.21220677997917</ele>
        <time>2024-10-25T13:44:04Z</time>
      </trkpt>
      <trkpt lat="31.47308875604917" lon="120.25387807680146">
        <ele>24.265736274421215</ele>
        <time>2024-10-25T13:44:07Z</time>
      </trkpt>
      <trkpt lat="31.472965790857838" lon="120.2538491614135">
        <ele>25.194737466983497</ele>
        <time>2024-10-25T13:44:10Z</time>
      </trkpt>
      <trkpt lat="31.472882462385144" lon="120.2537762708555">
        <ele>27.257331835106015</ele>
        <time>2024-10-25T13:44:13Z</time>
      </trkpt>
      <trkpt lat="31.472610949210527" lon="120.25372828392798">
        <ele>28.582367388531566</ele>
        <time>2024-10-25T13:44:22Z</time>
      </trkpt>
      <trkpt lat="31.47251861359873" lon="120.25372121966811">
        <ele>28.72581479791552</ele>
        <time>2024-10-25T13:44:25Z</time>
      </trkpt>
      <trkpt lat="31.472427263220894" lon="120.25368476733338">
        <ele>31.83173136692494</ele>
        <time>2024-10-25T13:44:28Z</time>
      </trkpt>
      <trkpt lat="31.47233560222153" lon="120.25367312861225">
        <ele>30.355720303952694</ele>
        <time>2024-10-25T13:44:31Z</time>
      </trkpt>
      <trkpt lat="31.472132156269648" lon="120.25361398384747">
        <ele>26.75926421675831</ele>
        <time>2024-10-25T13:44:37Z</time>
      </trkpt>
      <trkpt lat="31.47203089781715" lon="120.25360440203104">
        <ele>28.019450434483588</ele>
        <time>2024-10-25T13:44:40Z</time>
      </trkpt>
      <trkpt lat="31.471861283134466" lon="120.25368893757783">
        <ele>28.769625664688647</ele>
        <time>2024-10-25T13:44:46Z</time>
      </trkpt>
      <trkpt lat="31.471774939171638" lon="120.25378322254862">
        <ele>29.28333227429539</ele>
        <time>2024-10-25T13:44:49Z</time>
      </trkpt>
      <trkpt lat="31.471723230105432" lon="120.25386489531756">
        <ele>24.931357510387897</ele>
        <time>2024-10-25T13:44:52Z</time>
      </trkpt>
      <trkpt lat="31.47169795996035" lon="120.25397527856208">
        <ele>25.1903974423185</ele>
        <time>2024-10-25T13:44:55Z</time>
      </trkpt>
      <trkpt lat="31.471700838105296" lon="120.25421042917488">
        <ele>26.792507195845246</ele>
        <time>2024-10-25T13:45:01Z</time>
      </trkpt>
      <trkpt lat="31.471748570187305" lon="120.25431537963681">
        <ele>32.30925115942955</ele>
        <time>2024-10-25T13:45:04Z</time>
      </trkpt>
      <trkpt lat="31.471815508416547" lon="120.2544026315684">
        <ele>30.055745642632246</ele>
        <time>2024-10-25T13:45:07Z</time>
      </trkpt>
      <trkpt lat="31.471889381083287" lon="120.25446608179259">
        <ele>28.869503155350685</ele>
        <time>2024-10-25T13:45:10Z</time>
      </trkpt>
      <trkpt lat="31.47217415755511" lon="120.25455201353354">
        <ele>24.130487500689924</ele>
        <time>2024-10-25T13:45:19Z</time>
      </trkpt>
      <trkpt lat="31.47224802608873" lon="120.25458611046558">
        <ele>24.762619737535715</ele>
        <time>2024-10-25T13:45:22Z</time>
      </trkpt>
      <trkpt lat="31.472433352453756" lon="120.25460763985829">
        <ele>23.64366138074547</ele>
        <time>2024-10-25T13:45:28Z</time>
      </trkpt>
      <trkpt lat="31.47250566899235" lon="120.25463870873227">
        <ele>23.711597091518342</ele>
        <time>2024-10-25T13:45:31Z</time>
      </trkpt>
      <trkpt lat="31.472618064588293" lon="120.2546227656784">
        <ele>22.173571214079857</ele>
        <time>2024-10-25T13:45:34Z</time>
      </trkpt>
      <trkpt lat="31.47267513874902" lon="120.25466492680584">
        <ele>21.21255940385163</ele>
        <time>2024-10-25T13:45:37Z</time>
      </trkpt>
      <trkpt lat="31.47275014560326" lon="120.25468694729558">
        <ele>20.584716978482902</ele>
        <time>2024-10-25T13:45:40Z</time>
      </trkpt>
      <trkpt lat="31.472851787633623" lon="120.25465730031766">
        <ele>20.23984481114894</ele>
        <time>2024-10-25T13:45:43Z</time>
      </trkpt>
      <trkpt lat="31.4729061074135" lon="120.25466296482492">
        <ele>20.878496893681586</ele>
        <time>2024-10-25T13:45:46Z</time>
      </trkpt>
      <trkpt lat="31.472996884734272" lon="120.2546170139461">
        <ele>19.03660016413778</ele>
        <time>2024-10-25T13:45:49Z</time>
      </trkpt>
      <trkpt lat="31.473089450714703" lon="120.25452009184808">
        <ele>18.810248482972383</ele>
        <time>2024-10-25T13:45:53Z</time>
      </trkpt>
      <trkpt lat="31.473156536527714" lon="120.25427350324603">
        <ele>18.817816792987287</ele>
        <time>2024-10-25T13:46:00Z</time>
      </trkpt>
      <trkpt lat="31.473150560156917" lon="120.2540704996502">
        <ele>18.47488585114479</ele>
        <time>2024-10-25T13:46:06Z</time>
      </trkpt>
      <trkpt lat="31.473073322945385" lon="120.2539006723827">
        <ele>22.115387153811753</ele>
        <time>2024-10-25T13:46:12Z</time>
      </trkpt>
      <trkpt lat="31.473016156240053" lon="120.25382758941578">
        <ele>24.79330447036773</ele>
        <time>2024-10-25T13:46:15Z</time>
      </trkpt>
      <trkpt lat="31.47293893058985" lon="120.25378643820046">
        <ele>25.814060101285577</ele>
        <time>2024-10-25T13:46:18Z</time>
      </trkpt>
      <trkpt lat="31.472604349012805" lon="120.25369378381792">
        <ele>25.00648119021207</ele>
        <time>2024-10-25T13:46:30Z</time>
      </trkpt>
      <trkpt lat="31.472518102481178" lon="120.25365921000933">
        <ele>25.138523885048926</ele>
        <time>2024-10-25T13:46:33Z</time>
      </trkpt>
      <trkpt lat="31.472330459699734" lon="120.25364996739097">
        <ele>26.832966461777687</ele>
        <time>2024-10-25T13:46:39Z</time>
      </trkpt>
      <trkpt lat="31.47216074518005" lon="120.25359997651437">
        <ele>25.3122366219759</ele>
        <time>2024-10-25T13:46:45Z</time>
      </trkpt>
      <trkpt lat="31.471974690529187" lon="120.25359738903728">
        <ele>28.685893401503563</ele>
        <time>2024-10-25T13:46:51Z</time>
      </trkpt>
      <trkpt lat="31.471904368339306" lon="120.25363830048607">
        <ele>26.509073956869543</ele>
        <time>2024-10-25T13:46:54Z</time>
      </trkpt>
      <trkpt lat="31.471782453703934" lon="120.2537667889755">
        <ele>24.90932288672775</ele>
        <time>2024-10-25T13:47:00Z</time>
      </trkpt>
      <trkpt lat="31.47170608155579" lon="120.25402919595976">
        <ele>23.132347620092332</ele>
        <time>2024-10-25T13:47:09Z</time>
      </trkpt>
      <trkpt lat="31.471735031838673" lon="120.25424635694962">
        <ele>22.864810667932034</ele>
        <time>2024-10-25T13:47:15Z</time>
      </trkpt>
      <trkpt lat="31.471831608141457" lon="120.2544091034412">
        <ele>21.999075273051858</ele>
        <time>2024-10-25T13:47:21Z</time>
      </trkpt>
      <trkpt lat="31.471997731576742" lon="120.25450446311127">
        <ele>22.20448245666921</ele>
        <time>2024-10-25T13:47:27Z</time>
      </trkpt>
      <trkpt lat="31.472241850203094" lon="120.25458911666672">
        <ele>20.859245556406677</ele>
        <time>2024-10-25T13:47:36Z</time>
      </trkpt>
      <trkpt lat="31.472415972870444" lon="120.2545995778932">
        <ele>19.749024633318186</ele>
        <time>2024-10-25T13:47:42Z</time>
      </trkpt>
      <trkpt lat="31.472698747534842" lon="120.25466738295938">
        <ele>11.175881870090961</ele>
        <time>2024-10-25T13:47:54Z</time>
      </trkpt>
      <trkpt lat="31.47279682798589" lon="120.25467575165001">
        <ele>9.405196260660887</ele>
        <time>2024-10-25T13:47:58Z</time>
      </trkpt>
      <trkpt lat="31.472906178088305" lon="120.25464398399927">
        <ele>9.206927507184446</ele>
        <time>2024-10-25T13:48:02Z</time>
      </trkpt>
      <trkpt lat="31.472996251643384" lon="120.25457188910342">
        <ele>8.530426613986492</ele>
        <time>2024-10-25T13:48:06Z</time>
      </trkpt>
      <trkpt lat="31.473077002887553" lon="120.25447817020292">
        <ele>7.094204475171864</ele>
        <time>2024-10-25T13:48:10Z</time>
      </trkpt>
      <trkpt lat="31.47313336820849" lon="120.2543542840495">
        <ele>6.887096448801458</ele>
        <time>2024-10-25T13:48:14Z</time>
      </trkpt>
      <trkpt lat="31.473184242990698" lon="120.25411350179785">
        <ele>8.10504486784339</ele>
        <time>2024-10-25T13:48:22Z</time>
      </trkpt>
      <trkpt lat="31.47312163651838" lon="120.25398894926606">
        <ele>4.16696828044951</ele>
        <time>2024-10-25T13:48:26Z</time>
      </trkpt>
      <trkpt lat="31.47303928047631" lon="120.253877931891">
        <ele>10.067173301242292</ele>
        <time>2024-10-25T13:48:30Z</time>
      </trkpt>
      <trkpt lat="31.472949261121443" lon="120.25381863244796">
        <ele>11.31731877475977</ele>
        <time>2024-10-25T13:48:34Z</time>
      </trkpt>
      <trkpt lat="31.47282752016861" lon="120.25376592133249">
        <ele>10.599219713360071</ele>
        <time>2024-10-25T13:48:38Z</time>
      </trkpt>
      <trkpt lat="31.472630160628874" lon="120.25373469747517">
        <ele>11.177157575264573</ele>
        <time>2024-10-25T13:48:45Z</time>
      </trkpt>
      <trkpt lat="31.472368228320843" lon="120.25365394916672">
        <ele>11.665729384869337</ele>
        <time>2024-10-25T13:48:54Z</time>
      </trkpt>
      <trkpt lat="31.472186667745305" lon="120.25360683658614">
        <ele>11.693683705292642</ele>
        <time>2024-10-25T13:49:00Z</time>
      </trkpt>
      <trkpt lat="31.471999412365967" lon="120.25360740027723">
        <ele>13.490103352814913</ele>
        <time>2024-10-25T13:49:06Z</time>
      </trkpt>
      <trkpt lat="31.47183222406877" lon="120.25371072604165">
        <ele>11.778252054005861</ele>
        <time>2024-10-25T13:49:12Z</time>
      </trkpt>
      <trkpt lat="31.471777314010815" lon="120.25377184859336">
        <ele>11.416148683987558</ele>
        <time>2024-10-25T13:49:15Z</time>
      </trkpt>
      <trkpt lat="31.471714337313266" lon="120.25397835494977">
        <ele>9.642300532199442</ele>
        <time>2024-10-25T13:49:21Z</time>
      </trkpt>
      <trkpt lat="31.4716942580054" lon="120.25410181875971">
        <ele>9.03551721572876</ele>
        <time>2024-10-25T13:49:24Z</time>
      </trkpt>
      <trkpt lat="31.471810626597353" lon="120.25441577453418">
        <ele>8.945983765646815</ele>
        <time>2024-10-25T13:49:33Z</time>
      </trkpt>
      <trkpt lat="31.471894011957506" lon="120.25450605621117">
        <ele>8.530242495238781</ele>
        <time>2024-10-25T13:49:36Z</time>
      </trkpt>
      <trkpt lat="31.472047729335397" lon="120.25455456295785">
        <ele>8.525433314032853</ele>
        <time>2024-10-25T13:49:42Z</time>
      </trkpt>
      <trkpt lat="31.472146807717078" lon="120.25455695883804">
        <ele>9.86351973284036</ele>
        <time>2024-10-25T13:49:45Z</time>
      </trkpt>
      <trkpt lat="31.47242567051476" lon="120.25461518723989">
        <ele>7.554845993407071</ele>
        <time>2024-10-25T13:49:56Z</time>
      </trkpt>
      <trkpt lat="31.472636547963184" lon="120.25466718606796">
        <ele>6.098698045127094</ele>
        <time>2024-10-25T13:50:04Z</time>
      </trkpt>
      <trkpt lat="31.472835105304707" lon="120.25468522968674">
        <ele>6.515526593662798</ele>
        <time>2024-10-25T13:50:12Z</time>
      </trkpt>
      <trkpt lat="31.473040339890893" lon="120.25457273205187">
        <ele>6.665112460963428</ele>
        <time>2024-10-25T13:50:20Z</time>
      </trkpt>
      <trkpt lat="31.47314955943975" lon="120.2543548419515">
        <ele>7.601028145290911</ele>
        <time>2024-10-25T13:50:28Z</time>
      </trkpt>
      <trkpt lat="31.473164841173343" lon="120.25411687868416">
        <ele>6.705325721763074</ele>
        <time>2024-10-25T13:50:36Z</time>
      </trkpt>
      <trkpt lat="31.473125306593005" lon="120.25399831765296">
        <ele>9.2695172438398</ele>
        <time>2024-10-25T13:50:40Z</time>
      </trkpt>
      <trkpt lat="31.472965522493435" lon="120.25382420641255">
        <ele>11.20944462902844</ele>
        <time>2024-10-25T13:50:48Z</time>
      </trkpt>
      <trkpt lat="31.47286925897653" lon="120.25375196070186">
        <ele>8.498033363372087</ele>
        <time>2024-10-25T13:50:52Z</time>
      </trkpt>
      <trkpt lat="31.47278226435667" lon="120.2537223455305">
        <ele>8.084650526754558</ele>
        <time>2024-10-25T13:50:55Z</time>
      </trkpt>
      <trkpt lat="31.472459448265102" lon="120.25369589851087">
        <ele>11.034367273561656</ele>
        <time>2024-10-25T13:51:07Z</time>
      </trkpt>
      <trkpt lat="31.472135309018533" lon="120.2536082256379">
        <ele>10.000670296140015</ele>
        <time>2024-10-25T13:51:19Z</time>
      </trkpt>
      <trkpt lat="31.472061896798216" lon="120.2535980480501">
        <ele>10.367165920324624</ele>
        <time>2024-10-25T13:51:22Z</time>
      </trkpt>
      <trkpt lat="31.47190277601101" lon="120.25365314152451">
        <ele>10.318527120165527</ele>
        <time>2024-10-25T13:51:28Z</time>
      </trkpt>
      <trkpt lat="31.47182566928872" lon="120.25372309476275">
        <ele>8.687928735278547</ele>
        <time>2024-10-25T13:51:32Z</time>
      </trkpt>
      <trkpt lat="31.47170815236817" lon="120.25390802313503">
        <ele>9.172005021944642</ele>
        <time>2024-10-25T13:51:39Z</time>
      </trkpt>
      <trkpt lat="31.47167634094407" lon="120.2540174417486">
        <ele>9.670133476145566</ele>
        <time>2024-10-25T13:51:42Z</time>
      </trkpt>
      <trkpt lat="31.471671427837457" lon="120.25416056736046">
        <ele>8.087916155345738</ele>
        <time>2024-10-25T13:51:46Z</time>
      </trkpt>
      <trkpt lat="31.471684967257506" lon="120.2542573570903">
        <ele>7.138065566308796</ele>
        <time>2024-10-25T13:51:49Z</time>
      </trkpt>
      <trkpt lat="31.471721385555707" lon="120.25435880324379">
        <ele>9.201557591557503</ele>
        <time>2024-10-25T13:51:52Z</time>
      </trkpt>
      <trkpt lat="31.471866196441223" lon="120.25450697469022">
        <ele>9.394362018443644</ele>
        <time>2024-10-25T13:51:59Z</time>
      </trkpt>
      <trkpt lat="31.47219196476533" lon="120.25458795250758">
        <ele>8.733775936067104</ele>
        <time>2024-10-25T13:52:11Z</time>
      </trkpt>
      <trkpt lat="31.47249037337691" lon="120.25464985456586">
        <ele>8.485634927637875</ele>
        <time>2024-10-25T13:52:23Z</time>
      </trkpt>
      <trkpt lat="31.472780873781613" lon="120.25468393543886">
        <ele>7.795232927426696</ele>
        <time>2024-10-25T13:52:35Z</time>
      </trkpt>
      <trkpt lat="31.472890365266366" lon="120.25466985019477">
        <ele>7.456636006012559</ele>
        <time>2024-10-25T13:52:39Z</time>
      </trkpt>
      <trkpt lat="31.47298659636911" lon="120.25461954348596">
        <ele>6.893623570911586</ele>
        <time>2024-10-25T13:52:43Z</time>
      </trkpt>
      <trkpt lat="31.473084523651977" lon="120.25451233118194">
        <ele>7.1098754443228245</ele>
        <time>2024-10-25T13:52:47Z</time>
      </trkpt>
      <trkpt lat="31.473135963940756" lon="120.25440610429168">
        <ele>7.574166088365018</ele>
        <time>2024-10-25T13:52:51Z</time>
      </trkpt>
      <trkpt lat="31.473172465031542" lon="120.25427812034695">
        <ele>6.87348557356745</ele>
        <time>2024-10-25T13:52:55Z</time>
      </trkpt>
      <trkpt lat="31.47313584286164" lon="120.2540337595493">
        <ele>8.954622836783528</ele>
        <time>2024-10-25T13:53:03Z</time>
      </trkpt>
      <trkpt lat="31.473078466930517" lon="120.25389613589432">
        <ele>8.350289622321725</ele>
        <time>2024-10-25T13:53:07Z</time>
      </trkpt>
      <trkpt lat="31.47300078823223" lon="120.25381992609815">
        <ele>11.729106803424656</ele>
        <time>2024-10-25T13:53:11Z</time>
      </trkpt>
      <trkpt lat="31.472795699766348" lon="120.2537426267823">
        <ele>11.046011849306524</ele>
        <time>2024-10-25T13:53:19Z</time>
      </trkpt>
      <trkpt lat="31.472497630847347" lon="120.25370028949409">
        <ele>10.986034102737904</ele>
        <time>2024-10-25T13:53:31Z</time>
      </trkpt>
      <trkpt lat="31.472385294799853" lon="120.25368494126128">
        <ele>11.202200128696859</ele>
        <time>2024-10-25T13:53:35Z</time>
      </trkpt>
      <trkpt lat="31.47227929623588" lon="120.25363667780871">
        <ele>7.990785614587367</ele>
        <time>2024-10-25T13:53:39Z</time>
      </trkpt>
      <trkpt lat="31.472038970816254" lon="120.25359905000752">
        <ele>9.35338366497308</ele>
        <time>2024-10-25T13:53:47Z</time>
      </trkpt>
      <trkpt lat="31.47192053818155" lon="120.25364222651083">
        <ele>11.162550072185695</ele>
        <time>2024-10-25T13:53:51Z</time>
      </trkpt>
      <trkpt lat="31.47183864910447" lon="120.25371107084621">
        <ele>10.148879055865109</ele>
        <time>2024-10-25T13:53:55Z</time>
      </trkpt>
      <trkpt lat="31.471763746496062" lon="120.25380327138855">
        <ele>10.99712703190744</ele>
        <time>2024-10-25T13:53:59Z</time>
      </trkpt>
      <trkpt lat="31.471702797864026" lon="120.25393062611417">
        <ele>10.128450840711594</ele>
        <time>2024-10-25T13:54:03Z</time>
      </trkpt>
      <trkpt lat="31.471687535598353" lon="120.2541945894924">
        <ele>7.99927454162389</ele>
        <time>2024-10-25T13:54:11Z</time>
      </trkpt>
      <trkpt lat="31.471736401258266" lon="120.25433817846658">
        <ele>8.525652076117694</ele>
        <time>2024-10-25T13:54:15Z</time>
      </trkpt>
      <trkpt lat="31.471802725300964" lon="120.25444526150991">
        <ele>7.6637945137917995</ele>
        <time>2024-10-25T13:54:19Z</time>
      </trkpt>
      <trkpt lat="31.47189735814865" lon="120.25451965376763">
        <ele>7.221805647015572</ele>
        <time>2024-10-25T13:54:23Z</time>
      </trkpt>
      <trkpt lat="31.471999476670426" lon="120.25456894940876">
        <ele>5.927241751924157</ele>
        <time>2024-10-25T13:54:27Z</time>
      </trkpt>
      <trkpt lat="31.47223759519602" lon="120.2546144347294">
        <ele>8.091287317685783</ele>
        <time>2024-10-25T13:54:35Z</time>
      </trkpt>
      <trkpt lat="31.47233623647075" lon="120.25461176663184">
        <ele>8.97451352328062</ele>
        <time>2024-10-25T13:54:39Z</time>
      </trkpt>
      <trkpt lat="31.472618532116165" lon="120.25467934910145">
        <ele>8.150234338827431</ele>
        <time>2024-10-25T13:54:51Z</time>
      </trkpt>
      <trkpt lat="31.472718467340318" lon="120.2546958885323">
        <ele>7.574104260653257</ele>
        <time>2024-10-25T13:54:55Z</time>
      </trkpt>
      <trkpt lat="31.47291624006886" lon="120.25467687377513">
        <ele>6.861183429136872</ele>
        <time>2024-10-25T13:55:03Z</time>
      </trkpt>
      <trkpt lat="31.473016752669437" lon="120.25461111466252">
        <ele>7.080686779692769</ele>
        <time>2024-10-25T13:55:07Z</time>
      </trkpt>
      <trkpt lat="31.47312513496728" lon="120.25438925690466">
        <ele>7.785172371193767</ele>
        <time>2024-10-25T13:55:15Z</time>
      </trkpt>
      <trkpt lat="31.473162366520864" lon="120.25427788322035">
        <ele>6.3393460512161255</ele>
        <time>2024-10-25T13:55:19Z</time>
      </trkpt>
      <trkpt lat="31.473154220118513" lon="120.25414257527021">
        <ele>6.31926260329783</ele>
        <time>2024-10-25T13:55:23Z</time>
      </trkpt>
      <trkpt lat="31.473047829744726" lon="120.25394320306533">
        <ele>9.092867514118552</ele>
        <time>2024-10-25T13:55:31Z</time>
      </trkpt>
      <trkpt lat="31.472971377602324" lon="120.25385892939309">
        <ele>10.128133243881166</ele>
        <time>2024-10-25T13:55:35Z</time>
      </trkpt>
      <trkpt lat="31.472759214516277" lon="120.25376604196386">
        <ele>14.439080828800797</ele>
        <time>2024-10-25T13:55:43Z</time>
      </trkpt>
      <trkpt lat="31.47242765393658" lon="120.25368295037393">
        <ele>10.634241639636457</ele>
        <time>2024-10-25T13:55:55Z</time>
      </trkpt>
      <trkpt lat="31.472120822461864" lon="120.25364780470979">
        <ele>11.885922458954155</ele>
        <time>2024-10-25T13:56:06Z</time>
      </trkpt>
      <trkpt lat="31.472005953109548" lon="120.25365510353261">
        <ele>10.249513664282858</ele>
        <time>2024-10-25T13:56:10Z</time>
      </trkpt>
      <trkpt lat="31.471897213222487" lon="120.25370803378257">
        <ele>10.871506394818425</ele>
        <time>2024-10-25T13:56:14Z</time>
      </trkpt>
      <trkpt lat="31.471800997497393" lon="120.25378701354778">
        <ele>10.367770769633353</ele>
        <time>2024-10-25T13:56:18Z</time>
      </trkpt>
      <trkpt lat="31.471725366336898" lon="120.2538937032766">
        <ele>10.701688819564879</ele>
        <time>2024-10-25T13:56:22Z</time>
      </trkpt>
      <trkpt lat="31.471698103297687" lon="120.25400725642804">
        <ele>8.975531971082091</ele>
        <time>2024-10-25T13:56:26Z</time>
      </trkpt>
      <trkpt lat="31.471729750953706" lon="120.25432885923247">
        <ele>7.202002014033496</ele>
        <time>2024-10-25T13:56:42Z</time>
      </trkpt>
      <trkpt lat="31.47178178301356" lon="120.25447134782942">
        <ele>5.004012584686279</ele>
        <time>2024-10-25T13:56:54Z</time>
      </trkpt>
      <trkpt lat="31.471758797830763" lon="120.2545245880906">
        <ele>4.392511211335659</ele>
        <time>2024-10-25T13:56:58Z</time>
      </trkpt>
      <trkpt lat="31.471805948536154" lon="120.25454464470239">
        <ele>6.118691923096776</ele>
        <time>2024-10-25T13:57:43Z</time>
      </trkpt>
      <trkpt lat="31.4718872287255" lon="120.25460045050357">
        <ele>5.768882523290813</ele>
        <time>2024-10-25T13:57:51Z</time>
      </trkpt>
      <trkpt lat="31.47204843978203" lon="120.25457169038056">
        <ele>7.530501303263009</ele>
        <time>2024-10-25T13:58:03Z</time>
      </trkpt>
      <trkpt lat="31.47236324933008" lon="120.25462205918687">
        <ele>7.267126641236246</ele>
        <time>2024-10-25T13:58:23Z</time>
      </trkpt>
      <trkpt lat="31.472633735019233" lon="120.25467223270572">
        <ele>7.660172242671251</ele>
        <time>2024-10-25T13:58:35Z</time>
      </trkpt>
      <trkpt lat="31.472823637091" lon="120.25468857569174">
        <ele>7.484699669294059</ele>
        <time>2024-10-25T13:58:43Z</time>
      </trkpt>
      <trkpt lat="31.472979272758316" lon="120.25460099588373">
        <ele>7.415506527759135</ele>
        <time>2024-10-25T13:58:51Z</time>
      </trkpt>
      <trkpt lat="31.473045006841343" lon="120.25452680491941">
        <ele>7.308726606890559</ele>
        <time>2024-10-25T13:58:55Z</time>
      </trkpt>
      <trkpt lat="31.473131610765254" lon="120.25433483741341">
        <ele>6.813719015568495</ele>
        <time>2024-10-25T13:59:03Z</time>
      </trkpt>
      <trkpt lat="31.473131794983306" lon="120.25412485607448">
        <ele>7.604984885081649</ele>
        <time>2024-10-25T13:59:11Z</time>
      </trkpt>
      <trkpt lat="31.47309767241614" lon="120.25401967179016">
        <ele>8.012452879920602</ele>
        <time>2024-10-25T13:59:15Z</time>
      </trkpt>
      <trkpt lat="31.473038546408617" lon="120.25393232627034">
        <ele>7.92692934256047</ele>
        <time>2024-10-25T13:59:19Z</time>
      </trkpt>
      <trkpt lat="31.472889003295016" lon="120.25379531804168">
        <ele>8.71489408891648</ele>
        <time>2024-10-25T13:59:27Z</time>
      </trkpt>
      <trkpt lat="31.472587198567968" lon="120.25372706873696">
        <ele>8.784577783197165</ele>
        <time>2024-10-25T13:59:39Z</time>
      </trkpt>
      <trkpt lat="31.472287802757002" lon="120.25367774846956">
        <ele>9.337529256939888</ele>
        <time>2024-10-25T13:59:51Z</time>
      </trkpt>
      <trkpt lat="31.472083832011357" lon="120.25364613528667">
        <ele>10.422611206769943</ele>
        <time>2024-10-25T13:59:59Z</time>
      </trkpt>
      <trkpt lat="31.471891681685694" lon="120.25368191767885">
        <ele>8.842067539691925</ele>
        <time>2024-10-25T14:00:07Z</time>
      </trkpt>
      <trkpt lat="31.47174080486652" lon="120.25381555983449">
        <ele>9.338778500445187</ele>
        <time>2024-10-25T14:00:15Z</time>
      </trkpt>
      <trkpt lat="31.471667631374892" lon="120.25399068920552">
        <ele>9.005341200158</ele>
        <time>2024-10-25T14:00:22Z</time>
      </trkpt>
      <trkpt lat="31.471695771830717" lon="120.25424193418962">
        <ele>8.196796079166234</ele>
        <time>2024-10-25T14:00:31Z</time>
      </trkpt>
      <trkpt lat="31.471738865173275" lon="120.25434485417549">
        <ele>7.740192661061883</ele>
        <time>2024-10-25T14:00:35Z</time>
      </trkpt>
      <trkpt lat="31.471874715207324" lon="120.25449342936754">
        <ele>7.749032984487712</ele>
        <time>2024-10-25T14:00:43Z</time>
      </trkpt>
      <trkpt lat="31.47215294657693" lon="120.25457977238662">
        <ele>7.665952407754958</ele>
        <time>2024-10-25T14:00:55Z</time>
      </trkpt>
      <trkpt lat="31.472520787481077" lon="120.25466175341954">
        <ele>9.086882423609495</ele>
        <time>2024-10-25T14:01:11Z</time>
      </trkpt>
      <trkpt lat="31.472782692952258" lon="120.2546920598377">
        <ele>7.356556992977858</ele>
        <time>2024-10-25T14:01:23Z</time>
      </trkpt>
      <trkpt lat="31.472884414172015" lon="120.25468732698201">
        <ele>7.820172909647226</ele>
        <time>2024-10-25T14:01:27Z</time>
      </trkpt>
      <trkpt lat="31.473034448911335" lon="120.25458067429493">
        <ele>7.21310358773917</ele>
        <time>2024-10-25T14:01:35Z</time>
      </trkpt>
      <trkpt lat="31.473128435311605" lon="120.25441291972237">
        <ele>7.7170743038877845</ele>
        <time>2024-10-25T14:01:43Z</time>
      </trkpt>
      <trkpt lat="31.473158850206676" lon="120.25432680993606">
        <ele>8.056466894224286</ele>
        <time>2024-10-25T14:01:47Z</time>
      </trkpt>
      <trkpt lat="31.47317092602186" lon="120.25422950501483">
        <ele>8.15425619110465</ele>
        <time>2024-10-25T14:01:51Z</time>
      </trkpt>
      <trkpt lat="31.473155746686004" lon="120.25413995195935">
        <ele>6.45305260643363</ele>
        <time>2024-10-25T14:01:55Z</time>
      </trkpt>
      <trkpt lat="31.473056692828145" lon="120.25395187438991">
        <ele>6.6209151996299624</ele>
        <time>2024-10-25T14:02:03Z</time>
      </trkpt>
      <trkpt lat="31.472990114240556" lon="120.25387591769463">
        <ele>6.41952758282423</ele>
        <time>2024-10-25T14:02:07Z</time>
      </trkpt>
      <trkpt lat="31.472908333967034" lon="120.2538237813806">
        <ele>7.669421578757465</ele>
        <time>2024-10-25T14:02:11Z</time>
      </trkpt>
      <trkpt lat="31.47258848813933" lon="120.25373782967546">
        <ele>8.446760856546462</ele>
        <time>2024-10-25T14:02:26Z</time>
      </trkpt>
      <trkpt lat="31.472268003948397" lon="120.25366744804445">
        <ele>8.733771584928036</ele>
        <time>2024-10-25T14:02:41Z</time>
      </trkpt>
      <trkpt lat="31.472067320443482" lon="120.25362816979275">
        <ele>8.148599971085787</ele>
        <time>2024-10-25T14:02:50Z</time>
      </trkpt>
      <trkpt lat="31.47187640738468" lon="120.25370621452309">
        <ele>8.776224895380437</ele>
        <time>2024-10-25T14:02:59Z</time>
      </trkpt>
      <trkpt lat="31.471782832275633" lon="120.25378760161408">
        <ele>7.820681006647646</ele>
        <time>2024-10-25T14:03:05Z</time>
      </trkpt>
      <trkpt lat="31.471702803645556" lon="120.2539187359397">
        <ele>8.813405658118427</ele>
        <time>2024-10-25T14:03:11Z</time>
      </trkpt>
      <trkpt lat="31.471675845298307" lon="120.25405737568359">
        <ele>8.057967841625214</ele>
        <time>2024-10-25T14:03:17Z</time>
      </trkpt>
      <trkpt lat="31.47171909421199" lon="120.25423994230916">
        <ele>7.184364818967879</ele>
        <time>2024-10-25T14:03:25Z</time>
      </trkpt>
      <trkpt lat="31.471751557258152" lon="120.2542962042095">
        <ele>6.870611289516091</ele>
        <time>2024-10-25T14:03:29Z</time>
      </trkpt>
      <trkpt lat="31.471795483672736" lon="120.25443759586203">
        <ele>8.485174654051661</ele>
        <time>2024-10-25T14:03:37Z</time>
      </trkpt>
      <trkpt lat="31.471976051699702" lon="120.25456908930437">
        <ele>8.595576219260693</ele>
        <time>2024-10-25T14:03:53Z</time>
      </trkpt>
      <trkpt lat="31.472287305112946" lon="120.25461396612853">
        <ele>7.510257204994559</ele>
        <time>2024-10-25T14:04:13Z</time>
      </trkpt>
      <trkpt lat="31.472618217094332" lon="120.25466749899033">
        <ele>6.222143340855837</ele>
        <time>2024-10-25T14:04:33Z</time>
      </trkpt>
      <trkpt lat="31.472787158584392" lon="120.2546859824112">
        <ele>6.173505736514926</ele>
        <time>2024-10-25T14:04:42Z</time>
      </trkpt>
      <trkpt lat="31.473022607205348" lon="120.25456210740462">
        <ele>6.473707208409905</ele>
        <time>2024-10-25T14:04:54Z</time>
      </trkpt>
      <trkpt lat="31.473141811767803" lon="120.25436066845535">
        <ele>6.082633210346103</ele>
        <time>2024-10-25T14:05:03Z</time>
      </trkpt>
      <trkpt lat="31.473163828869342" lon="120.25420543748278">
        <ele>6.820292353630066</ele>
        <time>2024-10-25T14:05:09Z</time>
      </trkpt>
      <trkpt lat="31.47315961307355" lon="120.25412582145624">
        <ele>6.200642085634172</ele>
        <time>2024-10-25T14:05:12Z</time>
      </trkpt>
      <trkpt lat="31.47306643894734" lon="120.25392682603753">
        <ele>7.882579896599054</ele>
        <time>2024-10-25T14:05:21Z</time>
      </trkpt>
      <trkpt lat="31.472958999976473" lon="120.25381642397389">
        <ele>8.08066610340029</ele>
        <time>2024-10-25T14:05:27Z</time>
      </trkpt>
      <trkpt lat="31.472713454229687" lon="120.25373163036224">
        <ele>8.680975053459406</ele>
        <time>2024-10-25T14:05:39Z</time>
      </trkpt>
      <trkpt lat="31.472466526533285" lon="120.25371138318043">
        <ele>8.61508793849498</ele>
        <time>2024-10-25T14:05:51Z</time>
      </trkpt>
      <trkpt lat="31.47214890183192" lon="120.25363097363687">
        <ele>7.8541967095807195</ele>
        <time>2024-10-25T14:06:06Z</time>
      </trkpt>
      <trkpt lat="31.472082877190044" lon="120.25360784136629">
        <ele>6.496348695829511</ele>
        <time>2024-10-25T14:06:09Z</time>
      </trkpt>
      <trkpt lat="31.471899510812495" lon="120.2536611320827">
        <ele>7.010153227485716</ele>
        <time>2024-10-25T14:06:18Z</time>
      </trkpt>
      <trkpt lat="31.471793929040572" lon="120.25375820645327">
        <ele>7.387551227584481</ele>
        <time>2024-10-25T14:06:24Z</time>
      </trkpt>
      <trkpt lat="31.47169161630847" lon="120.25395695977157">
        <ele>8.61912735272199</ele>
        <time>2024-10-25T14:06:33Z</time>
      </trkpt>
      <trkpt lat="31.47168195256823" lon="120.2541340514345">
        <ele>8.719011031091213</ele>
        <time>2024-10-25T14:06:40Z</time>
      </trkpt>
      <trkpt lat="31.471718584910036" lon="120.25427835884129">
        <ele>8.345017774030566</ele>
        <time>2024-10-25T14:06:46Z</time>
      </trkpt>
      <trkpt lat="31.47180241639689" lon="120.25442364836799">
        <ele>8.193160239607096</ele>
        <time>2024-10-25T14:06:53Z</time>
      </trkpt>
      <trkpt lat="31.47187655398687" lon="120.25449452838834">
        <ele>7.981021989136934</ele>
        <time>2024-10-25T14:06:57Z</time>
      </trkpt>
      <trkpt lat="31.471959227170107" lon="120.25454204053617">
        <ele>8.460658825933933</ele>
        <time>2024-10-25T14:07:01Z</time>
      </trkpt>
      <trkpt lat="31.47225549000349" lon="120.2545835364706">
        <ele>7.799724716693163</ele>
        <time>2024-10-25T14:07:14Z</time>
      </trkpt>
      <trkpt lat="31.472572291786435" lon="120.25466585502139">
        <ele>7.16238328255713</ele>
        <time>2024-10-25T14:07:29Z</time>
      </trkpt>
      <trkpt lat="31.47276843369064" lon="120.25470589988221">
        <ele>6.746621812693775</ele>
        <time>2024-10-25T14:07:38Z</time>
      </trkpt>
      <trkpt lat="31.47284114200758" lon="120.25469492399452">
        <ele>7.043889011256397</ele>
        <time>2024-10-25T14:07:41Z</time>
      </trkpt>
      <trkpt lat="31.473030192843556" lon="120.25458510515143">
        <ele>6.309319947846234</ele>
        <time>2024-10-25T14:07:50Z</time>
      </trkpt>
      <trkpt lat="31.47311339143409" lon="120.25443854333705">
        <ele>5.682413139380515</ele>
        <time>2024-10-25T14:07:56Z</time>
      </trkpt>
      <trkpt lat="31.473154326285204" lon="120.25428340032182">
        <ele>6.165838601998985</ele>
        <time>2024-10-25T14:08:02Z</time>
      </trkpt>
      <trkpt lat="31.47313161430426" lon="120.25405283648985">
        <ele>6.073197215795517</ele>
        <time>2024-10-25T14:08:11Z</time>
      </trkpt>
      <trkpt lat="31.473053213391314" lon="120.2538907437379">
        <ele>8.02812113892287</ele>
        <time>2024-10-25T14:08:17Z</time>
      </trkpt>
      <trkpt lat="31.472949745434956" lon="120.2538016337749">
        <ele>8.86259220726788</ele>
        <time>2024-10-25T14:08:23Z</time>
      </trkpt>
      <trkpt lat="31.472824185242583" lon="120.25374650383706">
        <ele>9.919250747188926</ele>
        <time>2024-10-25T14:08:29Z</time>
      </trkpt>
      <trkpt lat="31.47255546291944" lon="120.25370400370622">
        <ele>8.791371051222086</ele>
        <time>2024-10-25T14:08:41Z</time>
      </trkpt>
      <trkpt lat="31.472238600807845" lon="120.25364717187914">
        <ele>7.803314555436373</ele>
        <time>2024-10-25T14:08:56Z</time>
      </trkpt>
      <trkpt lat="31.47214771941629" lon="120.25365492329128">
        <ele>9.206467725336552</ele>
        <time>2024-10-25T14:08:59Z</time>
      </trkpt>
      <trkpt lat="31.47207105625242" lon="120.25363270909592">
        <ele>9.516657853499055</ele>
        <time>2024-10-25T14:09:02Z</time>
      </trkpt>
      <trkpt lat="31.471854241261564" lon="120.25373655597942">
        <ele>9.488698248751462</ele>
        <time>2024-10-25T14:09:11Z</time>
      </trkpt>
      <trkpt lat="31.471759236861892" lon="120.25384346894703">
        <ele>8.290729464031756</ele>
        <time>2024-10-25T14:09:17Z</time>
      </trkpt>
      <trkpt lat="31.471722559027995" lon="120.25390828298853">
        <ele>9.06315182801336</ele>
        <time>2024-10-25T14:09:20Z</time>
      </trkpt>
      <trkpt lat="31.471696494396944" lon="120.25406118177332">
        <ele>10.278517548926175</ele>
        <time>2024-10-25T14:09:26Z</time>
      </trkpt>
      <trkpt lat="31.471713081459185" lon="120.25420464855534">
        <ele>8.42842136695981</ele>
        <time>2024-10-25T14:09:32Z</time>
      </trkpt>
      <trkpt lat="31.471817791239307" lon="120.25441001243011">
        <ele>10.251116912811995</ele>
        <time>2024-10-25T14:09:41Z</time>
      </trkpt>
      <trkpt lat="31.471869041741325" lon="120.25446375381884">
        <ele>9.210285341367126</ele>
        <time>2024-10-25T14:09:44Z</time>
      </trkpt>
      <trkpt lat="31.4719925465428" lon="120.25452256153734">
        <ele>8.118923990055919</ele>
        <time>2024-10-25T14:09:50Z</time>
      </trkpt>
      <trkpt lat="31.47231478676803" lon="120.25459531045948">
        <ele>7.801990896463394</ele>
        <time>2024-10-25T14:10:05Z</time>
      </trkpt>
      <trkpt lat="31.472615146942324" lon="120.2546797462249">
        <ele>7.165002822875977</ele>
        <time>2024-10-25T14:10:20Z</time>
      </trkpt>
      <trkpt lat="31.472814828272654" lon="120.25469287225533">
        <ele>5.089429713785648</ele>
        <time>2024-10-25T14:10:29Z</time>
      </trkpt>
      <trkpt lat="31.473004114378195" lon="120.25460391834405">
        <ele>5.888282756321132</ele>
        <time>2024-10-25T14:10:38Z</time>
      </trkpt>
      <trkpt lat="31.473088850421938" lon="120.25447821075925">
        <ele>6.728661738336086</ele>
        <time>2024-10-25T14:10:44Z</time>
      </trkpt>
      <trkpt lat="31.47315036880469" lon="120.2542895175566">
        <ele>5.814869518391788</ele>
        <time>2024-10-25T14:10:51Z</time>
      </trkpt>
      <trkpt lat="31.47312763483063" lon="120.25406323555099">
        <ele>5.6205524280667305</ele>
        <time>2024-10-25T14:10:59Z</time>
      </trkpt>
      <trkpt lat="31.473028882068427" lon="120.25387821151345">
        <ele>8.372680336236954</ele>
        <time>2024-10-25T14:11:07Z</time>
      </trkpt>
      <trkpt lat="31.472940219028143" lon="120.25380655154746">
        <ele>8.567934831604362</ele>
        <time>2024-10-25T14:11:11Z</time>
      </trkpt>
      <trkpt lat="31.472742276706736" lon="120.25375035892176">
        <ele>9.019686519168317</ele>
        <time>2024-10-25T14:11:19Z</time>
      </trkpt>
      <trkpt lat="31.472639251918743" lon="120.25374662391523">
        <ele>10.123334030620754</ele>
        <time>2024-10-25T14:11:23Z</time>
      </trkpt>
      <trkpt lat="31.4725235700562" lon="120.25371101699443">
        <ele>8.573970483615994</ele>
        <time>2024-10-25T14:11:27Z</time>
      </trkpt>
      <trkpt lat="31.472218249131686" lon="120.25365766428472">
        <ele>9.63942589238286</ele>
        <time>2024-10-25T14:11:39Z</time>
      </trkpt>
      <trkpt lat="31.472133363702444" lon="120.25363107646963">
        <ele>7.754624233581126</ele>
        <time>2024-10-25T14:11:43Z</time>
      </trkpt>
      <trkpt lat="31.471942243783314" lon="120.25366006801993">
        <ele>6.464395905844867</ele>
        <time>2024-10-25T14:11:51Z</time>
      </trkpt>
      <trkpt lat="31.471868400787706" lon="120.253706421962">
        <ele>7.718578913249075</ele>
        <time>2024-10-25T14:11:55Z</time>
      </trkpt>
      <trkpt lat="31.47179987896888" lon="120.253775008015">
        <ele>7.759383762255311</ele>
        <time>2024-10-25T14:11:59Z</time>
      </trkpt>
      <trkpt lat="31.471747418521314" lon="120.25385587010503">
        <ele>8.208759980276227</ele>
        <time>2024-10-25T14:12:03Z</time>
      </trkpt>
      <trkpt lat="31.47170833088479" lon="120.25395632387742">
        <ele>7.771859391592443</ele>
        <time>2024-10-25T14:12:07Z</time>
      </trkpt>
      <trkpt lat="31.4716984872414" lon="120.25410866668817">
        <ele>8.830974565818906</ele>
        <time>2024-10-25T14:12:13Z</time>
      </trkpt>
      <trkpt lat="31.471708692705104" lon="120.25423043638237">
        <ele>8.422796593047678</ele>
        <time>2024-10-25T14:12:17Z</time>
      </trkpt>
      <trkpt lat="31.471801610560348" lon="120.25438980273175">
        <ele>7.627445667982101</ele>
        <time>2024-10-25T14:12:24Z</time>
      </trkpt>
      <trkpt lat="31.471852179860566" lon="120.25444890765617">
        <ele>6.522436349652708</ele>
        <time>2024-10-25T14:12:27Z</time>
      </trkpt>
      <trkpt lat="31.471931677134062" lon="120.25450415017633">
        <ele>7.971777926199138</ele>
        <time>2024-10-25T14:12:31Z</time>
      </trkpt>
      <trkpt lat="31.47224181385027" lon="120.25459561233721">
        <ele>9.19328982848674</ele>
        <time>2024-10-25T14:12:45Z</time>
      </trkpt>
      <trkpt lat="31.47252030125416" lon="120.25464112982976">
        <ele>8.02046416234225</ele>
        <time>2024-10-25T14:12:58Z</time>
      </trkpt>
      <trkpt lat="31.472788736113113" lon="120.25469861585402">
        <ele>7.975546472705901</ele>
        <time>2024-10-25T14:13:10Z</time>
      </trkpt>
      <trkpt lat="31.472788736113113" lon="120.25469861585402">
        <ele>7.975546472705901</ele>
        <time>2024-10-25T14:13:11Z</time>
      </trkpt>
    </trkseg>
  </trk>
</gpx>