<?xml version="1.0" encoding="UTF-8"?>
<gpx xmlns="http://www.topografix.com/GPX/1/1" xmlns:gpxtpx="http://www.garmin.com/xmlschemas/TrackPointExtension/v1" xmlns:xsi="http://www.w3.org/2001/XMLSchema-instance" xsi:schemaLocation="http://www.topografix.com/GPX/1/1 http://www.topografix.com/GPX/1/1/gpx.xsd" version="1.1" creator="gpx.py -- https://github.com/tkrajina/gpxpy">
  <trk>
    <name>gpx from keep</name>
    <type>Run</type>
    <trkseg>
      <trkpt lat="30.522168298590124" lon="114.39236981628255">
        <ele>19.88848876953125</ele>
        <time>2021-06-20T14:28:16Z</time>
      </trkpt>
      <trkpt lat="30.522057606244882" lon="114.39263682470067">
        <ele>17.8631591796875</ele>
        <time>2021-06-20T14:28:25Z</time>
      </trkpt>
      <trkpt lat="30.52204565477628" lon="114.39274509146024">
        <ele>19.68182373046875</ele>
        <time>2021-06-20T14:28:28Z</time>
      </trkpt>
      <trkpt lat="30.52212046449611" lon="114.39295591978221">
        <ele>22.079833984375</ele>
        <time>2021-06-20T14:28:34Z</time>
      </trkpt>
      <trkpt lat="30.522237858667022" lon="114.39312305940784">
        <ele>21.3760986328125</ele>
        <time>2021-06-20T14:28:40Z</time>
      </trkpt>
      <trkpt lat="30.52232462707206" lon="114.39318410528558">
        <ele>23.74749755859375</ele>
        <time>2021-06-20T14:28:43Z</time>
      </trkpt>
      <trkpt lat="30.52244557035584" lon="114.39320797345168">
        <ele>23.00146484375</ele>
        <time>2021-06-20T14:28:49Z</time>
      </trkpt>
      <trkpt lat="30.522543740492925" lon="114.39319304065866">
        <ele>22.82421875</ele>
        <time>2021-06-20T14:28:52Z</time>
      </trkpt>
      <trkpt lat="30.522848545213183" lon="114.39321499331925">
        <ele>25.45245361328125</ele>
        <time>2021-06-20T14:29:01Z</time>
      </trkpt>
      <trkpt lat="30.52318074817325" lon="114.39317996022638">
        <ele>30.01470947265625</ele>
        <time>2021-06-20T14:29:13Z</time>
      </trkpt>
      <trkpt lat="30.52335159269505" lon="114.39317885989846">
        <ele>32.81915283203125</ele>
        <time>2021-06-20T14:29:19Z</time>
      </trkpt>
      <trkpt lat="30.523538728415957" lon="114.39305185257811">
        <ele>31.5262451171875</ele>
        <time>2021-06-20T14:29:25Z</time>
      </trkpt>
      <trkpt lat="30.523602485788597" lon="114.39287492927035">
        <ele>28.35992431640625</ele>
        <time>2021-06-20T14:29:31Z</time>
      </trkpt>
      <trkpt lat="30.523605758636844" lon="114.39276774796365">
        <ele>27.39813232421875</ele>
        <time>2021-06-20T14:29:34Z</time>
      </trkpt>
      <trkpt lat="30.523588692783314" lon="114.39266382509689">
        <ele>26.4599609375</ele>
        <time>2021-06-20T14:29:37Z</time>
      </trkpt>
      <trkpt lat="30.523469419572343" lon="114.39241365943951">
        <ele>26.66119384765625</ele>
        <time>2021-06-20T14:29:46Z</time>
      </trkpt>
      <trkpt lat="30.52338645172996" lon="114.39234284732886">
        <ele>26.479248046875</ele>
        <time>2021-06-20T14:29:49Z</time>
      </trkpt>
      <trkpt lat="30.523087348135718" lon="114.39229376133474">
        <ele>27.17376708984375</ele>
        <time>2021-06-20T14:30:01Z</time>
      </trkpt>
      <trkpt lat="30.523024431452395" lon="114.39230679103522">
        <ele>26.83099365234375</ele>
        <time>2021-06-20T14:30:04Z</time>
      </trkpt>
      <trkpt lat="30.522954468951042" lon="114.39229485829821">
        <ele>26.79443359375</ele>
        <time>2021-06-20T14:30:07Z</time>
      </trkpt>
      <trkpt lat="30.52264558758684" lon="114.39232283307152">
        <ele>24.180908203125</ele>
        <time>2021-06-20T14:30:22Z</time>
      </trkpt>
      <trkpt lat="30.522566402163186" lon="114.39232473935708">
        <ele>22.9849853515625</ele>
        <time>2021-06-20T14:30:25Z</time>
      </trkpt>
      <trkpt lat="30.522438681859043" lon="114.39229273267789">
        <ele>21.65179443359375</ele>
        <time>2021-06-20T14:30:31Z</time>
      </trkpt>
      <trkpt lat="30.522264565398302" lon="114.3923839174728">
        <ele>23.967529296875</ele>
        <time>2021-06-20T14:30:40Z</time>
      </trkpt>
      <trkpt lat="30.522201641278922" lon="114.39243574871422">
        <ele>23.4530029296875</ele>
        <time>2021-06-20T14:30:43Z</time>
      </trkpt>
      <trkpt lat="30.52214169400175" lon="114.39252095466948">
        <ele>22.38128662109375</ele>
        <time>2021-06-20T14:30:46Z</time>
      </trkpt>
      <trkpt lat="30.522100712385093" lon="114.39270194310015">
        <ele>23.14208984375</ele>
        <time>2021-06-20T14:30:52Z</time>
      </trkpt>
      <trkpt lat="30.522100680119035" lon="114.39288591433103">
        <ele>25.02740478515625</ele>
        <time>2021-06-20T14:30:58Z</time>
      </trkpt>
      <trkpt lat="30.522137548265274" lon="114.39295998848135">
        <ele>23.66876220703125</ele>
        <time>2021-06-20T14:31:01Z</time>
      </trkpt>
      <trkpt lat="30.522288842944654" lon="114.39311003023705">
        <ele>26.0733642578125</ele>
        <time>2021-06-20T14:31:10Z</time>
      </trkpt>
      <trkpt lat="30.522338735405587" lon="114.39314095958814">
        <ele>26.2449951171875</ele>
        <time>2021-06-20T14:31:13Z</time>
      </trkpt>
      <trkpt lat="30.522474594720418" lon="114.39315804268023">
        <ele>23.46734619140625</ele>
        <time>2021-06-20T14:31:19Z</time>
      </trkpt>
      <trkpt lat="30.522545648154566" lon="114.39313415779205">
        <ele>23.12371826171875</ele>
        <time>2021-06-20T14:31:22Z</time>
      </trkpt>
      <trkpt lat="30.52267553603768" lon="114.39318516001383">
        <ele>24.88409423828125</ele>
        <time>2021-06-20T14:31:28Z</time>
      </trkpt>
      <trkpt lat="30.52277559923533" lon="114.39320306031898">
        <ele>26.84381103515625</ele>
        <time>2021-06-20T14:31:31Z</time>
      </trkpt>
      <trkpt lat="30.52306468010712" lon="114.39319489457448">
        <ele>25.0882568359375</ele>
        <time>2021-06-20T14:31:43Z</time>
      </trkpt>
      <trkpt lat="30.52324176496418" lon="114.39317398521503">
        <ele>24.47674560546875</ele>
        <time>2021-06-20T14:31:52Z</time>
      </trkpt>
      <trkpt lat="30.523307660002363" lon="114.39318700421124">
        <ele>25.25567626953125</ele>
        <time>2021-06-20T14:31:55Z</time>
      </trkpt>
      <trkpt lat="30.523425638704246" lon="114.39309500674084">
        <ele>22.649169921875</ele>
        <time>2021-06-20T14:32:01Z</time>
      </trkpt>
      <trkpt lat="30.52358051906824" lon="114.39288090078242">
        <ele>22.428466796875</ele>
        <time>2021-06-20T14:32:10Z</time>
      </trkpt>
      <trkpt lat="30.52359463191304" lon="114.39281496278568">
        <ele>22.817626953125</ele>
        <time>2021-06-20T14:32:13Z</time>
      </trkpt>
      <trkpt lat="30.523527433216945" lon="114.39251486406886">
        <ele>22.36114501953125</ele>
        <time>2021-06-20T14:32:25Z</time>
      </trkpt>
      <trkpt lat="30.52344854434188" lon="114.3923838139938">
        <ele>25.88421630859375</ele>
        <time>2021-06-20T14:32:31Z</time>
      </trkpt>
      <trkpt lat="30.52319717863838" lon="114.3922837122524">
        <ele>26.02484130859375</ele>
        <time>2021-06-20T14:32:43Z</time>
      </trkpt>
      <trkpt lat="30.522908366105575" lon="114.39230490181608">
        <ele>24.0455322265625</ele>
        <time>2021-06-20T14:32:55Z</time>
      </trkpt>
      <trkpt lat="30.522695490925173" lon="114.39229271023316">
        <ele>23.74261474609375</ele>
        <time>2021-06-20T14:33:04Z</time>
      </trkpt>
      <trkpt lat="30.522559624001346" lon="114.39231768516655">
        <ele>22.6044921875</ele>
        <time>2021-06-20T14:33:10Z</time>
      </trkpt>
      <trkpt lat="30.522421595221847" lon="114.39230385900893">
        <ele>23.90704345703125</ele>
        <time>2021-06-20T14:33:16Z</time>
      </trkpt>
      <trkpt lat="30.52221466064917" lon="114.39242190927656">
        <ele>23.30853271484375</ele>
        <time>2021-06-20T14:33:25Z</time>
      </trkpt>
      <trkpt lat="30.52216149516258" lon="114.3924949042752">
        <ele>23.01080322265625</ele>
        <time>2021-06-20T14:33:28Z</time>
      </trkpt>
      <trkpt lat="30.522100708986404" lon="114.39272093710433">
        <ele>20.90533447265625</ele>
        <time>2021-06-20T14:33:37Z</time>
      </trkpt>
      <trkpt lat="30.52209554081315" lon="114.39280993826355">
        <ele>19.5831298828125</ele>
        <time>2021-06-20T14:33:40Z</time>
      </trkpt>
      <trkpt lat="30.522138631988962" lon="114.3929659580033">
        <ele>22.62164306640625</ele>
        <time>2021-06-20T14:33:46Z</time>
      </trkpt>
      <trkpt lat="30.52228667090607" lon="114.39312603997352">
        <ele>27.37847900390625</ele>
        <time>2021-06-20T14:33:55Z</time>
      </trkpt>
      <trkpt lat="30.522410592634134" lon="114.39317812809283">
        <ele>27.59967041015625</ele>
        <time>2021-06-20T14:34:01Z</time>
      </trkpt>
      <trkpt lat="30.52268068548582" lon="114.39320415401168">
        <ele>21.8426513671875</ele>
        <time>2021-06-20T14:34:13Z</time>
      </trkpt>
      <trkpt lat="30.52282061508689" lon="114.39320495583036">
        <ele>19.68145751953125</ele>
        <time>2021-06-20T14:34:19Z</time>
      </trkpt>
      <trkpt lat="30.522877566530997" lon="114.39318405696035">
        <ele>18.865234375</ele>
        <time>2021-06-20T14:34:22Z</time>
      </trkpt>
      <trkpt lat="30.523161758997254" lon="114.39322093563526">
        <ele>21.12542724609375</ele>
        <time>2021-06-20T14:34:34Z</time>
      </trkpt>
      <trkpt lat="30.523238773741493" lon="114.39322608454734">
        <ele>22.17144775390625</ele>
        <time>2021-06-20T14:34:37Z</time>
      </trkpt>
      <trkpt lat="30.52332257198256" lon="114.39320599735763">
        <ele>22.8515625</ele>
        <time>2021-06-20T14:34:40Z</time>
      </trkpt>
      <trkpt lat="30.523474716889147" lon="114.3931300063663">
        <ele>23.43603515625</ele>
        <time>2021-06-20T14:34:46Z</time>
      </trkpt>
      <trkpt lat="30.52354469160546" lon="114.393068946949">
        <ele>22.7791748046875</ele>
        <time>2021-06-20T14:34:49Z</time>
      </trkpt>
      <trkpt lat="30.523584569184308" lon="114.39298482587715">
        <ele>23.4056396484375</ele>
        <time>2021-06-20T14:34:52Z</time>
      </trkpt>
      <trkpt lat="30.523595702160815" lon="114.39289880824221">
        <ele>24.133544921875</ele>
        <time>2021-06-20T14:34:55Z</time>
      </trkpt>
      <trkpt lat="30.52363449629128" lon="114.39281088913779">
        <ele>23.4659423828125</ele>
        <time>2021-06-20T14:34:58Z</time>
      </trkpt>
      <trkpt lat="30.52364155934013" lon="114.39274088183038">
        <ele>24.1981201171875</ele>
        <time>2021-06-20T14:35:01Z</time>
      </trkpt>
      <trkpt lat="30.523543433328438" lon="114.39251269194781">
        <ele>21.92333984375</ele>
        <time>2021-06-20T14:35:10Z</time>
      </trkpt>
      <trkpt lat="30.523449357886257" lon="114.39238381392269">
        <ele>26.3455810546875</ele>
        <time>2021-06-20T14:35:16Z</time>
      </trkpt>
      <trkpt lat="30.523332494257733" lon="114.39230377939676">
        <ele>27.14361572265625</ele>
        <time>2021-06-20T14:35:22Z</time>
      </trkpt>
      <trkpt lat="30.523059415634176" lon="114.39229783383816">
        <ele>24.1256103515625</ele>
        <time>2021-06-20T14:35:34Z</time>
      </trkpt>
      <trkpt lat="30.52277955980501" lon="114.39227967869294">
        <ele>23.82659912109375</ele>
        <time>2021-06-20T14:35:46Z</time>
      </trkpt>
      <trkpt lat="30.522712573181668" lon="114.39230383357791">
        <ele>25.524658203125</ele>
        <time>2021-06-20T14:35:49Z</time>
      </trkpt>
      <trkpt lat="30.52239149207878" lon="114.3923139011327">
        <ele>25.8304443359375</ele>
        <time>2021-06-20T14:36:04Z</time>
      </trkpt>
      <trkpt lat="30.52231745712303" lon="114.3923258464658">
        <ele>24.404296875</ele>
        <time>2021-06-20T14:36:07Z</time>
      </trkpt>
      <trkpt lat="30.522197308865668" lon="114.39240183170779">
        <ele>24.72564697265625</ele>
        <time>2021-06-20T14:36:13Z</time>
      </trkpt>
      <trkpt lat="30.52208851315516" lon="114.39267996541213">
        <ele>22.89080810546875</ele>
        <time>2021-06-20T14:36:25Z</time>
      </trkpt>
      <trkpt lat="30.5220754842483" lon="114.39274807363037">
        <ele>21.9261474609375</ele>
        <time>2021-06-20T14:36:28Z</time>
      </trkpt>
      <trkpt lat="30.522092539843797" lon="114.39291413496257">
        <ele>21.60223388671875</ele>
        <time>2021-06-20T14:36:34Z</time>
      </trkpt>
      <trkpt lat="30.522253855991014" lon="114.39313798217242">
        <ele>21.82989501953125</ele>
        <time>2021-06-20T14:36:46Z</time>
      </trkpt>
      <trkpt lat="30.522569504000487" lon="114.39318516928071">
        <ele>20.91888427734375</ele>
        <time>2021-06-20T14:36:58Z</time>
      </trkpt>
      <trkpt lat="30.522817631746797" lon="114.39320712688634">
        <ele>18.8360595703125</ele>
        <time>2021-06-20T14:37:07Z</time>
      </trkpt>
      <trkpt lat="30.523102643469265" lon="114.3932079160251">
        <ele>20.681396484375</ele>
        <time>2021-06-20T14:37:19Z</time>
      </trkpt>
      <trkpt lat="30.523320671364342" lon="114.39322092174645">
        <ele>21.290283203125</ele>
        <time>2021-06-20T14:37:28Z</time>
      </trkpt>
      <trkpt lat="30.523449494443323" lon="114.393146018133">
        <ele>24.23876953125</ele>
        <time>2021-06-20T14:37:34Z</time>
      </trkpt>
      <trkpt lat="30.523525710371196" lon="114.39305999413892">
        <ele>26.64581298828125</ele>
        <time>2021-06-20T14:37:40Z</time>
      </trkpt>
      <trkpt lat="30.523536584934533" lon="114.39289691399159">
        <ele>25.80023193359375</ele>
        <time>2021-06-20T14:37:46Z</time>
      </trkpt>
      <trkpt lat="30.523590579745623" lon="114.39272677643922">
        <ele>28.594970703125</ele>
        <time>2021-06-20T14:37:52Z</time>
      </trkpt>
      <trkpt lat="30.52359439177864" lon="114.3926407605169">
        <ele>27.20733642578125</ele>
        <time>2021-06-20T14:37:55Z</time>
      </trkpt>
      <trkpt lat="30.523493551087483" lon="114.39243265107017">
        <ele>26.08770751953125</ele>
        <time>2021-06-20T14:38:04Z</time>
      </trkpt>
      <trkpt lat="30.523436615873543" lon="114.39236563535646">
        <ele>25.27874755859375</ele>
        <time>2021-06-20T14:38:07Z</time>
      </trkpt>
      <trkpt lat="30.5232343376549" lon="114.39224762117304">
        <ele>28.4766845703125</ele>
        <time>2021-06-20T14:38:16Z</time>
      </trkpt>
      <trkpt lat="30.523100365812347" lon="114.39228887612353">
        <ele>25.335205078125</ele>
        <time>2021-06-20T14:38:22Z</time>
      </trkpt>
      <trkpt lat="30.5227874220921" lon="114.39228971748692">
        <ele>20.8731689453125</ele>
        <time>2021-06-20T14:38:37Z</time>
      </trkpt>
      <trkpt lat="30.52257860767707" lon="114.39231279942831">
        <ele>21.62109375</ele>
        <time>2021-06-20T14:38:46Z</time>
      </trkpt>
      <trkpt lat="30.522486409415162" lon="114.39229489920615">
        <ele>22.13330078125</ele>
        <time>2021-06-20T14:38:49Z</time>
      </trkpt>
      <trkpt lat="30.522243683459063" lon="114.39238880339364">
        <ele>21.2598876953125</ele>
        <time>2021-06-20T14:39:01Z</time>
      </trkpt>
      <trkpt lat="30.52216963970689" lon="114.39244687642545">
        <ele>19.555419921875</ele>
        <time>2021-06-20T14:39:04Z</time>
      </trkpt>
      <trkpt lat="30.522138707859938" lon="114.39253777804318">
        <ele>20.33843994140625</ele>
        <time>2021-06-20T14:39:07Z</time>
      </trkpt>
      <trkpt lat="30.522084729535212" lon="114.39260887412976">
        <ele>21.1824951171875</ele>
        <time>2021-06-20T14:39:10Z</time>
      </trkpt>
      <trkpt lat="30.522065461966324" lon="114.39268403756462">
        <ele>21.08868408203125</ele>
        <time>2021-06-20T14:39:13Z</time>
      </trkpt>
      <trkpt lat="30.522065448214228" lon="114.39276109899444">
        <ele>20.1484375</ele>
        <time>2021-06-20T14:39:16Z</time>
      </trkpt>
      <trkpt lat="30.52212155546769" lon="114.39291901664758">
        <ele>23.65087890625</ele>
        <time>2021-06-20T14:39:22Z</time>
      </trkpt>
      <trkpt lat="30.52216438903984" lon="114.39299716059466">
        <ele>24.20404052734375</ele>
        <time>2021-06-20T14:39:25Z</time>
      </trkpt>
      <trkpt lat="30.522221869042387" lon="114.39306092213478">
        <ele>23.9351806640625</ele>
        <time>2021-06-20T14:39:28Z</time>
      </trkpt>
      <trkpt lat="30.522432557106082" lon="114.39318599529682">
        <ele>22.294921875</ele>
        <time>2021-06-20T14:39:37Z</time>
      </trkpt>
      <trkpt lat="30.522558657206016" lon="114.39318218538847">
        <ele>20.71258544921875</ele>
        <time>2021-06-20T14:39:43Z</time>
      </trkpt>
      <trkpt lat="30.522720548249055" lon="114.39321012021503">
        <ele>21.8765869140625</ele>
        <time>2021-06-20T14:39:49Z</time>
      </trkpt>
      <trkpt lat="30.52305274764659" lon="114.39319788045944">
        <ele>25.2152099609375</ele>
        <time>2021-06-20T14:40:01Z</time>
      </trkpt>
      <trkpt lat="30.5233307109024" lon="114.39318401735609">
        <ele>22.490966796875</ele>
        <time>2021-06-20T14:40:10Z</time>
      </trkpt>
      <trkpt lat="30.523404746163614" lon="114.39316691589814">
        <ele>22.36175537109375</ele>
        <time>2021-06-20T14:40:13Z</time>
      </trkpt>
      <trkpt lat="30.52346658192607" lon="114.39312702224503">
        <ele>21.01385498046875</ele>
        <time>2021-06-20T14:40:16Z</time>
      </trkpt>
      <trkpt lat="30.523582670914358" lon="114.39298482604306">
        <ele>20.22161865234375</ele>
        <time>2021-06-20T14:40:22Z</time>
      </trkpt>
      <trkpt lat="30.52359273298061" lon="114.3928187617718">
        <ele>21.11907958984375</ele>
        <time>2021-06-20T14:40:28Z</time>
      </trkpt>
      <trkpt lat="30.523611729047662" lon="114.39274278384079">
        <ele>19.38037109375</ele>
        <time>2021-06-20T14:40:31Z</time>
      </trkpt>
      <trkpt lat="30.52360767695718" lon="114.39265568317052">
        <ele>19.37591552734375</ele>
        <time>2021-06-20T14:40:34Z</time>
      </trkpt>
      <trkpt lat="30.523520395929072" lon="114.3924437736367">
        <ele>21.54229736328125</ele>
        <time>2021-06-20T14:40:43Z</time>
      </trkpt>
      <trkpt lat="30.523457494115863" lon="114.39237974313261">
        <ele>22.495361328125</ele>
        <time>2021-06-20T14:40:46Z</time>
      </trkpt>
      <trkpt lat="30.523369639694693" lon="114.39233660802314">
        <ele>21.9759521484375</ele>
        <time>2021-06-20T14:40:49Z</time>
      </trkpt>
      <trkpt lat="30.523166259191793" lon="114.39230786398993">
        <ele>22.2960205078125</ele>
        <time>2021-06-20T14:40:58Z</time>
      </trkpt>
      <trkpt lat="30.52299731132605" lon="114.39231683289977">
        <ele>20.736572265625</ele>
        <time>2021-06-20T14:41:04Z</time>
      </trkpt>
      <trkpt lat="30.52280830623788" lon="114.39227370676161">
        <ele>19.88873291015625</ele>
        <time>2021-06-20T14:41:13Z</time>
      </trkpt>
      <trkpt lat="30.522660507902696" lon="114.39229569800261">
        <ele>20.076416015625</ele>
        <time>2021-06-20T14:41:19Z</time>
      </trkpt>
      <trkpt lat="30.522588374911575" lon="114.39228892087125">
        <ele>20.96636962890625</ele>
        <time>2021-06-20T14:41:22Z</time>
      </trkpt>
      <trkpt lat="30.52252952554669" lon="114.39230384957602">
        <ele>21.2633056640625</ele>
        <time>2021-06-20T14:41:25Z</time>
      </trkpt>
      <trkpt lat="30.522411567004408" lon="114.39227591213367">
        <ele>18.726806640625</ele>
        <time>2021-06-20T14:41:31Z</time>
      </trkpt>
      <trkpt lat="30.52233969323205" lon="114.39232991459079">
        <ele>19.0882568359375</ele>
        <time>2021-06-20T14:41:34Z</time>
      </trkpt>
      <trkpt lat="30.52225941761794" lon="114.39235976879917">
        <ele>19.6689453125</ele>
        <time>2021-06-20T14:41:37Z</time>
      </trkpt>
      <trkpt lat="30.52220571336535" lon="114.39241295586945">
        <ele>20.679443359375</ele>
        <time>2021-06-20T14:41:40Z</time>
      </trkpt>
      <trkpt lat="30.522158511243838" lon="114.39249978865794">
        <ele>21.30487060546875</ele>
        <time>2021-06-20T14:41:43Z</time>
      </trkpt>
      <trkpt lat="30.522139515258445" lon="114.39257088155688">
        <ele>20.6689453125</ele>
        <time>2021-06-20T14:41:46Z</time>
      </trkpt>
      <trkpt lat="30.5220806452708" lon="114.3927000454545">
        <ele>20.84588623046875</ele>
        <time>2021-06-20T14:41:52Z</time>
      </trkpt>
      <trkpt lat="30.522094448073073" lon="114.39285606692516">
        <ele>21.30548095703125</ele>
        <time>2021-06-20T14:41:58Z</time>
      </trkpt>
      <trkpt lat="30.522207764793855" lon="114.39307801826688">
        <ele>25.5552978515625</ele>
        <time>2021-06-20T14:42:07Z</time>
      </trkpt>
      <trkpt lat="30.52236774561699" lon="114.39318003128085">
        <ele>24.14666748046875</ele>
        <time>2021-06-20T14:42:16Z</time>
      </trkpt>
      <trkpt lat="30.522603673237736" lon="114.39318299550149">
        <ele>23.57379150390625</ele>
        <time>2021-06-20T14:42:25Z</time>
      </trkpt>
      <trkpt lat="30.522686657851033" lon="114.39316399382044">
        <ele>23.62750244140625</ele>
        <time>2021-06-20T14:42:28Z</time>
      </trkpt>
      <trkpt lat="30.522780481790523" lon="114.39319491941288">
        <ele>19.753662109375</ele>
        <time>2021-06-20T14:42:31Z</time>
      </trkpt>
      <trkpt lat="30.52297573109412" lon="114.39320412822536">
        <ele>19.76556396484375</ele>
        <time>2021-06-20T14:42:40Z</time>
      </trkpt>
      <trkpt lat="30.523128680672293" lon="114.39318403501338">
        <ele>17.4736328125</ele>
        <time>2021-06-20T14:42:46Z</time>
      </trkpt>
      <trkpt lat="30.523304673832868" lon="114.39320708431956">
        <ele>18.63824462890625</ele>
        <time>2021-06-20T14:42:52Z</time>
      </trkpt>
      <trkpt lat="30.52339850851444" lon="114.39316990128134">
        <ele>24.033935546875</ele>
        <time>2021-06-20T14:42:58Z</time>
      </trkpt>
      <trkpt lat="30.523511607292733" lon="114.39307003523105">
        <ele>26.08245849609375</ele>
        <time>2021-06-20T14:43:04Z</time>
      </trkpt>
      <trkpt lat="30.52364372985272" lon="114.3927349120889">
        <ele>29.1265869140625</ele>
        <time>2021-06-20T14:43:16Z</time>
      </trkpt>
      <trkpt lat="30.52354045954028" lon="114.39246385100915">
        <ele>27.8760986328125</ele>
        <time>2021-06-20T14:43:28Z</time>
      </trkpt>
      <trkpt lat="30.523436619139684" lon="114.39234881238298">
        <ele>27.9798583984375</ele>
        <time>2021-06-20T14:43:34Z</time>
      </trkpt>
      <trkpt lat="30.523323551365475" lon="114.39227284771749">
        <ele>27.24169921875</ele>
        <time>2021-06-20T14:43:40Z</time>
      </trkpt>
      <trkpt lat="30.523065385372277" lon="114.39227883970008">
        <ele>27.7122802734375</ele>
        <time>2021-06-20T14:43:49Z</time>
      </trkpt>
      <trkpt lat="30.523002468305233" lon="114.39229376875326">
        <ele>26.6678466796875</ele>
        <time>2021-06-20T14:43:52Z</time>
      </trkpt>
      <trkpt lat="30.522863354338647" lon="114.39228265607946">
        <ele>26.83673095703125</ele>
        <time>2021-06-20T14:43:58Z</time>
      </trkpt>
      <trkpt lat="30.522714471240082" lon="114.39230491876236">
        <ele>24.88427734375</ele>
        <time>2021-06-20T14:44:04Z</time>
      </trkpt>
      <trkpt lat="30.522388515591643" lon="114.39228079821872">
        <ele>24.54302978515625</ele>
        <time>2021-06-20T14:44:19Z</time>
      </trkpt>
      <trkpt lat="30.522207344681043" lon="114.39239097727916">
        <ele>19.71844482421875</ele>
        <time>2021-06-20T14:44:28Z</time>
      </trkpt>
      <trkpt lat="30.522122715244777" lon="114.39249979178639">
        <ele>19.29315185546875</ele>
        <time>2021-06-20T14:44:34Z</time>
      </trkpt>
      <trkpt lat="30.522084693872067" lon="114.39280803980219">
        <ele>22.68389892578125</ele>
        <time>2021-06-20T14:44:46Z</time>
      </trkpt>
      <trkpt lat="30.522184710897665" lon="114.39309918541488">
        <ele>26.964599609375</ele>
        <time>2021-06-20T14:44:58Z</time>
      </trkpt>
      <trkpt lat="30.522410592332506" lon="114.3931800275362">
        <ele>25.1356201171875</ele>
        <time>2021-06-20T14:45:07Z</time>
      </trkpt>
      <trkpt lat="30.522693705682567" lon="114.39318217358563">
        <ele>22.63458251953125</ele>
        <time>2021-06-20T14:45:19Z</time>
      </trkpt>
      <trkpt lat="30.522840414821623" lon="114.3931829748109">
        <ele>24.17291259765625</ele>
        <time>2021-06-20T14:45:25Z</time>
      </trkpt>
      <trkpt lat="30.523073626231152" lon="114.393213074201">
        <ele>25.394287109375</ele>
        <time>2021-06-20T14:45:34Z</time>
      </trkpt>
      <trkpt lat="30.523262640700004" lon="114.39320708799323">
        <ele>26.5360107421875</ele>
        <time>2021-06-20T14:45:43Z</time>
      </trkpt>
      <trkpt lat="30.523392545857572" lon="114.39314900794531">
        <ele>27.43414306640625</ele>
        <time>2021-06-20T14:45:49Z</time>
      </trkpt>
      <trkpt lat="30.523535483307896" lon="114.39299704076346">
        <ele>26.34088134765625</ele>
        <time>2021-06-20T14:45:58Z</time>
      </trkpt>
      <trkpt lat="30.523603604331583" lon="114.39268281776269">
        <ele>23.43255615234375</ele>
        <time>2021-06-20T14:46:10Z</time>
      </trkpt>
      <trkpt lat="30.52354045840941" lon="114.3924698204829">
        <ele>23.64251708984375</ele>
        <time>2021-06-20T14:46:19Z</time>
      </trkpt>
      <trkpt lat="30.5234005498961" lon="114.392359669065">
        <ele>23.9207763671875</ele>
        <time>2021-06-20T14:46:28Z</time>
      </trkpt>
      <trkpt lat="30.523182263279672" lon="114.3922856129173">
        <ele>24.742919921875</ele>
        <time>2021-06-20T14:46:34Z</time>
      </trkpt>
      <trkpt lat="30.523012505395226" lon="114.3922766736239">
        <ele>22.17108154296875</ele>
        <time>2021-06-20T14:46:40Z</time>
      </trkpt>
      <trkpt lat="30.522934399166267" lon="114.39230679890403">
        <ele>22.41802978515625</ele>
        <time>2021-06-20T14:46:43Z</time>
      </trkpt>
      <trkpt lat="30.52263637134647" lon="114.39230275488757">
        <ele>20.98004150390625</ele>
        <time>2021-06-20T14:46:55Z</time>
      </trkpt>
      <trkpt lat="30.522403426471932" lon="114.39230168989633">
        <ele>20.9114990234375</ele>
        <time>2021-06-20T14:47:04Z</time>
      </trkpt>
      <trkpt lat="30.52223121140178" lon="114.39237686558481">
        <ele>23.1512451171875</ele>
        <time>2021-06-20T14:47:10Z</time>
      </trkpt>
      <trkpt lat="30.52216258897998" lon="114.39244687704166">
        <ele>22.29425048828125</ele>
        <time>2021-06-20T14:47:13Z</time>
      </trkpt>
      <trkpt lat="30.522089607878396" lon="114.39262488286217">
        <ele>24.84649658203125</ele>
        <time>2021-06-20T14:47:19Z</time>
      </trkpt>
      <trkpt lat="30.52207250947523" lon="114.39270194556498">
        <ele>27.092529296875</ele>
        <time>2021-06-20T14:47:22Z</time>
      </trkpt>
      <trkpt lat="30.52209552715292" lon="114.3928888995788">
        <ele>26.82342529296875</ele>
        <time>2021-06-20T14:47:28Z</time>
      </trkpt>
      <trkpt lat="30.522144596986777" lon="114.39297192710038">
        <ele>28.63446044921875</ele>
        <time>2021-06-20T14:47:31Z</time>
      </trkpt>
      <trkpt lat="30.52221970056721" lon="114.3930549526802">
        <ele>28.94549560546875</ele>
        <time>2021-06-20T14:47:34Z</time>
      </trkpt>
      <trkpt lat="30.5223167775708" lon="114.39309211882599">
        <ele>26.3160400390625</ele>
        <time>2021-06-20T14:47:37Z</time>
      </trkpt>
      <trkpt lat="30.52238781799784" lon="114.39314909575658">
        <ele>23.84375</ele>
        <time>2021-06-20T14:47:40Z</time>
      </trkpt>
      <trkpt lat="30.522481640181795" lon="114.39319114664146">
        <ele>24.83306884765625</ele>
        <time>2021-06-20T14:47:43Z</time>
      </trkpt>
      <trkpt lat="30.522824418602756" lon="114.39316099694332">
        <ele>22.423095703125</ele>
        <time>2021-06-20T14:47:55Z</time>
      </trkpt>
      <trkpt lat="30.52289763539184" lon="114.39317510068746">
        <ele>23.67333984375</ele>
        <time>2021-06-20T14:47:58Z</time>
      </trkpt>
      <trkpt lat="30.522966791811253" lon="114.39314307548625">
        <ele>24.99456787109375</ele>
        <time>2021-06-20T14:48:01Z</time>
      </trkpt>
      <trkpt lat="30.523244747313953" lon="114.39317805518955">
        <ele>25.773193359375</ele>
        <time>2021-06-20T14:48:10Z</time>
      </trkpt>
      <trkpt lat="30.52332257386769" lon="114.39319405798705">
        <ele>25.88153076171875</ele>
        <time>2021-06-20T14:48:13Z</time>
      </trkpt>
      <trkpt lat="30.523511607292733" lon="114.39307003523105">
        <ele>26.2210693359375</ele>
        <time>2021-06-20T14:48:22Z</time>
      </trkpt>
      <trkpt lat="30.523582679635886" lon="114.39293299892556">
        <ele>23.64813232421875</ele>
        <time>2021-06-20T14:48:28Z</time>
      </trkpt>
      <trkpt lat="30.52360875443562" lon="114.3926958417586">
        <ele>25.318359375</ele>
        <time>2021-06-20T14:48:37Z</time>
      </trkpt>
      <trkpt lat="30.523600364364814" lon="114.39260467154178">
        <ele>25.583251953125</ele>
        <time>2021-06-20T14:48:40Z</time>
      </trkpt>
      <trkpt lat="30.523433359175716" lon="114.39237865988777">
        <ele>23.38037109375</ele>
        <time>2021-06-20T14:48:52Z</time>
      </trkpt>
      <trkpt lat="30.52336042127242" lon="114.39232765467652">
        <ele>25.72149658203125</ele>
        <time>2021-06-20T14:48:55Z</time>
      </trkpt>
      <trkpt lat="30.523144298614255" lon="114.39228181751302">
        <ele>24.721435546875</ele>
        <time>2021-06-20T14:49:04Z</time>
      </trkpt>
      <trkpt lat="30.522818335782908" lon="114.3922948701962">
        <ele>23.69921875</ele>
        <time>2021-06-20T14:49:16Z</time>
      </trkpt>
      <trkpt lat="30.522505664492638" lon="114.39228892810002">
        <ele>23.19659423828125</ele>
        <time>2021-06-20T14:49:28Z</time>
      </trkpt>
      <trkpt lat="30.522370614441233" lon="114.39229680868871">
        <ele>22.25408935546875</ele>
        <time>2021-06-20T14:49:34Z</time>
      </trkpt>
      <trkpt lat="30.52218861749038" lon="114.39247292337024">
        <ele>21.9564208984375</ele>
        <time>2021-06-20T14:49:43Z</time>
      </trkpt>
      <trkpt lat="30.522121609517015" lon="114.39261294103052">
        <ele>22.5787353515625</ele>
        <time>2021-06-20T14:49:49Z</time>
      </trkpt>
      <trkpt lat="30.522097454610794" lon="114.39272202276092">
        <ele>23.9619140625</ele>
        <time>2021-06-20T14:49:52Z</time>
      </trkpt>
      <trkpt lat="30.522133477668362" lon="114.39297708365305">
        <ele>23.36309814453125</ele>
        <time>2021-06-20T14:50:01Z</time>
      </trkpt>
      <trkpt lat="30.52219855151306" lon="114.39303596021792">
        <ele>25.59515380859375</ele>
        <time>2021-06-20T14:50:04Z</time>
      </trkpt>
      <trkpt lat="30.52223677797785" lon="114.39309809547248">
        <ele>25.2491455078125</ele>
        <time>2021-06-20T14:50:07Z</time>
      </trkpt>
      <trkpt lat="30.522359610336807" lon="114.39317894659563">
        <ele>24.77142333984375</ele>
        <time>2021-06-20T14:50:13Z</time>
      </trkpt>
      <trkpt lat="30.522434724156422" lon="114.39320119066494">
        <ele>24.1634521484375</ele>
        <time>2021-06-20T14:50:16Z</time>
      </trkpt>
      <trkpt lat="30.522746585803887" lon="114.39318406840778">
        <ele>22.90728759765625</ele>
        <time>2021-06-20T14:50:28Z</time>
      </trkpt>
      <trkpt lat="30.52284556392467" lon="114.39320413960172">
        <ele>22.1865234375</ele>
        <time>2021-06-20T14:50:31Z</time>
      </trkpt>
      <trkpt lat="30.522997700451448" lon="114.3931810616208">
        <ele>23.848876953125</ele>
        <time>2021-06-20T14:50:37Z</time>
      </trkpt>
      <trkpt lat="30.52306685003175" lon="114.39319190954319">
        <ele>24.390380859375</ele>
        <time>2021-06-20T14:50:40Z</time>
      </trkpt>
      <trkpt lat="30.523159597437004" lon="114.39317100755778">
        <ele>22.67041015625</ele>
        <time>2021-06-20T14:50:43Z</time>
      </trkpt>
      <trkpt lat="30.523251794723894" lon="114.39319894846017">
        <ele>23.72833251953125</ele>
        <time>2021-06-20T14:50:46Z</time>
      </trkpt>
      <trkpt lat="30.523318777970864" lon="114.39318998808047">
        <ele>24.9591064453125</ele>
        <time>2021-06-20T14:50:49Z</time>
      </trkpt>
      <trkpt lat="30.52342970563342" lon="114.39309989064901">
        <ele>24.69732666015625</ele>
        <time>2021-06-20T14:50:55Z</time>
      </trkpt>
      <trkpt lat="30.52348557980253" lon="114.39303394830394">
        <ele>25.17327880859375</ele>
        <time>2021-06-20T14:50:58Z</time>
      </trkpt>
      <trkpt lat="30.523557738293302" lon="114.39288985716495">
        <ele>23.554443359375</ele>
        <time>2021-06-20T14:51:04Z</time>
      </trkpt>
      <trkpt lat="30.523599509024596" lon="114.39283884066916">
        <ele>22.72216796875</ele>
        <time>2021-06-20T14:51:07Z</time>
      </trkpt>
      <trkpt lat="30.523631534600714" lon="114.3926906842567">
        <ele>23.718505859375</ele>
        <time>2021-06-20T14:51:13Z</time>
      </trkpt>
      <trkpt lat="30.52354235498601" lon="114.39247877453084">
        <ele>24.8848876953125</ele>
        <time>2021-06-20T14:51:22Z</time>
      </trkpt>
      <trkpt lat="30.52350033404938" lon="114.39241474209364">
        <ele>25.31378173828125</ele>
        <time>2021-06-20T14:51:25Z</time>
      </trkpt>
      <trkpt lat="30.523363407562275" lon="114.39231083147313">
        <ele>25.1982421875</ele>
        <time>2021-06-20T14:51:31Z</time>
      </trkpt>
      <trkpt lat="30.523227550594157" lon="114.39228560895916">
        <ele>25.2352294921875</ele>
        <time>2021-06-20T14:51:37Z</time>
      </trkpt>
      <trkpt lat="30.52315324487771" lon="114.39229565493756">
        <ele>24.9390869140625</ele>
        <time>2021-06-20T14:51:40Z</time>
      </trkpt>
      <trkpt lat="30.522865523577405" lon="114.3922837412391">
        <ele>22.88909912109375</ele>
        <time>2021-06-20T14:51:52Z</time>
      </trkpt>
      <trkpt lat="30.522563432150974" lon="114.39225880462357">
        <ele>20.75091552734375</ele>
        <time>2021-06-20T14:52:04Z</time>
      </trkpt>
      <trkpt lat="30.522436517549135" lon="114.39226668448987">
        <ele>18.4656982421875</ele>
        <time>2021-06-20T14:52:10Z</time>
      </trkpt>
      <trkpt lat="30.522368444773726" lon="114.3922978942283">
        <ele>20.091064453125</ele>
        <time>2021-06-20T14:52:13Z</time>
      </trkpt>
      <trkpt lat="30.522253459180167" lon="114.39232096797807">
        <ele>19.90521240234375</ele>
        <time>2021-06-20T14:52:16Z</time>
      </trkpt>
      <trkpt lat="30.522168553844434" lon="114.39245284598907">
        <ele>20.65679931640625</ele>
        <time>2021-06-20T14:52:22Z</time>
      </trkpt>
      <trkpt lat="30.522103710076976" lon="114.3926208115034">
        <ele>21.218017578125</ele>
        <time>2021-06-20T14:52:28Z</time>
      </trkpt>
      <trkpt lat="30.522097432104918" lon="114.39285009707943">
        <ele>20.82000732421875</ele>
        <time>2021-06-20T14:52:34Z</time>
      </trkpt>
      <trkpt lat="30.522146493396136" lon="114.39298305213713">
        <ele>22.4962158203125</ele>
        <time>2021-06-20T14:52:40Z</time>
      </trkpt>
      <trkpt lat="30.522195562898315" lon="114.39307015025082">
        <ele>23.4976806640625</ele>
        <time>2021-06-20T14:52:43Z</time>
      </trkpt>
      <trkpt lat="30.522353647969116" lon="114.3931561538092">
        <ele>24.5321044921875</ele>
        <time>2021-06-20T14:52:49Z</time>
      </trkpt>
      <trkpt lat="30.522656551431112" lon="114.39319710103824">
        <ele>23.0067138671875</ele>
        <time>2021-06-20T14:53:01Z</time>
      </trkpt>
      <trkpt lat="30.522971665900833" lon="114.3931881189734">
        <ele>23.809326171875</ele>
        <time>2021-06-20T14:53:13Z</time>
      </trkpt>
      <trkpt lat="30.523207591665408" lon="114.39320193716614">
        <ele>23.08349609375</ele>
        <time>2021-06-20T14:53:22Z</time>
      </trkpt>
      <trkpt lat="30.523359728441257" lon="114.39317695974414">
        <ele>24.82220458984375</ele>
        <time>2021-06-20T14:53:28Z</time>
      </trkpt>
      <trkpt lat="30.52346956684782" lon="114.39311508265939">
        <ele>23.2164306640625</ele>
        <time>2021-06-20T14:53:34Z</time>
      </trkpt>
      <trkpt lat="30.523492627392915" lon="114.39305294199691">
        <ele>24.400390625</ele>
        <time>2021-06-20T14:53:37Z</time>
      </trkpt>
      <trkpt lat="30.523560706399383" lon="114.39297777295495">
        <ele>23.8397216796875</ele>
        <time>2021-06-20T14:53:40Z</time>
      </trkpt>
      <trkpt lat="30.523615542991504" lon="114.39264591416668">
        <ele>22.37628173828125</ele>
        <time>2021-06-20T14:53:52Z</time>
      </trkpt>
      <trkpt lat="30.523568383700304" lon="114.39250373553875">
        <ele>23.73114013671875</ele>
        <time>2021-06-20T14:53:58Z</time>
      </trkpt>
      <trkpt lat="30.523527448767652" lon="114.39243264810746">
        <ele>21.93841552734375</ele>
        <time>2021-06-20T14:54:01Z</time>
      </trkpt>
      <trkpt lat="30.52337344010695" lon="114.39231680002587">
        <ele>23.25054931640625</ele>
        <time>2021-06-20T14:54:10Z</time>
      </trkpt>
      <trkpt lat="30.523065384033455" lon="114.39228562313261">
        <ele>25.1639404296875</ele>
        <time>2021-06-20T14:54:25Z</time>
      </trkpt>
      <trkpt lat="30.522976434285944" lon="114.39229675574076">
        <ele>24.808837890625</ele>
        <time>2021-06-20T14:54:28Z</time>
      </trkpt>
      <trkpt lat="30.522852511206505" lon="114.39226176406544">
        <ele>26.53204345703125</ele>
        <time>2021-06-20T14:54:34Z</time>
      </trkpt>
      <trkpt lat="30.5225354984464" lon="114.39226884653596">
        <ele>25.613037109375</ele>
        <time>2021-06-20T14:54:46Z</time>
      </trkpt>
      <trkpt lat="30.522380649929275" lon="114.39228785367654">
        <ele>25.43597412109375</ele>
        <time>2021-06-20T14:54:52Z</time>
      </trkpt>
      <trkpt lat="30.52221168092716" lon="114.39240481517938">
        <ele>21.93743896484375</ele>
        <time>2021-06-20T14:55:01Z</time>
      </trkpt>
      <trkpt lat="30.52216258650506" lon="114.39245990133948">
        <ele>22.1939697265625</ele>
        <time>2021-06-20T14:55:04Z</time>
      </trkpt>
      <trkpt lat="30.5221007250456" lon="114.39263193677802">
        <ele>22.97039794921875</ele>
        <time>2021-06-20T14:55:10Z</time>
      </trkpt>
      <trkpt lat="30.522090661106358" lon="114.39280098433322">
        <ele>24.4581298828125</ele>
        <time>2021-06-20T14:55:16Z</time>
      </trkpt>
      <trkpt lat="30.522112608500493" lon="114.39290707822501">
        <ele>25.40447998046875</ele>
        <time>2021-06-20T14:55:19Z</time>
      </trkpt>
      <trkpt lat="30.52219854789764" lon="114.39305793935068">
        <ele>26.26611328125</ele>
        <time>2021-06-20T14:55:25Z</time>
      </trkpt>
      <trkpt lat="30.52227474004559" lon="114.39311898596026">
        <ele>22.7667236328125</ele>
        <time>2021-06-20T14:55:28Z</time>
      </trkpt>
      <trkpt lat="30.522428761982844" lon="114.39317704110877">
        <ele>25.156982421875</ele>
        <time>2021-06-20T14:55:34Z</time>
      </trkpt>
      <trkpt lat="30.52275146737482" lon="114.39318216853741">
        <ele>20.73443603515625</ele>
        <time>2021-06-20T14:55:46Z</time>
      </trkpt>
      <trkpt lat="30.523048682587106" lon="114.39318105716504">
        <ele>24.15167236328125</ele>
        <time>2021-06-20T14:55:58Z</time>
      </trkpt>
      <trkpt lat="30.52331878228287" lon="114.39316285317837">
        <ele>25.5904541015625</ele>
        <time>2021-06-20T14:56:07Z</time>
      </trkpt>
      <trkpt lat="30.52341559502407" lon="114.39315687504337">
        <ele>24.658447265625</ele>
        <time>2021-06-20T14:56:10Z</time>
      </trkpt>
      <trkpt lat="30.523475531263664" lon="114.39312485067603">
        <ele>23.5191650390625</ele>
        <time>2021-06-20T14:56:13Z</time>
      </trkpt>
      <trkpt lat="30.523588640088562" lon="114.392965831275">
        <ele>25.8284912109375</ele>
        <time>2021-06-20T14:56:19Z</time>
      </trkpt>
      <trkpt lat="30.523641557558605" lon="114.39275092153511">
        <ele>23.9197998046875</ele>
        <time>2021-06-20T14:56:28Z</time>
      </trkpt>
      <trkpt lat="30.52362855733573" lon="114.39265893745201">
        <ele>23.760498046875</ele>
        <time>2021-06-20T14:56:31Z</time>
      </trkpt>
      <trkpt lat="30.523470509463863" lon="114.39238679679912">
        <ele>23.59344482421875</ele>
        <time>2021-06-20T14:56:43Z</time>
      </trkpt>
      <trkpt lat="30.52342550286624" lon="114.39233768849269">
        <ele>23.5924072265625</ele>
        <time>2021-06-20T14:56:46Z</time>
      </trkpt>
      <trkpt lat="30.523351474406965" lon="114.3923168019457">
        <ele>22.23577880859375</ele>
        <time>2021-06-20T14:56:49Z</time>
      </trkpt>
      <trkpt lat="30.523280420984012" lon="114.39233661582095">
        <ele>22.90850830078125</ele>
        <time>2021-06-20T14:56:52Z</time>
      </trkpt>
      <trkpt lat="30.52320043003711" lon="114.39229782151344">
        <ele>22.87432861328125</ele>
        <time>2021-06-20T14:56:55Z</time>
      </trkpt>
      <trkpt lat="30.522971282797226" lon="114.39229187211683">
        <ele>25.66009521484375</ele>
        <time>2021-06-20T14:57:04Z</time>
      </trkpt>
      <trkpt lat="30.522826466544227" lon="114.39231874719587">
        <ele>22.96142578125</ele>
        <time>2021-06-20T14:57:10Z</time>
      </trkpt>
      <trkpt lat="30.5225406465587" lon="114.39229082440441">
        <ele>25.08544921875</ele>
        <time>2021-06-20T14:57:22Z</time>
      </trkpt>
      <trkpt lat="30.522353528017856" lon="114.39230684967143">
        <ele>26.578857421875</ele>
        <time>2021-06-20T14:57:28Z</time>
      </trkpt>
      <trkpt lat="30.522253720434467" lon="114.39237197952458">
        <ele>25.07818603515625</ele>
        <time>2021-06-20T14:57:31Z</time>
      </trkpt>
      <trkpt lat="30.52218970391329" lon="114.39246396906418">
        <ele>23.07452392578125</ele>
        <time>2021-06-20T14:57:34Z</time>
      </trkpt>
      <trkpt lat="30.52214547995436" lon="114.39257793590464">
        <ele>20.879638671875</ele>
        <time>2021-06-20T14:57:37Z</time>
      </trkpt>
      <trkpt lat="30.522122678307095" lon="114.39270085580928">
        <ele>21.7056884765625</ele>
        <time>2021-06-20T14:57:40Z</time>
      </trkpt>
      <trkpt lat="30.522138653479857" lon="114.39284005372424">
        <ele>21.8038330078125</ele>
        <time>2021-06-20T14:57:43Z</time>
      </trkpt>
      <trkpt lat="30.52218445971155" lon="114.39297789323663">
        <ele>20.56707763671875</ele>
        <time>2021-06-20T14:57:46Z</time>
      </trkpt>
      <trkpt lat="30.522302674665216" lon="114.39310107454143">
        <ele>20.72015380859375</ele>
        <time>2021-06-20T14:57:52Z</time>
      </trkpt>
      <trkpt lat="30.5224366275047" lon="114.39316917130117">
        <ele>18.93975830078125</ele>
        <time>2021-06-20T14:57:55Z</time>
      </trkpt>
      <trkpt lat="30.522759602996405" lon="114.39318108243003">
        <ele>22.802978515625</ele>
        <time>2021-06-20T14:58:04Z</time>
      </trkpt>
      <trkpt lat="30.523053837280568" lon="114.3931669465673">
        <ele>20.8607177734375</ele>
        <time>2021-06-20T14:58:13Z</time>
      </trkpt>
      <trkpt lat="30.52335159728058" lon="114.39315009691887">
        <ele>21.43243408203125</ele>
        <time>2021-06-20T14:58:22Z</time>
      </trkpt>
      <trkpt lat="30.52344651756496" lon="114.39310802962162">
        <ele>22.07110595703125</ele>
        <time>2021-06-20T14:58:25Z</time>
      </trkpt>
      <trkpt lat="30.523597613206324" lon="114.39282473092122">
        <ele>22.9808349609375</ele>
        <time>2021-06-20T14:58:37Z</time>
      </trkpt>
      <trkpt lat="30.523616627569222" lon="114.39264672809806">
        <ele>24.60198974609375</ele>
        <time>2021-06-20T14:58:43Z</time>
      </trkpt>
      <trkpt lat="30.52359142052385" lon="114.39257672416616">
        <ele>24.64752197265625</ele>
        <time>2021-06-20T14:58:46Z</time>
      </trkpt>
      <trkpt lat="30.523539368766887" lon="114.39249586921055">
        <ele>25.3709716796875</ele>
        <time>2021-06-20T14:58:49Z</time>
      </trkpt>
      <trkpt lat="30.52336041366972" lon="114.3923667273702">
        <ele>24.7080078125</ele>
        <time>2021-06-20T14:58:58Z</time>
      </trkpt>
      <trkpt lat="30.52316545120273" lon="114.39227964496605">
        <ele>29.8731689453125</ele>
        <time>2021-06-20T14:59:04Z</time>
      </trkpt>
      <trkpt lat="30.522979425380345" lon="114.3922557835594">
        <ele>31.055419921875</ele>
        <time>2021-06-20T14:59:10Z</time>
      </trkpt>
      <trkpt lat="30.522916509098817" lon="114.39226664253913">
        <ele>30.015869140625</ele>
        <time>2021-06-20T14:59:13Z</time>
      </trkpt>
      <trkpt lat="30.522766552619874" lon="114.3922316531899">
        <ele>26.602294921875</ele>
        <time>2021-06-20T14:59:19Z</time>
      </trkpt>
      <trkpt lat="30.52256750009175" lon="114.3922577189201">
        <ele>25.1470947265625</ele>
        <time>2021-06-20T14:59:28Z</time>
      </trkpt>
      <trkpt lat="30.522477471324883" lon="114.39223981855586">
        <ele>24.4569091796875</ele>
        <time>2021-06-20T14:59:31Z</time>
      </trkpt>
      <trkpt lat="30.522376317354887" lon="114.3922558362704">
        <ele>22.31103515625</ele>
        <time>2021-06-20T14:59:37Z</time>
      </trkpt>
    </trkseg>
  </trk>
</gpx>