<?xml version="1.0" encoding="UTF-8"?>
<gpx xmlns="http://www.topografix.com/GPX/1/1" xmlns:gpxtpx="http://www.garmin.com/xmlschemas/TrackPointExtension/v1" xmlns:xsi="http://www.w3.org/2001/XMLSchema-instance" xsi:schemaLocation="http://www.topografix.com/GPX/1/1 http://www.topografix.com/GPX/1/1/gpx.xsd" version="1.1" creator="gpx.py -- https://github.com/tkrajina/gpxpy">
  <trk>
    <name>gpx from keep</name>
    <type>Run</type>
    <trkseg>
      <trkpt lat="31.112504926494026" lon="121.36409264973356">
        <ele>12.57480432651937</ele>
        <time>2024-07-08T11:57:31Z</time>
      </trkpt>
      <trkpt lat="31.112497792438372" lon="121.3639998484019">
        <ele>12.119809283874929</ele>
        <time>2024-07-08T11:57:37Z</time>
      </trkpt>
      <trkpt lat="31.11256315398283" lon="121.36394739792858">
        <ele>11.581833691336215</ele>
        <time>2024-07-08T11:57:40Z</time>
      </trkpt>
      <trkpt lat="31.112622413959816" lon="121.36393899568009">
        <ele>9.506949913688004</ele>
        <time>2024-07-08T11:57:43Z</time>
      </trkpt>
      <trkpt lat="31.1127669832637" lon="121.36384884466307">
        <ele>6.673514856025577</ele>
        <time>2024-07-08T11:57:49Z</time>
      </trkpt>
      <trkpt lat="31.112844297424065" lon="121.36384286372">
        <ele>7.341079937294126</ele>
        <time>2024-07-08T11:57:52Z</time>
      </trkpt>
      <trkpt lat="31.11314918068251" lon="121.36370693610378">
        <ele>7.24790989048779</ele>
        <time>2024-07-08T11:58:04Z</time>
      </trkpt>
      <trkpt lat="31.113312111445243" lon="121.3636239134051">
        <ele>8.518738995306194</ele>
        <time>2024-07-08T11:58:10Z</time>
      </trkpt>
      <trkpt lat="31.113449951739167" lon="121.3635842908354">
        <ele>7.421245194040239</ele>
        <time>2024-07-08T11:58:16Z</time>
      </trkpt>
      <trkpt lat="31.11351811959514" lon="121.36353505737887">
        <ele>7.447162501513958</ele>
        <time>2024-07-08T11:58:19Z</time>
      </trkpt>
      <trkpt lat="31.113734737669752" lon="121.36349605502087">
        <ele>5.210611302405596</ele>
        <time>2024-07-08T11:58:28Z</time>
      </trkpt>
      <trkpt lat="31.11381936171388" lon="121.36345999499837">
        <ele>6.146131847053766</ele>
        <time>2024-07-08T11:58:31Z</time>
      </trkpt>
      <trkpt lat="31.11380269061592" lon="121.36353332113742">
        <ele>3.948995097540319</ele>
        <time>2024-07-08T11:58:46Z</time>
      </trkpt>
      <trkpt lat="31.113973528897272" lon="121.36346886412532">
        <ele>4.341127163730562</ele>
        <time>2024-07-08T11:58:52Z</time>
      </trkpt>
      <trkpt lat="31.113963388151063" lon="121.3635358623438">
        <ele>2.6089818999171257</ele>
        <time>2024-07-08T11:58:55Z</time>
      </trkpt>
      <trkpt lat="31.114020367282603" lon="121.36341475233283">
        <ele>1.260976360179484</ele>
        <time>2024-07-08T11:58:58Z</time>
      </trkpt>
      <trkpt lat="31.113994175456632" lon="121.3633178973867">
        <ele>0.9050717055797577</ele>
        <time>2024-07-08T11:59:01Z</time>
      </trkpt>
      <trkpt lat="31.11410212057191" lon="121.36331810905408">
        <ele>2.0763039104640484</ele>
        <time>2024-07-08T11:59:07Z</time>
      </trkpt>
      <trkpt lat="31.11419083766042" lon="121.36327357633014">
        <ele>4.402342996560037</ele>
        <time>2024-07-08T11:59:10Z</time>
      </trkpt>
      <trkpt lat="31.1142635271153" lon="121.3632087709944">
        <ele>6.553226807154715</ele>
        <time>2024-07-08T11:59:13Z</time>
      </trkpt>
      <trkpt lat="31.11433355668652" lon="121.3631745803075">
        <ele>6.134613721631467</ele>
        <time>2024-07-08T11:59:16Z</time>
      </trkpt>
      <trkpt lat="31.114416984420544" lon="121.36310335034855">
        <ele>7.201475163921714</ele>
        <time>2024-07-08T11:59:19Z</time>
      </trkpt>
      <trkpt lat="31.11460694370159" lon="121.36304483965344">
        <ele>8.002806605771184</ele>
        <time>2024-07-08T11:59:26Z</time>
      </trkpt>
      <trkpt lat="31.114645042010967" lon="121.36301232659486">
        <ele>9.393942975439131</ele>
        <time>2024-07-08T11:59:29Z</time>
      </trkpt>
      <trkpt lat="31.11482479861827" lon="121.36297471136946">
        <ele>9.528457296080887</ele>
        <time>2024-07-08T11:59:35Z</time>
      </trkpt>
      <trkpt lat="31.11494491914157" lon="121.36289245261975">
        <ele>11.050756881944835</ele>
        <time>2024-07-08T11:59:41Z</time>
      </trkpt>
      <trkpt lat="31.11517336372055" lon="121.36289507779988">
        <ele>10.685520499013364</ele>
        <time>2024-07-08T11:59:50Z</time>
      </trkpt>
      <trkpt lat="31.115500447293677" lon="121.3627551748628">
        <ele>11.217037487775087</ele>
        <time>2024-07-08T12:00:02Z</time>
      </trkpt>
      <trkpt lat="31.115553563138363" lon="121.36272591412391">
        <ele>12.403023635968566</ele>
        <time>2024-07-08T12:00:05Z</time>
      </trkpt>
      <trkpt lat="31.115633940884965" lon="121.36272115897852">
        <ele>12.718975750729442</ele>
        <time>2024-07-08T12:00:08Z</time>
      </trkpt>
      <trkpt lat="31.115687663864318" lon="121.36267770943076">
        <ele>12.321615514345467</ele>
        <time>2024-07-08T12:00:11Z</time>
      </trkpt>
      <trkpt lat="31.115864617757314" lon="121.36262976420875">
        <ele>14.106478052213788</ele>
        <time>2024-07-08T12:00:17Z</time>
      </trkpt>
      <trkpt lat="31.11605445442801" lon="121.36251862351772">
        <ele>13.554144256748259</ele>
        <time>2024-07-08T12:00:26Z</time>
      </trkpt>
      <trkpt lat="31.116354010665003" lon="121.36240992214185">
        <ele>13.359408598393202</ele>
        <time>2024-07-08T12:00:38Z</time>
      </trkpt>
      <trkpt lat="31.11641791355159" lon="121.36238122037545">
        <ele>12.452702024951577</ele>
        <time>2024-07-08T12:00:41Z</time>
      </trkpt>
      <trkpt lat="31.116492346203135" lon="121.36238330431382">
        <ele>12.292868353426456</ele>
        <time>2024-07-08T12:00:44Z</time>
      </trkpt>
      <trkpt lat="31.116739469820754" lon="121.36228231513769">
        <ele>11.122210420668125</ele>
        <time>2024-07-08T12:00:53Z</time>
      </trkpt>
      <trkpt lat="31.116785935981284" lon="121.36221816020935">
        <ele>11.80526434443891</ele>
        <time>2024-07-08T12:00:56Z</time>
      </trkpt>
      <trkpt lat="31.11697616435147" lon="121.36216363782216">
        <ele>10.258386665955186</ele>
        <time>2024-07-08T12:01:05Z</time>
      </trkpt>
      <trkpt lat="31.117042204199926" lon="121.36212076957597">
        <ele>10.841030359268188</ele>
        <time>2024-07-08T12:01:08Z</time>
      </trkpt>
      <trkpt lat="31.11709463979201" lon="121.36213110461216">
        <ele>10.329492309130728</ele>
        <time>2024-07-08T12:01:11Z</time>
      </trkpt>
      <trkpt lat="31.117177368091188" lon="121.3620360065009">
        <ele>12.030708272010088</ele>
        <time>2024-07-08T12:01:17Z</time>
      </trkpt>
      <trkpt lat="31.117282020586234" lon="121.36202270344756">
        <ele>11.353635560721159</ele>
        <time>2024-07-08T12:01:23Z</time>
      </trkpt>
      <trkpt lat="31.117407203534498" lon="121.36192975714393">
        <ele>10.703663322143257</ele>
        <time>2024-07-08T12:01:29Z</time>
      </trkpt>
      <trkpt lat="31.11723487530236" lon="121.36181086813171">
        <ele>9.39424765855074</ele>
        <time>2024-07-08T12:01:39Z</time>
      </trkpt>
      <trkpt lat="31.11707656829836" lon="121.36192013449691">
        <ele>9.686367130838335</ele>
        <time>2024-07-08T12:01:45Z</time>
      </trkpt>
      <trkpt lat="31.116961329254593" lon="121.36193961660781">
        <ele>7.130497740581632</ele>
        <time>2024-07-08T12:01:51Z</time>
      </trkpt>
      <trkpt lat="31.116694717119056" lon="121.36209235375868">
        <ele>6.427875633351505</ele>
        <time>2024-07-08T12:02:03Z</time>
      </trkpt>
      <trkpt lat="31.11655433195993" lon="121.36213787635741">
        <ele>4.387169221416116</ele>
        <time>2024-07-08T12:02:09Z</time>
      </trkpt>
      <trkpt lat="31.116500500379782" lon="121.3621908538949">
        <ele>5.504148961044848</ele>
        <time>2024-07-08T12:02:12Z</time>
      </trkpt>
      <trkpt lat="31.1163597869533" lon="121.36221997952867">
        <ele>7.18320497777313</ele>
        <time>2024-07-08T12:02:18Z</time>
      </trkpt>
      <trkpt lat="31.116224098169823" lon="121.3622835129366">
        <ele>9.281619334593415</ele>
        <time>2024-07-08T12:02:24Z</time>
      </trkpt>
      <trkpt lat="31.116153019618228" lon="121.3622962031706">
        <ele>8.923894280567765</ele>
        <time>2024-07-08T12:02:27Z</time>
      </trkpt>
      <trkpt lat="31.116079200189365" lon="121.3623522941463">
        <ele>9.593222863972187</ele>
        <time>2024-07-08T12:02:30Z</time>
      </trkpt>
      <trkpt lat="31.11600653359458" lon="121.36237814615885">
        <ele>9.954382980242372</ele>
        <time>2024-07-08T12:02:33Z</time>
      </trkpt>
      <trkpt lat="31.115797722720348" lon="121.3625005803377">
        <ele>10.438782524317503</ele>
        <time>2024-07-08T12:02:42Z</time>
      </trkpt>
      <trkpt lat="31.115518518008418" lon="121.36256626737536">
        <ele>9.223541564308107</ele>
        <time>2024-07-08T12:02:54Z</time>
      </trkpt>
      <trkpt lat="31.115344404341883" lon="121.36260478449674">
        <ele>8.493420298211277</ele>
        <time>2024-07-08T12:03:03Z</time>
      </trkpt>
      <trkpt lat="31.115085502972168" lon="121.36269266693051">
        <ele>10.249458122067153</ele>
        <time>2024-07-08T12:03:12Z</time>
      </trkpt>
      <trkpt lat="31.114915331729446" lon="121.36272463787961">
        <ele>9.223004815168679</ele>
        <time>2024-07-08T12:03:18Z</time>
      </trkpt>
      <trkpt lat="31.11484987425268" lon="121.36279469859758">
        <ele>9.60512552689761</ele>
        <time>2024-07-08T12:03:21Z</time>
      </trkpt>
      <trkpt lat="31.114770057480314" lon="121.36279066138079">
        <ele>9.061393767595291</ele>
        <time>2024-07-08T12:03:24Z</time>
      </trkpt>
      <trkpt lat="31.11470661402299" lon="121.36274596339972">
        <ele>7.786253590136766</ele>
        <time>2024-07-08T12:03:27Z</time>
      </trkpt>
      <trkpt lat="31.11463361199456" lon="121.36282383427428">
        <ele>9.294438911601901</ele>
        <time>2024-07-08T12:03:30Z</time>
      </trkpt>
      <trkpt lat="31.114562271047706" lon="121.362865086469">
        <ele>8.855624397285283</ele>
        <time>2024-07-08T12:03:33Z</time>
      </trkpt>
      <trkpt lat="31.114491899511034" lon="121.36293310201883">
        <ele>8.015372455120087</ele>
        <time>2024-07-08T12:03:37Z</time>
      </trkpt>
      <trkpt lat="31.11420293952767" lon="121.36308741789819">
        <ele>6.531131603755057</ele>
        <time>2024-07-08T12:03:49Z</time>
      </trkpt>
      <trkpt lat="31.11407276311101" lon="121.36307077782062">
        <ele>6.006579585373402</ele>
        <time>2024-07-08T12:03:55Z</time>
      </trkpt>
      <trkpt lat="31.113972739131956" lon="121.36313937721317">
        <ele>5.852847122587264</ele>
        <time>2024-07-08T12:04:01Z</time>
      </trkpt>
      <trkpt lat="31.113911240062883" lon="121.36305564026061">
        <ele>4.981198606081307</ele>
        <time>2024-07-08T12:04:07Z</time>
      </trkpt>
      <trkpt lat="31.113697992007683" lon="121.3631554759258">
        <ele>4.941779337823391</ele>
        <time>2024-07-08T12:04:19Z</time>
      </trkpt>
      <trkpt lat="31.113653822722412" lon="121.36329638116354">
        <ele>4.540905557572842</ele>
        <time>2024-07-08T12:04:28Z</time>
      </trkpt>
      <trkpt lat="31.113602113266367" lon="121.36333970711958">
        <ele>5.295111821964383</ele>
        <time>2024-07-08T12:04:31Z</time>
      </trkpt>
      <trkpt lat="31.11352431557776" lon="121.36333752076612">
        <ele>3.7764923004433513</ele>
        <time>2024-07-08T12:04:34Z</time>
      </trkpt>
      <trkpt lat="31.113467931096988" lon="121.36340216176613">
        <ele>5.1683393539860845</ele>
        <time>2024-07-08T12:04:37Z</time>
      </trkpt>
      <trkpt lat="31.113407985538764" lon="121.36343851922881">
        <ele>6.827743403613567</ele>
        <time>2024-07-08T12:04:40Z</time>
      </trkpt>
      <trkpt lat="31.1133214077178" lon="121.3634422262943">
        <ele>6.614883188158274</ele>
        <time>2024-07-08T12:04:43Z</time>
      </trkpt>
      <trkpt lat="31.11325995221845" lon="121.36348322296634">
        <ele>6.379177011549473</ele>
        <time>2024-07-08T12:04:46Z</time>
      </trkpt>
      <trkpt lat="31.113024868582322" lon="121.36352793497284">
        <ele>5.5174618838354945</ele>
        <time>2024-07-08T12:04:55Z</time>
      </trkpt>
      <trkpt lat="31.11281691934965" lon="121.36363450922593">
        <ele>6.064843717031181</ele>
        <time>2024-07-08T12:05:04Z</time>
      </trkpt>
      <trkpt lat="31.112787416550308" lon="121.36367832124564">
        <ele>4.771609716117382</ele>
        <time>2024-07-08T12:05:07Z</time>
      </trkpt>
      <trkpt lat="31.112710067038837" lon="121.36368229433148">
        <ele>5.000615353696048</ele>
        <time>2024-07-08T12:05:10Z</time>
      </trkpt>
      <trkpt lat="31.112606231737868" lon="121.36375850162753">
        <ele>5.03885274939239</ele>
        <time>2024-07-08T12:05:16Z</time>
      </trkpt>
      <trkpt lat="31.11246200218169" lon="121.36377548832188">
        <ele>4.346106071956456</ele>
        <time>2024-07-08T12:05:22Z</time>
      </trkpt>
      <trkpt lat="31.1123984212428" lon="121.36375977906349">
        <ele>4.483662072569132</ele>
        <time>2024-07-08T12:05:25Z</time>
      </trkpt>
      <trkpt lat="31.112343557224673" lon="121.3637228417653">
        <ele>3.9956405395641923</ele>
        <time>2024-07-08T12:05:29Z</time>
      </trkpt>
      <trkpt lat="31.11224814958148" lon="121.36370499030294">
        <ele>3.7109645064920187</ele>
        <time>2024-07-08T12:05:32Z</time>
      </trkpt>
      <trkpt lat="31.112137565173203" lon="121.36377559609836">
        <ele>2.5333917886018753</ele>
        <time>2024-07-08T12:05:41Z</time>
      </trkpt>
      <trkpt lat="31.112127810809966" lon="121.3638680441686">
        <ele>2.7923663211986423</ele>
        <time>2024-07-08T12:05:45Z</time>
      </trkpt>
      <trkpt lat="31.11206308005501" lon="121.36390913064866">
        <ele>2.8748176926746964</ele>
        <time>2024-07-08T12:05:48Z</time>
      </trkpt>
      <trkpt lat="31.111984702927746" lon="121.36399736095753">
        <ele>5.106794242747128</ele>
        <time>2024-07-08T12:05:52Z</time>
      </trkpt>
      <trkpt lat="31.111833909271" lon="121.36406737787675">
        <ele>4.894604621455073</ele>
        <time>2024-07-08T12:05:58Z</time>
      </trkpt>
      <trkpt lat="31.111536677122643" lon="121.3641656754831">
        <ele>6.8808855302631855</ele>
        <time>2024-07-08T12:06:10Z</time>
      </trkpt>
      <trkpt lat="31.11140438219056" lon="121.36423645583149">
        <ele>7.997658306732774</ele>
        <time>2024-07-08T12:06:16Z</time>
      </trkpt>
      <trkpt lat="31.111330123588964" lon="121.36425224563301">
        <ele>7.758211777545512</ele>
        <time>2024-07-08T12:06:19Z</time>
      </trkpt>
      <trkpt lat="31.111213317482672" lon="121.36433585628124">
        <ele>8.664558618329465</ele>
        <time>2024-07-08T12:06:25Z</time>
      </trkpt>
      <trkpt lat="31.11115065658469" lon="121.36434977810222">
        <ele>8.633665453642607</ele>
        <time>2024-07-08T12:06:28Z</time>
      </trkpt>
      <trkpt lat="31.111105783249993" lon="121.36424131937159">
        <ele>7.495566559024155</ele>
        <time>2024-07-08T12:06:34Z</time>
      </trkpt>
      <trkpt lat="31.111059991949638" lon="121.36431051485985">
        <ele>8.72593679279089</ele>
        <time>2024-07-08T12:06:37Z</time>
      </trkpt>
      <trkpt lat="31.111075417403423" lon="121.3644894643806">
        <ele>7.796597554348409</ele>
        <time>2024-07-08T12:06:40Z</time>
      </trkpt>
      <trkpt lat="31.11117358315904" lon="121.36450518355119">
        <ele>8.035470380447805</ele>
        <time>2024-07-08T12:06:43Z</time>
      </trkpt>
      <trkpt lat="31.111175367755227" lon="121.36457409138254">
        <ele>8.580088827759027</ele>
        <time>2024-07-08T12:06:46Z</time>
      </trkpt>
      <trkpt lat="31.111233521124298" lon="121.36457202205354">
        <ele>5.158362960442901</ele>
        <time>2024-07-08T12:06:55Z</time>
      </trkpt>
      <trkpt lat="31.11132188725646" lon="121.36453130296867">
        <ele>4.51249045226723</ele>
        <time>2024-07-08T12:06:58Z</time>
      </trkpt>
      <trkpt lat="31.11136898762964" lon="121.3644715767263">
        <ele>5.096181287430227</ele>
        <time>2024-07-08T12:07:01Z</time>
      </trkpt>
      <trkpt lat="31.11139620614664" lon="121.36438750043216">
        <ele>5.057001227512956</ele>
        <time>2024-07-08T12:07:04Z</time>
      </trkpt>
      <trkpt lat="31.111497003329404" lon="121.36439790758102">
        <ele>6.414579088799655</ele>
        <time>2024-07-08T12:07:07Z</time>
      </trkpt>
      <trkpt lat="31.111588697150683" lon="121.3643542564365">
        <ele>6.303914012387395</ele>
        <time>2024-07-08T12:07:10Z</time>
      </trkpt>
      <trkpt lat="31.11167567774428" lon="121.36433676978717">
        <ele>7.465719058178365</ele>
        <time>2024-07-08T12:07:13Z</time>
      </trkpt>
      <trkpt lat="31.111834201804594" lon="121.36426368669872">
        <ele>6.902985072694719</ele>
        <time>2024-07-08T12:07:19Z</time>
      </trkpt>
      <trkpt lat="31.11187101232328" lon="121.36433614927614">
        <ele>8.019258909858763</ele>
        <time>2024-07-08T12:07:22Z</time>
      </trkpt>
      <trkpt lat="31.111948666360863" lon="121.3642088239732">
        <ele>8.982364978641272</ele>
        <time>2024-07-08T12:07:25Z</time>
      </trkpt>
      <trkpt lat="31.11210704855786" lon="121.36422695126244">
        <ele>7.612709981389344</ele>
        <time>2024-07-08T12:07:34Z</time>
      </trkpt>
      <trkpt lat="31.11216865715565" lon="121.36420666750475">
        <ele>7.65093804243952</ele>
        <time>2024-07-08T12:07:37Z</time>
      </trkpt>
      <trkpt lat="31.11225233509103" lon="121.36421180234726">
        <ele>8.490765379741788</ele>
        <time>2024-07-08T12:07:40Z</time>
      </trkpt>
      <trkpt lat="31.112446947034698" lon="121.36415014333734">
        <ele>7.6268618274480104</ele>
        <time>2024-07-08T12:07:50Z</time>
      </trkpt>
      <trkpt lat="31.112506658842637" lon="121.36408053378904">
        <ele>6.15687792096287</ele>
        <time>2024-07-08T12:07:54Z</time>
      </trkpt>
      <trkpt lat="31.112483474059456" lon="121.36403184560578">
        <ele>5.81358740106225</ele>
        <time>2024-07-08T12:07:57Z</time>
      </trkpt>
      <trkpt lat="31.11252508149489" lon="121.36393665866126">
        <ele>5.809942953288555</ele>
        <time>2024-07-08T12:08:00Z</time>
      </trkpt>
      <trkpt lat="31.112633807424185" lon="121.36391306938641">
        <ele>6.13706879876554</ele>
        <time>2024-07-08T12:08:03Z</time>
      </trkpt>
      <trkpt lat="31.112714221330812" lon="121.36383020952275">
        <ele>6.014515303075314</ele>
        <time>2024-07-08T12:08:09Z</time>
      </trkpt>
      <trkpt lat="31.11287813427175" lon="121.36380575052435">
        <ele>7.232135029509664</ele>
        <time>2024-07-08T12:08:15Z</time>
      </trkpt>
      <trkpt lat="31.112954957097244" lon="121.36377066165218">
        <ele>6.79360362701118</ele>
        <time>2024-07-08T12:08:18Z</time>
      </trkpt>
      <trkpt lat="31.113158563736278" lon="121.3637364229352">
        <ele>5.898602946661413</ele>
        <time>2024-07-08T12:08:24Z</time>
      </trkpt>
      <trkpt lat="31.113233070681876" lon="121.36367651182591">
        <ele>6.641695488244295</ele>
        <time>2024-07-08T12:08:27Z</time>
      </trkpt>
      <trkpt lat="31.113382401074162" lon="121.36363096943718">
        <ele>6.68669041339308</ele>
        <time>2024-07-08T12:08:33Z</time>
      </trkpt>
      <trkpt lat="31.113435617672824" lon="121.36358421116265">
        <ele>8.0412751538679</ele>
        <time>2024-07-08T12:08:36Z</time>
      </trkpt>
      <trkpt lat="31.113590391863475" lon="121.36358092409769">
        <ele>10.213824329897761</ele>
        <time>2024-07-08T12:08:42Z</time>
      </trkpt>
      <trkpt lat="31.113743624219456" lon="121.36352777519393">
        <ele>9.063327038660645</ele>
        <time>2024-07-08T12:08:48Z</time>
      </trkpt>
      <trkpt lat="31.11379303541639" lon="121.36356101092314">
        <ele>11.000320123508573</ele>
        <time>2024-07-08T12:08:57Z</time>
      </trkpt>
      <trkpt lat="31.113870356689304" lon="121.36351208257314">
        <ele>10.317376821301877</ele>
        <time>2024-07-08T12:09:06Z</time>
      </trkpt>
      <trkpt lat="31.113915288127398" lon="121.36350159706171">
        <ele>10.283943518996239</ele>
        <time>2024-07-08T12:09:09Z</time>
      </trkpt>
      <trkpt lat="31.1139924736148" lon="121.36341766162401">
        <ele>6.882107330486178</ele>
        <time>2024-07-08T12:09:18Z</time>
      </trkpt>
      <trkpt lat="31.114058950136453" lon="121.363394049752">
        <ele>6.740058165974915</ele>
        <time>2024-07-08T12:09:21Z</time>
      </trkpt>
      <trkpt lat="31.114289718652152" lon="121.36324496715507">
        <ele>10.208710758946836</ele>
        <time>2024-07-08T12:09:30Z</time>
      </trkpt>
      <trkpt lat="31.114366876218654" lon="121.36322024768438">
        <ele>9.910678525455296</ele>
        <time>2024-07-08T12:09:33Z</time>
      </trkpt>
      <trkpt lat="31.11442781648658" lon="121.36316026652564">
        <ele>8.893338456749916</ele>
        <time>2024-07-08T12:09:36Z</time>
      </trkpt>
      <trkpt lat="31.11450995873754" lon="121.36311425726319">
        <ele>9.035713887773454</ele>
        <time>2024-07-08T12:09:39Z</time>
      </trkpt>
      <trkpt lat="31.114593954061156" lon="121.36312003206976">
        <ele>9.268058815971017</ele>
        <time>2024-07-08T12:09:42Z</time>
      </trkpt>
      <trkpt lat="31.114670970349927" lon="121.36306699573669">
        <ele>8.973966846242547</ele>
        <time>2024-07-08T12:09:45Z</time>
      </trkpt>
      <trkpt lat="31.114775459667268" lon="121.36305839121918">
        <ele>9.943409046158195</ele>
        <time>2024-07-08T12:09:48Z</time>
      </trkpt>
      <trkpt lat="31.11483832278914" lon="121.36300994101877">
        <ele>10.365033668465912</ele>
        <time>2024-07-08T12:09:51Z</time>
      </trkpt>
      <trkpt lat="31.11503768567892" lon="121.36290090691975">
        <ele>7.073793726041913</ele>
        <time>2024-07-08T12:10:03Z</time>
      </trkpt>
      <trkpt lat="31.115160701188902" lon="121.36285520109288">
        <ele>6.941768622025847</ele>
        <time>2024-07-08T12:10:09Z</time>
      </trkpt>
      <trkpt lat="31.1151966573505" lon="121.3627739773403">
        <ele>7.10455234348774</ele>
        <time>2024-07-08T12:10:12Z</time>
      </trkpt>
      <trkpt lat="31.1155291758485" lon="121.36274480292757">
        <ele>10.217504384927452</ele>
        <time>2024-07-08T12:10:24Z</time>
      </trkpt>
      <trkpt lat="31.115605116276885" lon="121.36268634363968">
        <ele>10.368497332558036</ele>
        <time>2024-07-08T12:10:27Z</time>
      </trkpt>
      <trkpt lat="31.11569354884845" lon="121.36267072314972">
        <ele>9.730208087712526</ele>
        <time>2024-07-08T12:10:30Z</time>
      </trkpt>
      <trkpt lat="31.11577825682572" lon="121.36262920951451">
        <ele>9.344985603354871</ele>
        <time>2024-07-08T12:10:33Z</time>
      </trkpt>
      <trkpt lat="31.115934907485045" lon="121.36263185660623">
        <ele>7.58159850910306</ele>
        <time>2024-07-08T12:10:39Z</time>
      </trkpt>
      <trkpt lat="31.116080668061034" lon="121.3625819198966">
        <ele>8.950650611892343</ele>
        <time>2024-07-08T12:10:45Z</time>
      </trkpt>
      <trkpt lat="31.11621562901689" lon="121.36249488649749">
        <ele>10.068892437033355</ele>
        <time>2024-07-08T12:10:51Z</time>
      </trkpt>
      <trkpt lat="31.116301712031547" lon="121.3624937197678">
        <ele>8.758364505134523</ele>
        <time>2024-07-08T12:10:54Z</time>
      </trkpt>
      <trkpt lat="31.11643375295733" lon="121.36240024475309">
        <ele>8.81076253671199</ele>
        <time>2024-07-08T12:11:00Z</time>
      </trkpt>
      <trkpt lat="31.11650881128294" lon="121.3624047937212">
        <ele>9.364422338083386</ele>
        <time>2024-07-08T12:11:03Z</time>
      </trkpt>
      <trkpt lat="31.116775645203276" lon="121.36227589688339">
        <ele>9.743715401738882</ele>
        <time>2024-07-08T12:11:15Z</time>
      </trkpt>
      <trkpt lat="31.11688664890656" lon="121.36219079032648">
        <ele>9.141677158884704</ele>
        <time>2024-07-08T12:11:21Z</time>
      </trkpt>
      <trkpt lat="31.117032281371394" lon="121.36214914785211">
        <ele>10.329529887065291</ele>
        <time>2024-07-08T12:11:27Z</time>
      </trkpt>
      <trkpt lat="31.11714097361311" lon="121.36213908717056">
        <ele>10.523075579665601</ele>
        <time>2024-07-08T12:11:33Z</time>
      </trkpt>
      <trkpt lat="31.117325299131622" lon="121.36204574799933">
        <ele>10.170944890007377</ele>
        <time>2024-07-08T12:11:42Z</time>
      </trkpt>
      <trkpt lat="31.1173565597243" lon="121.36197384076054">
        <ele>11.383917269296944</ele>
        <time>2024-07-08T12:11:48Z</time>
      </trkpt>
      <trkpt lat="31.117272704346075" lon="121.36184969045708">
        <ele>10.545489203184843</ele>
        <time>2024-07-08T12:11:57Z</time>
      </trkpt>
      <trkpt lat="31.117142583927812" lon="121.36187079529826">
        <ele>9.489192470908165</ele>
        <time>2024-07-08T12:12:04Z</time>
      </trkpt>
      <trkpt lat="31.11688412451024" lon="121.36198796319255">
        <ele>8.023621873930097</ele>
        <time>2024-07-08T12:12:15Z</time>
      </trkpt>
      <trkpt lat="31.116746506524358" lon="121.36206739484203">
        <ele>7.933049125596881</ele>
        <time>2024-07-08T12:12:21Z</time>
      </trkpt>
      <trkpt lat="31.11650345444279" lon="121.36216296915644">
        <ele>7.74558246973902</ele>
        <time>2024-07-08T12:12:30Z</time>
      </trkpt>
      <trkpt lat="31.116430552053874" lon="121.36221855268637">
        <ele>7.667329773306847</ele>
        <time>2024-07-08T12:12:33Z</time>
      </trkpt>
      <trkpt lat="31.116358496784752" lon="121.36224092652672">
        <ele>8.617091330699623</ele>
        <time>2024-07-08T12:12:36Z</time>
      </trkpt>
      <trkpt lat="31.11627296686858" lon="121.36224016119071">
        <ele>7.109488618560135</ele>
        <time>2024-07-08T12:12:39Z</time>
      </trkpt>
      <trkpt lat="31.116188846746525" lon="121.3622620841775">
        <ele>8.886473641730845</ele>
        <time>2024-07-08T12:12:42Z</time>
      </trkpt>
      <trkpt lat="31.116132015167143" lon="121.36232671088592">
        <ele>7.827115228399634</ele>
        <time>2024-07-08T12:12:45Z</time>
      </trkpt>
      <trkpt lat="31.116060541208643" lon="121.36236812715374">
        <ele>9.127810397185385</ele>
        <time>2024-07-08T12:12:48Z</time>
      </trkpt>
      <trkpt lat="31.115807445933577" lon="121.3624643683729">
        <ele>7.382921229116619</ele>
        <time>2024-07-08T12:13:00Z</time>
      </trkpt>
      <trkpt lat="31.11575914525621" lon="121.36245351914185">
        <ele>7.169869817793369</ele>
        <time>2024-07-08T12:13:03Z</time>
      </trkpt>
      <trkpt lat="31.11566826778239" lon="121.36251980067203">
        <ele>5.477947285398841</ele>
        <time>2024-07-08T12:13:09Z</time>
      </trkpt>
      <trkpt lat="31.115416759978707" lon="121.36259636394315">
        <ele>5.627596239559352</ele>
        <time>2024-07-08T12:13:18Z</time>
      </trkpt>
      <trkpt lat="31.11514445553915" lon="121.36275897513381">
        <ele>6.441595803014934</ele>
        <time>2024-07-08T12:13:30Z</time>
      </trkpt>
      <trkpt lat="31.115070434683826" lon="121.3627393170293">
        <ele>8.229593919590116</ele>
        <time>2024-07-08T12:13:33Z</time>
      </trkpt>
      <trkpt lat="31.11476032129627" lon="121.3628725143647">
        <ele>6.425975365564227</ele>
        <time>2024-07-08T12:13:45Z</time>
      </trkpt>
      <trkpt lat="31.114683681381393" lon="121.36287776321431">
        <ele>7.012764018960297</ele>
        <time>2024-07-08T12:13:48Z</time>
      </trkpt>
      <trkpt lat="31.1145251371781" lon="121.362946120057">
        <ele>8.87259626109153</ele>
        <time>2024-07-08T12:13:54Z</time>
      </trkpt>
      <trkpt lat="31.11445506431014" lon="121.36300251949609">
        <ele>9.065222362987697</ele>
        <time>2024-07-08T12:13:57Z</time>
      </trkpt>
      <trkpt lat="31.114356952559074" lon="121.36298533663779">
        <ele>9.96748801600188</ele>
        <time>2024-07-08T12:14:00Z</time>
      </trkpt>
      <trkpt lat="31.11429457290499" lon="121.36302619744015">
        <ele>9.62150608561933</ele>
        <time>2024-07-08T12:14:03Z</time>
      </trkpt>
      <trkpt lat="31.114124904731554" lon="121.36309345524785">
        <ele>10.732844773679972</ele>
        <time>2024-07-08T12:14:10Z</time>
      </trkpt>
      <trkpt lat="31.11404727239794" lon="121.3631525055293">
        <ele>9.336381336674094</ele>
        <time>2024-07-08T12:14:13Z</time>
      </trkpt>
      <trkpt lat="31.113921434731598" lon="121.36315312464477">
        <ele>8.459665589034557</ele>
        <time>2024-07-08T12:14:25Z</time>
      </trkpt>
      <trkpt lat="31.113933057041884" lon="121.36306900624604">
        <ele>8.61419861856848</ele>
        <time>2024-07-08T12:14:28Z</time>
      </trkpt>
      <trkpt lat="31.113886891717264" lon="121.36303051514889">
        <ele>8.772335051558912</ele>
        <time>2024-07-08T12:14:31Z</time>
      </trkpt>
      <trkpt lat="31.11382697773404" lon="121.36309077813816">
        <ele>7.977265132591128</ele>
        <time>2024-07-08T12:14:34Z</time>
      </trkpt>
      <trkpt lat="31.11377466926671" lon="121.36307308132908">
        <ele>4.5957986591383815</ele>
        <time>2024-07-08T12:14:40Z</time>
      </trkpt>
      <trkpt lat="31.113763024408765" lon="121.36314616813017">
        <ele>3.326545240357518</ele>
        <time>2024-07-08T12:15:04Z</time>
      </trkpt>
      <trkpt lat="31.113833299392404" lon="121.36313363949242">
        <ele>2.7285230178385973</ele>
        <time>2024-07-08T12:15:07Z</time>
      </trkpt>
      <trkpt lat="31.11376908141471" lon="121.3631590663239">
        <ele>2.6653828863054514</ele>
        <time>2024-07-08T12:15:10Z</time>
      </trkpt>
      <trkpt lat="31.11364732783232" lon="121.36315786511113">
        <ele>5.872919893823564</ele>
        <time>2024-07-08T12:15:16Z</time>
      </trkpt>
      <trkpt lat="31.113573225235847" lon="121.36310004572883">
        <ele>4.017036929726601</ele>
        <time>2024-07-08T12:15:19Z</time>
      </trkpt>
      <trkpt lat="31.113632142893138" lon="121.36315785655329">
        <ele>4.678325084969401</ele>
        <time>2024-07-08T12:15:22Z</time>
      </trkpt>
      <trkpt lat="31.113637011010624" lon="121.36324020278606">
        <ele>3.663749839179218</ele>
        <time>2024-07-08T12:15:28Z</time>
      </trkpt>
      <trkpt lat="31.11357111861421" lon="121.36329872675694">
        <ele>3.8093518055975437</ele>
        <time>2024-07-08T12:15:34Z</time>
      </trkpt>
      <trkpt lat="31.113492011717522" lon="121.3632686132823">
        <ele>2.9618905568495393</ele>
        <time>2024-07-08T12:15:37Z</time>
      </trkpt>
      <trkpt lat="31.11342936250606" lon="121.36334151081428">
        <ele>2.920910601504147</ele>
        <time>2024-07-08T12:15:40Z</time>
      </trkpt>
      <trkpt lat="31.113370919168936" lon="121.3633695796791">
        <ele>2.2211124170571566</ele>
        <time>2024-07-08T12:15:43Z</time>
      </trkpt>
      <trkpt lat="31.11330327050692" lon="121.3633740032849">
        <ele>3.057221812196076</ele>
        <time>2024-07-08T12:15:46Z</time>
      </trkpt>
      <trkpt lat="31.113237845425186" lon="121.36343715746386">
        <ele>2.9819886619225144</ele>
        <time>2024-07-08T12:15:49Z</time>
      </trkpt>
      <trkpt lat="31.113091743835326" lon="121.36352366674082">
        <ele>4.044401126913726</ele>
        <time>2024-07-08T12:15:55Z</time>
      </trkpt>
      <trkpt lat="31.11301187494271" lon="121.36353425824198">
        <ele>5.844588765874505</ele>
        <time>2024-07-08T12:15:58Z</time>
      </trkpt>
      <trkpt lat="31.112935569890983" lon="121.36357684541733">
        <ele>5.4212096789851785</ele>
        <time>2024-07-08T12:16:01Z</time>
      </trkpt>
      <trkpt lat="31.112859885284706" lon="121.36365651035825">
        <ele>6.359527240507305</ele>
        <time>2024-07-08T12:16:04Z</time>
      </trkpt>
      <trkpt lat="31.11280071263759" lon="121.36363895858106">
        <ele>6.505214239470661</ele>
        <time>2024-07-08T12:16:07Z</time>
      </trkpt>
      <trkpt lat="31.11254210359775" lon="121.3637452106803">
        <ele>7.8726874850690365</ele>
        <time>2024-07-08T12:16:18Z</time>
      </trkpt>
      <trkpt lat="31.112422289193265" lon="121.36384666849582">
        <ele>6.418874290771782</ele>
        <time>2024-07-08T12:16:25Z</time>
      </trkpt>
      <trkpt lat="31.112396198256416" lon="121.36379802164399">
        <ele>7.993380726315081</ele>
        <time>2024-07-08T12:16:31Z</time>
      </trkpt>
      <trkpt lat="31.11230872589605" lon="121.36373853294765">
        <ele>5.767270439304411</ele>
        <time>2024-07-08T12:16:34Z</time>
      </trkpt>
      <trkpt lat="31.1122524041461" lon="121.36381574533551">
        <ele>5.436833876185119</ele>
        <time>2024-07-08T12:16:37Z</time>
      </trkpt>
      <trkpt lat="31.11213556871549" lon="121.36383117013051">
        <ele>4.812242710962892</ele>
        <time>2024-07-08T12:16:43Z</time>
      </trkpt>
      <trkpt lat="31.112198951599556" lon="121.36387212167942">
        <ele>5.3334393333643675</ele>
        <time>2024-07-08T12:16:46Z</time>
      </trkpt>
      <trkpt lat="31.11218270735566" lon="121.36399469740694">
        <ele>5.583946283906698</ele>
        <time>2024-07-08T12:16:49Z</time>
      </trkpt>
      <trkpt lat="31.11202840542411" lon="121.36395499257841">
        <ele>5.718070885166526</ele>
        <time>2024-07-08T12:16:52Z</time>
      </trkpt>
      <trkpt lat="31.11191726725339" lon="121.36398337976446">
        <ele>5.184914108365774</ele>
        <time>2024-07-08T12:16:55Z</time>
      </trkpt>
      <trkpt lat="31.111882963492008" lon="121.36406962764059">
        <ele>6.9074776181951165</ele>
        <time>2024-07-08T12:16:58Z</time>
      </trkpt>
      <trkpt lat="31.111652681086685" lon="121.36413353715353">
        <ele>6.31593662686646</ele>
        <time>2024-07-08T12:17:07Z</time>
      </trkpt>
      <trkpt lat="31.11155994609593" lon="121.36417824995226">
        <ele>9.281579114496708</ele>
        <time>2024-07-08T12:17:10Z</time>
      </trkpt>
      <trkpt lat="31.111516697076965" lon="121.36423004263547">
        <ele>8.240518068894744</ele>
        <time>2024-07-08T12:17:13Z</time>
      </trkpt>
      <trkpt lat="31.111338541523537" lon="121.36427075308242">
        <ele>8.391958111897111</ele>
        <time>2024-07-08T12:17:22Z</time>
      </trkpt>
      <trkpt lat="31.111280711737418" lon="121.36425591724043">
        <ele>7.461436820216477</ele>
        <time>2024-07-08T12:17:25Z</time>
      </trkpt>
      <trkpt lat="31.11121977711563" lon="121.36431714843515">
        <ele>8.62305212765932</ele>
        <time>2024-07-08T12:17:31Z</time>
      </trkpt>
      <trkpt lat="31.111146765893114" lon="121.36430414066128">
        <ele>8.4268042659387</ele>
        <time>2024-07-08T12:17:37Z</time>
      </trkpt>
      <trkpt lat="31.111103826569025" lon="121.36433145359796">
        <ele>8.197909778915346</ele>
        <time>2024-07-08T12:17:46Z</time>
      </trkpt>
      <trkpt lat="31.111042938802527" lon="121.36432855940346">
        <ele>9.511639170348644</ele>
        <time>2024-07-08T12:17:49Z</time>
      </trkpt>
      <trkpt lat="31.11105901935759" lon="121.36440934468983">
        <ele>9.186236316338181</ele>
        <time>2024-07-08T12:17:55Z</time>
      </trkpt>
      <trkpt lat="31.111130606056914" lon="121.36450190891428">
        <ele>7.640385775826871</ele>
        <time>2024-07-08T12:18:01Z</time>
      </trkpt>
      <trkpt lat="31.11115069253255" lon="121.36461759886268">
        <ele>7.355273826047778</ele>
        <time>2024-07-08T12:18:10Z</time>
      </trkpt>
      <trkpt lat="31.11125159027675" lon="121.36460848687737">
        <ele>7.159119717776775</ele>
        <time>2024-07-08T12:18:13Z</time>
      </trkpt>
      <trkpt lat="31.111305077258283" lon="121.36452909359049">
        <ele>6.584758366458118</ele>
        <time>2024-07-08T12:18:20Z</time>
      </trkpt>
      <trkpt lat="31.11140754399321" lon="121.36450667647951">
        <ele>8.760347660630941</ele>
        <time>2024-07-08T12:18:26Z</time>
      </trkpt>
      <trkpt lat="31.11146654533128" lon="121.36445617511643">
        <ele>7.649977405555546</ele>
        <time>2024-07-08T12:18:32Z</time>
      </trkpt>
      <trkpt lat="31.111531162497787" lon="121.36443408049186">
        <ele>6.844868652522564</ele>
        <time>2024-07-08T12:18:35Z</time>
      </trkpt>
      <trkpt lat="31.111564984994274" lon="121.36439544515524">
        <ele>6.3116661831736565</ele>
        <time>2024-07-08T12:18:38Z</time>
      </trkpt>
      <trkpt lat="31.111686308604245" lon="121.3643543185504">
        <ele>5.969175438396633</ele>
        <time>2024-07-08T12:18:47Z</time>
      </trkpt>
      <trkpt lat="31.11175922861556" lon="121.36430035186532">
        <ele>5.1416136138141155</ele>
        <time>2024-07-08T12:18:53Z</time>
      </trkpt>
      <trkpt lat="31.11187426612215" lon="121.36430312575798">
        <ele>5.440953359939158</ele>
        <time>2024-07-08T12:18:59Z</time>
      </trkpt>
      <trkpt lat="31.111938264297198" lon="121.36425717891743">
        <ele>7.1204553078860044</ele>
        <time>2024-07-08T12:19:02Z</time>
      </trkpt>
      <trkpt lat="31.11222476476897" lon="121.36420857257427">
        <ele>7.453117234632373</ele>
        <time>2024-07-08T12:19:14Z</time>
      </trkpt>
      <trkpt lat="31.11238638108507" lon="121.36423838383169">
        <ele>8.872706263326108</ele>
        <time>2024-07-08T12:19:23Z</time>
      </trkpt>
      <trkpt lat="31.112442218445125" lon="121.36418382860666">
        <ele>9.107674585655332</ele>
        <time>2024-07-08T12:19:26Z</time>
      </trkpt>
      <trkpt lat="31.112519560495222" lon="121.36413878951176">
        <ele>8.57901147659868</ele>
        <time>2024-07-08T12:19:29Z</time>
      </trkpt>
      <trkpt lat="31.11246784794337" lon="121.36406226172234">
        <ele>8.078018059954047</ele>
        <time>2024-07-08T12:19:35Z</time>
      </trkpt>
      <trkpt lat="31.11252861289749" lon="121.3639665625676">
        <ele>6.392822996713221</ele>
        <time>2024-07-08T12:19:41Z</time>
      </trkpt>
      <trkpt lat="31.112627438607433" lon="121.36394763624766">
        <ele>7.8348980993032455</ele>
        <time>2024-07-08T12:19:47Z</time>
      </trkpt>
      <trkpt lat="31.112956581035526" lon="121.36376590593525">
        <ele>9.005026371218264</ele>
        <time>2024-07-08T12:19:59Z</time>
      </trkpt>
      <trkpt lat="31.11304967147395" lon="121.36374796100507">
        <ele>9.705286167562008</ele>
        <time>2024-07-08T12:20:02Z</time>
      </trkpt>
      <trkpt lat="31.113103604045694" lon="121.3636616065138">
        <ele>10.153776525519788</ele>
        <time>2024-07-08T12:20:05Z</time>
      </trkpt>
      <trkpt lat="31.11315880865522" lon="121.36363013017613">
        <ele>9.978465913794935</ele>
        <time>2024-07-08T12:20:08Z</time>
      </trkpt>
      <trkpt lat="31.11325966030306" lon="121.36365409801888">
        <ele>9.235984449274838</ele>
        <time>2024-07-08T12:20:11Z</time>
      </trkpt>
      <trkpt lat="31.11329077839499" lon="121.36360540269851">
        <ele>8.135625845752656</ele>
        <time>2024-07-08T12:20:14Z</time>
      </trkpt>
      <trkpt lat="31.113483421137666" lon="121.36358406468341">
        <ele>8.229523503221571</ele>
        <time>2024-07-08T12:20:20Z</time>
      </trkpt>
      <trkpt lat="31.113710450542005" lon="121.3635961007571">
        <ele>5.00895428378135</ele>
        <time>2024-07-08T12:20:36Z</time>
      </trkpt>
      <trkpt lat="31.113734706538434" lon="121.3635302786548">
        <ele>4.8417787328362465</ele>
        <time>2024-07-08T12:20:42Z</time>
      </trkpt>
      <trkpt lat="31.113778350832224" lon="121.36351415964616">
        <ele>4.773980749770999</ele>
        <time>2024-07-08T12:20:45Z</time>
      </trkpt>
      <trkpt lat="31.113827266915273" lon="121.36353819290206">
        <ele>6.22797348536551</ele>
        <time>2024-07-08T12:20:54Z</time>
      </trkpt>
      <trkpt lat="31.113987074398374" lon="121.36349075504371">
        <ele>6.220065497793257</ele>
        <time>2024-07-08T12:21:03Z</time>
      </trkpt>
      <trkpt lat="31.11402919203107" lon="121.36342683945188">
        <ele>6.086214251816273</ele>
        <time>2024-07-08T12:21:09Z</time>
      </trkpt>
      <trkpt lat="31.114021328926082" lon="121.36336507725161">
        <ele>5.69230458047241</ele>
        <time>2024-07-08T12:21:12Z</time>
      </trkpt>
      <trkpt lat="31.114084702849865" lon="121.36331775982576">
        <ele>7.467734721489251</ele>
        <time>2024-07-08T12:21:21Z</time>
      </trkpt>
      <trkpt lat="31.114100989791442" lon="121.36337219416755">
        <ele>5.474747531116009</ele>
        <time>2024-07-08T12:21:24Z</time>
      </trkpt>
      <trkpt lat="31.114160265148517" lon="121.3633122887759">
        <ele>7.211979410611093</ele>
        <time>2024-07-08T12:21:27Z</time>
      </trkpt>
      <trkpt lat="31.11441261039976" lon="121.36320146258636">
        <ele>7.706601393409073</ele>
        <time>2024-07-08T12:21:39Z</time>
      </trkpt>
      <trkpt lat="31.114497122468425" lon="121.36321280070905">
        <ele>8.02518221642822</ele>
        <time>2024-07-08T12:21:42Z</time>
      </trkpt>
      <trkpt lat="31.114779956276664" lon="121.36305166280215">
        <ele>10.503540523350239</ele>
        <time>2024-07-08T12:21:54Z</time>
      </trkpt>
      <trkpt lat="31.114830924345767" lon="121.36301535708634">
        <ele>8.928739851340652</ele>
        <time>2024-07-08T12:21:57Z</time>
      </trkpt>
      <trkpt lat="31.114883412365124" lon="121.36304476820311">
        <ele>7.633274701423943</ele>
        <time>2024-07-08T12:22:00Z</time>
      </trkpt>
      <trkpt lat="31.114954020556333" lon="121.3630271339804">
        <ele>6.773149996064603</ele>
        <time>2024-07-08T12:22:03Z</time>
      </trkpt>
      <trkpt lat="31.115058631744553" lon="121.36293760524072">
        <ele>7.94887621793896</ele>
        <time>2024-07-08T12:22:09Z</time>
      </trkpt>
      <trkpt lat="31.1151705715985" lon="121.36291310977074">
        <ele>9.00586158130318</ele>
        <time>2024-07-08T12:22:15Z</time>
      </trkpt>
      <trkpt lat="31.115238651820565" lon="121.36287161015483">
        <ele>10.661356702446938</ele>
        <time>2024-07-08T12:22:18Z</time>
      </trkpt>
      <trkpt lat="31.115549774554236" lon="121.36275237593077">
        <ele>9.330855515785515</ele>
        <time>2024-07-08T12:22:31Z</time>
      </trkpt>
      <trkpt lat="31.11563155667396" lon="121.3627162143191">
        <ele>10.06969830300659</ele>
        <time>2024-07-08T12:22:34Z</time>
      </trkpt>
      <trkpt lat="31.11577903115204" lon="121.36260739329668">
        <ele>12.721742998808622</ele>
        <time>2024-07-08T12:22:40Z</time>
      </trkpt>
      <trkpt lat="31.115948924884886" lon="121.36256571626542">
        <ele>14.434351434931159</ele>
        <time>2024-07-08T12:22:46Z</time>
      </trkpt>
      <trkpt lat="31.11608454735752" lon="121.36249799060128">
        <ele>13.870042027905583</ele>
        <time>2024-07-08T12:22:52Z</time>
      </trkpt>
      <trkpt lat="31.116119311306104" lon="121.36241397463674">
        <ele>14.290872994810343</ele>
        <time>2024-07-08T12:22:55Z</time>
      </trkpt>
      <trkpt lat="31.116232662802947" lon="121.36243046808183">
        <ele>14.415593883022666</ele>
        <time>2024-07-08T12:22:58Z</time>
      </trkpt>
      <trkpt lat="31.11629780996052" lon="121.36241683887556">
        <ele>15.092110186815262</ele>
        <time>2024-07-08T12:23:01Z</time>
      </trkpt>
      <trkpt lat="31.116389393747685" lon="121.36244815823054">
        <ele>14.360946690663695</ele>
        <time>2024-07-08T12:23:04Z</time>
      </trkpt>
      <trkpt lat="31.116446452739797" lon="121.36237355153553">
        <ele>13.967034219764173</ele>
        <time>2024-07-08T12:23:07Z</time>
      </trkpt>
      <trkpt lat="31.116470497541417" lon="121.36228042304099">
        <ele>13.506928223185241</ele>
        <time>2024-07-08T12:23:10Z</time>
      </trkpt>
      <trkpt lat="31.11658132383269" lon="121.36228513106704">
        <ele>12.621536092832685</ele>
        <time>2024-07-08T12:23:13Z</time>
      </trkpt>
      <trkpt lat="31.116665970973443" lon="121.36226539753865">
        <ele>12.147608920000494</ele>
        <time>2024-07-08T12:23:16Z</time>
      </trkpt>
      <trkpt lat="31.116849206936415" lon="121.36215516071236">
        <ele>12.289655767381191</ele>
        <time>2024-07-08T12:23:28Z</time>
      </trkpt>
      <trkpt lat="31.116909443167433" lon="121.36209253080288">
        <ele>10.598250740207732</ele>
        <time>2024-07-08T12:23:31Z</time>
      </trkpt>
      <trkpt lat="31.11699730495968" lon="121.36208842095363">
        <ele>10.558003574609756</ele>
        <time>2024-07-08T12:23:37Z</time>
      </trkpt>
      <trkpt lat="31.117066472989347" lon="121.3621155950737">
        <ele>8.901466488838196</ele>
        <time>2024-07-08T12:23:43Z</time>
      </trkpt>
      <trkpt lat="31.117127995124303" lon="121.36208447291295">
        <ele>9.414366223849356</ele>
        <time>2024-07-08T12:23:49Z</time>
      </trkpt>
      <trkpt lat="31.117218904126723" lon="121.36211085857148">
        <ele>8.289046944119036</ele>
        <time>2024-07-08T12:23:55Z</time>
      </trkpt>
      <trkpt lat="31.117270176524347" lon="121.36209310132827">
        <ele>7.1612487100064754</ele>
        <time>2024-07-08T12:23:58Z</time>
      </trkpt>
      <trkpt lat="31.117270176524347" lon="121.36209310132827">
        <ele>7.1612487100064754</ele>
        <time>2024-07-08T12:24:02Z</time>
      </trkpt>
      <trkpt lat="31.117343566711675" lon="121.3620259864076">
        <ele>4.898085853084922</ele>
        <time>2024-07-08T12:25:20Z</time>
      </trkpt>
      <trkpt lat="31.117340429924376" lon="121.36194308860125">
        <ele>5.232628064230084</ele>
        <time>2024-07-08T12:25:26Z</time>
      </trkpt>
      <trkpt lat="31.1173150499486" lon="121.36184822615809">
        <ele>4.877017236314714</ele>
        <time>2024-07-08T12:25:32Z</time>
      </trkpt>
      <trkpt lat="31.117276124922114" lon="121.36182075636886">
        <ele>6.304588587023318</ele>
        <time>2024-07-08T12:25:38Z</time>
      </trkpt>
      <trkpt lat="31.117222123913326" lon="121.36181714431305">
        <ele>7.9140556287020445</ele>
        <time>2024-07-08T12:25:41Z</time>
      </trkpt>
      <trkpt lat="31.116991221903834" lon="121.36191005146414">
        <ele>4.646953329443932</ele>
        <time>2024-07-08T12:25:59Z</time>
      </trkpt>
      <trkpt lat="31.116916416412923" lon="121.36195601239967">
        <ele>4.4627629751339555</ele>
        <time>2024-07-08T12:26:05Z</time>
      </trkpt>
      <trkpt lat="31.11685812591184" lon="121.3619624925227">
        <ele>4.61773706972599</ele>
        <time>2024-07-08T12:26:11Z</time>
      </trkpt>
      <trkpt lat="31.116660424598937" lon="121.3620770124308">
        <ele>3.7019923655316234</ele>
        <time>2024-07-08T12:26:29Z</time>
      </trkpt>
      <trkpt lat="31.11661223852043" lon="121.36207615425396">
        <ele>3.792315465398133</ele>
        <time>2024-07-08T12:26:32Z</time>
      </trkpt>
      <trkpt lat="31.11653898565783" lon="121.36211813586239">
        <ele>3.934193689376116</ele>
        <time>2024-07-08T12:26:38Z</time>
      </trkpt>
      <trkpt lat="31.116465612380466" lon="121.36213123359384">
        <ele>3.6826692586764693</ele>
        <time>2024-07-08T12:26:45Z</time>
      </trkpt>
      <trkpt lat="31.11623289522614" lon="121.36224517037466">
        <ele>4.32045681681484</ele>
        <time>2024-07-08T12:27:09Z</time>
      </trkpt>
      <trkpt lat="31.116152883758634" lon="121.36225811319996">
        <ele>2.9754202077165246</ele>
        <time>2024-07-08T12:27:18Z</time>
      </trkpt>
      <trkpt lat="31.116027497354967" lon="121.36232354794824">
        <ele>2.0498760798946023</ele>
        <time>2024-07-08T12:27:30Z</time>
      </trkpt>
      <trkpt lat="31.11584775069717" lon="121.3623696566184">
        <ele>5.850617600604892</ele>
        <time>2024-07-08T12:27:42Z</time>
      </trkpt>
      <trkpt lat="31.11564222999714" lon="121.36246389320371">
        <ele>7.373528361320496</ele>
        <time>2024-07-08T12:28:00Z</time>
      </trkpt>
      <trkpt lat="31.115370701410967" lon="121.36252929978883">
        <ele>9.207790181972086</ele>
        <time>2024-07-08T12:28:21Z</time>
      </trkpt>
      <trkpt lat="31.11518677731994" lon="121.36263726146319">
        <ele>4.311421040445566</ele>
        <time>2024-07-08T12:28:39Z</time>
      </trkpt>
      <trkpt lat="31.115112973592336" lon="121.36266288094457">
        <ele>3.176493788138032</ele>
        <time>2024-07-08T12:28:45Z</time>
      </trkpt>
      <trkpt lat="31.115076546911993" lon="121.36269489888431">
        <ele>3.419681311585009</ele>
        <time>2024-07-08T12:28:49Z</time>
      </trkpt>
      <trkpt lat="31.114954955822668" lon="121.36270583360766">
        <ele>1.4800316598266363</ele>
        <time>2024-07-08T12:28:58Z</time>
      </trkpt>
      <trkpt lat="31.114836728940418" lon="121.36278429995147">
        <ele>0.1078320574015379</ele>
        <time>2024-07-08T12:29:10Z</time>
      </trkpt>
      <trkpt lat="31.1147454537493" lon="121.36282105826605">
        <ele>-0.04153071343898773</ele>
        <time>2024-07-08T12:29:19Z</time>
      </trkpt>
      <trkpt lat="31.11465925034714" lon="121.36283244999547">
        <ele>0.7922387914732099</ele>
        <time>2024-07-08T12:29:25Z</time>
      </trkpt>
      <trkpt lat="31.114586674220266" lon="121.36286841884477">
        <ele>1.5797551274299622</ele>
        <time>2024-07-08T12:29:31Z</time>
      </trkpt>
      <trkpt lat="31.11428523717998" lon="121.36296246628532">
        <ele>1.864629845134914</ele>
        <time>2024-07-08T12:29:55Z</time>
      </trkpt>
      <trkpt lat="31.11409677330869" lon="121.3630484363874">
        <ele>1.203868132084608</ele>
        <time>2024-07-08T12:30:10Z</time>
      </trkpt>
      <trkpt lat="31.11399172348596" lon="121.36308829609465">
        <ele>0.12699417117983103</ele>
        <time>2024-07-08T12:30:16Z</time>
      </trkpt>
      <trkpt lat="31.1139209695424" lon="121.36309087428573">
        <ele>1.576716254465282</ele>
        <time>2024-07-08T12:30:25Z</time>
      </trkpt>
      <trkpt lat="31.11387830204496" lon="121.3630431410398">
        <ele>1.834970735013485</ele>
        <time>2024-07-08T12:30:28Z</time>
      </trkpt>
      <trkpt lat="31.1138140139069" lon="121.36301598825499">
        <ele>4.843587291426957</ele>
        <time>2024-07-08T12:30:34Z</time>
      </trkpt>
      <trkpt lat="31.11376913799443" lon="121.36311925153386">
        <ele>5.577950935810804</ele>
        <time>2024-07-08T12:30:49Z</time>
      </trkpt>
      <trkpt lat="31.113714908779034" lon="121.36312923766188">
        <ele>5.585203666239977</ele>
        <time>2024-07-08T12:30:52Z</time>
      </trkpt>
      <trkpt lat="31.1136562274419" lon="121.36319959752515">
        <ele>5.7243848061189055</ele>
        <time>2024-07-08T12:31:00Z</time>
      </trkpt>
      <trkpt lat="31.11364127165395" lon="121.36327047540736">
        <ele>4.9027486853301525</ele>
        <time>2024-07-08T12:31:11Z</time>
      </trkpt>
      <trkpt lat="31.11340992913834" lon="121.36333770904692">
        <ele>5.657363414764404</ele>
        <time>2024-07-08T12:31:29Z</time>
      </trkpt>
      <trkpt lat="31.113326724556288" lon="121.36339120767367">
        <ele>7.063787733204663</ele>
        <time>2024-07-08T12:31:35Z</time>
      </trkpt>
      <trkpt lat="31.113243697297982" lon="121.36340255431755">
        <ele>5.980116311460733</ele>
        <time>2024-07-08T12:31:44Z</time>
      </trkpt>
      <trkpt lat="31.113199116896876" lon="121.36345551507705">
        <ele>7.4863759921863675</ele>
        <time>2024-07-08T12:31:47Z</time>
      </trkpt>
      <trkpt lat="31.113129779919774" lon="121.36344003188408">
        <ele>7.758950750343502</ele>
        <time>2024-07-08T12:31:53Z</time>
      </trkpt>
      <trkpt lat="31.113094699780795" lon="121.36349325373565">
        <ele>6.725566843524575</ele>
        <time>2024-07-08T12:31:56Z</time>
      </trkpt>
      <trkpt lat="31.11284938953092" lon="121.36361723584791">
        <ele>5.448556889779866</ele>
        <time>2024-07-08T12:32:17Z</time>
      </trkpt>
      <trkpt lat="31.11265147795868" lon="121.36362944431895">
        <ele>5.301848375238478</ele>
        <time>2024-07-08T12:32:35Z</time>
      </trkpt>
      <trkpt lat="31.1124790712915" lon="121.36374147352932">
        <ele>3.6016682386398315</ele>
        <time>2024-07-08T12:32:50Z</time>
      </trkpt>
      <trkpt lat="31.112443673239408" lon="121.36379421782698">
        <ele>4.009721032343805</ele>
        <time>2024-07-08T12:32:53Z</time>
      </trkpt>
      <trkpt lat="31.112374588034047" lon="121.36369137335674">
        <ele>3.968013094738126</ele>
        <time>2024-07-08T12:33:03Z</time>
      </trkpt>
      <trkpt lat="31.112329309095422" lon="121.36366671417338">
        <ele>4.303232745267451</ele>
        <time>2024-07-08T12:33:07Z</time>
      </trkpt>
      <trkpt lat="31.112133234540508" lon="121.3637548005037">
        <ele>3.622246593236923</ele>
        <time>2024-07-08T12:33:22Z</time>
      </trkpt>
      <trkpt lat="31.112082731680786" lon="121.36389349845851">
        <ele>3.384501085616648</ele>
        <time>2024-07-08T12:33:31Z</time>
      </trkpt>
      <trkpt lat="31.11201933174409" lon="121.36394010682672">
        <ele>2.3402132457122207</ele>
        <time>2024-07-08T12:33:37Z</time>
      </trkpt>
      <trkpt lat="31.111757927600834" lon="121.36404231683503">
        <ele>6.500124110840261</ele>
        <time>2024-07-08T12:33:58Z</time>
      </trkpt>
      <trkpt lat="31.111442649578436" lon="121.36418127651257">
        <ele>7.4595465855672956</ele>
        <time>2024-07-08T12:34:25Z</time>
      </trkpt>
      <trkpt lat="31.111291281479982" lon="121.36424541186553">
        <ele>8.845083289779723</ele>
        <time>2024-07-08T12:34:37Z</time>
      </trkpt>
      <trkpt lat="31.111220825458282" lon="121.36423236115553">
        <ele>7.714554795064032</ele>
        <time>2024-07-08T12:34:43Z</time>
      </trkpt>
      <trkpt lat="31.111152055747198" lon="121.3642689873672">
        <ele>5.88175970222801</ele>
        <time>2024-07-08T12:34:49Z</time>
      </trkpt>
      <trkpt lat="31.111127615832515" lon="121.36421993283003">
        <ele>6.663087910041213</ele>
        <time>2024-07-08T12:34:55Z</time>
      </trkpt>
      <trkpt lat="31.111083608587645" lon="121.36425604600007">
        <ele>6.689217759296298</ele>
        <time>2024-07-08T12:34:58Z</time>
      </trkpt>
      <trkpt lat="31.111058085197286" lon="121.3643267822871">
        <ele>6.4648905619978905</ele>
        <time>2024-07-08T12:35:04Z</time>
      </trkpt>
      <trkpt lat="31.111107290622734" lon="121.36445904994402">
        <ele>6.511222786270082</ele>
        <time>2024-07-08T12:35:12Z</time>
      </trkpt>
      <trkpt lat="31.111151709161476" lon="121.36451203338169">
        <ele>6.630041383206844</ele>
        <time>2024-07-08T12:35:16Z</time>
      </trkpt>
      <trkpt lat="31.111175546067155" lon="121.36464740905116">
        <ele>6.662840246222913</ele>
        <time>2024-07-08T12:35:24Z</time>
      </trkpt>
      <trkpt lat="31.11124768966944" lon="121.3645736467944">
        <ele>8.29068078007549</ele>
        <time>2024-07-08T12:35:31Z</time>
      </trkpt>
      <trkpt lat="31.111332585409293" lon="121.36452737773652">
        <ele>9.507668161764741</ele>
        <time>2024-07-08T12:35:37Z</time>
      </trkpt>
      <trkpt lat="31.111368048913246" lon="121.36445160497641">
        <ele>9.666214109398425</ele>
        <time>2024-07-08T12:35:43Z</time>
      </trkpt>
      <trkpt lat="31.11151595221626" lon="121.36445353907304">
        <ele>7.714657258242369</ele>
        <time>2024-07-08T12:35:52Z</time>
      </trkpt>
      <trkpt lat="31.11160468531315" lon="121.36438245792039">
        <ele>7.384584060870111</ele>
        <time>2024-07-08T12:36:01Z</time>
      </trkpt>
      <trkpt lat="31.111856929576454" lon="121.36431405383595">
        <ele>6.517119232565165</ele>
        <time>2024-07-08T12:36:22Z</time>
      </trkpt>
      <trkpt lat="31.112133161422776" lon="121.36419638002049">
        <ele>6.86043756082654</ele>
        <time>2024-07-08T12:36:46Z</time>
      </trkpt>
      <trkpt lat="31.112182026445222" lon="121.36417575200377">
        <ele>7.476244827732444</ele>
        <time>2024-07-08T12:36:52Z</time>
      </trkpt>
      <trkpt lat="31.112064365490657" lon="121.36419742881702">
        <ele>6.990535953082144</ele>
        <time>2024-07-08T12:37:22Z</time>
      </trkpt>
      <trkpt lat="31.11190236409393" lon="121.364322964296">
        <ele>6.285939099267125</ele>
        <time>2024-07-08T12:37:38Z</time>
      </trkpt>
      <trkpt lat="31.111792370404846" lon="121.3643513078688">
        <ele>5.207159369252622</ele>
        <time>2024-07-08T12:37:47Z</time>
      </trkpt>
      <trkpt lat="31.111738080431564" lon="121.36439873490184">
        <ele>6.0479309586808085</ele>
        <time>2024-07-08T12:37:50Z</time>
      </trkpt>
      <trkpt lat="31.11168457738408" lon="121.36438929439933">
        <ele>7.029862865805626</ele>
        <time>2024-07-08T12:37:53Z</time>
      </trkpt>
      <trkpt lat="31.11172606624026" lon="121.36436606034276">
        <ele>9.840854656882584</ele>
        <time>2024-07-08T12:37:59Z</time>
      </trkpt>
      <trkpt lat="31.111754616525563" lon="121.36431547116968">
        <ele>9.004623898304999</ele>
        <time>2024-07-08T12:38:02Z</time>
      </trkpt>
      <trkpt lat="31.111819091259214" lon="121.3643120094903">
        <ele>7.772538120858371</ele>
        <time>2024-07-08T12:38:08Z</time>
      </trkpt>
      <trkpt lat="31.11193720361126" lon="121.36424467004053">
        <ele>6.766431168653071</ele>
        <time>2024-07-08T12:38:20Z</time>
      </trkpt>
      <trkpt lat="31.112000666254648" lon="121.36422775342781">
        <ele>5.770838023163378</ele>
        <time>2024-07-08T12:38:26Z</time>
      </trkpt>
      <trkpt lat="31.112058309674154" lon="121.36418954593282">
        <ele>6.8284705355763435</ele>
        <time>2024-07-08T12:38:32Z</time>
      </trkpt>
      <trkpt lat="31.112120009764563" lon="121.36417504308874">
        <ele>7.227661639451981</ele>
        <time>2024-07-08T12:38:38Z</time>
      </trkpt>
      <trkpt lat="31.11217653963366" lon="121.36418982582184">
        <ele>7.295159942470491</ele>
        <time>2024-07-08T12:38:44Z</time>
      </trkpt>
      <trkpt lat="31.112141582093432" lon="121.36419410223264">
        <ele>6.26929774787277</ele>
        <time>2024-07-08T12:38:50Z</time>
      </trkpt>
      <trkpt lat="31.11214475033106" lon="121.3641933588186">
        <ele>6.910637672059238</ele>
        <time>2024-07-08T12:39:09Z</time>
      </trkpt>
      <trkpt lat="31.112166934469588" lon="121.36421902945065">
        <ele>6.489472624845803</ele>
        <time>2024-07-08T12:39:12Z</time>
      </trkpt>
    </trkseg>
  </trk>
</gpx>