<?xml version="1.0" encoding="UTF-8"?>
<gpx xmlns="http://www.topografix.com/GPX/1/1" xmlns:gpxtpx="http://www.garmin.com/xmlschemas/TrackPointExtension/v1" xmlns:xsi="http://www.w3.org/2001/XMLSchema-instance" xsi:schemaLocation="http://www.topografix.com/GPX/1/1 http://www.topografix.com/GPX/1/1/gpx.xsd" version="1.1" creator="gpx.py -- https://github.com/tkrajina/gpxpy">
  <trk>
    <name>gpx from keep</name>
    <type>Run</type>
    <trkseg>
      <trkpt lat="31.106771728416795" lon="121.38356925350257">
        <ele>20.14227294921875</ele>
        <time>2024-06-12T07:52:52Z</time>
      </trkpt>
      <trkpt lat="31.10706452880491" lon="121.38363218472834">
        <ele>30.4205322265625</ele>
        <time>2024-06-12T07:53:16Z</time>
      </trkpt>
      <trkpt lat="31.107126471368307" lon="121.38367115260039">
        <ele>28.72113037109375</ele>
        <time>2024-06-12T07:53:22Z</time>
      </trkpt>
      <trkpt lat="31.107274358749038" lon="121.38372310420894">
        <ele>29.07891845703125</ele>
        <time>2024-06-12T07:53:31Z</time>
      </trkpt>
      <trkpt lat="31.107412296023668" lon="121.3837001079524">
        <ele>27.26776123046875</ele>
        <time>2024-06-12T07:53:37Z</time>
      </trkpt>
      <trkpt lat="31.10752429819823" lon="121.3835921723481">
        <ele>25.6488037109375</ele>
        <time>2024-06-12T07:53:43Z</time>
      </trkpt>
      <trkpt lat="31.10755731995469" lon="121.38352521573789">
        <ele>24.1549072265625</ele>
        <time>2024-06-12T07:53:46Z</time>
      </trkpt>
      <trkpt lat="31.10757142541384" lon="121.38333734543478">
        <ele>25.2745361328125</ele>
        <time>2024-06-12T07:53:52Z</time>
      </trkpt>
      <trkpt lat="31.107622483648807" lon="121.38319544099511">
        <ele>24.84307861328125</ele>
        <time>2024-06-12T07:53:58Z</time>
      </trkpt>
      <trkpt lat="31.107613531526493" lon="121.38312549141197">
        <ele>22.9490966796875</ele>
        <time>2024-06-12T07:54:01Z</time>
      </trkpt>
      <trkpt lat="31.10766159757469" lon="121.38297559438841">
        <ele>23.25201416015625</ele>
        <time>2024-06-12T07:54:07Z</time>
      </trkpt>
      <trkpt lat="31.107724653091616" lon="121.38283069349644">
        <ele>23.78228759765625</ele>
        <time>2024-06-12T07:54:16Z</time>
      </trkpt>
      <trkpt lat="31.107794825021077" lon="121.3824979313064">
        <ele>19.82568359375</ele>
        <time>2024-06-12T07:54:31Z</time>
      </trkpt>
      <trkpt lat="31.107812859260697" lon="121.3824289809275">
        <ele>19.41265869140625</ele>
        <time>2024-06-12T07:54:34Z</time>
      </trkpt>
      <trkpt lat="31.10779596472079" lon="121.38228009368268">
        <ele>14.50732421875</ele>
        <time>2024-06-12T07:54:40Z</time>
      </trkpt>
      <trkpt lat="31.107821981480768" lon="121.38223212749747">
        <ele>14.7330322265625</ele>
        <time>2024-06-12T07:54:43Z</time>
      </trkpt>
      <trkpt lat="31.107816070877234" lon="121.38210022776148">
        <ele>9.217193603515625</ele>
        <time>2024-06-12T07:54:49Z</time>
      </trkpt>
      <trkpt lat="31.1078172625031" lon="121.38180945042537">
        <ele>10.774169921875</ele>
        <time>2024-06-12T07:55:01Z</time>
      </trkpt>
      <trkpt lat="31.107828293785555" lon="121.38175349278858">
        <ele>11.234222412109375</ele>
        <time>2024-06-12T07:55:04Z</time>
      </trkpt>
      <trkpt lat="31.1078083584291" lon="121.38167355665624">
        <ele>8.8475341796875</ele>
        <time>2024-06-12T07:55:10Z</time>
      </trkpt>
      <trkpt lat="31.107857416251367" lon="121.38154765086881">
        <ele>13.49932861328125</ele>
        <time>2024-06-12T07:55:16Z</time>
      </trkpt>
      <trkpt lat="31.107865519175427" lon="121.38138977467983">
        <ele>13.54339599609375</ele>
        <time>2024-06-12T07:55:25Z</time>
      </trkpt>
      <trkpt lat="31.10789258849089" lon="121.38126687006131">
        <ele>15.71685791015625</ele>
        <time>2024-06-12T07:55:31Z</time>
      </trkpt>
      <trkpt lat="31.107900673741682" lon="121.38113697340987">
        <ele>12.3165283203125</ele>
        <time>2024-06-12T07:55:37Z</time>
      </trkpt>
      <trkpt lat="31.107945772715603" lon="121.38095911322806">
        <ele>11.917877197265625</ele>
        <time>2024-06-12T07:55:43Z</time>
      </trkpt>
      <trkpt lat="31.107911842653674" lon="121.38088617553831">
        <ele>13.591552734375</ele>
        <time>2024-06-12T07:55:49Z</time>
      </trkpt>
      <trkpt lat="31.107840900164433" lon="121.38086020289583">
        <ele>16.1148681640625</ele>
        <time>2024-06-12T07:55:55Z</time>
      </trkpt>
      <trkpt lat="31.107605039069952" lon="121.38084823315263">
        <ele>20.43951416015625</ele>
        <time>2024-06-12T07:56:13Z</time>
      </trkpt>
      <trkpt lat="31.107350225882925" lon="121.38078330843649">
        <ele>21.51409912109375</ele>
        <time>2024-06-12T07:56:25Z</time>
      </trkpt>
      <trkpt lat="31.107274264384404" lon="121.3807883109281">
        <ele>19.5458984375</ele>
        <time>2024-06-12T07:56:28Z</time>
      </trkpt>
      <trkpt lat="31.107080431823483" lon="121.3807033975576">
        <ele>22.74517822265625</ele>
        <time>2024-06-12T07:56:37Z</time>
      </trkpt>
      <trkpt lat="31.107022497989906" lon="121.38065544215455">
        <ele>24.92938232421875</ele>
        <time>2024-06-12T07:56:40Z</time>
      </trkpt>
      <trkpt lat="31.106774690771395" lon="121.38057752817859">
        <ele>24.3486328125</ele>
        <time>2024-06-12T07:56:53Z</time>
      </trkpt>
      <trkpt lat="31.1067137631363" lon="121.38052357830038">
        <ele>24.95098876953125</ele>
        <time>2024-06-12T07:56:58Z</time>
      </trkpt>
      <trkpt lat="31.106567846796743" lon="121.38051959428368">
        <ele>26.25299072265625</ele>
        <time>2024-06-12T07:57:07Z</time>
      </trkpt>
      <trkpt lat="31.10652085062464" lon="121.3805505725985">
        <ele>24.610595703125</ele>
        <time>2024-06-12T07:57:10Z</time>
      </trkpt>
      <trkpt lat="31.106482738622507" lon="121.38073742143692">
        <ele>27.309326171875</ele>
        <time>2024-06-12T07:57:22Z</time>
      </trkpt>
      <trkpt lat="31.106469648509297" lon="121.38087530960838">
        <ele>26.92535400390625</ele>
        <time>2024-06-12T07:57:40Z</time>
      </trkpt>
      <trkpt lat="31.106398585660944" lon="121.38102119721205">
        <ele>28.08807373046875</ele>
        <time>2024-06-12T07:57:46Z</time>
      </trkpt>
      <trkpt lat="31.106393501630155" lon="121.38114609692468">
        <ele>29.5711669921875</ele>
        <time>2024-06-12T07:57:52Z</time>
      </trkpt>
      <trkpt lat="31.106278327517813" lon="121.38149283106807">
        <ele>30.94879150390625</ele>
        <time>2024-06-12T07:58:04Z</time>
      </trkpt>
      <trkpt lat="31.106262228991323" lon="121.38165170792578">
        <ele>27.43109130859375</ele>
        <time>2024-06-12T07:58:10Z</time>
      </trkpt>
      <trkpt lat="31.106211180172505" lon="121.38176662300836">
        <ele>28.1876220703125</ele>
        <time>2024-06-12T07:58:16Z</time>
      </trkpt>
      <trkpt lat="31.10617206833027" lon="121.38196747171285">
        <ele>25.2947998046875</ele>
        <time>2024-06-12T07:58:22Z</time>
      </trkpt>
      <trkpt lat="31.10613905036454" lon="121.38202243257639">
        <ele>23.25616455078125</ele>
        <time>2024-06-12T07:58:25Z</time>
      </trkpt>
      <trkpt lat="31.10609982612527" lon="121.38240015112666">
        <ele>25.34881591796875</ele>
        <time>2024-06-12T07:58:40Z</time>
      </trkpt>
      <trkpt lat="31.106087765479053" lon="121.38250507422926">
        <ele>27.36962890625</ele>
        <time>2024-06-12T07:58:43Z</time>
      </trkpt>
      <trkpt lat="31.106024716384724" lon="121.38263698244344">
        <ele>27.62353515625</ele>
        <time>2024-06-12T07:58:49Z</time>
      </trkpt>
      <trkpt lat="31.106001618218816" lon="121.38281285604086">
        <ele>26.286865234375</ele>
        <time>2024-06-12T07:58:55Z</time>
      </trkpt>
      <trkpt lat="31.106019550767112" lon="121.38290478794082">
        <ele>22.86224365234375</ele>
        <time>2024-06-12T07:59:04Z</time>
      </trkpt>
      <trkpt lat="31.105992467775316" lon="121.38306267693439">
        <ele>23.00457763671875</ele>
        <time>2024-06-12T07:59:13Z</time>
      </trkpt>
      <trkpt lat="31.10602239152365" lon="121.38315960532678">
        <ele>19.49298095703125</ele>
        <time>2024-06-12T07:59:19Z</time>
      </trkpt>
      <trkpt lat="31.106060334999782" lon="121.38321756098146">
        <ele>16.89691162109375</ele>
        <time>2024-06-12T07:59:22Z</time>
      </trkpt>
      <trkpt lat="31.1063360952843" lon="121.38336043651391">
        <ele>19.24859619140625</ele>
        <time>2024-06-12T07:59:34Z</time>
      </trkpt>
      <trkpt lat="31.106514677544183" lon="121.38337463180201">
        <ele>23.6807861328125</ele>
        <time>2024-06-12T07:59:40Z</time>
      </trkpt>
      <trkpt lat="31.106628269147713" lon="121.38329596731339">
        <ele>24.506103515625</ele>
        <time>2024-06-12T07:59:49Z</time>
      </trkpt>
      <trkpt lat="31.10678191584334" lon="121.38324947579184">
        <ele>26.72088623046875</ele>
        <time>2024-06-12T07:59:58Z</time>
      </trkpt>
      <trkpt lat="31.106854873624282" lon="121.38325246734699">
        <ele>32.45819091796875</ele>
        <time>2024-06-12T08:00:04Z</time>
      </trkpt>
      <trkpt lat="31.10691588506682" lon="121.3831785143382">
        <ele>30.24951171875</ele>
        <time>2024-06-12T08:00:10Z</time>
      </trkpt>
      <trkpt lat="31.106961005745816" lon="121.3829426788888">
        <ele>23.8509521484375</ele>
        <time>2024-06-12T08:00:25Z</time>
      </trkpt>
      <trkpt lat="31.10700096374896" lon="121.38297465242587">
        <ele>23.10540771484375</ele>
        <time>2024-06-12T08:00:28Z</time>
      </trkpt>
      <trkpt lat="31.107073806233824" lon="121.38316451055685">
        <ele>24.04095458984375</ele>
        <time>2024-06-12T08:00:37Z</time>
      </trkpt>
      <trkpt lat="31.10721164936753" lon="121.38329640542472">
        <ele>22.22552490234375</ele>
        <time>2024-06-12T08:00:46Z</time>
      </trkpt>
      <trkpt lat="31.107275594551194" lon="121.38332837741265">
        <ele>21.72625732421875</ele>
        <time>2024-06-12T08:00:49Z</time>
      </trkpt>
      <trkpt lat="31.1073425532547" lon="121.38333536669529">
        <ele>23.1981201171875</ele>
        <time>2024-06-12T08:00:52Z</time>
      </trkpt>
      <trkpt lat="31.10752954853118" lon="121.38317346463518">
        <ele>20.96612548828125</ele>
        <time>2024-06-12T08:01:04Z</time>
      </trkpt>
      <trkpt lat="31.10755658394969" lon="121.38309152054713">
        <ele>20.13543701171875</ele>
        <time>2024-06-12T08:01:07Z</time>
      </trkpt>
      <trkpt lat="31.107583667404608" lon="121.38293263206027">
        <ele>18.8653564453125</ele>
        <time>2024-06-12T08:01:13Z</time>
      </trkpt>
      <trkpt lat="31.107619690506436" lon="121.38286367871609">
        <ele>19.2401123046875</ele>
        <time>2024-06-12T08:01:16Z</time>
      </trkpt>
      <trkpt lat="31.107644815693483" lon="121.38264283748207">
        <ele>19.83526611328125</ele>
        <time>2024-06-12T08:01:25Z</time>
      </trkpt>
      <trkpt lat="31.107588958736272" lon="121.38246697213664">
        <ele>20.5101318359375</ele>
        <time>2024-06-12T08:01:31Z</time>
      </trkpt>
      <trkpt lat="31.107545013201346" lon="121.38242001085885">
        <ele>20.81878662109375</ele>
        <time>2024-06-12T08:01:34Z</time>
      </trkpt>
      <trkpt lat="31.10753207705004" lon="121.38233207762072">
        <ele>19.64154052734375</ele>
        <time>2024-06-12T08:01:37Z</time>
      </trkpt>
      <trkpt lat="31.107587197476374" lon="121.3821002476181">
        <ele>21.87884521484375</ele>
        <time>2024-06-12T08:01:46Z</time>
      </trkpt>
      <trkpt lat="31.10764819653517" lon="121.38205028032212">
        <ele>20.67181396484375</ele>
        <time>2024-06-12T08:01:52Z</time>
      </trkpt>
      <trkpt lat="31.1077252860832" lon="121.38185042678047">
        <ele>16.57733154296875</ele>
        <time>2024-06-12T08:02:07Z</time>
      </trkpt>
      <trkpt lat="31.10773737755284" lon="121.3817035394776">
        <ele>16.87744140625</ele>
        <time>2024-06-12T08:02:13Z</time>
      </trkpt>
      <trkpt lat="31.107771421258697" lon="121.38161060900309">
        <ele>16.750244140625</ele>
        <time>2024-06-12T08:02:16Z</time>
      </trkpt>
      <trkpt lat="31.10782559943718" lon="121.38130484560523">
        <ele>19.033935546875</ele>
        <time>2024-06-12T08:02:25Z</time>
      </trkpt>
      <trkpt lat="31.10785564542196" lon="121.38121391559247">
        <ele>16.26776123046875</ele>
        <time>2024-06-12T08:02:28Z</time>
      </trkpt>
      <trkpt lat="31.107856695985475" lon="121.38113997481499">
        <ele>16.63714599609375</ele>
        <time>2024-06-12T08:02:31Z</time>
      </trkpt>
      <trkpt lat="31.107792808435498" lon="121.38102906980038">
        <ele>15.84039306640625</ele>
        <time>2024-06-12T08:02:37Z</time>
      </trkpt>
      <trkpt lat="31.10763193301288" lon="121.38097812504151">
        <ele>18.20465087890625</ele>
        <time>2024-06-12T08:02:49Z</time>
      </trkpt>
      <trkpt lat="31.107591975400307" lon="121.3809491520371">
        <ele>19.10302734375</ele>
        <time>2024-06-12T08:02:53Z</time>
      </trkpt>
      <trkpt lat="31.107384097411387" lon="121.38093917819234">
        <ele>24.00225830078125</ele>
        <time>2024-06-12T08:03:10Z</time>
      </trkpt>
      <trkpt lat="31.10727117671498" lon="121.38091520750054">
        <ele>26.265380859375</ele>
        <time>2024-06-12T08:03:19Z</time>
      </trkpt>
      <trkpt lat="31.107099248040818" lon="121.38094919477933">
        <ele>25.5611572265625</ele>
        <time>2024-06-12T08:03:29Z</time>
      </trkpt>
      <trkpt lat="31.106783433362295" lon="121.38093423436008">
        <ele>23.20550537109375</ele>
        <time>2024-06-12T08:03:41Z</time>
      </trkpt>
      <trkpt lat="31.1066494991127" lon="121.38094623622895">
        <ele>23.2738037109375</ele>
        <time>2024-06-12T08:03:47Z</time>
      </trkpt>
      <trkpt lat="31.106585517748822" lon="121.38097022230052">
        <ele>24.39697265625</ele>
        <time>2024-06-12T08:03:50Z</time>
      </trkpt>
      <trkpt lat="31.106520513258136" lon="121.38102818097575">
        <ele>24.32318115234375</ele>
        <time>2024-06-12T08:03:53Z</time>
      </trkpt>
      <trkpt lat="31.106467431642375" lon="121.38118805682831">
        <ele>27.65911865234375</ele>
        <time>2024-06-12T08:03:59Z</time>
      </trkpt>
      <trkpt lat="31.106429407885763" lon="121.38125300815803">
        <ele>25.775146484375</ele>
        <time>2024-06-12T08:04:02Z</time>
      </trkpt>
      <trkpt lat="31.10649613447492" lon="121.38159972823561">
        <ele>21.2425537109375</ele>
        <time>2024-06-12T08:04:14Z</time>
      </trkpt>
      <trkpt lat="31.10648208639115" lon="121.3816826647083">
        <ele>21.34326171875</ele>
        <time>2024-06-12T08:04:17Z</time>
      </trkpt>
      <trkpt lat="31.106442051631717" lon="121.38176760220588">
        <ele>20.23931884765625</ele>
        <time>2024-06-12T08:04:20Z</time>
      </trkpt>
      <trkpt lat="31.1064389873774" lon="121.38186652605192">
        <ele>20.23858642578125</ele>
        <time>2024-06-12T08:04:23Z</time>
      </trkpt>
      <trkpt lat="31.10641296597667" lon="121.38192048681749">
        <ele>16.47998046875</ele>
        <time>2024-06-12T08:04:26Z</time>
      </trkpt>
      <trkpt lat="31.106346969470977" lon="121.3819704542452">
        <ele>15.93701171875</ele>
        <time>2024-06-12T08:04:32Z</time>
      </trkpt>
      <trkpt lat="31.106295900481303" lon="121.38211834599545">
        <ele>14.35504150390625</ele>
        <time>2024-06-12T08:04:38Z</time>
      </trkpt>
      <trkpt lat="31.106302749804104" lon="121.38234417530226">
        <ele>16.8499755859375</ele>
        <time>2024-06-12T08:04:50Z</time>
      </trkpt>
      <trkpt lat="31.106191669004993" lon="121.3825660201697">
        <ele>19.03289794921875</ele>
        <time>2024-06-12T08:05:02Z</time>
      </trkpt>
      <trkpt lat="31.10617361363109" lon="121.38266894607095">
        <ele>18.50469970703125</ele>
        <time>2024-06-12T08:05:05Z</time>
      </trkpt>
      <trkpt lat="31.106179551672884" lon="121.38276187766306">
        <ele>19.37335205078125</ele>
        <time>2024-06-12T08:05:08Z</time>
      </trkpt>
      <trkpt lat="31.10621148378992" lon="121.3828418168143">
        <ele>22.4935302734375</ele>
        <time>2024-06-12T08:05:11Z</time>
      </trkpt>
      <trkpt lat="31.106314386818088" lon="121.38290576163963">
        <ele>24.72637939453125</ele>
        <time>2024-06-12T08:05:17Z</time>
      </trkpt>
      <trkpt lat="31.106394336929007" lon="121.38291474821503">
        <ele>22.240478515625</ele>
        <time>2024-06-12T08:05:20Z</time>
      </trkpt>
      <trkpt lat="31.10662525901423" lon="121.38283478598485">
        <ele>22.30096435546875</ele>
        <time>2024-06-12T08:05:29Z</time>
      </trkpt>
      <trkpt lat="31.106683193806678" lon="121.38288774262901">
        <ele>21.142333984375</ele>
        <time>2024-06-12T08:05:38Z</time>
      </trkpt>
      <trkpt lat="31.106920027807124" lon="121.38294368172483">
        <ele>23.2098388671875</ele>
        <time>2024-06-12T08:05:53Z</time>
      </trkpt>
      <trkpt lat="31.106959974653343" lon="121.38299364235108">
        <ele>23.89837646484375</ele>
        <time>2024-06-12T08:05:56Z</time>
      </trkpt>
      <trkpt lat="31.106977933770015" lon="121.38304360500238">
        <ele>23.82366943359375</ele>
        <time>2024-06-12T08:05:59Z</time>
      </trkpt>
      <trkpt lat="31.106972886647192" lon="121.38312454770882">
        <ele>23.7965087890625</ele>
        <time>2024-06-12T08:06:05Z</time>
      </trkpt>
      <trkpt lat="31.10699681091671" lon="121.38322647337274">
        <ele>23.3184814453125</ele>
        <time>2024-06-12T08:06:11Z</time>
      </trkpt>
      <trkpt lat="31.107202630077627" lon="121.3833363781352">
        <ele>22.66448974609375</ele>
        <time>2024-06-12T08:06:23Z</time>
      </trkpt>
      <trkpt lat="31.107324565633334" lon="121.38333137106005">
        <ele>18.19610595703125</ele>
        <time>2024-06-12T08:06:29Z</time>
      </trkpt>
      <trkpt lat="31.107513519487505" lon="121.38323542218731">
        <ele>17.1600341796875</ele>
        <time>2024-06-12T08:06:35Z</time>
      </trkpt>
      <trkpt lat="31.1075715234718" lon="121.38317645886774">
        <ele>19.70013427734375</ele>
        <time>2024-06-12T08:06:38Z</time>
      </trkpt>
      <trkpt lat="31.107607586582166" lon="121.38304155179989">
        <ele>17.4476318359375</ele>
        <time>2024-06-12T08:06:44Z</time>
      </trkpt>
      <trkpt lat="31.1076127118819" lon="121.38283569958638">
        <ele>15.31402587890625</ele>
        <time>2024-06-12T08:06:53Z</time>
      </trkpt>
      <trkpt lat="31.107637740073393" lon="121.38276874605471">
        <ele>16.7330322265625</ele>
        <time>2024-06-12T08:06:56Z</time>
      </trkpt>
      <trkpt lat="31.10762989006903" lon="121.38253891530705">
        <ele>16.13043212890625</ele>
        <time>2024-06-12T08:07:05Z</time>
      </trkpt>
      <trkpt lat="31.107598971150956" lon="121.38243899205267">
        <ele>16.30413818359375</ele>
        <time>2024-06-12T08:07:08Z</time>
      </trkpt>
      <trkpt lat="31.107557036790457" lon="121.38237304482821">
        <ele>16.50604248046875</ele>
        <time>2024-06-12T08:07:11Z</time>
      </trkpt>
      <trkpt lat="31.107550116276666" lon="121.38225613303491">
        <ele>16.2869873046875</ele>
        <time>2024-06-12T08:07:17Z</time>
      </trkpt>
      <trkpt lat="31.1076212213171" lon="121.38203529408393">
        <ele>17.5811767578125</ele>
        <time>2024-06-12T08:07:26Z</time>
      </trkpt>
      <trkpt lat="31.10766424958934" lon="121.3819563506768">
        <ele>18.5384521484375</ele>
        <time>2024-06-12T08:07:29Z</time>
      </trkpt>
      <trkpt lat="31.107758410937645" lon="121.38163658982853">
        <ele>12.12188720703125</ele>
        <time>2024-06-12T08:07:41Z</time>
      </trkpt>
      <trkpt lat="31.107801527284217" lon="121.38142974859971">
        <ele>11.822723388671875</ele>
        <time>2024-06-12T08:07:50Z</time>
      </trkpt>
      <trkpt lat="31.107869614268925" lon="121.38124788721304">
        <ele>16.31689453125</ele>
        <time>2024-06-12T08:08:02Z</time>
      </trkpt>
      <trkpt lat="31.107874693652544" lon="121.38112898209212">
        <ele>22.11090087890625</ele>
        <time>2024-06-12T08:08:08Z</time>
      </trkpt>
      <trkpt lat="31.107837795406812" lon="121.3810120796464">
        <ele>20.15966796875</ele>
        <time>2024-06-12T08:08:14Z</time>
      </trkpt>
      <trkpt lat="31.107780866016856" lon="121.38095612996828">
        <ele>20.37744140625</ele>
        <time>2024-06-12T08:08:20Z</time>
      </trkpt>
      <trkpt lat="31.107529006736065" lon="121.38095415343989">
        <ele>22.3260498046875</ele>
        <time>2024-06-12T08:08:32Z</time>
      </trkpt>
      <trkpt lat="31.107223233437853" lon="121.38087224668594">
        <ele>26.32135009765625</ele>
        <time>2024-06-12T08:08:44Z</time>
      </trkpt>
      <trkpt lat="31.107162255940867" lon="121.38088823893239">
        <ele>27.3441162109375</ele>
        <time>2024-06-12T08:08:47Z</time>
      </trkpt>
      <trkpt lat="31.107035337427813" lon="121.38087226298494">
        <ele>30.4261474609375</ele>
        <time>2024-06-12T08:08:53Z</time>
      </trkpt>
      <trkpt lat="31.106810400930375" lon="121.38095921171751">
        <ele>27.2928466796875</ele>
        <time>2024-06-12T08:09:02Z</time>
      </trkpt>
      <trkpt lat="31.106666485507507" lon="121.38095222988339">
        <ele>28.0865478515625</ele>
        <time>2024-06-12T08:09:08Z</time>
      </trkpt>
      <trkpt lat="31.106607497889268" lon="121.3809812114751">
        <ele>28.75341796875</ele>
        <time>2024-06-12T08:09:11Z</time>
      </trkpt>
      <trkpt lat="31.10657642874658" lon="121.38110511401634">
        <ele>29.83447265625</ele>
        <time>2024-06-12T08:09:17Z</time>
      </trkpt>
      <trkpt lat="31.106480384473123" lon="121.38124600932326">
        <ele>30.64801025390625</ele>
        <time>2024-06-12T08:09:29Z</time>
      </trkpt>
      <trkpt lat="31.106499329313998" lon="121.38131095588497">
        <ele>29.6612548828125</ele>
        <time>2024-06-12T08:09:35Z</time>
      </trkpt>
      <trkpt lat="31.10648929925255" lon="121.38136291545943">
        <ele>29.2449951171875</ele>
        <time>2024-06-12T08:09:38Z</time>
      </trkpt>
      <trkpt lat="31.10643428739046" lon="121.38142487115768">
        <ele>25.31719970703125</ele>
        <time>2024-06-12T08:09:41Z</time>
      </trkpt>
      <trkpt lat="31.10641611688407" lon="121.38169166342968">
        <ele>17.42608642578125</ele>
        <time>2024-06-12T08:09:50Z</time>
      </trkpt>
      <trkpt lat="31.106367000707483" lon="121.38190650154922">
        <ele>15.20098876953125</ele>
        <time>2024-06-12T08:09:56Z</time>
      </trkpt>
      <trkpt lat="31.106293922536597" lon="121.38208637044401">
        <ele>17.6033935546875</ele>
        <time>2024-06-12T08:10:02Z</time>
      </trkpt>
      <trkpt lat="31.10623774008259" lon="121.38241512799547">
        <ele>21.84423828125</ele>
        <time>2024-06-12T08:10:14Z</time>
      </trkpt>
      <trkpt lat="31.106221704712823" lon="121.38248407815672">
        <ele>21.892578125</ele>
        <time>2024-06-12T08:10:17Z</time>
      </trkpt>
      <trkpt lat="31.106228652339947" lon="121.3825600213841">
        <ele>24.7576904296875</ele>
        <time>2024-06-12T08:10:20Z</time>
      </trkpt>
      <trkpt lat="31.10619755302977" lon="121.3827438892102">
        <ele>26.55279541015625</ele>
        <time>2024-06-12T08:10:26Z</time>
      </trkpt>
      <trkpt lat="31.106219491252656" lon="121.38282282988604">
        <ele>28.43817138671875</ele>
        <time>2024-06-12T08:10:29Z</time>
      </trkpt>
      <trkpt lat="31.106275427738932" lon="121.38287478739656">
        <ele>30.51580810546875</ele>
        <time>2024-06-12T08:10:32Z</time>
      </trkpt>
      <trkpt lat="31.106364350422474" lon="121.38291974721386">
        <ele>29.10479736328125</ele>
        <time>2024-06-12T08:10:35Z</time>
      </trkpt>
      <trkpt lat="31.1066951946533" lon="121.38287575025461">
        <ele>16.446044921875</ele>
        <time>2024-06-12T08:10:53Z</time>
      </trkpt>
      <trkpt lat="31.106959999464802" lon="121.3829536710658">
        <ele>20.7802734375</ele>
        <time>2024-06-12T08:11:08Z</time>
      </trkpt>
      <trkpt lat="31.107014827237098" lon="121.38318350221257">
        <ele>23.54541015625</ele>
        <time>2024-06-12T08:11:17Z</time>
      </trkpt>
      <trkpt lat="31.10708674771377" lon="121.38324845004789">
        <ele>21.486572265625</ele>
        <time>2024-06-12T08:11:20Z</time>
      </trkpt>
      <trkpt lat="31.107270600954532" lon="121.3833223820542">
        <ele>23.16973876953125</ele>
        <time>2024-06-12T08:11:26Z</time>
      </trkpt>
      <trkpt lat="31.107373551272065" lon="121.38331038154311">
        <ele>21.24310302734375</ele>
        <time>2024-06-12T08:11:29Z</time>
      </trkpt>
      <trkpt lat="31.107481521946383" lon="121.38326040733793">
        <ele>17.43634033203125</ele>
        <time>2024-06-12T08:11:32Z</time>
      </trkpt>
      <trkpt lat="31.107547534292983" lon="121.38318045811602">
        <ele>17.39642333984375</ele>
        <time>2024-06-12T08:11:35Z</time>
      </trkpt>
      <trkpt lat="31.107586577833757" lon="121.38307453006205">
        <ele>17.473876953125</ele>
        <time>2024-06-12T08:11:38Z</time>
      </trkpt>
      <trkpt lat="31.107628820106846" lon="121.382649833737">
        <ele>16.18292236328125</ele>
        <time>2024-06-12T08:11:50Z</time>
      </trkpt>
      <trkpt lat="31.107645890151396" lon="121.38252492425956">
        <ele>15.23699951171875</ele>
        <time>2024-06-12T08:11:53Z</time>
      </trkpt>
      <trkpt lat="31.107629962995013" lon="121.38242499976988">
        <ele>16.5927734375</ele>
        <time>2024-06-12T08:11:56Z</time>
      </trkpt>
      <trkpt lat="31.107574096522942" lon="121.38226612344175">
        <ele>18.0745849609375</ele>
        <time>2024-06-12T08:12:02Z</time>
      </trkpt>
      <trkpt lat="31.107665286077477" lon="121.3819003935251">
        <ele>17.88323974609375</ele>
        <time>2024-06-12T08:12:17Z</time>
      </trkpt>
      <trkpt lat="31.107689352595763" lon="121.38178048393777">
        <ele>18.1339111328125</ele>
        <time>2024-06-12T08:12:20Z</time>
      </trkpt>
      <trkpt lat="31.10775637509515" lon="121.3816915471591">
        <ele>18.4862060546875</ele>
        <time>2024-06-12T08:12:23Z</time>
      </trkpt>
      <trkpt lat="31.107794495798274" lon="121.38148170819919">
        <ele>19.26776123046875</ele>
        <time>2024-06-12T08:12:35Z</time>
      </trkpt>
      <trkpt lat="31.107818524698203" lon="121.3814197550261">
        <ele>17.98095703125</ele>
        <time>2024-06-12T08:12:38Z</time>
      </trkpt>
      <trkpt lat="31.107840711060913" lon="121.38113098343271">
        <ele>19.9224853515625</ele>
        <time>2024-06-12T08:12:50Z</time>
      </trkpt>
      <trkpt lat="31.107815782495024" lon="121.3810480524571">
        <ele>20.5750732421875</ele>
        <time>2024-06-12T08:12:53Z</time>
      </trkpt>
      <trkpt lat="31.10777385590755" lon="121.38097611435151">
        <ele>20.45068359375</ele>
        <time>2024-06-12T08:12:56Z</time>
      </trkpt>
      <trkpt lat="31.10756700812614" lon="121.38092217614432">
        <ele>19.462158203125</ele>
        <time>2024-06-12T08:13:02Z</time>
      </trkpt>
      <trkpt lat="31.10747505829509" lon="121.38092318330743">
        <ele>18.691162109375</ele>
        <time>2024-06-12T08:13:05Z</time>
      </trkpt>
      <trkpt lat="31.107231243072544" lon="121.38085226231148">
        <ele>16.3162841796875</ele>
        <time>2024-06-12T08:13:14Z</time>
      </trkpt>
      <trkpt lat="31.106904376921378" lon="121.38091923606467">
        <ele>15.94268798828125</ele>
        <time>2024-06-12T08:13:26Z</time>
      </trkpt>
      <trkpt lat="31.106742456048913" lon="121.38093423791463">
        <ele>17.53802490234375</ele>
        <time>2024-06-12T08:13:32Z</time>
      </trkpt>
      <trkpt lat="31.106596562775827" lon="121.38089728067148">
        <ele>21.1435546875</ele>
        <time>2024-06-12T08:13:41Z</time>
      </trkpt>
      <trkpt lat="31.106478581860873" lon="121.380963237255">
        <ele>25.47186279296875</ele>
        <time>2024-06-12T08:13:47Z</time>
      </trkpt>
      <trkpt lat="31.10641451771575" lon="121.38110612725649">
        <ele>26.5673828125</ele>
        <time>2024-06-12T08:13:53Z</time>
      </trkpt>
      <trkpt lat="31.10641945752011" lon="121.38118906018886">
        <ele>24.55633544921875</ele>
        <time>2024-06-12T08:13:56Z</time>
      </trkpt>
      <trkpt lat="31.106371365250045" lon="121.38136192648285">
        <ele>25.53082275390625</ele>
        <time>2024-06-12T08:14:02Z</time>
      </trkpt>
      <trkpt lat="31.10641417783879" lon="121.38160273299954">
        <ele>22.7706298828125</ele>
        <time>2024-06-12T08:14:08Z</time>
      </trkpt>
      <trkpt lat="31.106403139516456" lon="121.38166868245558">
        <ele>19.03070068359375</ele>
        <time>2024-06-12T08:14:11Z</time>
      </trkpt>
      <trkpt lat="31.10641007936456" lon="121.3817526165979">
        <ele>17.80706787109375</ele>
        <time>2024-06-12T08:14:14Z</time>
      </trkpt>
      <trkpt lat="31.106375048723418" lon="121.38182756164919">
        <ele>17.05828857421875</ele>
        <time>2024-06-12T08:14:17Z</time>
      </trkpt>
      <trkpt lat="31.106376872005416" lon="121.3820933579332">
        <ele>18.52008056640625</ele>
        <time>2024-06-12T08:14:26Z</time>
      </trkpt>
      <trkpt lat="31.106348767004278" lon="121.38227822073901">
        <ele>21.90972900390625</ele>
        <time>2024-06-12T08:14:32Z</time>
      </trkpt>
      <trkpt lat="31.106241619074318" lon="121.38260099006902">
        <ele>20.3692626953125</ele>
        <time>2024-06-12T08:14:44Z</time>
      </trkpt>
      <trkpt lat="31.106209535692578" lon="121.38276087578954">
        <ele>22.26141357421875</ele>
        <time>2024-06-12T08:14:50Z</time>
      </trkpt>
      <trkpt lat="31.106241417267555" lon="121.38292175643883">
        <ele>25.8175048828125</ele>
        <time>2024-06-12T08:14:56Z</time>
      </trkpt>
      <trkpt lat="31.106308344767694" lon="121.38297870964807">
        <ele>25.91815185546875</ele>
        <time>2024-06-12T08:14:59Z</time>
      </trkpt>
      <trkpt lat="31.10647226950337" lon="121.38295371338245">
        <ele>23.31201171875</ele>
        <time>2024-06-12T08:15:05Z</time>
      </trkpt>
      <trkpt lat="31.10653726650049" lon="121.38290074590847">
        <ele>23.97418212890625</ele>
        <time>2024-06-12T08:15:08Z</time>
      </trkpt>
      <trkpt lat="31.106605240714376" lon="121.38288175372492">
        <ele>21.56085205078125</ele>
        <time>2024-06-12T08:15:11Z</time>
      </trkpt>
      <trkpt lat="31.106732139287974" lon="121.38293170666184">
        <ele>19.59710693359375</ele>
        <time>2024-06-12T08:15:17Z</time>
      </trkpt>
      <trkpt lat="31.10670213228324" lon="121.38296968194335">
        <ele>11.29656982421875</ele>
        <time>2024-06-12T08:15:26Z</time>
      </trkpt>
    </trkseg>
  </trk>
</gpx>