<?xml version="1.0" encoding="UTF-8"?>
<gpx xmlns="http://www.topografix.com/GPX/1/1" xmlns:gpxtpx="http://www.garmin.com/xmlschemas/TrackPointExtension/v1" xmlns:xsi="http://www.w3.org/2001/XMLSchema-instance" xsi:schemaLocation="http://www.topografix.com/GPX/1/1 http://www.topografix.com/GPX/1/1/gpx.xsd" version="1.1" creator="gpx.py -- https://github.com/tkrajina/gpxpy">
  <trk>
    <name>gpx from keep</name>
    <type>Run</type>
    <trkseg>
      <trkpt lat="31.11118661427747" lon="121.37416438757013">
        <ele>25.3150634765625</ele>
        <time>2024-06-15T11:27:34Z</time>
      </trkpt>
      <trkpt lat="31.11132326698516" lon="121.3744510583163">
        <ele>28.12408447265625</ele>
        <time>2024-06-15T11:27:43Z</time>
      </trkpt>
      <trkpt lat="31.111371157787794" lon="121.3745389575406">
        <ele>29.5458984375</ele>
        <time>2024-06-15T11:27:46Z</time>
      </trkpt>
      <trkpt lat="31.11149502104628" lon="121.37461186689858">
        <ele>27.86328125</ele>
        <time>2024-06-15T11:27:52Z</time>
      </trkpt>
      <trkpt lat="31.111601854686405" lon="121.37472673221998">
        <ele>25.84686279296875</ele>
        <time>2024-06-15T11:27:58Z</time>
      </trkpt>
      <trkpt lat="31.11164576436602" lon="121.37479765126311">
        <ele>27.7535400390625</ele>
        <time>2024-06-15T11:28:01Z</time>
      </trkpt>
      <trkpt lat="31.111826494267053" lon="121.37498143665704">
        <ele>28.94775390625</ele>
        <time>2024-06-15T11:28:10Z</time>
      </trkpt>
      <trkpt lat="31.11190633054187" lon="121.37511129005377">
        <ele>27.20831298828125</ele>
        <time>2024-06-15T11:28:16Z</time>
      </trkpt>
      <trkpt lat="31.11216501870293" lon="121.37529607009584">
        <ele>33.9239501953125</ele>
        <time>2024-06-15T11:28:25Z</time>
      </trkpt>
      <trkpt lat="31.112307893554117" lon="121.3753470035124">
        <ele>33.733154296875</ele>
        <time>2024-06-15T11:28:31Z</time>
      </trkpt>
      <trkpt lat="31.11242172553181" lon="121.37546287078943">
        <ele>31.153076171875</ele>
        <time>2024-06-15T11:28:37Z</time>
      </trkpt>
      <trkpt lat="31.11254357975624" lon="121.37554976846391">
        <ele>26.0325927734375</ele>
        <time>2024-06-15T11:28:43Z</time>
      </trkpt>
      <trkpt lat="31.112576513823686" lon="121.37560270986818">
        <ele>27.00128173828125</ele>
        <time>2024-06-15T11:28:46Z</time>
      </trkpt>
      <trkpt lat="31.112574439412942" lon="121.37568662195312">
        <ele>28.752685546875</ele>
        <time>2024-06-15T11:28:49Z</time>
      </trkpt>
      <trkpt lat="31.11251539840968" lon="121.37576854136873">
        <ele>29.82666015625</ele>
        <time>2024-06-15T11:28:52Z</time>
      </trkpt>
      <trkpt lat="31.112454406051512" lon="121.37579751641691">
        <ele>26.91864013671875</ele>
        <time>2024-06-15T11:28:55Z</time>
      </trkpt>
      <trkpt lat="31.112272510676313" lon="121.37579253739968">
        <ele>21.150390625</ele>
        <time>2024-06-15T11:29:04Z</time>
      </trkpt>
      <trkpt lat="31.11220452398948" lon="121.37581951516673">
        <ele>22.27264404296875</ele>
        <time>2024-06-15T11:29:10Z</time>
      </trkpt>
      <trkpt lat="31.112091629074257" lon="121.37577157498214">
        <ele>20.0843505859375</ele>
        <time>2024-06-15T11:29:16Z</time>
      </trkpt>
      <trkpt lat="31.111926004883028" lon="121.3757713953881">
        <ele>18.788330078125</ele>
        <time>2024-06-15T11:29:25Z</time>
      </trkpt>
      <trkpt lat="31.111695111033562" lon="121.37568974741751">
        <ele>20.8031005859375</ele>
        <time>2024-06-15T11:29:37Z</time>
      </trkpt>
      <trkpt lat="31.111495008809214" lon="121.37567169556162">
        <ele>16.11065673828125</ele>
        <time>2024-06-15T11:29:46Z</time>
      </trkpt>
      <trkpt lat="31.111286465949338" lon="121.3756015238783">
        <ele>10.97442626953125</ele>
        <time>2024-06-15T11:29:55Z</time>
      </trkpt>
      <trkpt lat="31.111226957024336" lon="121.37560522268248">
        <ele>10.5235595703125</ele>
        <time>2024-06-15T11:29:58Z</time>
      </trkpt>
      <trkpt lat="31.111182254332856" lon="121.37563212541242">
        <ele>9.1893310546875</ele>
        <time>2024-06-15T11:30:01Z</time>
      </trkpt>
      <trkpt lat="31.111138294422584" lon="121.37561582091219">
        <ele>15.04345703125</ele>
        <time>2024-06-15T11:30:07Z</time>
      </trkpt>
      <trkpt lat="31.110970347430978" lon="121.37565978931586">
        <ele>15.961669921875</ele>
        <time>2024-06-15T11:30:17Z</time>
      </trkpt>
      <trkpt lat="31.11091129297183" lon="121.37575669297502">
        <ele>17.7000732421875</ele>
        <time>2024-06-15T11:30:23Z</time>
      </trkpt>
      <trkpt lat="31.11085428862007" lon="121.37579665619619">
        <ele>14.8892822265625</ele>
        <time>2024-06-15T11:30:26Z</time>
      </trkpt>
      <trkpt lat="31.110833150613896" lon="121.37596448355558">
        <ele>15.52587890625</ele>
        <time>2024-06-15T11:30:35Z</time>
      </trkpt>
      <trkpt lat="31.11077314556378" lon="121.37600744429778">
        <ele>13.57177734375</ele>
        <time>2024-06-15T11:30:38Z</time>
      </trkpt>
      <trkpt lat="31.11082010372159" lon="121.37602542163877">
        <ele>11.1632080078125</ele>
        <time>2024-06-15T11:30:50Z</time>
      </trkpt>
      <trkpt lat="31.110905056875204" lon="121.37602541427295">
        <ele>12.9132080078125</ele>
        <time>2024-06-15T11:30:56Z</time>
      </trkpt>
      <trkpt lat="31.110937079991878" lon="121.37597945902591">
        <ele>13.7276611328125</ele>
        <time>2024-06-15T11:30:59Z</time>
      </trkpt>
      <trkpt lat="31.110949147104687" lon="121.37589654397135">
        <ele>15.42510986328125</ele>
        <time>2024-06-15T11:31:02Z</time>
      </trkpt>
      <trkpt lat="31.110940238544092" lon="121.37579964561787">
        <ele>16.4996337890625</ele>
        <time>2024-06-15T11:31:05Z</time>
      </trkpt>
      <trkpt lat="31.110994322529244" lon="121.37567277361576">
        <ele>14.851806640625</ele>
        <time>2024-06-15T11:31:11Z</time>
      </trkpt>
      <trkpt lat="31.111106265303746" lon="121.37566776914838">
        <ele>16.882568359375</ele>
        <time>2024-06-15T11:31:17Z</time>
      </trkpt>
      <trkpt lat="31.111167111673716" lon="121.37580162386341">
        <ele>16.55828857421875</ele>
        <time>2024-06-15T11:31:26Z</time>
      </trkpt>
      <trkpt lat="31.111247003379393" lon="121.37587354202797">
        <ele>19.49554443359375</ele>
        <time>2024-06-15T11:31:32Z</time>
      </trkpt>
      <trkpt lat="31.111312888786546" lon="121.37596144506502">
        <ele>22.0157470703125</ele>
        <time>2024-06-15T11:31:38Z</time>
      </trkpt>
      <trkpt lat="31.111337803254138" lon="121.37604235920938">
        <ele>23.4595947265625</ele>
        <time>2024-06-15T11:31:41Z</time>
      </trkpt>
      <trkpt lat="31.111437662549182" lon="121.37613925069732">
        <ele>27.786865234375</ele>
        <time>2024-06-15T11:31:47Z</time>
      </trkpt>
      <trkpt lat="31.111492614643947" lon="121.37615922539493">
        <ele>26.2640380859375</ele>
        <time>2024-06-15T11:31:50Z</time>
      </trkpt>
      <trkpt lat="31.111586624574016" lon="121.37608928920116">
        <ele>22.92388916015625</ele>
        <time>2024-06-15T11:31:56Z</time>
      </trkpt>
      <trkpt lat="31.11162770552417" lon="121.37597240638583">
        <ele>24.792236328125</ele>
        <time>2024-06-15T11:32:02Z</time>
      </trkpt>
      <trkpt lat="31.111668721120193" lon="121.37592944735562">
        <ele>25.3846435546875</ele>
        <time>2024-06-15T11:32:05Z</time>
      </trkpt>
      <trkpt lat="31.111763465399484" lon="121.37615920190984">
        <ele>23.86651611328125</ele>
        <time>2024-06-15T11:32:17Z</time>
      </trkpt>
      <trkpt lat="31.111797411500007" lon="121.37619915794318">
        <ele>23.34124755859375</ele>
        <time>2024-06-15T11:32:20Z</time>
      </trkpt>
      <trkpt lat="31.111819326578967" lon="121.37628207114149">
        <ele>26.42529296875</ele>
        <time>2024-06-15T11:32:26Z</time>
      </trkpt>
      <trkpt lat="31.1118403614786" lon="121.37622912349717">
        <ele>21.7982177734375</ele>
        <time>2024-06-15T11:32:38Z</time>
      </trkpt>
      <trkpt lat="31.111874352414475" lon="121.37621813180994">
        <ele>20.7281494140625</ele>
        <time>2024-06-15T11:32:41Z</time>
      </trkpt>
      <trkpt lat="31.111842317418017" lon="121.37627807323271">
        <ele>20.9935302734375</ele>
        <time>2024-06-15T11:32:59Z</time>
      </trkpt>
      <trkpt lat="31.11183326901624" lon="121.37633901180024">
        <ele>19.82373046875</ele>
        <time>2024-06-15T11:33:02Z</time>
      </trkpt>
      <trkpt lat="31.111913203141214" lon="121.37636397941702">
        <ele>18.77105712890625</ele>
        <time>2024-06-15T11:33:05Z</time>
      </trkpt>
      <trkpt lat="31.112065124698802" lon="121.3763579723496">
        <ele>14.9508056640625</ele>
        <time>2024-06-15T11:33:11Z</time>
      </trkpt>
      <trkpt lat="31.112140070325115" lon="121.37637295058877">
        <ele>16.95947265625</ele>
        <time>2024-06-15T11:33:14Z</time>
      </trkpt>
      <trkpt lat="31.112262065204614" lon="121.37630201233755">
        <ele>18.89031982421875</ele>
        <time>2024-06-15T11:33:20Z</time>
      </trkpt>
      <trkpt lat="31.11232208737763" lon="121.37623907149434">
        <ele>20.63671875</ele>
        <time>2024-06-15T11:33:26Z</time>
      </trkpt>
      <trkpt lat="31.11237708344391" lon="121.3762090974345">
        <ele>21.62005615234375</ele>
        <time>2024-06-15T11:33:29Z</time>
      </trkpt>
      <trkpt lat="31.112526140689816" lon="121.37605124688876">
        <ele>25.90167236328125</ele>
        <time>2024-06-15T11:33:35Z</time>
      </trkpt>
      <trkpt lat="31.112679005293735" lon="121.37610917390025">
        <ele>25.7703857421875</ele>
        <time>2024-06-15T11:33:41Z</time>
      </trkpt>
      <trkpt lat="31.112788946545447" lon="121.37610716642442">
        <ele>22.91436767578125</ele>
        <time>2024-06-15T11:33:47Z</time>
      </trkpt>
      <trkpt lat="31.112851845838122" lon="121.37618208393845">
        <ele>22.96923828125</ele>
        <time>2024-06-15T11:33:50Z</time>
      </trkpt>
      <trkpt lat="31.112895740016246" lon="121.37627498495205">
        <ele>25.4495849609375</ele>
        <time>2024-06-15T11:33:53Z</time>
      </trkpt>
      <trkpt lat="31.113102458668806" lon="121.3764667717155">
        <ele>29.44073486328125</ele>
        <time>2024-06-15T11:34:02Z</time>
      </trkpt>
      <trkpt lat="31.113222260172126" lon="121.37661960683843">
        <ele>30.3179931640625</ele>
        <time>2024-06-15T11:34:08Z</time>
      </trkpt>
      <trkpt lat="31.11337804961496" lon="121.37676444786159">
        <ele>27.548583984375</ele>
        <time>2024-06-15T11:34:14Z</time>
      </trkpt>
      <trkpt lat="31.113466982680055" lon="121.3767854191578">
        <ele>27.1778564453125</ele>
        <time>2024-06-15T11:34:17Z</time>
      </trkpt>
      <trkpt lat="31.113612824579047" lon="121.37687631577037">
        <ele>28.4332275390625</ele>
        <time>2024-06-15T11:34:23Z</time>
      </trkpt>
      <trkpt lat="31.113801473815005" lon="121.37716701167975">
        <ele>30.2220458984375</ele>
        <time>2024-06-15T11:34:32Z</time>
      </trkpt>
      <trkpt lat="31.113855967207062" lon="121.37723811739728">
        <ele>33.2071533203125</ele>
        <time>2024-06-15T11:34:35Z</time>
      </trkpt>
      <trkpt lat="31.11385630499313" lon="121.37733184543217">
        <ele>32.23333740234375</ele>
        <time>2024-06-15T11:34:41Z</time>
      </trkpt>
      <trkpt lat="31.11385630499313" lon="121.37733184543217">
        <ele>32.23333740234375</ele>
        <time>2024-06-15T11:34:50Z</time>
      </trkpt>
      <trkpt lat="31.113871251610515" lon="121.37738579154437">
        <ele>28.25689697265625</ele>
        <time>2024-06-15T11:39:44Z</time>
      </trkpt>
      <trkpt lat="31.11385415272521" lon="121.37751566694591">
        <ele>26.459228515625</ele>
        <time>2024-06-15T11:39:50Z</time>
      </trkpt>
      <trkpt lat="31.113819123047012" lon="121.37757461300875">
        <ele>25.9412841796875</ele>
        <time>2024-06-15T11:39:53Z</time>
      </trkpt>
      <trkpt lat="31.113849014070574" lon="121.37768650268313">
        <ele>25.4541015625</ele>
        <time>2024-06-15T11:39:56Z</time>
      </trkpt>
      <trkpt lat="31.113890785066033" lon="121.3777670079436">
        <ele>25.1634521484375</ele>
        <time>2024-06-15T11:39:59Z</time>
      </trkpt>
      <trkpt lat="31.113887645121235" lon="121.37811209464132">
        <ele>24.32489013671875</ele>
        <time>2024-06-15T11:40:08Z</time>
      </trkpt>
      <trkpt lat="31.113921368271754" lon="121.3784337911795">
        <ele>23.45184326171875</ele>
        <time>2024-06-15T11:40:17Z</time>
      </trkpt>
      <trkpt lat="31.113958289955377" lon="121.37850672048613">
        <ele>20.93487548828125</ele>
        <time>2024-06-15T11:40:20Z</time>
      </trkpt>
      <trkpt lat="31.114023278843046" lon="121.3784757434802">
        <ele>21.280029296875</ele>
        <time>2024-06-15T11:40:23Z</time>
      </trkpt>
      <trkpt lat="31.114106466734146" lon="121.37818400805908">
        <ele>21.39862060546875</ele>
        <time>2024-06-15T11:40:32Z</time>
      </trkpt>
      <trkpt lat="31.114236497873147" lon="121.3780571161783">
        <ele>22.99371337890625</ele>
        <time>2024-06-15T11:40:38Z</time>
      </trkpt>
      <trkpt lat="31.114335492156002" lon="121.3779971642498">
        <ele>23.20684814453125</ele>
        <time>2024-06-15T11:40:41Z</time>
      </trkpt>
      <trkpt lat="31.114387524610397" lon="121.37792223078429">
        <ele>23.60986328125</ele>
        <time>2024-06-15T11:40:44Z</time>
      </trkpt>
      <trkpt lat="31.11442757859173" lon="121.3778293157561">
        <ele>21.70489501953125</ele>
        <time>2024-06-15T11:40:47Z</time>
      </trkpt>
      <trkpt lat="31.114422648571317" lon="121.37774739448655">
        <ele>21.44439697265625</ele>
        <time>2024-06-15T11:40:50Z</time>
      </trkpt>
      <trkpt lat="31.114373723188884" lon="121.37768945429491">
        <ele>20.6279296875</ele>
        <time>2024-06-15T11:40:53Z</time>
      </trkpt>
      <trkpt lat="31.114293800926927" lon="121.37764850059533">
        <ele>18.92608642578125</ele>
        <time>2024-06-15T11:40:56Z</time>
      </trkpt>
      <trkpt lat="31.114121050076836" lon="121.37746269510995">
        <ele>13.481689453125</ele>
        <time>2024-06-15T11:41:05Z</time>
      </trkpt>
      <trkpt lat="31.114086117626773" lon="121.3774047544351">
        <ele>11.980377197265625</ele>
        <time>2024-06-15T11:41:08Z</time>
      </trkpt>
      <trkpt lat="31.114028172863815" lon="121.3773767866909">
        <ele>10.486328125</ele>
        <time>2024-06-15T11:41:11Z</time>
      </trkpt>
      <trkpt lat="31.113971204180494" lon="121.3773767916318">
        <ele>9.648162841796875</ele>
        <time>2024-06-15T11:41:14Z</time>
      </trkpt>
      <trkpt lat="31.11391719963604" lon="121.37741775645462">
        <ele>13.64276123046875</ele>
        <time>2024-06-15T11:41:20Z</time>
      </trkpt>
      <trkpt lat="31.113841101025688" lon="121.37758659953319">
        <ele>14.06219482421875</ele>
        <time>2024-06-15T11:41:29Z</time>
      </trkpt>
      <trkpt lat="31.113816935533972" lon="121.37780339351589">
        <ele>18.0634765625</ele>
        <time>2024-06-15T11:41:38Z</time>
      </trkpt>
      <trkpt lat="31.113898776130767" lon="121.37794325325832">
        <ele>17.19647216796875</ele>
        <time>2024-06-15T11:41:44Z</time>
      </trkpt>
      <trkpt lat="31.113997671331557" lon="121.37800518598796">
        <ele>16.3892822265625</ele>
        <time>2024-06-15T11:41:47Z</time>
      </trkpt>
      <trkpt lat="31.114125483691716" lon="121.37815003830399">
        <ele>19.96649169921875</ele>
        <time>2024-06-15T11:41:53Z</time>
      </trkpt>
      <trkpt lat="31.114313496119948" lon="121.37800715670357">
        <ele>17.7989501953125</ele>
        <time>2024-06-15T11:42:08Z</time>
      </trkpt>
      <trkpt lat="31.11435754353159" lon="121.37791923623189">
        <ele>15.7764892578125</ele>
        <time>2024-06-15T11:42:14Z</time>
      </trkpt>
      <trkpt lat="31.114370609895804" lon="121.37782932069737">
        <ele>16.1331787109375</ele>
        <time>2024-06-15T11:42:17Z</time>
      </trkpt>
      <trkpt lat="31.114362683987718" lon="121.377744402558">
        <ele>16.61822509765625</ele>
        <time>2024-06-15T11:42:20Z</time>
      </trkpt>
      <trkpt lat="31.1141200323297" lon="121.37748467388363">
        <ele>18.361572265625</ele>
        <time>2024-06-15T11:42:32Z</time>
      </trkpt>
      <trkpt lat="31.11402819041252" lon="121.3773558071347">
        <ele>16.36663818359375</ele>
        <time>2024-06-15T11:42:38Z</time>
      </trkpt>
      <trkpt lat="31.11383839708172" lon="121.37723394275733">
        <ele>15.84747314453125</ele>
        <time>2024-06-15T11:42:47Z</time>
      </trkpt>
      <trkpt lat="31.113730621046397" lon="121.3770391439282">
        <ele>18.51446533203125</ele>
        <time>2024-06-15T11:42:56Z</time>
      </trkpt>
      <trkpt lat="31.11371470118406" lon="121.37695522845544">
        <ele>19.371826171875</ele>
        <time>2024-06-15T11:42:59Z</time>
      </trkpt>
      <trkpt lat="31.113660798197486" lon="121.37687631160995">
        <ele>17.85888671875</ele>
        <time>2024-06-15T11:43:02Z</time>
      </trkpt>
      <trkpt lat="31.11360286938959" lon="121.37683036245681">
        <ele>19.7261962890625</ele>
        <time>2024-06-15T11:43:05Z</time>
      </trkpt>
      <trkpt lat="31.113542920342397" lon="121.37680938860579">
        <ele>17.79437255859375</ele>
        <time>2024-06-15T11:43:08Z</time>
      </trkpt>
      <trkpt lat="31.1134899409146" lon="121.37681938322167">
        <ele>19.42108154296875</ele>
        <time>2024-06-15T11:43:11Z</time>
      </trkpt>
      <trkpt lat="31.11331619985828" lon="121.37662958863037">
        <ele>21.333740234375</ele>
        <time>2024-06-15T11:43:23Z</time>
      </trkpt>
      <trkpt lat="31.113289280390102" lon="121.37655366754323">
        <ele>21.88763427734375</ele>
        <time>2024-06-15T11:43:26Z</time>
      </trkpt>
      <trkpt lat="31.113182494089585" lon="121.37638397747997">
        <ele>23.024169921875</ele>
        <time>2024-06-15T11:43:32Z</time>
      </trkpt>
      <trkpt lat="31.11310253178564" lon="121.37638285696022">
        <ele>18.5025634765625</ele>
        <time>2024-06-15T11:43:35Z</time>
      </trkpt>
      <trkpt lat="31.112994674182513" lon="121.37628796309822">
        <ele>20.24407958984375</ele>
        <time>2024-06-15T11:43:44Z</time>
      </trkpt>
      <trkpt lat="31.112994674182513" lon="121.37628796309822">
        <ele>20.24407958984375</ele>
        <time>2024-06-15T11:43:50Z</time>
      </trkpt>
      <trkpt lat="31.112971718372236" lon="121.37625200186787">
        <ele>19.4969482421875</ele>
        <time>2024-06-15T11:46:47Z</time>
      </trkpt>
      <trkpt lat="31.112934790515528" lon="121.3761930654686">
        <ele>20.33380126953125</ele>
        <time>2024-06-15T11:46:50Z</time>
      </trkpt>
      <trkpt lat="31.112914869302188" lon="121.3761161462487">
        <ele>18.66650390625</ele>
        <time>2024-06-15T11:46:53Z</time>
      </trkpt>
      <trkpt lat="31.1128759251692" lon="121.37607718976348">
        <ele>17.82080078125</ele>
        <time>2024-06-15T11:46:56Z</time>
      </trkpt>
      <trkpt lat="31.112712010966828" lon="121.37608219882713">
        <ele>19.98858642578125</ele>
        <time>2024-06-15T11:47:02Z</time>
      </trkpt>
      <trkpt lat="31.112663115768335" lon="121.3759942938574">
        <ele>17.071533203125</ele>
        <time>2024-06-15T11:47:05Z</time>
      </trkpt>
      <trkpt lat="31.11258922571595" lon="121.37591638101829">
        <ele>24.10076904296875</ele>
        <time>2024-06-15T11:47:08Z</time>
      </trkpt>
      <trkpt lat="31.11255530852872" lon="121.37584445873502">
        <ele>21.09027099609375</ele>
        <time>2024-06-15T11:47:11Z</time>
      </trkpt>
      <trkpt lat="31.112494405492953" lon="121.37577353797252">
        <ele>21.5848388671875</ele>
        <time>2024-06-15T11:47:14Z</time>
      </trkpt>
      <trkpt lat="31.11232250193158" lon="121.37577155496412">
        <ele>22.7738037109375</ele>
        <time>2024-06-15T11:47:20Z</time>
      </trkpt>
      <trkpt lat="31.112262479574483" lon="121.37583349556922">
        <ele>22.01043701171875</ele>
        <time>2024-06-15T11:47:23Z</time>
      </trkpt>
      <trkpt lat="31.112185513927496" lon="121.37584249287916">
        <ele>21.60455322265625</ele>
        <time>2024-06-15T11:47:26Z</time>
      </trkpt>
      <trkpt lat="31.11210359386888" lon="121.3758035405825">
        <ele>22.25640869140625</ele>
        <time>2024-06-15T11:47:29Z</time>
      </trkpt>
      <trkpt lat="31.112026617507357" lon="121.37582452538692">
        <ele>21.13800048828125</ele>
        <time>2024-06-15T11:47:32Z</time>
      </trkpt>
      <trkpt lat="31.111941670549506" lon="121.37581754004015">
        <ele>24.61944580078125</ele>
        <time>2024-06-15T11:47:35Z</time>
      </trkpt>
      <trkpt lat="31.111673906666443" lon="121.37571866655385">
        <ele>27.39453125</ele>
        <time>2024-06-15T11:47:44Z</time>
      </trkpt>
      <trkpt lat="31.111494045270238" lon="121.37567472819406">
        <ele>27.84832763671875</ele>
        <time>2024-06-15T11:47:50Z</time>
      </trkpt>
      <trkpt lat="31.111334187340162" lon="121.37561480497813">
        <ele>28.4332275390625</ele>
        <time>2024-06-15T11:47:56Z</time>
      </trkpt>
      <trkpt lat="31.111310087445805" lon="121.3757406751066">
        <ele>23.0369873046875</ele>
        <time>2024-06-15T11:48:05Z</time>
      </trkpt>
      <trkpt lat="31.111308996849626" lon="121.37584256887773">
        <ele>24.3355712890625</ele>
        <time>2024-06-15T11:48:11Z</time>
      </trkpt>
      <trkpt lat="31.111282958623526" lon="121.37590150983993">
        <ele>21.79315185546875</ele>
        <time>2024-06-15T11:48:17Z</time>
      </trkpt>
      <trkpt lat="31.111295888392466" lon="121.37597243515631">
        <ele>21.7640380859375</ele>
        <time>2024-06-15T11:48:23Z</time>
      </trkpt>
      <trkpt lat="31.111346876269373" lon="121.3759544493644">
        <ele>20.53277587890625</ele>
        <time>2024-06-15T11:48:29Z</time>
      </trkpt>
      <trkpt lat="31.111380913535164" lon="121.37589151172526">
        <ele>23.21453857421875</ele>
        <time>2024-06-15T11:48:32Z</time>
      </trkpt>
      <trkpt lat="31.11142993108752" lon="121.37584155943246">
        <ele>21.5689697265625</ele>
        <time>2024-06-15T11:48:35Z</time>
      </trkpt>
      <trkpt lat="31.1116516976298" lon="121.3759664105137">
        <ele>24.57373046875</ele>
        <time>2024-06-15T11:48:44Z</time>
      </trkpt>
      <trkpt lat="31.111741500410783" lon="121.37613323051677">
        <ele>23.60028076171875</ele>
        <time>2024-06-15T11:48:50Z</time>
      </trkpt>
      <trkpt lat="31.111798413585692" lon="121.37619616093062">
        <ele>23.64947509765625</ele>
        <time>2024-06-15T11:48:53Z</time>
      </trkpt>
      <trkpt lat="31.1118142367159" lon="121.37638796359025">
        <ele>27.865478515625</ele>
        <time>2024-06-15T11:48:59Z</time>
      </trkpt>
      <trkpt lat="31.111865176403885" lon="121.37642492159281">
        <ele>28.1162109375</ele>
        <time>2024-06-15T11:49:02Z</time>
      </trkpt>
      <trkpt lat="31.11189711270368" lon="121.37647786509613">
        <ele>28.67791748046875</ele>
        <time>2024-06-15T11:49:05Z</time>
      </trkpt>
      <trkpt lat="31.11186408836075" lon="121.37652681839626">
        <ele>28.927734375</ele>
        <time>2024-06-15T11:49:08Z</time>
      </trkpt>
      <trkpt lat="31.111856017502234" lon="121.37661373135374">
        <ele>28.21307373046875</ele>
        <time>2024-06-15T11:49:11Z</time>
      </trkpt>
      <trkpt lat="31.111816915013947" lon="121.3767575902425">
        <ele>27.64111328125</ele>
        <time>2024-06-15T11:49:17Z</time>
      </trkpt>
      <trkpt lat="31.111828864686586" lon="121.376808538246">
        <ele>27.54656982421875</ele>
        <time>2024-06-15T11:49:20Z</time>
      </trkpt>
      <trkpt lat="31.111994862549246" lon="121.37670462789096">
        <ele>19.2841796875</ele>
        <time>2024-06-15T11:49:32Z</time>
      </trkpt>
      <trkpt lat="31.112298791784504" lon="121.37659271410747">
        <ele>17.1435546875</ele>
        <time>2024-06-15T11:49:56Z</time>
      </trkpt>
      <trkpt lat="31.112380802045987" lon="121.37652877156891">
        <ele>19.9249267578125</ele>
        <time>2024-06-15T11:50:05Z</time>
      </trkpt>
      <trkpt lat="31.112400838759633" lon="121.37647382546669">
        <ele>20.71343994140625</ele>
        <time>2024-06-15T11:50:08Z</time>
      </trkpt>
      <trkpt lat="31.112445849641986" lon="121.37643286312299">
        <ele>21.113525390625</ele>
        <time>2024-06-15T11:50:11Z</time>
      </trkpt>
      <trkpt lat="31.112515833760543" lon="121.37640688344707">
        <ele>24.853759765625</ele>
        <time>2024-06-15T11:50:17Z</time>
      </trkpt>
      <trkpt lat="31.112541894504737" lon="121.37632096869602">
        <ele>19.3173828125</ele>
        <time>2024-06-15T11:50:23Z</time>
      </trkpt>
      <trkpt lat="31.112517973381944" lon="121.37624604734884">
        <ele>20.257080078125</ele>
        <time>2024-06-15T11:50:26Z</time>
      </trkpt>
      <trkpt lat="31.112557108608208" lon="121.37606822668032">
        <ele>16.24676513671875</ele>
        <time>2024-06-15T11:50:32Z</time>
      </trkpt>
      <trkpt lat="31.11259416525383" lon="121.37598131327678">
        <ele>16.66510009765625</ele>
        <time>2024-06-15T11:50:35Z</time>
      </trkpt>
      <trkpt lat="31.112559285829075" lon="121.37586743447906">
        <ele>17.948486328125</ele>
        <time>2024-06-15T11:50:38Z</time>
      </trkpt>
      <trkpt lat="31.112573365602707" lon="121.3757695352992">
        <ele>18.8712158203125</ele>
        <time>2024-06-15T11:50:41Z</time>
      </trkpt>
      <trkpt lat="31.11262740128076" lon="121.3756966068938">
        <ele>19.518310546875</ele>
        <time>2024-06-15T11:50:44Z</time>
      </trkpt>
      <trkpt lat="31.112591489368246" lon="121.37562068966662">
        <ele>21.33636474609375</ele>
        <time>2024-06-15T11:50:47Z</time>
      </trkpt>
      <trkpt lat="31.112365808023267" lon="121.37540593593302">
        <ele>25.606201171875</ele>
        <time>2024-06-15T11:50:59Z</time>
      </trkpt>
      <trkpt lat="31.112315880965173" lon="121.37535599326746">
        <ele>24.100341796875</ele>
        <time>2024-06-15T11:51:02Z</time>
      </trkpt>
      <trkpt lat="31.112230964151685" lon="121.37531604311168">
        <ele>23.21685791015625</ele>
        <time>2024-06-15T11:51:05Z</time>
      </trkpt>
      <trkpt lat="31.112072184124816" lon="121.37517121145012">
        <ele>22.93328857421875</ele>
        <time>2024-06-15T11:51:11Z</time>
      </trkpt>
      <trkpt lat="31.111938403086555" lon="121.37501339250477">
        <ele>23.07928466796875</ele>
        <time>2024-06-15T11:51:17Z</time>
      </trkpt>
      <trkpt lat="31.111849500992896" lon="121.37496045729426">
        <ele>23.46221923828125</ele>
        <time>2024-06-15T11:51:20Z</time>
      </trkpt>
      <trkpt lat="31.11164881016779" lon="121.37474670639513">
        <ele>22.30401611328125</ele>
        <time>2024-06-15T11:51:29Z</time>
      </trkpt>
      <trkpt lat="31.111561928035833" lon="121.37467179559314">
        <ele>25.201904296875</ele>
        <time>2024-06-15T11:51:35Z</time>
      </trkpt>
      <trkpt lat="31.111486989902097" lon="121.37464982609035">
        <ele>25.3673095703125</ele>
        <time>2024-06-15T11:51:44Z</time>
      </trkpt>
      <trkpt lat="31.11145908397905" lon="121.37456592033831">
        <ele>23.7952880859375</ele>
        <time>2024-06-15T11:51:50Z</time>
      </trkpt>
      <trkpt lat="31.111479149988227" lon="121.37448400853062">
        <ele>24.146240234375</ele>
        <time>2024-06-15T11:51:56Z</time>
      </trkpt>
      <trkpt lat="31.111479149988227" lon="121.37448400853062">
        <ele>24.146240234375</ele>
        <time>2024-06-15T11:52:05Z</time>
      </trkpt>
      <trkpt lat="31.111435172342354" lon="121.37448601014607">
        <ele>22.3941650390625</ele>
        <time>2024-06-15T11:52:26Z</time>
      </trkpt>
      <trkpt lat="31.11135826183825" lon="121.37443607178552">
        <ele>24.5399169921875</ele>
        <time>2024-06-15T11:52:32Z</time>
      </trkpt>
      <trkpt lat="31.111320324276583" lon="121.37439212353755">
        <ele>24.2138671875</ele>
        <time>2024-06-15T11:52:35Z</time>
      </trkpt>
      <trkpt lat="31.11129444266469" lon="121.37428224729857">
        <ele>28.128173828125</ele>
        <time>2024-06-15T11:52:41Z</time>
      </trkpt>
      <trkpt lat="31.111200613230437" lon="121.37415739414186">
        <ele>25.38336181640625</ele>
        <time>2024-06-15T11:52:47Z</time>
      </trkpt>
      <trkpt lat="31.111145664496117" lon="121.37413542338626">
        <ele>24.31329345703125</ele>
        <time>2024-06-15T11:52:50Z</time>
      </trkpt>
      <trkpt lat="31.11112375012245" lon="121.37405851113137">
        <ele>21.20758056640625</ele>
        <time>2024-06-15T11:52:56Z</time>
      </trkpt>
      <trkpt lat="31.110896148689527" lon="121.3737748496461">
        <ele>20.654541015625</ele>
        <time>2024-06-15T11:53:11Z</time>
      </trkpt>
      <trkpt lat="31.110764552914222" lon="121.3734342482988">
        <ele>21.374755859375</ele>
        <time>2024-06-15T11:53:20Z</time>
      </trkpt>
      <trkpt lat="31.110740638616523" lon="121.37336033505065">
        <ele>21.43292236328125</ele>
        <time>2024-06-15T11:53:23Z</time>
      </trkpt>
      <trkpt lat="31.110696709000386" lon="121.3733133927596">
        <ele>20.83929443359375</ele>
        <time>2024-06-15T11:53:26Z</time>
      </trkpt>
      <trkpt lat="31.110690764420415" lon="121.3732604541681">
        <ele>27.392333984375</ele>
        <time>2024-06-15T11:53:32Z</time>
      </trkpt>
      <trkpt lat="31.110620901601905" lon="121.37316057543515">
        <ele>26.03857421875</ele>
        <time>2024-06-15T11:53:38Z</time>
      </trkpt>
      <trkpt lat="31.110598020165266" lon="121.37305370115666">
        <ele>34.2890625</ele>
        <time>2024-06-15T11:53:50Z</time>
      </trkpt>
      <trkpt lat="31.110443206929002" lon="121.37295183297336">
        <ele>33.0111083984375</ele>
        <time>2024-06-15T11:53:59Z</time>
      </trkpt>
      <trkpt lat="31.1104133591147" lon="121.37281599409854">
        <ele>38.21295166015625</ele>
        <time>2024-06-15T11:54:05Z</time>
      </trkpt>
      <trkpt lat="31.110325574078278" lon="121.37265019625545">
        <ele>37.08502197265625</ele>
        <time>2024-06-15T11:54:17Z</time>
      </trkpt>
      <trkpt lat="31.110355690570337" lon="121.37251834916115">
        <ele>37.687744140625</ele>
        <time>2024-06-15T11:54:23Z</time>
      </trkpt>
      <trkpt lat="31.110419696725884" lon="121.37247739206508">
        <ele>35.58697509765625</ele>
        <time>2024-06-15T11:54:26Z</time>
      </trkpt>
      <trkpt lat="31.110520660265745" lon="121.37245840579202">
        <ele>37.62646484375</ele>
        <time>2024-06-15T11:54:29Z</time>
      </trkpt>
      <trkpt lat="31.110585690298304" lon="121.37239347716176">
        <ele>36.214111328125</ele>
        <time>2024-06-15T11:54:32Z</time>
      </trkpt>
      <trkpt lat="31.11087432938125" lon="121.37225336926706">
        <ele>29.92041015625</ele>
        <time>2024-06-15T11:54:47Z</time>
      </trkpt>
      <trkpt lat="31.111040682966788" lon="121.37215472237212">
        <ele>33.15911865234375</ele>
        <time>2024-06-15T11:54:53Z</time>
      </trkpt>
      <trkpt lat="31.111128652892514" lon="121.37213673628138">
        <ele>32.5362548828125</ele>
        <time>2024-06-15T11:54:56Z</time>
      </trkpt>
      <trkpt lat="31.111260678567977" lon="121.3720408399046">
        <ele>29.28729248046875</ele>
        <time>2024-06-15T11:55:03Z</time>
      </trkpt>
      <trkpt lat="31.11128474656042" lon="121.3719619327905">
        <ele>30.269287109375</ele>
        <time>2024-06-15T11:55:06Z</time>
      </trkpt>
      <trkpt lat="31.111435722111295" lon="121.37190498839044">
        <ele>30.72265625</ele>
        <time>2024-06-15T11:55:12Z</time>
      </trkpt>
      <trkpt lat="31.111724789636504" lon="121.3716862284635">
        <ele>27.59820556640625</ele>
        <time>2024-06-15T11:55:27Z</time>
      </trkpt>
      <trkpt lat="31.111877780278903" lon="121.37161430279758">
        <ele>28.20220947265625</ele>
        <time>2024-06-15T11:55:33Z</time>
      </trkpt>
      <trkpt lat="31.112038033332997" lon="121.37147354682018">
        <ele>29.4910888671875</ele>
        <time>2024-06-15T11:55:42Z</time>
      </trkpt>
      <trkpt lat="31.111998947780563" lon="121.37139056615312">
        <ele>27.15765380859375</ele>
        <time>2024-06-15T11:55:45Z</time>
      </trkpt>
      <trkpt lat="31.11203004525796" lon="121.3712816974554">
        <ele>27.84185791015625</ele>
        <time>2024-06-15T11:55:51Z</time>
      </trkpt>
      <trkpt lat="31.112038152632667" lon="121.3711758275235">
        <ele>24.4808349609375</ele>
        <time>2024-06-15T11:56:00Z</time>
      </trkpt>
      <trkpt lat="31.112067055432895" lon="121.37125272998024">
        <ele>30.3360595703125</ele>
        <time>2024-06-15T11:56:18Z</time>
      </trkpt>
      <trkpt lat="31.11210708297571" lon="121.37120578449428">
        <ele>25.9395751953125</ele>
        <time>2024-06-15T11:56:24Z</time>
      </trkpt>
      <trkpt lat="31.11204122924188" lon="121.37110191881906">
        <ele>30.0087890625</ele>
        <time>2024-06-15T11:56:30Z</time>
      </trkpt>
      <trkpt lat="31.111792691921856" lon="121.3707963213205">
        <ele>30.933349609375</ele>
        <time>2024-06-15T11:56:39Z</time>
      </trkpt>
      <trkpt lat="31.111746855459373" lon="121.37066748702479">
        <ele>29.115478515625</ele>
        <time>2024-06-15T11:56:42Z</time>
      </trkpt>
      <trkpt lat="31.1115942340518" lon="121.37039484471958">
        <ele>32.00048828125</ele>
        <time>2024-06-15T11:56:48Z</time>
      </trkpt>
      <trkpt lat="31.11153137284742" lon="121.37029897200681">
        <ele>31.86871337890625</ele>
        <time>2024-06-15T11:56:51Z</time>
      </trkpt>
      <trkpt lat="31.111449671951533" lon="121.37006627633158">
        <ele>28.21771240234375</ele>
        <time>2024-06-15T11:56:57Z</time>
      </trkpt>
      <trkpt lat="31.111363831061077" lon="121.36996441457246">
        <ele>29.38201904296875</ele>
        <time>2024-06-15T11:57:00Z</time>
      </trkpt>
      <trkpt lat="31.111305015595892" lon="121.36983856391986">
        <ele>29.95855712890625</ele>
        <time>2024-06-15T11:57:03Z</time>
      </trkpt>
      <trkpt lat="31.111350264758673" lon="121.3695789144851">
        <ele>21.59051513671875</ele>
        <time>2024-06-15T11:57:09Z</time>
      </trkpt>
      <trkpt lat="31.111202625944408" lon="121.36932825473619">
        <ele>24.8472900390625</ele>
        <time>2024-06-15T11:57:18Z</time>
      </trkpt>
      <trkpt lat="31.111216705558505" lon="121.36925035578233">
        <ele>24.50250244140625</ele>
        <time>2024-06-15T11:57:21Z</time>
      </trkpt>
      <trkpt lat="31.111294398460256" lon="121.36908217445351">
        <ele>22.20111083984375</ele>
        <time>2024-06-15T11:57:27Z</time>
      </trkpt>
      <trkpt lat="31.111351178723716" lon="121.36908026749285">
        <ele>23.6925048828125</ele>
        <time>2024-06-15T11:57:30Z</time>
      </trkpt>
      <trkpt lat="31.111436862222437" lon="121.36900366212797">
        <ele>29.81201171875</ele>
        <time>2024-06-15T11:57:39Z</time>
      </trkpt>
      <trkpt lat="31.111509859288432" lon="121.36897069946266">
        <ele>27.2840576171875</ele>
        <time>2024-06-15T11:57:45Z</time>
      </trkpt>
      <trkpt lat="31.11155489444357" lon="121.36891776576707">
        <ele>24.22320556640625</ele>
        <time>2024-06-15T11:57:48Z</time>
      </trkpt>
      <trkpt lat="31.111601983038067" lon="121.3688168957788">
        <ele>24.50634765625</ele>
        <time>2024-06-15T11:57:54Z</time>
      </trkpt>
      <trkpt lat="31.111769948456296" lon="121.36876594909127">
        <ele>20.5196533203125</ele>
        <time>2024-06-15T11:58:06Z</time>
      </trkpt>
      <trkpt lat="31.111998025788637" lon="121.36858816697493">
        <ele>16.28680419921875</ele>
        <time>2024-06-15T11:58:24Z</time>
      </trkpt>
      <trkpt lat="31.112260159030974" lon="121.36834646932327">
        <ele>21.8883056640625</ele>
        <time>2024-06-15T11:58:48Z</time>
      </trkpt>
      <trkpt lat="31.112516228072867" lon="121.36816469309774">
        <ele>19.965087890625</ele>
        <time>2024-06-15T11:59:09Z</time>
      </trkpt>
      <trkpt lat="31.11276131473394" lon="121.36797393135835">
        <ele>21.50567626953125</ele>
        <time>2024-06-15T11:59:30Z</time>
      </trkpt>
      <trkpt lat="31.112897387824432" lon="121.36784709288744">
        <ele>24.82489013671875</ele>
        <time>2024-06-15T11:59:42Z</time>
      </trkpt>
      <trkpt lat="31.112783847850544" lon="121.36750856836308">
        <ele>19.9788818359375</ele>
        <time>2024-06-15T12:00:06Z</time>
      </trkpt>
      <trkpt lat="31.11269607560311" lon="121.36735678616914">
        <ele>12.3125</ele>
        <time>2024-06-15T12:00:18Z</time>
      </trkpt>
      <trkpt lat="31.11253938006485" lon="121.36717305536955">
        <ele>14.01165771484375</ele>
        <time>2024-06-15T12:00:33Z</time>
      </trkpt>
      <trkpt lat="31.112447721543507" lon="121.36692940427073">
        <ele>19.05224609375</ele>
        <time>2024-06-15T12:00:51Z</time>
      </trkpt>
      <trkpt lat="31.112383850137853" lon="121.36685151927125">
        <ele>16.217041015625</ele>
        <time>2024-06-15T12:00:57Z</time>
      </trkpt>
      <trkpt lat="31.112220317025216" lon="121.36653897501255">
        <ele>18.578369140625</ele>
        <time>2024-06-15T12:01:21Z</time>
      </trkpt>
      <trkpt lat="31.112189413898037" lon="121.36647307126967">
        <ele>16.92901611328125</ele>
        <time>2024-06-15T12:01:27Z</time>
      </trkpt>
      <trkpt lat="31.112131519708274" lon="121.36641216291862">
        <ele>14.12762451171875</ele>
        <time>2024-06-15T12:01:33Z</time>
      </trkpt>
      <trkpt lat="31.11211059555791" lon="121.36635924011738">
        <ele>16.22894287109375</ele>
        <time>2024-06-15T12:01:36Z</time>
      </trkpt>
      <trkpt lat="31.11204770677227" lon="121.36629633530926">
        <ele>14.75238037109375</ele>
        <time>2024-06-15T12:01:42Z</time>
      </trkpt>
      <trkpt lat="31.111972951537805" lon="121.36612958039721">
        <ele>13.69354248046875</ele>
        <time>2024-06-15T12:01:54Z</time>
      </trkpt>
      <trkpt lat="31.111878230263468" lon="121.36594485414062">
        <ele>16.44354248046875</ele>
        <time>2024-06-15T12:02:09Z</time>
      </trkpt>
      <trkpt lat="31.111694676292682" lon="121.36566527433943">
        <ele>22.42266845703125</ele>
        <time>2024-06-15T12:02:33Z</time>
      </trkpt>
      <trkpt lat="31.111630876124657" lon="121.36553247292031">
        <ele>15.67578125</ele>
        <time>2024-06-15T12:02:45Z</time>
      </trkpt>
      <trkpt lat="31.111670903703068" lon="121.36549252764532">
        <ele>12.97039794921875</ele>
        <time>2024-06-15T12:02:48Z</time>
      </trkpt>
      <trkpt lat="31.111734908180537" lon="121.36546056869928">
        <ele>12.277587890625</ele>
        <time>2024-06-15T12:02:51Z</time>
      </trkpt>
      <trkpt lat="31.111711127952297" lon="121.36529481306614">
        <ele>12.74176025390625</ele>
        <time>2024-06-15T12:03:06Z</time>
      </trkpt>
      <trkpt lat="31.111600451595102" lon="121.36508513062216">
        <ele>12.02178955078125</ele>
        <time>2024-06-15T12:03:24Z</time>
      </trkpt>
      <trkpt lat="31.111542550005108" lon="121.36503221361478">
        <ele>13.35467529296875</ele>
        <time>2024-06-15T12:03:30Z</time>
      </trkpt>
      <trkpt lat="31.111525627177006" lon="121.36497829463701">
        <ele>14.0789794921875</ele>
        <time>2024-06-15T12:03:36Z</time>
      </trkpt>
      <trkpt lat="31.111568658811645" lon="121.36493435581566">
        <ele>11.415985107421875</ele>
        <time>2024-06-15T12:03:42Z</time>
      </trkpt>
      <trkpt lat="31.11163262104917" lon="121.36493634732817">
        <ele>9.577667236328125</ele>
        <time>2024-06-15T12:03:48Z</time>
      </trkpt>
      <trkpt lat="31.111684539611186" lon="121.36497828088328">
        <ele>8.89752197265625</ele>
        <time>2024-06-15T12:03:54Z</time>
      </trkpt>
      <trkpt lat="31.111728500305254" lon="121.36499025938984">
        <ele>9.47369384765625</ele>
        <time>2024-06-15T12:04:12Z</time>
      </trkpt>
      <trkpt lat="31.111723472919103" lon="121.36501422446335">
        <ele>12.72918701171875</ele>
        <time>2024-06-15T12:04:39Z</time>
      </trkpt>
    </trkseg>
  </trk>
</gpx>