<?xml version="1.0" encoding="UTF-8"?>
<gpx xmlns="http://www.topografix.com/GPX/1/1" xmlns:gpxtpx="http://www.garmin.com/xmlschemas/TrackPointExtension/v1" xmlns:xsi="http://www.w3.org/2001/XMLSchema-instance" xsi:schemaLocation="http://www.topografix.com/GPX/1/1 http://www.topografix.com/GPX/1/1/gpx.xsd" version="1.1" creator="gpx.py -- https://github.com/tkrajina/gpxpy">
  <trk>
    <name>gpx from keep</name>
    <type>Run</type>
    <trkseg>
      <trkpt lat="30.522219522062173" lon="114.39252691735761">
        <ele>23.448486328125</ele>
        <time>2022-05-02T11:39:43Z</time>
      </trkpt>
      <trkpt lat="30.52217448304258" lon="114.3926509242715">
        <ele>26.10833740234375</ele>
        <time>2022-05-02T11:39:52Z</time>
      </trkpt>
      <trkpt lat="30.522154650623555" lon="114.3928549762845">
        <ele>28.9666748046875</ele>
        <time>2022-05-02T11:39:58Z</time>
      </trkpt>
      <trkpt lat="30.522172514266956" lon="114.39305902701578">
        <ele>32.90655517578125</ele>
        <time>2022-05-02T11:40:04Z</time>
      </trkpt>
      <trkpt lat="30.522216706793888" lon="114.39312116181831">
        <ele>30.6220703125</ele>
        <time>2022-05-02T11:40:07Z</time>
      </trkpt>
      <trkpt lat="30.522279614741016" lon="114.39315995916223">
        <ele>28.89520263671875</ele>
        <time>2022-05-02T11:40:10Z</time>
      </trkpt>
      <trkpt lat="30.522331672273243" lon="114.39321910873556">
        <ele>28.953125</ele>
        <time>2022-05-02T11:40:13Z</time>
      </trkpt>
      <trkpt lat="30.5225336900617" lon="114.39330022476284">
        <ele>32.45404052734375</ele>
        <time>2022-05-02T11:40:22Z</time>
      </trkpt>
      <trkpt lat="30.522582504645833" lon="114.39328800972127">
        <ele>32.11688232421875</ele>
        <time>2022-05-02T11:40:25Z</time>
      </trkpt>
      <trkpt lat="30.522867787117992" lon="114.39329205504603">
        <ele>33.23394775390625</ele>
        <time>2022-05-02T11:40:37Z</time>
      </trkpt>
      <trkpt lat="30.52302073739301" lon="114.39326707744424">
        <ele>34.68035888671875</ele>
        <time>2022-05-02T11:40:43Z</time>
      </trkpt>
      <trkpt lat="30.523065757289054" lon="114.39324292335515">
        <ele>35.04986572265625</ele>
        <time>2022-05-02T11:40:46Z</time>
      </trkpt>
      <trkpt lat="30.523164738553998" lon="114.39324291470432">
        <ele>32.5029296875</ele>
        <time>2022-05-02T11:40:49Z</time>
      </trkpt>
      <trkpt lat="30.523324725867013" lon="114.39330612534302">
        <ele>27.91546630859375</ele>
        <time>2022-05-02T11:40:55Z</time>
      </trkpt>
      <trkpt lat="30.52345273186449" lon="114.39325211543223">
        <ele>28.91925048828125</ele>
        <time>2022-05-02T11:41:01Z</time>
      </trkpt>
      <trkpt lat="30.523646663902824" lon="114.39301982417831">
        <ele>32.5833740234375</ele>
        <time>2022-05-02T11:41:10Z</time>
      </trkpt>
      <trkpt lat="30.523696568103706" lon="114.39297884646616">
        <ele>35.56695556640625</ele>
        <time>2022-05-02T11:41:13Z</time>
      </trkpt>
      <trkpt lat="30.523771437793123" lon="114.3928401823653">
        <ele>35.50390625</ele>
        <time>2022-05-02T11:41:19Z</time>
      </trkpt>
      <trkpt lat="30.523779597397752" lon="114.39270315308109">
        <ele>33.207275390625</ele>
        <time>2022-05-02T11:41:25Z</time>
      </trkpt>
      <trkpt lat="30.523746541765963" lon="114.39254713444399">
        <ele>31.504150390625</ele>
        <time>2022-05-02T11:41:31Z</time>
      </trkpt>
      <trkpt lat="30.523598506316457" lon="114.39239085569233">
        <ele>32.19000244140625</ele>
        <time>2022-05-02T11:41:40Z</time>
      </trkpt>
      <trkpt lat="30.523483533953716" lon="114.39234663757733">
        <ele>31.62237548828125</ele>
        <time>2022-05-02T11:41:46Z</time>
      </trkpt>
      <trkpt lat="30.52339946865208" lon="114.39234176083883">
        <ele>33.140869140625</ele>
        <time>2022-05-02T11:41:49Z</time>
      </trkpt>
      <trkpt lat="30.52333357642884" lon="114.39231680351001">
        <ele>31.01177978515625</ele>
        <time>2022-05-02T11:41:52Z</time>
      </trkpt>
      <trkpt lat="30.523030399420016" lon="114.3922967510242">
        <ele>35.03173828125</ele>
        <time>2022-05-02T11:42:04Z</time>
      </trkpt>
      <trkpt lat="30.522735346755372" lon="114.39233286472867">
        <ele>39.05126953125</ele>
        <time>2022-05-02T11:42:16Z</time>
      </trkpt>
      <trkpt lat="30.522669450990243" lon="114.39232581570218">
        <ele>39.729248046875</ele>
        <time>2022-05-02T11:42:19Z</time>
      </trkpt>
      <trkpt lat="30.522356497746646" lon="114.39237495526548">
        <ele>34.63311767578125</ele>
        <time>2022-05-02T11:42:34Z</time>
      </trkpt>
      <trkpt lat="30.52227649144682" lon="114.39241484905676">
        <ele>35.528076171875</ele>
        <time>2022-05-02T11:42:37Z</time>
      </trkpt>
      <trkpt lat="30.522168530207512" lon="114.39257901925481">
        <ele>37.2821044921875</ele>
        <time>2022-05-02T11:42:43Z</time>
      </trkpt>
      <trkpt lat="30.522143546470843" lon="114.3927730312892">
        <ele>37.521728515625</ele>
        <time>2022-05-02T11:42:49Z</time>
      </trkpt>
      <trkpt lat="30.522220783293225" lon="114.39306716322307">
        <ele>36.520263671875</ele>
        <time>2022-05-02T11:42:58Z</time>
      </trkpt>
      <trkpt lat="30.52225467001582" lon="114.39313499726788">
        <ele>35.51043701171875</ele>
        <time>2022-05-02T11:43:01Z</time>
      </trkpt>
      <trkpt lat="30.522424683239205" lon="114.39324704963208">
        <ele>31.14263916015625</ele>
        <time>2022-05-02T11:43:10Z</time>
      </trkpt>
      <trkpt lat="30.522509561555694" lon="114.3932570821644">
        <ele>30.35302734375</ele>
        <time>2022-05-02T11:43:13Z</time>
      </trkpt>
      <trkpt lat="30.522587665015298" lon="114.39323699544255">
        <ele>30.72076416015625</ele>
        <time>2022-05-02T11:43:16Z</time>
      </trkpt>
      <trkpt lat="30.52273545450567" lon="114.39326601697653">
        <ele>31.77398681640625</ele>
        <time>2022-05-02T11:43:22Z</time>
      </trkpt>
      <trkpt lat="30.522905761681617" lon="114.39323316874473">
        <ele>31.42315673828125</ele>
        <time>2022-05-02T11:43:28Z</time>
      </trkpt>
      <trkpt lat="30.522960818035852" lon="114.39319191881022">
        <ele>31.666748046875</ele>
        <time>2022-05-02T11:43:31Z</time>
      </trkpt>
      <trkpt lat="30.523192676981367" lon="114.39320003902428">
        <ele>31.299560546875</ele>
        <time>2022-05-02T11:43:40Z</time>
      </trkpt>
      <trkpt lat="30.52341261202793" lon="114.39315687530409">
        <ele>31.510009765625</ele>
        <time>2022-05-02T11:43:49Z</time>
      </trkpt>
      <trkpt lat="30.52355147131877" lon="114.39306786096607">
        <ele>29.582763671875</ele>
        <time>2022-05-02T11:43:55Z</time>
      </trkpt>
      <trkpt lat="30.52362362468272" lon="114.39295280360133">
        <ele>30.520263671875</ele>
        <time>2022-05-02T11:43:58Z</time>
      </trkpt>
      <trkpt lat="30.523708539171288" lon="114.39275200105456">
        <ele>32.82904052734375</ele>
        <time>2022-05-02T11:44:04Z</time>
      </trkpt>
      <trkpt lat="30.523721322452857" lon="114.39254415190003">
        <ele>37.176513671875</ele>
        <time>2022-05-02T11:44:13Z</time>
      </trkpt>
      <trkpt lat="30.52369150245927" lon="114.39249097179272">
        <ele>36.72479248046875</ele>
        <time>2022-05-02T11:44:16Z</time>
      </trkpt>
      <trkpt lat="30.523578431239162" lon="114.39243074427674">
        <ele>31.25054931640625</ele>
        <time>2022-05-02T11:44:22Z</time>
      </trkpt>
      <trkpt lat="30.523507395179433" lon="114.39236074507984">
        <ele>29.32122802734375</ele>
        <time>2022-05-02T11:44:25Z</time>
      </trkpt>
      <trkpt lat="30.523437435221027" lon="114.39233578808371">
        <ele>30.69512939453125</ele>
        <time>2022-05-02T11:44:28Z</time>
      </trkpt>
      <trkpt lat="30.523232691663424" lon="114.39234367478194">
        <ele>31.04254150390625</ele>
        <time>2022-05-02T11:44:37Z</time>
      </trkpt>
      <trkpt lat="30.523146444702622" lon="114.39240174875458">
        <ele>33.01470947265625</ele>
        <time>2022-05-02T11:44:40Z</time>
      </trkpt>
      <trkpt lat="30.523047472138124" lon="114.39235671520308">
        <ele>34.57525634765625</ele>
        <time>2022-05-02T11:44:43Z</time>
      </trkpt>
      <trkpt lat="30.522849513482598" lon="114.39233665348235">
        <ele>35.850341796875</ele>
        <time>2022-05-02T11:44:52Z</time>
      </trkpt>
      <trkpt lat="30.52277141005631" lon="114.39235266925712">
        <ele>35.9945068359375</ele>
        <time>2022-05-02T11:44:55Z</time>
      </trkpt>
      <trkpt lat="30.522683551058773" lon="114.39233286925555">
        <ele>36.783447265625</ele>
        <time>2022-05-02T11:44:58Z</time>
      </trkpt>
      <trkpt lat="30.522482597831207" lon="114.39237195952124">
        <ele>34.900634765625</ele>
        <time>2022-05-02T11:45:07Z</time>
      </trkpt>
      <trkpt lat="30.522416430487876" lon="114.39236680987385">
        <ele>38.451904296875</ele>
        <time>2022-05-02T11:45:10Z</time>
      </trkpt>
      <trkpt lat="30.52233452705364" lon="114.39240073435988">
        <ele>38.61663818359375</ele>
        <time>2022-05-02T11:45:13Z</time>
      </trkpt>
      <trkpt lat="30.5222485502074" lon="114.39246477794023">
        <ele>39.36279296875</ele>
        <time>2022-05-02T11:45:16Z</time>
      </trkpt>
      <trkpt lat="30.522199447893858" lon="114.39256300742939">
        <ele>40.5377197265625</ele>
        <time>2022-05-02T11:45:19Z</time>
      </trkpt>
      <trkpt lat="30.522156557765147" lon="114.39280396335928">
        <ele>38.602294921875</ele>
        <time>2022-05-02T11:45:25Z</time>
      </trkpt>
      <trkpt lat="30.522199373666066" lon="114.39298413290155">
        <ele>39.70330810546875</ele>
        <time>2022-05-02T11:45:31Z</time>
      </trkpt>
      <trkpt lat="30.522234613253673" lon="114.39306906144753">
        <ele>40.87347412109375</ele>
        <time>2022-05-02T11:45:34Z</time>
      </trkpt>
      <trkpt lat="30.52233168481049" lon="114.39314014615869">
        <ele>40.898193359375</ele>
        <time>2022-05-02T11:45:37Z</time>
      </trkpt>
      <trkpt lat="30.522356619419966" lon="114.39322914649205">
        <ele>39.906494140625</ele>
        <time>2022-05-02T11:45:40Z</time>
      </trkpt>
      <trkpt lat="30.522441764735476" lon="114.39326604264406">
        <ele>38.6329345703125</ele>
        <time>2022-05-02T11:45:43Z</time>
      </trkpt>
      <trkpt lat="30.522511731642393" lon="114.393253011724">
        <ele>36.175048828125</ele>
        <time>2022-05-02T11:45:46Z</time>
      </trkpt>
      <trkpt lat="30.522637555909334" lon="114.39327905034598">
        <ele>33.74835205078125</ele>
        <time>2022-05-02T11:45:52Z</time>
      </trkpt>
      <trkpt lat="30.522637555909334" lon="114.39327905034598">
        <ele>33.74835205078125</ele>
        <time>2022-05-02T11:45:55Z</time>
      </trkpt>
      <trkpt lat="30.522682567890556" lon="114.39330618146643">
        <ele>36.91656494140625</ele>
        <time>2022-05-02T11:46:10Z</time>
      </trkpt>
      <trkpt lat="30.522755525365863" lon="114.39324403586836">
        <ele>32.53448486328125</ele>
        <time>2022-05-02T11:46:13Z</time>
      </trkpt>
      <trkpt lat="30.522837424254753" lon="114.39323100391927">
        <ele>32.5814208984375</ele>
        <time>2022-05-02T11:46:16Z</time>
      </trkpt>
      <trkpt lat="30.522958640101116" lon="114.39324591756602">
        <ele>30.6602783203125</ele>
        <time>2022-05-02T11:46:22Z</time>
      </trkpt>
      <trkpt lat="30.52328460546193" lon="114.39321305576163">
        <ele>23.24432373046875</ele>
        <time>2022-05-02T11:46:34Z</time>
      </trkpt>
      <trkpt lat="30.523357552174442" lon="114.3932201044743">
        <ele>21.9195556640625</ele>
        <time>2022-05-02T11:46:37Z</time>
      </trkpt>
      <trkpt lat="30.523550651898752" lon="114.39310395029887">
        <ele>22.20867919921875</ele>
        <time>2022-05-02T11:46:46Z</time>
      </trkpt>
      <trkpt lat="30.523629581770805" lon="114.39300598698092">
        <ele>21.924560546875</ele>
        <time>2022-05-02T11:46:49Z</time>
      </trkpt>
      <trkpt lat="30.523682497154947" lon="114.39280084520878">
        <ele>23.3531494140625</ele>
        <time>2022-05-02T11:46:55Z</time>
      </trkpt>
      <trkpt lat="30.523688760836905" lon="114.39265214863555">
        <ele>26.6195068359375</ele>
        <time>2022-05-02T11:47:01Z</time>
      </trkpt>
      <trkpt lat="30.523638345300668" lon="114.3925208238633">
        <ele>24.287109375</ele>
        <time>2022-05-02T11:47:07Z</time>
      </trkpt>
      <trkpt lat="30.52358249740722" lon="114.39243888410012">
        <ele>24.13385009765625</ele>
        <time>2022-05-02T11:47:10Z</time>
      </trkpt>
      <trkpt lat="30.52330862852914" lon="114.39231273562466">
        <ele>27.33544921875</ele>
        <time>2022-05-02T11:47:22Z</time>
      </trkpt>
      <trkpt lat="30.523237579773035" lon="114.39230867176936">
        <ele>27.95501708984375</ele>
        <time>2022-05-02T11:47:25Z</time>
      </trkpt>
      <trkpt lat="30.523187421849773" lon="114.39225468003266">
        <ele>29.5009765625</ele>
        <time>2022-05-02T11:47:28Z</time>
      </trkpt>
      <trkpt lat="30.52308924603275" lon="114.39229566053109">
        <ele>28.476806640625</ele>
        <time>2022-05-02T11:47:31Z</time>
      </trkpt>
      <trkpt lat="30.523037451690296" lon="114.39228888162224">
        <ele>29.41839599609375</ele>
        <time>2022-05-02T11:47:34Z</time>
      </trkpt>
      <trkpt lat="30.522923278752014" lon="114.3923168393702">
        <ele>30.06829833984375</ele>
        <time>2022-05-02T11:47:37Z</time>
      </trkpt>
      <trkpt lat="30.52286850224916" lon="114.39230571931294">
        <ele>30.51080322265625</ele>
        <time>2022-05-02T11:47:40Z</time>
      </trkpt>
      <trkpt lat="30.522583481319842" lon="114.39235187166724">
        <ele>30.642333984375</ele>
        <time>2022-05-02T11:47:52Z</time>
      </trkpt>
      <trkpt lat="30.52244545215308" lon="114.3923399448531">
        <ele>28.91119384765625</ele>
        <time>2022-05-02T11:47:58Z</time>
      </trkpt>
      <trkpt lat="30.522354598530352" lon="114.39237983952516">
        <ele>28.92822265625</ele>
        <time>2022-05-02T11:48:01Z</time>
      </trkpt>
      <trkpt lat="30.522221686512285" lon="114.39255377989494">
        <ele>30.57275390625</ele>
        <time>2022-05-02T11:48:10Z</time>
      </trkpt>
      <trkpt lat="30.522185601299384" lon="114.39265200866832">
        <ele>29.55474853515625</ele>
        <time>2022-05-02T11:48:13Z</time>
      </trkpt>
      <trkpt lat="30.522165497052505" lon="114.39285985954345">
        <ele>29.3712158203125</ele>
        <time>2022-05-02T11:48:19Z</time>
      </trkpt>
      <trkpt lat="30.52221563168336" lon="114.39306200806992">
        <ele>33.5799560546875</ele>
        <time>2022-05-02T11:48:25Z</time>
      </trkpt>
      <trkpt lat="30.52225982325504" lon="114.3931301125456">
        <ele>32.57366943359375</ele>
        <time>2022-05-02T11:48:28Z</time>
      </trkpt>
      <trkpt lat="30.522403533097506" lon="114.39323402668732">
        <ele>32.2999267578125</ele>
        <time>2022-05-02T11:48:34Z</time>
      </trkpt>
      <trkpt lat="30.522690442404283" lon="114.39323997130828">
        <ele>34.2015380859375</ele>
        <time>2022-05-02T11:48:46Z</time>
      </trkpt>
      <trkpt lat="30.522771530868955" lon="114.39320713091544">
        <ele>34.04913330078125</ele>
        <time>2022-05-02T11:48:49Z</time>
      </trkpt>
      <trkpt lat="30.522851527273044" lon="114.393220962749">
        <ele>34.5196533203125</ele>
        <time>2022-05-02T11:48:52Z</time>
      </trkpt>
      <trkpt lat="30.522896817720603" lon="114.39320115027928">
        <ele>37.378173828125</ele>
        <time>2022-05-02T11:48:55Z</time>
      </trkpt>
      <trkpt lat="30.523003658873215" lon="114.39322908994265">
        <ele>32.3853759765625</ele>
        <time>2022-05-02T11:49:01Z</time>
      </trkpt>
      <trkpt lat="30.523312540324124" lon="114.39319297346701">
        <ele>30.8251953125</ele>
        <time>2022-05-02T11:49:16Z</time>
      </trkpt>
      <trkpt lat="30.52341857815026" lon="114.39315606073639">
        <ele>30.53717041015625</ele>
        <time>2022-05-02T11:49:19Z</time>
      </trkpt>
      <trkpt lat="30.523572626585114" lon="114.39304886479441">
        <ele>34.3516845703125</ele>
        <time>2022-05-02T11:49:25Z</time>
      </trkpt>
      <trkpt lat="30.523621721355923" lon="114.3929829232046">
        <ele>35.4581298828125</ele>
        <time>2022-05-02T11:49:28Z</time>
      </trkpt>
      <trkpt lat="30.523686556704344" lon="114.39284778743433">
        <ele>34.56243896484375</ele>
        <time>2022-05-02T11:49:34Z</time>
      </trkpt>
      <trkpt lat="30.523724547578404" lon="114.39270315789256">
        <ele>33.2806396484375</ele>
        <time>2022-05-02T11:49:40Z</time>
      </trkpt>
      <trkpt lat="30.523722661965245" lon="114.39263315173154">
        <ele>31.4061279296875</ele>
        <time>2022-05-02T11:49:43Z</time>
      </trkpt>
      <trkpt lat="30.523637537565225" lon="114.39248989114928">
        <ele>30.692626953125</ele>
        <time>2022-05-02T11:49:49Z</time>
      </trkpt>
      <trkpt lat="30.523507392289087" lon="114.39237566869325">
        <ele>29.8955078125</ele>
        <time>2022-05-02T11:49:55Z</time>
      </trkpt>
      <trkpt lat="30.523350667584516" lon="114.39228261348808">
        <ele>31.12078857421875</ele>
        <time>2022-05-02T11:50:01Z</time>
      </trkpt>
      <trkpt lat="30.523154327044466" lon="114.3923086790457">
        <ele>32.0732421875</ele>
        <time>2022-05-02T11:50:07Z</time>
      </trkpt>
      <trkpt lat="30.523028231142654" lon="114.39229078178988">
        <ele>34.548828125</ele>
        <time>2022-05-02T11:50:13Z</time>
      </trkpt>
      <trkpt lat="30.522742401193465" lon="114.39231387046378">
        <ele>36.85614013671875</ele>
        <time>2022-05-02T11:50:25Z</time>
      </trkpt>
      <trkpt lat="30.522598403355474" lon="114.39231578241306">
        <ele>38.64874267578125</ele>
        <time>2022-05-02T11:50:31Z</time>
      </trkpt>
      <trkpt lat="30.52252654414839" lon="114.39229570971085">
        <ele>36.68109130859375</ele>
        <time>2022-05-02T11:50:34Z</time>
      </trkpt>
      <trkpt lat="30.52241752435651" lon="114.39231986828797">
        <ele>34.3704833984375</ele>
        <time>2022-05-02T11:50:40Z</time>
      </trkpt>
      <trkpt lat="30.522261573748892" lon="114.39242895999486">
        <ele>34.36474609375</ele>
        <time>2022-05-02T11:50:49Z</time>
      </trkpt>
      <trkpt lat="30.52216662569749" lon="114.39261293709627">
        <ele>33.02520751953125</ele>
        <time>2022-05-02T11:50:55Z</time>
      </trkpt>
      <trkpt lat="30.52214654211193" lon="114.3927019390948">
        <ele>31.84857177734375</ele>
        <time>2022-05-02T11:50:58Z</time>
      </trkpt>
      <trkpt lat="30.52214840742114" lon="114.39288998033827">
        <ele>31.688720703125</ele>
        <time>2022-05-02T11:51:04Z</time>
      </trkpt>
      <trkpt lat="30.52217848173661" lon="114.3930500720296">
        <ele>30.07379150390625</ele>
        <time>2022-05-02T11:51:10Z</time>
      </trkpt>
      <trkpt lat="30.522457770081083" lon="114.39322995170102">
        <ele>24.82958984375</ele>
        <time>2022-05-02T11:51:22Z</time>
      </trkpt>
      <trkpt lat="30.52253559575934" lon="114.3932521955883">
        <ele>24.57659912109375</ele>
        <time>2022-05-02T11:51:25Z</time>
      </trkpt>
      <trkpt lat="30.522738444659378" lon="114.39322015858336">
        <ele>30.096435546875</ele>
        <time>2022-05-02T11:51:34Z</time>
      </trkpt>
      <trkpt lat="30.52277560353209" lon="114.3931759253998">
        <ele>30.770263671875</ele>
        <time>2022-05-02T11:51:37Z</time>
      </trkpt>
      <trkpt lat="30.52305464339378" lon="114.39321388990858">
        <ele>25.171142578125</ele>
        <time>2022-05-02T11:51:43Z</time>
      </trkpt>
      <trkpt lat="30.523194568353002" lon="114.39324399749681">
        <ele>24.8367919921875</ele>
        <time>2022-05-02T11:51:46Z</time>
      </trkpt>
      <trkpt lat="30.523288670203822" lon="114.39323204988001">
        <ele>25.5772705078125</ele>
        <time>2022-05-02T11:51:49Z</time>
      </trkpt>
      <trkpt lat="30.52334968307462" lon="114.39325103903865">
        <ele>23.85113525390625</ele>
        <time>2022-05-02T11:51:52Z</time>
      </trkpt>
      <trkpt lat="30.523462498806435" lon="114.39322389419661">
        <ele>26.086181640625</ele>
        <time>2022-05-02T11:51:55Z</time>
      </trkpt>
      <trkpt lat="30.5235454883862" lon="114.39317287327376">
        <ele>25.78314208984375</ele>
        <time>2022-05-02T11:51:58Z</time>
      </trkpt>
      <trkpt lat="30.523562585686946" lon="114.39309282398816">
        <ele>27.69512939453125</ele>
        <time>2022-05-02T11:52:01Z</time>
      </trkpt>
      <trkpt lat="30.523647484770656" lon="114.39297586594567">
        <ele>25.25921630859375</ele>
        <time>2022-05-02T11:52:07Z</time>
      </trkpt>
      <trkpt lat="30.523655631724154" lon="114.39290775740352">
        <ele>27.51531982421875</ele>
        <time>2022-05-02T11:52:10Z</time>
      </trkpt>
      <trkpt lat="30.523696588352678" lon="114.39285972572794">
        <ele>23.33367919921875</ele>
        <time>2022-05-02T11:52:13Z</time>
      </trkpt>
      <trkpt lat="30.52371369658649" lon="114.39272405224763">
        <ele>25.5478515625</ele>
        <time>2022-05-02T11:52:19Z</time>
      </trkpt>
      <trkpt lat="30.52368036887804" lon="114.39257210359288">
        <ele>26.9031982421875</ele>
        <time>2022-05-02T11:52:25Z</time>
      </trkpt>
      <trkpt lat="30.52364350095242" lon="114.39250372897337">
        <ele>29.297607421875</ele>
        <time>2022-05-02T11:52:28Z</time>
      </trkpt>
      <trkpt lat="30.523534504837286" lon="114.39240469956538">
        <ele>30.3211669921875</ele>
        <time>2022-05-02T11:52:34Z</time>
      </trkpt>
      <trkpt lat="30.523393502871155" lon="114.39234067600798">
        <ele>33.0418701171875</ele>
        <time>2022-05-02T11:52:40Z</time>
      </trkpt>
      <trkpt lat="30.523176562334367" lon="114.39231681723318">
        <ele>36.43212890625</ele>
        <time>2022-05-02T11:52:49Z</time>
      </trkpt>
      <trkpt lat="30.52310931405518" lon="114.39229267406516">
        <ele>36.95904541015625</ele>
        <time>2022-05-02T11:52:52Z</time>
      </trkpt>
      <trkpt lat="30.522829450711686" lon="114.3923127775049">
        <ele>33.5709228515625</ele>
        <time>2022-05-02T11:53:04Z</time>
      </trkpt>
      <trkpt lat="30.52255257503253" lon="114.39230873163851">
        <ele>34.26904296875</ele>
        <time>2022-05-02T11:53:16Z</time>
      </trkpt>
      <trkpt lat="30.522402604487652" lon="114.39234483268338">
        <ele>37.720703125</ele>
        <time>2022-05-02T11:53:22Z</time>
      </trkpt>
      <trkpt lat="30.522252623040988" lon="114.3924379149731">
        <ele>38.4183349609375</ele>
        <time>2022-05-02T11:53:28Z</time>
      </trkpt>
      <trkpt lat="30.522196474250666" lon="114.39251280967095">
        <ele>36.257080078125</ele>
        <time>2022-05-02T11:53:31Z</time>
      </trkpt>
      <trkpt lat="30.522169612733528" lon="114.39259095817548">
        <ele>37.68731689453125</ele>
        <time>2022-05-02T11:53:34Z</time>
      </trkpt>
      <trkpt lat="30.52215956191078" lon="114.39268484336833">
        <ele>36.5509033203125</ele>
        <time>2022-05-02T11:53:37Z</time>
      </trkpt>
      <trkpt lat="30.522171472954327" lon="114.39280287667928">
        <ele>36.51025390625</ele>
        <time>2022-05-02T11:53:40Z</time>
      </trkpt>
      <trkpt lat="30.522159525689393" lon="114.39289106474762">
        <ele>32.159912109375</ele>
        <time>2022-05-02T11:53:43Z</time>
      </trkpt>
      <trkpt lat="30.522189600368794" lon="114.39304898566846">
        <ele>29.28131103515625</ele>
        <time>2022-05-02T11:53:49Z</time>
      </trkpt>
      <trkpt lat="30.52222863914283" lon="114.39311898998928">
        <ele>30.5665283203125</ele>
        <time>2022-05-02T11:53:52Z</time>
      </trkpt>
      <trkpt lat="30.522372621656505" lon="114.39321313546694">
        <ele>29.30126953125</ele>
        <time>2022-05-02T11:54:01Z</time>
      </trkpt>
      <trkpt lat="30.522465632442046" lon="114.39324216175486">
        <ele>26.78778076171875</ele>
        <time>2022-05-02T11:54:04Z</time>
      </trkpt>
      <trkpt lat="30.522565700401934" lon="114.39322994226828">
        <ele>26.56378173828125</ele>
        <time>2022-05-02T11:54:07Z</time>
      </trkpt>
      <trkpt lat="30.522632678509208" lon="114.39325408655377">
        <ele>28.97088623046875</ele>
        <time>2022-05-02T11:54:13Z</time>
      </trkpt>
      <trkpt lat="30.52263755607704" lon="114.39327796494453">
        <ele>30.73590087890625</ele>
        <time>2022-05-02T11:54:16Z</time>
      </trkpt>
      <trkpt lat="30.522721623148605" lon="114.3932730732916">
        <ele>31.09368896484375</ele>
        <time>2022-05-02T11:54:40Z</time>
      </trkpt>
      <trkpt lat="30.52279185781061" lon="114.39328202171467">
        <ele>29.7421875</ele>
        <time>2022-05-02T11:54:43Z</time>
      </trkpt>
      <trkpt lat="30.52293288333379" lon="114.39321091570581">
        <ele>33.12322998046875</ele>
        <time>2022-05-02T11:54:49Z</time>
      </trkpt>
      <trkpt lat="30.523267792849392" lon="114.39320898698897">
        <ele>33.69403076171875</ele>
        <time>2022-05-02T11:54:58Z</time>
      </trkpt>
      <trkpt lat="30.523384675071473" lon="114.39318998232109">
        <ele>33.24163818359375</ele>
        <time>2022-05-02T11:55:01Z</time>
      </trkpt>
      <trkpt lat="30.523597570033793" lon="114.3930808816255">
        <ele>31.86126708984375</ele>
        <time>2022-05-02T11:55:10Z</time>
      </trkpt>
      <trkpt lat="30.523762496138477" lon="114.39279812477602">
        <ele>31.44140625</ele>
        <time>2022-05-02T11:55:19Z</time>
      </trkpt>
      <trkpt lat="30.523754650318633" lon="114.39269420095084">
        <ele>32.8907470703125</ele>
        <time>2022-05-02T11:55:22Z</time>
      </trkpt>
      <trkpt lat="30.523722663054233" lon="114.39262718221075">
        <ele>32.3077392578125</ele>
        <time>2022-05-02T11:55:25Z</time>
      </trkpt>
      <trkpt lat="30.523655425424785" lon="114.39254388631885">
        <ele>33.304443359375</ele>
        <time>2022-05-02T11:55:28Z</time>
      </trkpt>
      <trkpt lat="30.523621542219928" lon="114.392466828659">
        <ele>34.10400390625</ele>
        <time>2022-05-02T11:55:31Z</time>
      </trkpt>
      <trkpt lat="30.523445569712617" lon="114.39234067145726">
        <ele>35.56536865234375</ele>
        <time>2022-05-02T11:55:37Z</time>
      </trkpt>
      <trkpt lat="30.52336638938849" lon="114.39231680064212">
        <ele>31.31854248046875</ele>
        <time>2022-05-02T11:55:40Z</time>
      </trkpt>
      <trkpt lat="30.523084362791238" lon="114.39230570044676">
        <ele>31.80889892578125</ele>
        <time>2022-05-02T11:55:49Z</time>
      </trkpt>
      <trkpt lat="30.522964507006115" lon="114.39227287909817">
        <ele>32.35968017578125</ele>
        <time>2022-05-02T11:55:55Z</time>
      </trkpt>
      <trkpt lat="30.52271854056501" lon="114.39229677828054">
        <ele>30.86444091796875</ele>
        <time>2022-05-02T11:56:04Z</time>
      </trkpt>
      <trkpt lat="30.52264858062022" lon="114.39227182136128">
        <ele>29.233642578125</ele>
        <time>2022-05-02T11:56:07Z</time>
      </trkpt>
      <trkpt lat="30.52238770242148" lon="114.39227889892894">
        <ele>26.63330078125</ele>
        <time>2022-05-02T11:56:16Z</time>
      </trkpt>
      <trkpt lat="30.522235278184947" lon="114.39238174932353">
        <ele>28.13739013671875</ele>
        <time>2022-05-02T11:56:22Z</time>
      </trkpt>
      <trkpt lat="30.52217750129832" lon="114.39246098539448">
        <ele>27.555419921875</ele>
        <time>2022-05-02T11:56:25Z</time>
      </trkpt>
      <trkpt lat="30.522088490417627" lon="114.3928080394704">
        <ele>25.58587646484375</ele>
        <time>2022-05-02T11:56:34Z</time>
      </trkpt>
      <trkpt lat="30.52215246968702" lon="114.39292199874801">
        <ele>20.949462890625</ele>
        <time>2022-05-02T11:56:37Z</time>
      </trkpt>
      <trkpt lat="30.522183367799183" lon="114.39302103745592">
        <ele>21.55426025390625</ele>
        <time>2022-05-02T11:56:40Z</time>
      </trkpt>
      <trkpt lat="30.522286665120692" lon="114.39316212933657">
        <ele>22.1517333984375</ele>
        <time>2022-05-02T11:56:46Z</time>
      </trkpt>
      <trkpt lat="30.522363668744607" lon="114.3932381004183">
        <ele>23.02001953125</ele>
        <time>2022-05-02T11:56:49Z</time>
      </trkpt>
      <trkpt lat="30.52253857396402" lon="114.39328312925255">
        <ele>26.39990234375</ele>
        <time>2022-05-02T11:56:55Z</time>
      </trkpt>
      <trkpt lat="30.52263565902268" lon="114.39327009595166">
        <ele>29.87811279296875</ele>
        <time>2022-05-02T11:56:58Z</time>
      </trkpt>
      <trkpt lat="30.522745498372636" lon="114.39320116350424">
        <ele>30.50262451171875</ele>
        <time>2022-05-02T11:57:04Z</time>
      </trkpt>
      <trkpt lat="30.523033757694986" lon="114.39324401155145">
        <ele>29.87921142578125</ele>
        <time>2022-05-02T11:57:16Z</time>
      </trkpt>
      <trkpt lat="30.523261554393972" lon="114.39321712801916">
        <ele>27.541748046875</ele>
        <time>2022-05-02T11:57:25Z</time>
      </trkpt>
      <trkpt lat="30.523364596368815" lon="114.39326189173802">
        <ele>29.72869873046875</ele>
        <time>2022-05-02T11:57:31Z</time>
      </trkpt>
      <trkpt lat="30.523485551746603" lon="114.39320788255915">
        <ele>30.11456298828125</ele>
        <time>2022-05-02T11:57:37Z</time>
      </trkpt>
      <trkpt lat="30.52358970493272" lon="114.39308603792104">
        <ele>29.7225341796875</ele>
        <time>2022-05-02T11:57:43Z</time>
      </trkpt>
      <trkpt lat="30.523695500497233" lon="114.3928779059366">
        <ele>31.3343505859375</ele>
        <time>2022-05-02T11:57:52Z</time>
      </trkpt>
      <trkpt lat="30.523715617656485" lon="114.39259814927306">
        <ele>32.84130859375</ele>
        <time>2022-05-02T11:58:04Z</time>
      </trkpt>
      <trkpt lat="30.523702340715882" lon="114.39253899808597">
        <ele>33.303466796875</ele>
        <time>2022-05-02T11:58:07Z</time>
      </trkpt>
      <trkpt lat="30.523622368191933" lon="114.39240170715829">
        <ele>30.47906494140625</ele>
        <time>2022-05-02T11:58:13Z</time>
      </trkpt>
      <trkpt lat="30.52340056358524" lon="114.39228966389814">
        <ele>33.22900390625</ele>
        <time>2022-05-02T11:58:22Z</time>
      </trkpt>
      <trkpt lat="30.523325449045828" lon="114.39227583226076">
        <ele>29.364990234375</ele>
        <time>2022-05-02T11:58:25Z</time>
      </trkpt>
      <trkpt lat="30.52327339016953" lon="114.39223567894211">
        <ele>29.84222412109375</ele>
        <time>2022-05-02T11:58:28Z</time>
      </trkpt>
      <trkpt lat="30.522955290003594" lon="114.39225687101667">
        <ele>26.5369873046875</ele>
        <time>2022-05-02T11:58:43Z</time>
      </trkpt>
      <trkpt lat="30.52277142510629" lon="114.39227588068258">
        <ele>31.47998046875</ele>
        <time>2022-05-02T11:58:49Z</time>
      </trkpt>
      <trkpt lat="30.522634480354675" lon="114.39226585317697">
        <ele>29.81884765625</ele>
        <time>2022-05-02T11:58:55Z</time>
      </trkpt>
      <trkpt lat="30.522590555502134" lon="114.39223275391842">
        <ele>30.4705810546875</ele>
        <time>2022-05-02T11:58:58Z</time>
      </trkpt>
      <trkpt lat="30.522515431591053" lon="114.39226586358166">
        <ele>29.12200927734375</ele>
        <time>2022-05-02T11:59:01Z</time>
      </trkpt>
      <trkpt lat="30.522423503786108" lon="114.39225176209254">
        <ele>30.91046142578125</ele>
        <time>2022-05-02T11:59:04Z</time>
      </trkpt>
      <trkpt lat="30.52234621204256" lon="114.39227673185721">
        <ele>31.2978515625</ele>
        <time>2022-05-02T11:59:07Z</time>
      </trkpt>
      <trkpt lat="30.522212490053196" lon="114.39242787892779">
        <ele>31.3533935546875</ele>
        <time>2022-05-02T11:59:13Z</time>
      </trkpt>
      <trkpt lat="30.52214249365411" lon="114.39259584469018">
        <ele>28.12139892578125</ele>
        <time>2022-05-02T11:59:19Z</time>
      </trkpt>
      <trkpt lat="30.52214464960359" lon="114.39266992083594">
        <ele>27.3438720703125</ele>
        <time>2022-05-02T11:59:22Z</time>
      </trkpt>
      <trkpt lat="30.52211263866493" lon="114.39273396053161">
        <ele>27.920654296875</ele>
        <time>2022-05-02T11:59:25Z</time>
      </trkpt>
      <trkpt lat="30.52216547178059" lon="114.39300909975655">
        <ele>28.7911376953125</ele>
        <time>2022-05-02T11:59:34Z</time>
      </trkpt>
      <trkpt lat="30.522318662365652" lon="114.39317596533499">
        <ele>26.40802001953125</ele>
        <time>2022-05-02T11:59:43Z</time>
      </trkpt>
      <trkpt lat="30.522440682327336" lon="114.39325111848338">
        <ele>29.9010009765625</ele>
        <time>2022-05-02T11:59:49Z</time>
      </trkpt>
      <trkpt lat="30.522565690921038" lon="114.39329099604628">
        <ele>32.51727294921875</ele>
        <time>2022-05-02T11:59:55Z</time>
      </trkpt>
      <trkpt lat="30.522710515169045" lon="114.39320605085041">
        <ele>33.180908203125</ele>
        <time>2022-05-02T12:00:01Z</time>
      </trkpt>
      <trkpt lat="30.522774509946398" lon="114.3932320948168">
        <ele>31.6102294921875</ele>
        <time>2022-05-02T12:00:04Z</time>
      </trkpt>
      <trkpt lat="30.522916884388856" lon="114.39320603281422">
        <ele>33.491943359375</ele>
        <time>2022-05-02T12:00:10Z</time>
      </trkpt>
      <trkpt lat="30.52300962270433" lon="114.39324292826122">
        <ele>31.2650146484375</ele>
        <time>2022-05-02T12:00:16Z</time>
      </trkpt>
      <trkpt lat="30.523306571504992" lon="114.39321088304592">
        <ele>31.346435546875</ele>
        <time>2022-05-02T12:00:28Z</time>
      </trkpt>
      <trkpt lat="30.52342562282931" lon="114.39319404898059">
        <ele>29.851318359375</ele>
        <time>2022-05-02T12:00:34Z</time>
      </trkpt>
      <trkpt lat="30.52346251727088" lon="114.39310802822324">
        <ele>32.5130615234375</ele>
        <time>2022-05-02T12:00:37Z</time>
      </trkpt>
      <trkpt lat="30.523527609486973" lon="114.39305483837133">
        <ele>35.66156005859375</ele>
        <time>2022-05-02T12:00:40Z</time>
      </trkpt>
      <trkpt lat="30.523611680512893" lon="114.39302579686989">
        <ele>36.16632080078125</ele>
        <time>2022-05-02T12:00:43Z</time>
      </trkpt>
      <trkpt lat="30.523694706280903" lon="114.39276692615856">
        <ele>34.6175537109375</ele>
        <time>2022-05-02T12:00:52Z</time>
      </trkpt>
      <trkpt lat="30.52366951194749" lon="114.3926247447801">
        <ele>34.5595703125</ele>
        <time>2022-05-02T12:00:58Z</time>
      </trkpt>
      <trkpt lat="30.523596323325584" lon="114.3924616754093">
        <ele>32.8424072265625</ele>
        <time>2022-05-02T12:01:07Z</time>
      </trkpt>
      <trkpt lat="30.523474586710087" lon="114.39233768420267">
        <ele>35.08135986328125</ele>
        <time>2022-05-02T12:01:13Z</time>
      </trkpt>
      <trkpt lat="30.52328558617057" lon="114.39227176568704">
        <ele>31.993896484375</ele>
        <time>2022-05-02T12:01:22Z</time>
      </trkpt>
      <trkpt lat="30.5230922299915" lon="114.39229077619638">
        <ele>28.66070556640625</ele>
        <time>2022-05-02T12:01:31Z</time>
      </trkpt>
      <trkpt lat="30.522954473287285" lon="114.39227287997512">
        <ele>30.484130859375</ele>
        <time>2022-05-02T12:01:37Z</time>
      </trkpt>
      <trkpt lat="30.522892368204474" lon="114.3922956777382">
        <ele>31.25885009765625</ele>
        <time>2022-05-02T12:01:40Z</time>
      </trkpt>
      <trkpt lat="30.52283054211255" lon="114.39227886022535">
        <ele>29.6781005859375</ele>
        <time>2022-05-02T12:01:43Z</time>
      </trkpt>
      <trkpt lat="30.52250457880374" lon="114.39229381226836">
        <ele>27.9327392578125</ele>
        <time>2022-05-02T12:01:58Z</time>
      </trkpt>
      <trkpt lat="30.52234348744777" lon="114.39234185313104">
        <ele>25.623046875</ele>
        <time>2022-05-02T12:02:04Z</time>
      </trkpt>
      <trkpt lat="30.522145483822168" lon="114.39255704264522">
        <ele>29.56207275390625</ele>
        <time>2022-05-02T12:02:13Z</time>
      </trkpt>
      <trkpt lat="30.52212753380325" lon="114.39284710965684">
        <ele>28.119384765625</ele>
        <time>2022-05-02T12:02:22Z</time>
      </trkpt>
      <trkpt lat="30.522147581992257" lon="114.39295998760444">
        <ele>28.13720703125</ele>
        <time>2022-05-02T12:02:25Z</time>
      </trkpt>
      <trkpt lat="30.522223761428258" lon="114.39309701121816">
        <ele>28.4307861328125</ele>
        <time>2022-05-02T12:02:31Z</time>
      </trkpt>
      <trkpt lat="30.52247051312044" lon="114.39324596022698">
        <ele>28.7098388671875</ele>
        <time>2022-05-02T12:02:40Z</time>
      </trkpt>
      <trkpt lat="30.52257871166789" lon="114.39326494527461">
        <ele>28.915283203125</ele>
        <time>2022-05-02T12:02:46Z</time>
      </trkpt>
      <trkpt lat="30.522674714461328" lon="114.39323617378527">
        <ele>28.78448486328125</ele>
        <time>2022-05-02T12:02:49Z</time>
      </trkpt>
      <trkpt lat="30.522762584875842" lon="114.39318813724664">
        <ele>29.65374755859375</ele>
        <time>2022-05-02T12:02:52Z</time>
      </trkpt>
      <trkpt lat="30.522809494717922" lon="114.39321716752848">
        <ele>27.59814453125</ele>
        <time>2022-05-02T12:02:55Z</time>
      </trkpt>
      <trkpt lat="30.52288461519105" lon="114.39319708110604">
        <ele>28.36663818359375</ele>
        <time>2022-05-02T12:02:58Z</time>
      </trkpt>
      <trkpt lat="30.522976807999697" lon="114.39325405647769">
        <ele>28.3953857421875</ele>
        <time>2022-05-02T12:03:01Z</time>
      </trkpt>
      <trkpt lat="30.5230416236562" lon="114.39323315687064">
        <ele>29.67523193359375</ele>
        <time>2022-05-02T12:03:04Z</time>
      </trkpt>
      <trkpt lat="30.52320080118498" lon="114.39327194601123">
        <ele>30.9981689453125</ele>
        <time>2022-05-02T12:03:10Z</time>
      </trkpt>
      <trkpt lat="30.523444605875028" lon="114.39319187652761">
        <ele>27.843505859375</ele>
        <time>2022-05-02T12:03:19Z</time>
      </trkpt>
      <trkpt lat="30.523585635931624" lon="114.39309390736526">
        <ele>25.38726806640625</ele>
        <time>2022-05-02T12:03:25Z</time>
      </trkpt>
      <trkpt lat="30.52361466647749" lon="114.39300788771209">
        <ele>27.45233154296875</ele>
        <time>2022-05-02T12:03:28Z</time>
      </trkpt>
      <trkpt lat="30.523676506200747" lon="114.39294601532852">
        <ele>28.74920654296875</ele>
        <time>2022-05-02T12:03:31Z</time>
      </trkpt>
      <trkpt lat="30.523713672218545" lon="114.39286298037335">
        <ele>31.22930908203125</ele>
        <time>2022-05-02T12:03:34Z</time>
      </trkpt>
      <trkpt lat="30.52366925089248" lon="114.39256966249495">
        <ele>33.90399169921875</ele>
        <time>2022-05-02T12:03:46Z</time>
      </trkpt>
      <trkpt lat="30.523604461035536" lon="114.39244973575714">
        <ele>32.33441162109375</ele>
        <time>2022-05-02T12:03:52Z</time>
      </trkpt>
      <trkpt lat="30.52352935259854" lon="114.39240361466014">
        <ele>35.9495849609375</ele>
        <time>2022-05-02T12:03:55Z</time>
      </trkpt>
      <trkpt lat="30.523420635140152" lon="114.39226876917503">
        <ele>35.64910888671875</ele>
        <time>2022-05-02T12:04:01Z</time>
      </trkpt>
      <trkpt lat="30.52335555556941" lon="114.39224869592586">
        <ele>34.5018310546875</ele>
        <time>2022-05-02T12:04:04Z</time>
      </trkpt>
      <trkpt lat="30.523216435475767" lon="114.39226878702233">
        <ele>31.8387451171875</ele>
        <time>2022-05-02T12:04:10Z</time>
      </trkpt>
      <trkpt lat="30.523158396739742" lon="114.39229863919968">
        <ele>31.856201171875</ele>
        <time>2022-05-02T12:04:13Z</time>
      </trkpt>
      <trkpt lat="30.522940362024123" lon="114.39232280730846">
        <ele>33.36175537109375</ele>
        <time>2022-05-02T12:04:22Z</time>
      </trkpt>
      <trkpt lat="30.52289128187757" lon="114.39230381795889">
        <ele>30.9359130859375</ele>
        <time>2022-05-02T12:04:25Z</time>
      </trkpt>
      <trkpt lat="30.522758395819416" lon="114.3923399175023">
        <ele>32.424560546875</ele>
        <time>2022-05-02T12:04:31Z</time>
      </trkpt>
      <trkpt lat="30.52270633701685" lon="114.3922986787096">
        <ele>34.5093994140625</ele>
        <time>2022-05-02T12:04:34Z</time>
      </trkpt>
      <trkpt lat="30.522647486655128" lon="114.39231876283854">
        <ele>34.9068603515625</ele>
        <time>2022-05-02T12:04:37Z</time>
      </trkpt>
      <trkpt lat="30.52252139052199" lon="114.3923016795865">
        <ele>31.7000732421875</ele>
        <time>2022-05-02T12:04:43Z</time>
      </trkpt>
      <trkpt lat="30.522389594817657" lon="114.39230874588266">
        <ele>32.1085205078125</ele>
        <time>2022-05-02T12:04:49Z</time>
      </trkpt>
      <trkpt lat="30.522238262338043" lon="114.39237577961447">
        <ele>28.94720458984375</ele>
        <time>2022-05-02T12:04:58Z</time>
      </trkpt>
      <trkpt lat="30.52213356098817" lon="114.39250793104432">
        <ele>30.08221435546875</ele>
        <time>2022-05-02T12:05:04Z</time>
      </trkpt>
      <trkpt lat="30.522130564954715" lon="114.39257793720816">
        <ele>28.64068603515625</ele>
        <time>2022-05-02T12:05:07Z</time>
      </trkpt>
      <trkpt lat="30.522103705674244" lon="114.39264496093142">
        <ele>28.4095458984375</ele>
        <time>2022-05-02T12:05:10Z</time>
      </trkpt>
      <trkpt lat="30.522064543831632" lon="114.39268478182584">
        <ele>26.16650390625</ele>
        <time>2022-05-02T12:05:13Z</time>
      </trkpt>
      <trkpt lat="30.522125623702543" lon="114.39291603149027">
        <ele>20.30792236328125</ele>
        <time>2022-05-02T12:05:22Z</time>
      </trkpt>
      <trkpt lat="30.522163576354114" lon="114.39299200507978">
        <ele>20.4527587890625</ele>
        <time>2022-05-02T12:05:25Z</time>
      </trkpt>
      <trkpt lat="30.522420613781776" lon="114.39325817533845">
        <ele>21.216552734375</ele>
        <time>2022-05-02T12:05:40Z</time>
      </trkpt>
      <trkpt lat="30.52262345614138" lon="114.39326819756651">
        <ele>25.2955322265625</ele>
        <time>2022-05-02T12:05:46Z</time>
      </trkpt>
      <trkpt lat="30.52270643421146" lon="114.39329098374574">
        <ele>25.6981201171875</ele>
        <time>2022-05-02T12:05:49Z</time>
      </trkpt>
      <trkpt lat="30.52286481016766" lon="114.39325298086595">
        <ele>27.027099609375</ele>
        <time>2022-05-02T12:05:52Z</time>
      </trkpt>
      <trkpt lat="30.52296568551692" lon="114.39328010706978">
        <ele>27.583740234375</ele>
        <time>2022-05-02T12:05:55Z</time>
      </trkpt>
      <trkpt lat="30.52306683624421" lon="114.39328009822938">
        <ele>29.35015869140625</ele>
        <time>2022-05-02T12:05:58Z</time>
      </trkpt>
      <trkpt lat="30.52316879637266" lon="114.39330695302328">
        <ele>31.6390380859375</ele>
        <time>2022-05-02T12:06:01Z</time>
      </trkpt>
      <trkpt lat="30.523245541201373" lon="114.39330396145802">
        <ele>31.3277587890625</ele>
        <time>2022-05-02T12:06:04Z</time>
      </trkpt>
      <trkpt lat="30.523315510040092" lon="114.39327790569264">
        <ele>31.344482421875</ele>
        <time>2022-05-02T12:06:07Z</time>
      </trkpt>
      <trkpt lat="30.523387644902204" lon="114.39327410048352">
        <ele>28.526611328125</ele>
        <time>2022-05-02T12:06:10Z</time>
      </trkpt>
      <trkpt lat="30.523456535459534" lon="114.3932070710469">
        <ele>28.88665771484375</ele>
        <time>2022-05-02T12:06:13Z</time>
      </trkpt>
      <trkpt lat="30.52350970271104" lon="114.39310883814358">
        <ele>29.42523193359375</ele>
        <time>2022-05-02T12:06:16Z</time>
      </trkpt>
      <trkpt lat="30.523553631037636" lon="114.39312782868204">
        <ele>30.6895751953125</ele>
        <time>2022-05-02T12:06:19Z</time>
      </trkpt>
      <trkpt lat="30.52358646877102" lon="114.3929769566641">
        <ele>30.7716064453125</ele>
        <time>2022-05-02T12:06:22Z</time>
      </trkpt>
      <trkpt lat="30.523661607311766" lon="114.39285185978589">
        <ele>35.0496826171875</ele>
        <time>2022-05-02T12:06:28Z</time>
      </trkpt>
      <trkpt lat="30.523697702813443" lon="114.39269094981613">
        <ele>36.54278564453125</ele>
        <time>2022-05-02T12:06:34Z</time>
      </trkpt>
      <trkpt lat="30.523592527352005" lon="114.3924586910052">
        <ele>33.2503662109375</ele>
        <time>2022-05-02T12:06:43Z</time>
      </trkpt>
      <trkpt lat="30.523505489779698" lon="114.39239764729119">
        <ele>33.72564697265625</ele>
        <time>2022-05-02T12:06:49Z</time>
      </trkpt>
      <trkpt lat="30.523465366117552" lon="114.39233985571286">
        <ele>34.54248046875</ele>
        <time>2022-05-02T12:06:52Z</time>
      </trkpt>
      <trkpt lat="30.523404627945204" lon="114.39230675780576">
        <ele>34.36346435546875</ele>
        <time>2022-05-02T12:06:55Z</time>
      </trkpt>
      <trkpt lat="30.52326551520358" lon="114.39228967570153">
        <ele>36.57373046875</ele>
        <time>2022-05-02T12:07:01Z</time>
      </trkpt>
      <trkpt lat="30.52318171324342" lon="114.39232468557918">
        <ele>37.99383544921875</ele>
        <time>2022-05-02T12:07:04Z</time>
      </trkpt>
      <trkpt lat="30.523114465116464" lon="114.3922997283894">
        <ele>37.55352783203125</ele>
        <time>2022-05-02T12:07:07Z</time>
      </trkpt>
      <trkpt lat="30.52284246838768" lon="114.39230789228924">
        <ele>34.904052734375</ele>
        <time>2022-05-02T12:07:19Z</time>
      </trkpt>
      <trkpt lat="30.522764372455075" lon="114.39228564944094">
        <ele>33.9146728515625</ele>
        <time>2022-05-02T12:07:22Z</time>
      </trkpt>
      <trkpt lat="30.52266837393492" lon="114.3922867431805">
        <ele>36.21661376953125</ele>
        <time>2022-05-02T12:07:28Z</time>
      </trkpt>
      <trkpt lat="30.522359484848508" lon="114.39235379061162">
        <ele>35.9769287109375</ele>
        <time>2022-05-02T12:07:40Z</time>
      </trkpt>
      <trkpt lat="30.522273514973183" lon="114.39238093196597">
        <ele>37.5306396484375</ele>
        <time>2022-05-02T12:07:43Z</time>
      </trkpt>
      <trkpt lat="30.522159584169174" lon="114.39256301091335">
        <ele>33.4541015625</ele>
        <time>2022-05-02T12:07:49Z</time>
      </trkpt>
      <trkpt lat="30.52211264492067" lon="114.39269895728684">
        <ele>33.07366943359375</ele>
        <time>2022-05-02T12:07:52Z</time>
      </trkpt>
      <trkpt lat="30.522098520125382" lon="114.39283110286192">
        <ele>29.36566162109375</ele>
        <time>2022-05-02T12:07:55Z</time>
      </trkpt>
      <trkpt lat="30.52219041275537" lon="114.39305604062955">
        <ele>24.123291015625</ele>
        <time>2022-05-02T12:08:01Z</time>
      </trkpt>
      <trkpt lat="30.522294800573803" lon="114.39316212862558">
        <ele>23.78375244140625</ele>
        <time>2022-05-02T12:08:04Z</time>
      </trkpt>
      <trkpt lat="30.522524754136334" lon="114.3932161070158">
        <ele>23.281982421875</ele>
        <time>2022-05-02T12:08:10Z</time>
      </trkpt>
      <trkpt lat="30.522605572155552" lon="114.3931789250994">
        <ele>22.544189453125</ele>
        <time>2022-05-02T12:08:13Z</time>
      </trkpt>
      <trkpt lat="30.522661697741242" lon="114.39323617492289">
        <ele>26.38348388671875</ele>
        <time>2022-05-02T12:08:16Z</time>
      </trkpt>
      <trkpt lat="30.52275065228202" lon="114.39319193717826">
        <ele>27.666015625</ele>
        <time>2022-05-02T12:08:22Z</time>
      </trkpt>
      <trkpt lat="30.5228076000827" lon="114.39319410299503">
        <ele>27.27911376953125</ele>
        <time>2022-05-02T12:08:25Z</time>
      </trkpt>
      <trkpt lat="30.522890585317437" lon="114.39317103106904">
        <ele>24.20501708984375</ele>
        <time>2022-05-02T12:08:28Z</time>
      </trkpt>
      <trkpt lat="30.523028613259207" lon="114.39319299828195">
        <ele>26.09454345703125</ele>
        <time>2022-05-02T12:08:34Z</time>
      </trkpt>
      <trkpt lat="30.52313762179921" lon="114.39323396252982">
        <ele>27.46832275390625</ele>
        <time>2022-05-02T12:08:40Z</time>
      </trkpt>
      <trkpt lat="30.52341368990149" lon="114.39320001970788">
        <ele>26.87237548828125</ele>
        <time>2022-05-02T12:08:52Z</time>
      </trkpt>
      <trkpt lat="30.52357751363199" lon="114.39301386058983">
        <ele>29.6690673828125</ele>
        <time>2022-05-02T12:09:01Z</time>
      </trkpt>
      <trkpt lat="30.52363448659595" lon="114.39286678612328">
        <ele>29.3050537109375</ele>
        <time>2022-05-02T12:09:07Z</time>
      </trkpt>
      <trkpt lat="30.52365457571015" lon="114.39274278009593">
        <ele>30.2122802734375</ele>
        <time>2022-05-02T12:09:10Z</time>
      </trkpt>
      <trkpt lat="30.523643485852787" lon="114.39258485985167">
        <ele>29.74481201171875</ele>
        <time>2022-05-02T12:09:13Z</time>
      </trkpt>
      <trkpt lat="30.523571377108674" lon="114.39244865329081">
        <ele>29.0391845703125</ele>
        <time>2022-05-02T12:09:16Z</time>
      </trkpt>
      <trkpt lat="30.52347160583293" lon="114.39232683094517">
        <ele>27.532958984375</ele>
        <time>2022-05-02T12:09:19Z</time>
      </trkpt>
      <trkpt lat="30.523336557089664" lon="114.39232874211388">
        <ele>28.22845458984375</ele>
        <time>2022-05-02T12:09:22Z</time>
      </trkpt>
      <trkpt lat="30.5230892531086" lon="114.3922598440151">
        <ele>29.24114990234375</ele>
        <time>2022-05-02T12:09:28Z</time>
      </trkpt>
      <trkpt lat="30.522973456803786" lon="114.39226880825876">
        <ele>28.81341552734375</ele>
        <time>2022-05-02T12:09:31Z</time>
      </trkpt>
      <trkpt lat="30.522872309834362" lon="114.39224982350925">
        <ele>29.576171875</ele>
        <time>2022-05-02T12:09:34Z</time>
      </trkpt>
      <trkpt lat="30.522736444660364" lon="114.3922658442654">
        <ele>32.2279052734375</ele>
        <time>2022-05-02T12:09:37Z</time>
      </trkpt>
      <trkpt lat="30.522651571380464" lon="114.39223274858571">
        <ele>32.65875244140625</ele>
        <time>2022-05-02T12:09:40Z</time>
      </trkpt>
      <trkpt lat="30.522427307528055" lon="114.3922156739842">
        <ele>27.79132080078125</ele>
        <time>2022-05-02T12:09:55Z</time>
      </trkpt>
      <trkpt lat="30.52233537112111" lon="114.39224471503704">
        <ele>25.1072998046875</ele>
        <time>2022-05-02T12:10:04Z</time>
      </trkpt>
    </trkseg>
  </trk>
</gpx>