<?xml version="1.0" encoding="UTF-8"?>
<gpx xmlns="http://www.topografix.com/GPX/1/1" xmlns:gpxtpx="http://www.garmin.com/xmlschemas/TrackPointExtension/v1" xmlns:xsi="http://www.w3.org/2001/XMLSchema-instance" xsi:schemaLocation="http://www.topografix.com/GPX/1/1 http://www.topografix.com/GPX/1/1/gpx.xsd" version="1.1" creator="gpx.py -- https://github.com/tkrajina/gpxpy">
  <trk>
    <name>gpx from keep</name>
    <type>Run</type>
    <trkseg>
      <trkpt lat="31.10699186938107" lon="121.38313553824548">
        <ele>-0.360809326171875</ele>
        <time>2024-06-14T09:06:30Z</time>
      </trkpt>
      <trkpt lat="31.106979842316594" lon="121.38319050029281">
        <ele>-6.369384765625</ele>
        <time>2024-06-14T09:06:33Z</time>
      </trkpt>
      <trkpt lat="31.107067746652632" lon="121.38326743830999">
        <ele>12.7266845703125</ele>
        <time>2024-06-14T09:06:45Z</time>
      </trkpt>
      <trkpt lat="31.107277573461484" lon="121.38336135412574">
        <ele>16.3656005859375</ele>
        <time>2024-06-14T09:06:51Z</time>
      </trkpt>
      <trkpt lat="31.107399484844578" lon="121.38339631908762">
        <ele>18.590576171875</ele>
        <time>2024-06-14T09:06:54Z</time>
      </trkpt>
      <trkpt lat="31.107547495200443" lon="121.38324441289066">
        <ele>13.69378662109375</ele>
        <time>2024-06-14T09:07:03Z</time>
      </trkpt>
      <trkpt lat="31.107586588933383" lon="121.38305654290603">
        <ele>17.55633544921875</ele>
        <time>2024-06-14T09:07:09Z</time>
      </trkpt>
      <trkpt lat="31.107648656998858" lon="121.38289165597477">
        <ele>17.98028564453125</ele>
        <time>2024-06-14T09:07:15Z</time>
      </trkpt>
      <trkpt lat="31.107663702475637" lon="121.38280571691526">
        <ele>16.79217529296875</ele>
        <time>2024-06-14T09:07:18Z</time>
      </trkpt>
      <trkpt lat="31.10765781104004" lon="121.38263883928869">
        <ele>14.82037353515625</ele>
        <time>2024-06-14T09:07:24Z</time>
      </trkpt>
      <trkpt lat="31.10755401272106" lon="121.38241301528615">
        <ele>16.32208251953125</ele>
        <time>2024-06-14T09:07:33Z</time>
      </trkpt>
      <trkpt lat="31.107673040608827" lon="121.38216024782048">
        <ele>14.9718017578125</ele>
        <time>2024-06-14T09:07:42Z</time>
      </trkpt>
      <trkpt lat="31.107788301203758" lon="121.38177547922214">
        <ele>16.67987060546875</ele>
        <time>2024-06-14T09:07:54Z</time>
      </trkpt>
      <trkpt lat="31.107836411994963" lon="121.38158462851149">
        <ele>15.32867431640625</ele>
        <time>2024-06-14T09:08:00Z</time>
      </trkpt>
      <trkpt lat="31.107856278099966" lon="121.38122772142624">
        <ele>12.430419921875</ele>
        <time>2024-06-14T09:08:12Z</time>
      </trkpt>
      <trkpt lat="31.10781024646089" lon="121.38114374169437">
        <ele>10.356658935546875</ele>
        <time>2024-06-14T09:08:15Z</time>
      </trkpt>
      <trkpt lat="31.107649701985885" lon="121.38108783153024">
        <ele>13.09515380859375</ele>
        <time>2024-06-14T09:08:21Z</time>
      </trkpt>
      <trkpt lat="31.107547700762524" lon="121.38109631975014">
        <ele>16.6180419921875</ele>
        <time>2024-06-14T09:08:24Z</time>
      </trkpt>
      <trkpt lat="31.10741797960184" lon="121.38108106034426">
        <ele>19.603515625</ele>
        <time>2024-06-14T09:08:27Z</time>
      </trkpt>
      <trkpt lat="31.107136570956207" lon="121.38096631888568">
        <ele>15.985595703125</ele>
        <time>2024-06-14T09:08:36Z</time>
      </trkpt>
      <trkpt lat="31.107045137188905" lon="121.38093653196728">
        <ele>16.799560546875</ele>
        <time>2024-06-14T09:08:39Z</time>
      </trkpt>
      <trkpt lat="31.106947320990347" lon="121.38094800317504">
        <ele>18.77703857421875</ele>
        <time>2024-06-14T09:08:42Z</time>
      </trkpt>
      <trkpt lat="31.10688238138712" lon="121.38093022902808">
        <ele>19.45416259765625</ele>
        <time>2024-06-14T09:08:45Z</time>
      </trkpt>
      <trkpt lat="31.106740274692395" lon="121.38095807582167">
        <ele>15.9482421875</ele>
        <time>2024-06-14T09:08:54Z</time>
      </trkpt>
      <trkpt lat="31.10670148223781" lon="121.38092924553297">
        <ele>17.18212890625</ele>
        <time>2024-06-14T09:08:57Z</time>
      </trkpt>
      <trkpt lat="31.10656949938047" lon="121.38100919209406">
        <ele>14.64569091796875</ele>
        <time>2024-06-14T09:09:03Z</time>
      </trkpt>
      <trkpt lat="31.10651851853737" lon="121.38105592351442">
        <ele>15.98529052734375</ele>
        <time>2024-06-14T09:09:06Z</time>
      </trkpt>
      <trkpt lat="31.106434294885116" lon="121.38141387985073">
        <ele>16.18878173828125</ele>
        <time>2024-06-14T09:09:21Z</time>
      </trkpt>
      <trkpt lat="31.106464600661937" lon="121.38153621756334">
        <ele>15.412353515625</ele>
        <time>2024-06-14T09:09:24Z</time>
      </trkpt>
      <trkpt lat="31.106435697332607" lon="121.38172164793706">
        <ele>13.091796875</ele>
        <time>2024-06-14T09:09:30Z</time>
      </trkpt>
      <trkpt lat="31.106423025332166" lon="121.38206199457534">
        <ele>15.09423828125</ele>
        <time>2024-06-14T09:09:39Z</time>
      </trkpt>
      <trkpt lat="31.10642373264632" lon="121.38215833560092">
        <ele>15.36871337890625</ele>
        <time>2024-06-14T09:09:42Z</time>
      </trkpt>
      <trkpt lat="31.106369699821" lon="121.38236415455557">
        <ele>17.67889404296875</ele>
        <time>2024-06-14T09:09:48Z</time>
      </trkpt>
      <trkpt lat="31.106323663608737" lon="121.382460087105">
        <ele>17.07159423828125</ele>
        <time>2024-06-14T09:09:51Z</time>
      </trkpt>
      <trkpt lat="31.106234527888123" lon="121.38277086217472">
        <ele>17.9254150390625</ele>
        <time>2024-06-14T09:10:00Z</time>
      </trkpt>
      <trkpt lat="31.10623523259133" lon="121.38285498260426">
        <ele>18.9854736328125</ele>
        <time>2024-06-14T09:10:03Z</time>
      </trkpt>
      <trkpt lat="31.106283222772895" lon="121.382950002848">
        <ele>19.207763671875</ele>
        <time>2024-06-14T09:10:06Z</time>
      </trkpt>
      <trkpt lat="31.10634630576638" lon="121.38300768556147">
        <ele>19.38287353515625</ele>
        <time>2024-06-14T09:10:09Z</time>
      </trkpt>
      <trkpt lat="31.106405263209677" lon="121.38302366899109">
        <ele>20.334716796875</ele>
        <time>2024-06-14T09:10:12Z</time>
      </trkpt>
      <trkpt lat="31.106514233845296" lon="121.3829825977164">
        <ele>21.59356689453125</ele>
        <time>2024-06-14T09:10:15Z</time>
      </trkpt>
      <trkpt lat="31.106633228668713" lon="121.38296319092808">
        <ele>21.7335205078125</ele>
        <time>2024-06-14T09:10:18Z</time>
      </trkpt>
      <trkpt lat="31.106852048043603" lon="121.38297166750013">
        <ele>23.236083984375</ele>
        <time>2024-06-14T09:10:24Z</time>
      </trkpt>
      <trkpt lat="31.106994945383803" lon="121.38300962785117">
        <ele>21.8240966796875</ele>
        <time>2024-06-14T09:10:30Z</time>
      </trkpt>
      <trkpt lat="31.107041894660682" lon="121.38304959516589">
        <ele>23.20465087890625</ele>
        <time>2024-06-14T09:10:33Z</time>
      </trkpt>
      <trkpt lat="31.107108742250063" lon="121.38323745589737">
        <ele>17.25640869140625</ele>
        <time>2024-06-14T09:10:43Z</time>
      </trkpt>
      <trkpt lat="31.107212616673294" lon="121.38334936816148">
        <ele>16.58575439453125</ele>
        <time>2024-06-14T09:10:48Z</time>
      </trkpt>
      <trkpt lat="31.10727356177135" lon="121.38338433839355">
        <ele>17.69879150390625</ele>
        <time>2024-06-14T09:10:51Z</time>
      </trkpt>
      <trkpt lat="31.107351526489357" lon="121.3833713407145">
        <ele>16.0765380859375</ele>
        <time>2024-06-14T09:10:54Z</time>
      </trkpt>
      <trkpt lat="31.107409488976018" lon="121.38338032939419">
        <ele>19.3441162109375</ele>
        <time>2024-06-14T09:10:57Z</time>
      </trkpt>
      <trkpt lat="31.107485459041285" lon="121.38336033678763">
        <ele>20.297119140625</ele>
        <time>2024-06-14T09:11:00Z</time>
      </trkpt>
      <trkpt lat="31.107594456422078" lon="121.38326539401726">
        <ele>20.81439208984375</ele>
        <time>2024-06-14T09:11:06Z</time>
      </trkpt>
      <trkpt lat="31.107651645991773" lon="121.38290664489409">
        <ele>19.78564453125</ele>
        <time>2024-06-14T09:11:21Z</time>
      </trkpt>
      <trkpt lat="31.107663742050416" lon="121.38274276273047">
        <ele>15.8201904296875</ele>
        <time>2024-06-14T09:11:27Z</time>
      </trkpt>
      <trkpt lat="31.10762380010578" lon="121.38268580781103">
        <ele>17.816650390625</ele>
        <time>2024-06-14T09:11:30Z</time>
      </trkpt>
      <trkpt lat="31.10759986022603" lon="121.38261186414145">
        <ele>15.84356689453125</ele>
        <time>2024-06-14T09:11:33Z</time>
      </trkpt>
      <trkpt lat="31.107560919297992" lon="121.3825529109595">
        <ele>15.209228515625</ele>
        <time>2024-06-14T09:11:36Z</time>
      </trkpt>
      <trkpt lat="31.107534989874026" lon="121.38246497830244">
        <ele>15.1815185546875</ele>
        <time>2024-06-14T09:11:39Z</time>
      </trkpt>
      <trkpt lat="31.107591125435498" lon="121.38220716635634">
        <ele>11.695037841796875</ele>
        <time>2024-06-14T09:11:45Z</time>
      </trkpt>
      <trkpt lat="31.10759518389115" lon="121.38211423630712">
        <ele>10.564605712890625</ele>
        <time>2024-06-14T09:11:48Z</time>
      </trkpt>
      <trkpt lat="31.107675238226427" lon="121.38196434360133">
        <ele>7.554107666015625</ele>
        <time>2024-06-14T09:11:54Z</time>
      </trkpt>
      <trkpt lat="31.107711476820416" lon="121.38182304237014">
        <ele>6.185638427734375</ele>
        <time>2024-06-14T09:12:00Z</time>
      </trkpt>
      <trkpt lat="31.107797124078445" lon="121.38166819846657">
        <ele>4.8402099609375</ele>
        <time>2024-06-14T09:12:06Z</time>
      </trkpt>
      <trkpt lat="31.107890661421937" lon="121.38132405630714">
        <ele>0.587860107421875</ele>
        <time>2024-06-14T09:12:18Z</time>
      </trkpt>
      <trkpt lat="31.107864618971234" lon="121.3812004550742">
        <ele>-0.2880859375</ele>
        <time>2024-06-14T09:12:24Z</time>
      </trkpt>
      <trkpt lat="31.107806723623728" lon="121.38113997915008">
        <ele>0.35546875</ele>
        <time>2024-06-14T09:12:28Z</time>
      </trkpt>
      <trkpt lat="31.10763086182808" lon="121.38108104187714">
        <ele>6.640716552734375</ele>
        <time>2024-06-14T09:12:36Z</time>
      </trkpt>
      <trkpt lat="31.10756188124054" lon="121.3811080261171">
        <ele>9.84088134765625</ele>
        <time>2024-06-14T09:12:40Z</time>
      </trkpt>
      <trkpt lat="31.10746393820219" lon="121.38110403783271">
        <ele>11.86383056640625</ele>
        <time>2024-06-14T09:12:42Z</time>
      </trkpt>
      <trkpt lat="31.10719516977993" lon="121.38098515725561">
        <ele>13.4874267578125</ele>
        <time>2024-06-14T09:12:52Z</time>
      </trkpt>
      <trkpt lat="31.107034261629554" lon="121.38098117445554">
        <ele>13.83001708984375</ele>
        <time>2024-06-14T09:12:58Z</time>
      </trkpt>
      <trkpt lat="31.106805339533253" lon="121.38105113768788">
        <ele>16.12408447265625</ele>
        <time>2024-06-14T09:13:07Z</time>
      </trkpt>
      <trkpt lat="31.106721409687577" lon="121.38101717244406">
        <ele>9.86492919921875</ele>
        <time>2024-06-14T09:13:13Z</time>
      </trkpt>
      <trkpt lat="31.106670439303333" lon="121.38101517848335">
        <ele>6.57080078125</ele>
        <time>2024-06-14T09:13:19Z</time>
      </trkpt>
      <trkpt lat="31.106487467605064" lon="121.38112010966589">
        <ele>-0.20245361328125</ele>
        <time>2024-06-14T09:13:34Z</time>
      </trkpt>
      <trkpt lat="31.106454301557523" lon="121.38118439751416">
        <ele>4.2637939453125</ele>
        <time>2024-06-14T09:13:46Z</time>
      </trkpt>
      <trkpt lat="31.10647382867501" lon="121.3814194811751">
        <ele>5.379241943359375</ele>
        <time>2024-06-14T09:13:58Z</time>
      </trkpt>
      <trkpt lat="31.106499120192268" lon="121.38151106344253">
        <ele>5.77972412109375</ele>
        <time>2024-06-14T09:14:01Z</time>
      </trkpt>
      <trkpt lat="31.106486164986016" lon="121.38180620265122">
        <ele>11.28302001953125</ele>
        <time>2024-06-14T09:14:07Z</time>
      </trkpt>
      <trkpt lat="31.106415926659476" lon="121.38197744291057">
        <ele>14.7679443359375</ele>
        <time>2024-06-14T09:14:10Z</time>
      </trkpt>
      <trkpt lat="31.106336750354387" lon="121.38231419479507">
        <ele>13.32781982421875</ele>
        <time>2024-06-14T09:14:19Z</time>
      </trkpt>
      <trkpt lat="31.106263641880417" lon="121.38254602867529">
        <ele>11.97601318359375</ele>
        <time>2024-06-14T09:14:28Z</time>
      </trkpt>
      <trkpt lat="31.10624257353409" lon="121.3826719378917">
        <ele>16.01934814453125</ele>
        <time>2024-06-14T09:14:31Z</time>
      </trkpt>
      <trkpt lat="31.106244522605028" lon="121.38275088003546">
        <ele>11.986785888671875</ele>
        <time>2024-06-14T09:14:34Z</time>
      </trkpt>
      <trkpt lat="31.106300211028255" lon="121.38289505116991">
        <ele>8.1983642578125</ele>
        <time>2024-06-14T09:14:40Z</time>
      </trkpt>
      <trkpt lat="31.10637370116988" lon="121.38297884834904">
        <ele>9.34527587890625</ele>
        <time>2024-06-14T09:14:43Z</time>
      </trkpt>
      <trkpt lat="31.106443248361277" lon="121.38301367285347">
        <ele>8.209747314453125</ele>
        <time>2024-06-14T09:14:46Z</time>
      </trkpt>
      <trkpt lat="31.106658418606273" lon="121.382995194509">
        <ele>11.37725830078125</ele>
        <time>2024-06-14T09:14:58Z</time>
      </trkpt>
      <trkpt lat="31.10661128602843" lon="121.38295415067692">
        <ele>10.62744140625</ele>
        <time>2024-06-14T09:15:01Z</time>
      </trkpt>
      <trkpt lat="31.106702401664826" lon="121.38298667125363">
        <ele>11.76507568359375</ele>
        <time>2024-06-14T09:15:07Z</time>
      </trkpt>
      <trkpt lat="31.106766051681927" lon="121.3830426241007">
        <ele>10.116302490234375</ele>
        <time>2024-06-14T09:15:13Z</time>
      </trkpt>
      <trkpt lat="31.106862991837687" lon="121.38305260854536">
        <ele>12.4959716796875</ele>
        <time>2024-06-14T09:15:19Z</time>
      </trkpt>
      <trkpt lat="31.10696588683462" lon="121.38313054405201">
        <ele>9.117279052734375</ele>
        <time>2024-06-14T09:15:25Z</time>
      </trkpt>
      <trkpt lat="31.10704475207491" lon="121.38327943185925">
        <ele>10.953155517578125</ele>
        <time>2024-06-14T09:15:31Z</time>
      </trkpt>
      <trkpt lat="31.107211588817183" lon="121.383396335391">
        <ele>11.307586669921875</ele>
        <time>2024-06-14T09:15:37Z</time>
      </trkpt>
      <trkpt lat="31.107332506820963" lon="121.38342130746304">
        <ele>11.93243408203125</ele>
        <time>2024-06-14T09:15:46Z</time>
      </trkpt>
      <trkpt lat="31.107332506820963" lon="121.38342130746304">
        <ele>11.93243408203125</ele>
        <time>2024-06-14T09:15:52Z</time>
      </trkpt>
      <trkpt lat="31.107420481080872" lon="121.38338332634427">
        <ele>14.160400390625</ele>
        <time>2024-06-14T09:19:43Z</time>
      </trkpt>
      <trkpt lat="31.1074834377913" lon="121.38339731110514">
        <ele>15.147705078125</ele>
        <time>2024-06-14T09:19:49Z</time>
      </trkpt>
      <trkpt lat="31.107554439055296" lon="121.38333035181553">
        <ele>12.5352783203125</ele>
        <time>2024-06-14T09:19:55Z</time>
      </trkpt>
      <trkpt lat="31.10758647912465" lon="121.38323541585679">
        <ele>10.68023681640625</ele>
        <time>2024-06-14T09:20:01Z</time>
      </trkpt>
      <trkpt lat="31.107602642881467" lon="121.3830477274382">
        <ele>12.62469482421875</ele>
        <time>2024-06-14T09:20:07Z</time>
      </trkpt>
      <trkpt lat="31.10764762766785" lon="121.38293962147294">
        <ele>13.81817626953125</ele>
        <time>2024-06-14T09:20:10Z</time>
      </trkpt>
      <trkpt lat="31.107661731204377" lon="121.38276174906706">
        <ele>7.580718994140625</ele>
        <time>2024-06-14T09:20:16Z</time>
      </trkpt>
      <trkpt lat="31.107623868555393" lon="121.38257788707149">
        <ele>1.631195068359375</ele>
        <time>2024-06-14T09:20:22Z</time>
      </trkpt>
      <trkpt lat="31.10758994602493" lon="121.3824859579679">
        <ele>-1.13641357421875</ele>
        <time>2024-06-14T09:20:28Z</time>
      </trkpt>
      <trkpt lat="31.10755499547861" lon="121.38243899586803">
        <ele>-1.172149658203125</ele>
        <time>2024-06-14T09:20:31Z</time>
      </trkpt>
      <trkpt lat="31.10754006423716" lon="121.38234506720826">
        <ele>1.26727294921875</ele>
        <time>2024-06-14T09:20:37Z</time>
      </trkpt>
      <trkpt lat="31.107570125993362" lon="121.38222415537068">
        <ele>1.876708984375</ele>
        <time>2024-06-14T09:20:43Z</time>
      </trkpt>
      <trkpt lat="31.107673193882786" lon="121.3820332910986">
        <ele>-0.0841064453125</ele>
        <time>2024-06-14T09:20:49Z</time>
      </trkpt>
      <trkpt lat="31.10779850208881" lon="121.38167612982701">
        <ele>1.87646484375</ele>
        <time>2024-06-14T09:20:58Z</time>
      </trkpt>
      <trkpt lat="31.107845424913585" lon="121.38154465426254">
        <ele>-0.155792236328125</ele>
        <time>2024-06-14T09:21:01Z</time>
      </trkpt>
      <trkpt lat="31.10784946947" lon="121.38147570815569">
        <ele>-1.919158935546875</ele>
        <time>2024-06-14T09:21:04Z</time>
      </trkpt>
      <trkpt lat="31.107884610676955" lon="121.38135578303438">
        <ele>-1.503021240234375</ele>
        <time>2024-06-14T09:21:07Z</time>
      </trkpt>
      <trkpt lat="31.1078892253239" lon="121.38115868876244">
        <ele>-3.424835205078125</ele>
        <time>2024-06-14T09:21:13Z</time>
      </trkpt>
      <trkpt lat="31.107844743525675" lon="121.38108102332316">
        <ele>-3.892822265625</ele>
        <time>2024-06-14T09:21:16Z</time>
      </trkpt>
      <trkpt lat="31.107719864820062" lon="121.38100609473227">
        <ele>-2.621002197265625</ele>
        <time>2024-06-14T09:21:25Z</time>
      </trkpt>
      <trkpt lat="31.10759495975735" lon="121.38096913554693">
        <ele>-1.475433349609375</ele>
        <time>2024-06-14T09:21:34Z</time>
      </trkpt>
      <trkpt lat="31.107263155931552" lon="121.3809511789371">
        <ele>4.849884033203125</ele>
        <time>2024-06-14T09:21:43Z</time>
      </trkpt>
      <trkpt lat="31.107078262455886" lon="121.3809451998482">
        <ele>3.010101318359375</ele>
        <time>2024-06-14T09:21:49Z</time>
      </trkpt>
      <trkpt lat="31.106989327093682" lon="121.38092322544247">
        <ele>3.7257080078125</ele>
        <time>2024-06-14T09:21:52Z</time>
      </trkpt>
      <trkpt lat="31.106677486417105" lon="121.38094223705019">
        <ele>4.026275634765625</ele>
        <time>2024-06-14T09:22:04Z</time>
      </trkpt>
      <trkpt lat="31.106562484442197" lon="121.38103617086941">
        <ele>-0.601165771484375</ele>
        <time>2024-06-14T09:22:10Z</time>
      </trkpt>
      <trkpt lat="31.10652145225247" lon="121.38111511073919">
        <ele>-0.222137451171875</ele>
        <time>2024-06-14T09:22:13Z</time>
      </trkpt>
      <trkpt lat="31.10647425980295" lon="121.38143286137095">
        <ele>1.32635498046875</ele>
        <time>2024-06-14T09:22:31Z</time>
      </trkpt>
      <trkpt lat="31.106418443145767" lon="121.38185007474021">
        <ele>6.81097412109375</ele>
        <time>2024-06-14T09:22:40Z</time>
      </trkpt>
      <trkpt lat="31.1064109310463" lon="121.3819714529697">
        <ele>0.822418212890625</ele>
        <time>2024-06-14T09:22:43Z</time>
      </trkpt>
      <trkpt lat="31.1063437620022" lon="121.38229021217103">
        <ele>0.424407958984375</ele>
        <time>2024-06-14T09:22:52Z</time>
      </trkpt>
      <trkpt lat="31.106252614254768" lon="121.38259899058598">
        <ele>1.66839599609375</ele>
        <time>2024-06-14T09:23:10Z</time>
      </trkpt>
      <trkpt lat="31.106217501758163" lon="121.38280784093887">
        <ele>3.35687255859375</ele>
        <time>2024-06-14T09:23:22Z</time>
      </trkpt>
      <trkpt lat="31.106247425154482" lon="121.38290376889158">
        <ele>3.756134033203125</ele>
        <time>2024-06-14T09:23:28Z</time>
      </trkpt>
      <trkpt lat="31.106355276675835" lon="121.38304665688231">
        <ele>1.66253662109375</ele>
        <time>2024-06-14T09:23:37Z</time>
      </trkpt>
      <trkpt lat="31.106678187222702" lon="121.38290273223937">
        <ele>8.889068603515625</ele>
        <time>2024-06-14T09:23:46Z</time>
      </trkpt>
      <trkpt lat="31.106953992231578" lon="121.38297065937317">
        <ele>10.21063232421875</ele>
        <time>2024-06-14T09:23:58Z</time>
      </trkpt>
      <trkpt lat="31.10699194085679" lon="121.38301962095186">
        <ele>10.1905517578125</ele>
        <time>2024-06-14T09:24:01Z</time>
      </trkpt>
      <trkpt lat="31.107032828914182" lon="121.38316451411225">
        <ele>18.21588134765625</ele>
        <time>2024-06-14T09:24:07Z</time>
      </trkpt>
      <trkpt lat="31.10708975886028" lon="121.38322746460203">
        <ele>11.438323974609375</ele>
        <time>2024-06-14T09:24:10Z</time>
      </trkpt>
      <trkpt lat="31.107266597710293" lon="121.38333137608979">
        <ele>3.881500244140625</ele>
        <time>2024-06-14T09:24:19Z</time>
      </trkpt>
      <trkpt lat="31.107518491749914" lon="121.38327639286513">
        <ele>10.273773193359375</ele>
        <time>2024-06-14T09:24:37Z</time>
      </trkpt>
      <trkpt lat="31.107568497619482" lon="121.38322142730024">
        <ele>14.5477294921875</ele>
        <time>2024-06-14T09:24:43Z</time>
      </trkpt>
      <trkpt lat="31.107572543144673" lon="121.38314348218181">
        <ele>13.3245849609375</ele>
        <time>2024-06-14T09:24:46Z</time>
      </trkpt>
      <trkpt lat="31.107639701335433" lon="121.38282870231659">
        <ele>10.19793701171875</ele>
        <time>2024-06-14T09:24:58Z</time>
      </trkpt>
      <trkpt lat="31.107666735986918" lon="121.38274975737056">
        <ele>7.096923828125</ele>
        <time>2024-06-14T09:25:01Z</time>
      </trkpt>
      <trkpt lat="31.107584907302204" lon="121.38255091035364">
        <ele>7.236846923828125</ele>
        <time>2024-06-14T09:25:07Z</time>
      </trkpt>
      <trkpt lat="31.107531807753507" lon="121.38246042347518">
        <ele>8.6983642578125</ele>
        <time>2024-06-14T09:25:10Z</time>
      </trkpt>
      <trkpt lat="31.10753615610064" lon="121.38235012782347">
        <ele>8.570220947265625</ele>
        <time>2024-06-14T09:25:13Z</time>
      </trkpt>
      <trkpt lat="31.107564111130568" lon="121.3822521348271">
        <ele>6.66949462890625</ele>
        <time>2024-06-14T09:25:16Z</time>
      </trkpt>
      <trkpt lat="31.107621134248713" lon="121.38216819318566">
        <ele>3.9337158203125</ele>
        <time>2024-06-14T09:25:19Z</time>
      </trkpt>
      <trkpt lat="31.107645164099985" lon="121.3821022410716">
        <ele>2.85491943359375</ele>
        <time>2024-06-14T09:25:22Z</time>
      </trkpt>
      <trkpt lat="31.107689179122833" lon="121.38204228285676">
        <ele>0.894805908203125</ele>
        <time>2024-06-14T09:25:25Z</time>
      </trkpt>
      <trkpt lat="31.107799270454976" lon="121.38181244966965">
        <ele>2.443359375</ele>
        <time>2024-06-14T09:25:31Z</time>
      </trkpt>
      <trkpt lat="31.107821350571644" lon="121.38167455475055">
        <ele>2.734283447265625</ele>
        <time>2024-06-14T09:25:37Z</time>
      </trkpt>
      <trkpt lat="31.107845680317666" lon="121.38143868499765">
        <ele>0.848785400390625</ele>
        <time>2024-06-14T09:25:46Z</time>
      </trkpt>
      <trkpt lat="31.10789380635148" lon="121.38128632936824">
        <ele>-1.46453857421875</ele>
        <time>2024-06-14T09:25:52Z</time>
      </trkpt>
      <trkpt lat="31.10787995864224" lon="121.38119620066564">
        <ele>-2.188629150390625</ele>
        <time>2024-06-14T09:25:55Z</time>
      </trkpt>
      <trkpt lat="31.107839719927018" lon="121.38111899316584">
        <ele>-4.535400390625</ele>
        <time>2024-06-14T09:25:58Z</time>
      </trkpt>
      <trkpt lat="31.10767484444903" lon="121.38107104612355">
        <ele>-0.019744873046875</ele>
        <time>2024-06-14T09:26:07Z</time>
      </trkpt>
      <trkpt lat="31.107620859025793" lon="121.38109303307672">
        <ele>-1.96044921875</ele>
        <time>2024-06-14T09:26:10Z</time>
      </trkpt>
      <trkpt lat="31.10754823906076" lon="121.3810806479565">
        <ele>-2.692901611328125</ele>
        <time>2024-06-14T09:26:13Z</time>
      </trkpt>
      <trkpt lat="31.107441997621464" lon="121.3810360945752">
        <ele>-2.76593017578125</ele>
        <time>2024-06-14T09:26:16Z</time>
      </trkpt>
      <trkpt lat="31.10719212683339" lon="121.38104910575034">
        <ele>3.537994384765625</ele>
        <time>2024-06-14T09:26:25Z</time>
      </trkpt>
      <trkpt lat="31.10702523870481" lon="121.3810211428531">
        <ele>1.54736328125</ele>
        <time>2024-06-14T09:26:31Z</time>
      </trkpt>
      <trkpt lat="31.106718417621906" lon="121.38100817998549">
        <ele>1.989532470703125</ele>
        <time>2024-06-14T09:26:43Z</time>
      </trkpt>
      <trkpt lat="31.106601462162303" lon="121.3810371666803">
        <ele>3.303741455078125</ele>
        <time>2024-06-14T09:26:49Z</time>
      </trkpt>
      <trkpt lat="31.106512404665114" lon="121.38119105052424">
        <ele>5.237884521484375</ele>
        <time>2024-06-14T09:27:04Z</time>
      </trkpt>
      <trkpt lat="31.10646131816825" lon="121.38135792185203">
        <ele>6.760040283203125</ele>
        <time>2024-06-14T09:27:16Z</time>
      </trkpt>
      <trkpt lat="31.106413462214977" lon="121.38141581158392">
        <ele>9.029083251953125</ele>
        <time>2024-06-14T09:27:19Z</time>
      </trkpt>
      <trkpt lat="31.106443244327377" lon="121.38148082620846">
        <ele>5.492645263671875</ele>
        <time>2024-06-14T09:27:22Z</time>
      </trkpt>
      <trkpt lat="31.1064521865073" lon="121.38155876414869">
        <ele>5.684295654296875</ele>
        <time>2024-06-14T09:27:25Z</time>
      </trkpt>
      <trkpt lat="31.10637814395601" lon="121.38168267372532">
        <ele>9.73883056640625</ele>
        <time>2024-06-14T09:27:34Z</time>
      </trkpt>
      <trkpt lat="31.106331022622417" lon="121.3819035069739">
        <ele>4.1943359375</ele>
        <time>2024-06-14T09:27:46Z</time>
      </trkpt>
      <trkpt lat="31.106301827406213" lon="121.38222526465117">
        <ele>6.11395263671875</ele>
        <time>2024-06-14T09:28:04Z</time>
      </trkpt>
      <trkpt lat="31.106217666709252" lon="121.38254703192605">
        <ele>7.95782470703125</ele>
        <time>2024-06-14T09:28:25Z</time>
      </trkpt>
      <trkpt lat="31.106179574330344" lon="121.38272590389411">
        <ele>9.446075439453125</ele>
        <time>2024-06-14T09:28:37Z</time>
      </trkpt>
      <trkpt lat="31.106200504276863" lon="121.3828188344337">
        <ele>8.611968994140625</ele>
        <time>2024-06-14T09:28:43Z</time>
      </trkpt>
      <trkpt lat="31.10623943145268" lon="121.38290077174892">
        <ele>9.05615234375</ele>
        <time>2024-06-14T09:28:49Z</time>
      </trkpt>
      <trkpt lat="31.106296365683104" lon="121.38295572720648">
        <ele>10.47747802734375</ele>
        <time>2024-06-14T09:28:55Z</time>
      </trkpt>
      <trkpt lat="31.10637930422524" lon="121.38298070205624">
        <ele>10.816009521484375</ele>
        <time>2024-06-14T09:29:01Z</time>
      </trkpt>
      <trkpt lat="31.10657123398318" lon="121.3829227271032">
        <ele>13.127197265625</ele>
        <time>2024-06-14T09:29:16Z</time>
      </trkpt>
      <trkpt lat="31.106650193998046" lon="121.38291672457521">
        <ele>10.90936279296875</ele>
        <time>2024-06-14T09:29:22Z</time>
      </trkpt>
      <trkpt lat="31.106885024203766" lon="121.38298065817877">
        <ele>11.746673583984375</ele>
        <time>2024-06-14T09:29:43Z</time>
      </trkpt>
      <trkpt lat="31.10694995852756" lon="121.38302861815444">
        <ele>11.601318359375</ele>
        <time>2024-06-14T09:29:49Z</time>
      </trkpt>
      <trkpt lat="31.10699381745973" lon="121.38321847928228">
        <ele>6.81622314453125</ele>
        <time>2024-06-14T09:30:01Z</time>
      </trkpt>
      <trkpt lat="31.107041751910156" lon="121.38328243000915">
        <ele>7.436767578125</ele>
        <time>2024-06-14T09:30:07Z</time>
      </trkpt>
      <trkpt lat="31.107105723198245" lon="121.38327143219885">
        <ele>10.08740234375</ele>
        <time>2024-06-14T09:30:10Z</time>
      </trkpt>
      <trkpt lat="31.107220601962755" lon="121.38336635557118">
        <ele>11.493927001953125</ele>
        <time>2024-06-14T09:30:19Z</time>
      </trkpt>
      <trkpt lat="31.107348516669884" lon="121.3833903276991">
        <ele>15.34259033203125</ele>
        <time>2024-06-14T09:30:28Z</time>
      </trkpt>
      <trkpt lat="31.1075214506366" lon="121.38334134696812">
        <ele>11.19390869140625</ele>
        <time>2024-06-14T09:30:40Z</time>
      </trkpt>
      <trkpt lat="31.107570467257084" lon="121.38326939328229">
        <ele>10.36175537109375</ele>
        <time>2024-06-14T09:30:46Z</time>
      </trkpt>
      <trkpt lat="31.107584553090327" lon="121.38311650032536">
        <ele>15.62628173828125</ele>
        <time>2024-06-14T09:30:55Z</time>
      </trkpt>
      <trkpt lat="31.10761856568956" lon="121.38306553370715">
        <ele>16.270751953125</ele>
        <time>2024-06-14T09:30:58Z</time>
      </trkpt>
      <trkpt lat="31.107660667838857" lon="121.3828636751607">
        <ele>16.44549560546875</ele>
        <time>2024-06-14T09:31:10Z</time>
      </trkpt>
      <trkpt lat="31.107711645892188" lon="121.38285367797083">
        <ele>13.003662109375</ele>
        <time>2024-06-14T09:31:16Z</time>
      </trkpt>
      <trkpt lat="31.107652842352508" lon="121.38259387278008">
        <ele>9.2149658203125</ele>
        <time>2024-06-14T09:31:34Z</time>
      </trkpt>
      <trkpt lat="31.107596912139584" lon="121.38253292259888">
        <ele>7.736663818359375</ele>
        <time>2024-06-14T09:31:40Z</time>
      </trkpt>
      <trkpt lat="31.107536019461993" lon="121.38241801312694">
        <ele>8.3717041015625</ele>
        <time>2024-06-14T09:31:46Z</time>
      </trkpt>
      <trkpt lat="31.107581996407614" lon="121.38242348230284">
        <ele>6.31744384765625</ele>
        <time>2024-06-14T09:32:04Z</time>
      </trkpt>
      <trkpt lat="31.107682807360064" lon="121.38262284886386">
        <ele>11.8350830078125</ele>
        <time>2024-06-14T09:32:19Z</time>
      </trkpt>
      <trkpt lat="31.107669691011797" lon="121.38281870696417">
        <ele>12.34967041015625</ele>
        <time>2024-06-14T09:32:31Z</time>
      </trkpt>
      <trkpt lat="31.107741776645756" lon="121.38261984595084">
        <ele>12.26470947265625</ele>
        <time>2024-06-14T09:33:10Z</time>
      </trkpt>
      <trkpt lat="31.107735868506246" lon="121.38248094901192">
        <ele>7.314788818359375</ele>
        <time>2024-06-14T09:33:22Z</time>
      </trkpt>
      <trkpt lat="31.107680891877195" lon="121.38249194563355">
        <ele>6.56939697265625</ele>
        <time>2024-06-14T09:33:28Z</time>
      </trkpt>
      <trkpt lat="31.107629937989085" lon="121.38246397080643">
        <ele>3.21466064453125</ele>
        <time>2024-06-14T09:33:34Z</time>
      </trkpt>
      <trkpt lat="31.107596987019203" lon="121.38241600932535">
        <ele>0.15643310546875</ele>
        <time>2024-06-14T09:33:40Z</time>
      </trkpt>
      <trkpt lat="31.107581040277754" lon="121.3823470621586">
        <ele>4.921142578125</ele>
        <time>2024-06-14T09:33:46Z</time>
      </trkpt>
      <trkpt lat="31.10764314623793" lon="121.38213121926488">
        <ele>1.38720703125</ele>
        <time>2024-06-14T09:34:01Z</time>
      </trkpt>
      <trkpt lat="31.107724196626137" lon="121.38198632253327">
        <ele>-0.0814208984375</ele>
        <time>2024-06-14T09:34:13Z</time>
      </trkpt>
      <trkpt lat="31.10779733567502" lon="121.38171652417641">
        <ele>-0.720977783203125</ele>
        <time>2024-06-14T09:34:28Z</time>
      </trkpt>
      <trkpt lat="31.107871522002863" lon="121.38138078128635">
        <ele>2.644775390625</ele>
        <time>2024-06-14T09:34:49Z</time>
      </trkpt>
      <trkpt lat="31.107879652162776" lon="121.38118493672437">
        <ele>0.40081787109375</ele>
        <time>2024-06-14T09:35:01Z</time>
      </trkpt>
      <trkpt lat="31.10783173613593" lon="121.38110200753661">
        <ele>0.233978271484375</ele>
        <time>2024-06-14T09:35:09Z</time>
      </trkpt>
      <trkpt lat="31.107592925970227" lon="121.38101909522557">
        <ele>3.9691162109375</ele>
        <time>2024-06-14T09:35:25Z</time>
      </trkpt>
      <trkpt lat="31.107546980008856" lon="121.38097813241095">
        <ele>6.364288330078125</ele>
        <time>2024-06-14T09:35:31Z</time>
      </trkpt>
      <trkpt lat="31.10724116110586" lon="121.38096117272805">
        <ele>4.339141845703125</ele>
        <time>2024-06-14T09:35:52Z</time>
      </trkpt>
      <trkpt lat="31.107197177054992" lon="121.38097316680917">
        <ele>3.513763427734375</ele>
        <time>2024-06-14T09:35:55Z</time>
      </trkpt>
      <trkpt lat="31.10687538245898" lon="121.38093422638401">
        <ele>3.90765380859375</ele>
        <time>2024-06-14T09:36:19Z</time>
      </trkpt>
      <trkpt lat="31.106722458016787" lon="121.38094722908806">
        <ele>4.580535888671875</ele>
        <time>2024-06-14T09:36:28Z</time>
      </trkpt>
      <trkpt lat="31.10667549242391" lon="121.38093524291065">
        <ele>2.046966552734375</ele>
        <time>2024-06-14T09:36:31Z</time>
      </trkpt>
      <trkpt lat="31.106553513814937" lon="121.38100119995622">
        <ele>2.690643310546875</ele>
        <time>2024-06-14T09:36:43Z</time>
      </trkpt>
      <trkpt lat="31.106502480803723" lon="121.38108913331426">
        <ele>6.817535400390625</ele>
        <time>2024-06-14T09:36:50Z</time>
      </trkpt>
      <trkpt lat="31.106482428173386" lon="121.38118106113566">
        <ele>8.2435302734375</ele>
        <time>2024-06-14T09:36:56Z</time>
      </trkpt>
      <trkpt lat="31.106438424933938" lon="121.38122103293608">
        <ele>2.684356689453125</ele>
        <time>2024-06-14T09:37:02Z</time>
      </trkpt>
      <trkpt lat="31.106419298417894" lon="121.38142087561863">
        <ele>0.567596435546875</ele>
        <time>2024-06-14T09:37:17Z</time>
      </trkpt>
      <trkpt lat="31.106431199482717" lon="121.38155676753715">
        <ele>-0.42169189453125</ele>
        <time>2024-06-14T09:37:23Z</time>
      </trkpt>
      <trkpt lat="31.106414148885026" lon="121.38164569942514">
        <ele>-2.320465087890625</ele>
        <time>2024-06-14T09:37:29Z</time>
      </trkpt>
      <trkpt lat="31.106425073735462" lon="121.38174861839711">
        <ele>-1.588043212890625</ele>
        <time>2024-06-14T09:37:35Z</time>
      </trkpt>
      <trkpt lat="31.106369998384572" lon="121.38190750052144">
        <ele>-2.142242431640625</ele>
        <time>2024-06-14T09:37:44Z</time>
      </trkpt>
      <trkpt lat="31.106336866019316" lon="121.38213632880667">
        <ele>-3.474822998046875</ele>
        <time>2024-06-14T09:37:50Z</time>
      </trkpt>
      <trkpt lat="31.10624975208362" lon="121.38238614855109">
        <ele>-1.37469482421875</ele>
        <time>2024-06-14T09:37:59Z</time>
      </trkpt>
      <trkpt lat="31.10624464985044" lon="121.38255002737155">
        <ele>2.878143310546875</ele>
        <time>2024-06-14T09:38:05Z</time>
      </trkpt>
      <trkpt lat="31.10621055149857" lon="121.38273489464264">
        <ele>15.6895751953125</ele>
        <time>2024-06-14T09:38:11Z</time>
      </trkpt>
      <trkpt lat="31.106215495972474" lon="121.38281883313303">
        <ele>11.752899169921875</ele>
        <time>2024-06-14T09:38:14Z</time>
      </trkpt>
      <trkpt lat="31.10625842155739" lon="121.38289977082269">
        <ele>10.334991455078125</ele>
        <time>2024-06-14T09:38:17Z</time>
      </trkpt>
      <trkpt lat="31.106372300043226" lon="121.38299369333927">
        <ele>11.488616943359375</ele>
        <time>2024-06-14T09:38:23Z</time>
      </trkpt>
      <trkpt lat="31.106449258041774" lon="121.38299268737926">
        <ele>11.364471435546875</ele>
        <time>2024-06-14T09:38:26Z</time>
      </trkpt>
      <trkpt lat="31.106577221954215" lon="121.38293671650393">
        <ele>10.41632080078125</ele>
        <time>2024-06-14T09:38:32Z</time>
      </trkpt>
      <trkpt lat="31.10685907026085" lon="121.38292969708887">
        <ele>11.220703125</ele>
        <time>2024-06-14T09:38:44Z</time>
      </trkpt>
      <trkpt lat="31.106943009490863" lon="121.38295267325879">
        <ele>14.04296875</ele>
        <time>2024-06-14T09:38:47Z</time>
      </trkpt>
      <trkpt lat="31.106985946650255" lon="121.38301562433537">
        <ele>11.963623046875</ele>
        <time>2024-06-14T09:38:50Z</time>
      </trkpt>
      <trkpt lat="31.10700983612479" lon="121.38317350972858">
        <ele>12.49481201171875</ele>
        <time>2024-06-14T09:38:56Z</time>
      </trkpt>
      <trkpt lat="31.107097721540658" lon="121.3832814258563">
        <ele>14.3782958984375</ele>
        <time>2024-06-14T09:39:02Z</time>
      </trkpt>
      <trkpt lat="31.107246587582573" lon="121.38336635331648">
        <ele>10.30438232421875</ele>
        <time>2024-06-14T09:39:08Z</time>
      </trkpt>
      <trkpt lat="31.107327525868772" lon="121.38339432672755">
        <ele>9.241241455078125</ele>
        <time>2024-06-14T09:39:11Z</time>
      </trkpt>
      <trkpt lat="31.107523471968904" lon="121.3833043727482">
        <ele>5.7086181640625</ele>
        <time>2024-06-14T09:39:20Z</time>
      </trkpt>
      <trkpt lat="31.10759050929394" lon="121.38318245297089">
        <ele>4.65777587890625</ele>
        <time>2024-06-14T09:39:29Z</time>
      </trkpt>
      <trkpt lat="31.10760358076831" lon="121.38305454285988">
        <ele>1.335296630859375</ele>
        <time>2024-06-14T09:39:38Z</time>
      </trkpt>
      <trkpt lat="31.10765573577893" lon="121.38275975104305">
        <ele>3.92901611328125</ele>
        <time>2024-06-14T09:39:50Z</time>
      </trkpt>
      <trkpt lat="31.107651804225966" lon="121.38265482807789">
        <ele>4.19525146484375</ele>
        <time>2024-06-14T09:39:53Z</time>
      </trkpt>
      <trkpt lat="31.10756995708292" lon="121.38248595970217">
        <ele>3.30426025390625</ele>
        <time>2024-06-14T09:40:02Z</time>
      </trkpt>
      <trkpt lat="31.107556014185214" lon="121.38240901808959">
        <ele>2.718780517578125</ele>
        <time>2024-06-14T09:40:05Z</time>
      </trkpt>
      <trkpt lat="31.107584110457452" lon="121.38223614512489">
        <ele>3.15277099609375</ele>
        <time>2024-06-14T09:40:11Z</time>
      </trkpt>
      <trkpt lat="31.107746191717467" lon="121.38197532903251">
        <ele>5.604400634765625</ele>
        <time>2024-06-14T09:40:29Z</time>
      </trkpt>
      <trkpt lat="31.107794212113888" lon="121.38190437926811">
        <ele>2.681854248046875</ele>
        <time>2024-06-14T09:40:35Z</time>
      </trkpt>
      <trkpt lat="31.107842209452038" lon="121.38186840277741">
        <ele>0.62371826171875</ele>
        <time>2024-06-14T09:40:41Z</time>
      </trkpt>
      <trkpt lat="31.107866420749037" lon="121.38153366107393">
        <ele>-0.14129638671875</ele>
        <time>2024-06-14T09:40:59Z</time>
      </trkpt>
      <trkpt lat="31.107884634218582" lon="121.38120691867762">
        <ele>0.97918701171875</ele>
        <time>2024-06-14T09:41:17Z</time>
      </trkpt>
      <trkpt lat="31.107871680082443" lon="121.38115096468226">
        <ele>1.657135009765625</ele>
        <time>2024-06-14T09:41:20Z</time>
      </trkpt>
      <trkpt lat="31.107821746520255" lon="121.38109501403926">
        <ele>4.607574462890625</ele>
        <time>2024-06-14T09:41:26Z</time>
      </trkpt>
      <trkpt lat="31.107671841939034" lon="121.38107704154635">
        <ele>0.660125732421875</ele>
        <time>2024-06-14T09:41:38Z</time>
      </trkpt>
      <trkpt lat="31.10760891364006" lon="121.38102408979522">
        <ele>7.13067626953125</ele>
        <time>2024-06-14T09:41:44Z</time>
      </trkpt>
      <trkpt lat="31.107289137355544" lon="121.38095717181255">
        <ele>8.33172607421875</ele>
        <time>2024-06-14T09:42:02Z</time>
      </trkpt>
      <trkpt lat="31.10710724151697" lon="121.3809521916501">
        <ele>6.938385009765625</ele>
        <time>2024-06-14T09:42:14Z</time>
      </trkpt>
      <trkpt lat="31.106936352912122" lon="121.38092822597221">
        <ele>0.448333740234375</ele>
        <time>2024-06-14T09:42:26Z</time>
      </trkpt>
      <trkpt lat="31.10664950821229" lon="121.38093324679002">
        <ele>-0.097137451171875</ele>
        <time>2024-06-14T09:42:47Z</time>
      </trkpt>
      <trkpt lat="31.106605523462463" lon="121.38094624004357">
        <ele>-2.791290283203125</ele>
        <time>2024-06-14T09:42:50Z</time>
      </trkpt>
      <trkpt lat="31.10648849410699" lon="121.38108114097362">
        <ele>2.632568359375</ele>
        <time>2024-06-14T09:43:02Z</time>
      </trkpt>
      <trkpt lat="31.106451450166713" lon="121.38117406943337">
        <ele>3.89617919921875</ele>
        <time>2024-06-14T09:43:08Z</time>
      </trkpt>
      <trkpt lat="31.106442377327205" lon="121.38128697992694">
        <ele>2.946868896484375</ele>
        <time>2024-06-14T09:43:20Z</time>
      </trkpt>
      <trkpt lat="31.106456301124044" lon="121.38138689930453">
        <ele>4.956207275390625</ele>
        <time>2024-06-14T09:43:23Z</time>
      </trkpt>
      <trkpt lat="31.106443235504486" lon="121.38149381597569">
        <ele>9.550933837890625</ele>
        <time>2024-06-14T09:43:29Z</time>
      </trkpt>
      <trkpt lat="31.106467139068425" lon="121.38161671746377">
        <ele>11.70379638671875</ele>
        <time>2024-06-14T09:43:35Z</time>
      </trkpt>
      <trkpt lat="31.106466081163248" lon="121.38170364976578">
        <ele>10.881561279296875</ele>
        <time>2024-06-14T09:43:41Z</time>
      </trkpt>
      <trkpt lat="31.106367942681427" lon="121.3819934348478">
        <ele>6.558990478515625</ele>
        <time>2024-06-14T09:44:02Z</time>
      </trkpt>
      <trkpt lat="31.1063708989314" lon="121.38205738580821">
        <ele>5.7392578125</ele>
        <time>2024-06-14T09:44:05Z</time>
      </trkpt>
      <trkpt lat="31.106315802774578" lon="121.38225124387829">
        <ele>5.46502685546875</ele>
        <time>2024-06-14T09:44:14Z</time>
      </trkpt>
      <trkpt lat="31.106259755560153" lon="121.38237215812377">
        <ele>6.0791015625</ele>
        <time>2024-06-14T09:44:23Z</time>
      </trkpt>
      <trkpt lat="31.10622474663725" lon="121.38241612837868">
        <ele>7.522796630859375</ele>
        <time>2024-06-14T09:44:26Z</time>
      </trkpt>
      <trkpt lat="31.106187697982772" lon="121.38252405151032">
        <ele>8.748504638671875</ele>
        <time>2024-06-14T09:44:32Z</time>
      </trkpt>
      <trkpt lat="31.106181595931663" lon="121.38268993001243">
        <ele>12.4053955078125</ele>
        <time>2024-06-14T09:44:41Z</time>
      </trkpt>
      <trkpt lat="31.106202428284572" lon="121.38293874758229">
        <ele>10.381866455078125</ele>
        <time>2024-06-14T09:44:53Z</time>
      </trkpt>
      <trkpt lat="31.10622736421849" lon="121.38301968728857">
        <ele>11.717529296875</ele>
        <time>2024-06-14T09:44:56Z</time>
      </trkpt>
      <trkpt lat="31.106321282540172" lon="121.3830676448378">
        <ele>14.68572998046875</ele>
        <time>2024-06-14T09:45:02Z</time>
      </trkpt>
      <trkpt lat="31.106383249453287" lon="121.3830656408885">
        <ele>17.4759521484375</ele>
        <time>2024-06-14T09:45:05Z</time>
      </trkpt>
      <trkpt lat="31.10643720539088" lon="121.38308861980681">
        <ele>16.06915283203125</ele>
        <time>2024-06-14T09:45:08Z</time>
      </trkpt>
      <trkpt lat="31.106491176118123" lon="121.38308761583669">
        <ele>16.03125</ele>
        <time>2024-06-14T09:45:11Z</time>
      </trkpt>
      <trkpt lat="31.106623161121462" lon="121.38299367157404">
        <ele>13.92572021484375</ele>
        <time>2024-06-14T09:45:23Z</time>
      </trkpt>
      <trkpt lat="31.10669012838182" lon="121.3829866707838">
        <ele>14.77978515625</ele>
        <time>2024-06-14T09:45:29Z</time>
      </trkpt>
      <trkpt lat="31.10691398833916" lon="121.3830126327268">
        <ele>13.18341064453125</ele>
        <time>2024-06-14T09:45:44Z</time>
      </trkpt>
      <trkpt lat="31.106956953418795" lon="121.38303061611695">
        <ele>14.17572021484375</ele>
        <time>2024-06-14T09:45:47Z</time>
      </trkpt>
      <trkpt lat="31.107004884314453" lon="121.38309956271803">
        <ele>12.73980712890625</ele>
        <time>2024-06-14T09:45:53Z</time>
      </trkpt>
      <trkpt lat="31.106996834747214" lon="121.38318750094184">
        <ele>8.620147705078125</ele>
        <time>2024-06-14T09:45:59Z</time>
      </trkpt>
      <trkpt lat="31.107036721293703" lon="121.38333739182976">
        <ele>4.79644775390625</ele>
        <time>2024-06-14T09:46:08Z</time>
      </trkpt>
      <trkpt lat="31.107084651825247" lon="121.383408338032">
        <ele>7.82525634765625</ele>
        <time>2024-06-14T09:46:14Z</time>
      </trkpt>
      <trkpt lat="31.107177578098064" lon="121.38344530419494">
        <ele>7.14996337890625</ele>
        <time>2024-06-14T09:46:20Z</time>
      </trkpt>
      <trkpt lat="31.107342501290674" lon="121.38342130659584">
        <ele>8.585784912109375</ele>
        <time>2024-06-14T09:46:32Z</time>
      </trkpt>
      <trkpt lat="31.107514486665117" lon="121.38328838477177">
        <ele>9.134918212890625</ele>
        <time>2024-06-14T09:46:47Z</time>
      </trkpt>
      <trkpt lat="31.107629593583322" lon="121.38301057206982">
        <ele>10.27056884765625</ele>
        <time>2024-06-14T09:47:08Z</time>
      </trkpt>
      <trkpt lat="31.107635673543513" lon="121.38287666793316">
        <ele>4.963775634765625</ele>
        <time>2024-06-14T09:47:17Z</time>
      </trkpt>
      <trkpt lat="31.10766371188399" lon="121.38279072780679">
        <ele>4.213043212890625</ele>
        <time>2024-06-14T09:47:23Z</time>
      </trkpt>
      <trkpt lat="31.107657806606383" lon="121.38264583415486">
        <ele>1.62823486328125</ele>
        <time>2024-06-14T09:47:29Z</time>
      </trkpt>
      <trkpt lat="31.107607869773265" lon="121.38258987962527">
        <ele>2.298248291015625</ele>
        <time>2024-06-14T09:47:35Z</time>
      </trkpt>
      <trkpt lat="31.107535012311107" lon="121.38243000429036">
        <ele>5.2779541015625</ele>
        <time>2024-06-14T09:47:47Z</time>
      </trkpt>
      <trkpt lat="31.10753108147728" lon="121.38232608219568">
        <ele>4.874786376953125</ele>
        <time>2024-06-14T09:47:53Z</time>
      </trkpt>
      <trkpt lat="31.107585162632507" lon="121.38215520613319">
        <ele>3.14837646484375</ele>
        <time>2024-06-14T09:48:02Z</time>
      </trkpt>
      <trkpt lat="31.10771628773662" lon="121.38185542370984">
        <ele>8.35205078125</ele>
        <time>2024-06-14T09:48:23Z</time>
      </trkpt>
      <trkpt lat="31.107788403777572" lon="121.38162259815518">
        <ele>4.530548095703125</ele>
        <time>2024-06-14T09:48:38Z</time>
      </trkpt>
      <trkpt lat="31.107867600247754" lon="121.3812698698371">
        <ele>5.222930908203125</ele>
        <time>2024-06-14T09:49:02Z</time>
      </trkpt>
      <trkpt lat="31.107822725859457" lon="121.38112399061961">
        <ele>5.9906005859375</ele>
        <time>2024-06-14T09:49:11Z</time>
      </trkpt>
      <trkpt lat="31.10772584965304" lon="121.38102308045985">
        <ele>7.9556884765625</ele>
        <time>2024-06-14T09:49:20Z</time>
      </trkpt>
      <trkpt lat="31.107577960075098" lon="121.38098212648111">
        <ele>10.642974853515625</ele>
        <time>2024-06-14T09:49:32Z</time>
      </trkpt>
      <trkpt lat="31.107429046653724" lon="121.38097614426279">
        <ele>9.8165283203125</ele>
        <time>2024-06-14T09:49:44Z</time>
      </trkpt>
      <trkpt lat="31.107362064160153" lon="121.38100412738945">
        <ele>9.70318603515625</ele>
        <time>2024-06-14T09:49:50Z</time>
      </trkpt>
      <trkpt lat="31.10713218927532" lon="121.38100714490201">
        <ele>10.04400634765625</ele>
        <time>2024-06-14T09:50:08Z</time>
      </trkpt>
      <trkpt lat="31.106820405889888" lon="121.38094422302815">
        <ele>8.557098388671875</ele>
        <time>2024-06-14T09:50:32Z</time>
      </trkpt>
      <trkpt lat="31.106735457821955" lon="121.38093723608377">
        <ele>8.265228271484375</ele>
        <time>2024-06-14T09:50:38Z</time>
      </trkpt>
      <trkpt lat="31.106653529127076" lon="121.38090027328703">
        <ele>4.078765869140625</ele>
        <time>2024-06-14T09:50:44Z</time>
      </trkpt>
      <trkpt lat="31.1065805520006" lon="121.38092525927502">
        <ele>5.4373779296875</ele>
        <time>2024-06-14T09:50:50Z</time>
      </trkpt>
      <trkpt lat="31.10653052166211" lon="121.38100819628443">
        <ele>5.610595703125</ele>
        <time>2024-06-14T09:50:56Z</time>
      </trkpt>
      <trkpt lat="31.106458413174938" lon="121.38122203040271">
        <ele>6.47149658203125</ele>
        <time>2024-06-14T09:51:11Z</time>
      </trkpt>
      <trkpt lat="31.106397377547005" lon="121.38132295518814">
        <ele>8.2508544921875</ele>
        <time>2024-06-14T09:51:17Z</time>
      </trkpt>
      <trkpt lat="31.106442240129272" lon="121.38148782078423">
        <ele>13.33135986328125</ele>
        <time>2024-06-14T09:51:29Z</time>
      </trkpt>
      <trkpt lat="31.106437194809807" lon="121.3815587654492">
        <ele>12.360595703125</ele>
        <time>2024-06-14T09:51:32Z</time>
      </trkpt>
      <trkpt lat="31.106461142389364" lon="121.38161671798397">
        <ele>12.6800537109375</ele>
        <time>2024-06-14T09:51:35Z</time>
      </trkpt>
      <trkpt lat="31.10644099158261" lon="121.38185853203652">
        <ele>14.78564453125</ele>
        <time>2024-06-14T09:51:50Z</time>
      </trkpt>
      <trkpt lat="31.106319838906817" lon="121.38219228796066">
        <ele>10.283050537109375</ele>
        <time>2024-06-14T09:52:08Z</time>
      </trkpt>
      <trkpt lat="31.106272793541688" lon="121.38230220933245">
        <ele>11.03497314453125</ele>
        <time>2024-06-14T09:52:14Z</time>
      </trkpt>
      <trkpt lat="31.106223615078584" lon="121.38262297546385">
        <ele>12.39007568359375</ele>
        <time>2024-06-14T09:52:32Z</time>
      </trkpt>
      <trkpt lat="31.10623145709229" lon="121.38286679699343">
        <ele>13.5341796875</ele>
        <time>2024-06-14T09:52:47Z</time>
      </trkpt>
      <trkpt lat="31.106284351854697" lon="121.38298870455526">
        <ele>15.50506591796875</ele>
        <time>2024-06-14T09:52:53Z</time>
      </trkpt>
      <trkpt lat="31.106344287087648" lon="121.38303966283839">
        <ele>18.9193115234375</ele>
        <time>2024-06-14T09:52:59Z</time>
      </trkpt>
      <trkpt lat="31.106496227692144" lon="121.38299967828604">
        <ele>16.67535400390625</ele>
        <time>2024-06-14T09:53:08Z</time>
      </trkpt>
      <trkpt lat="31.106668186527546" lon="121.38291272589689">
        <ele>17.285888671875</ele>
        <time>2024-06-14T09:53:20Z</time>
      </trkpt>
      <trkpt lat="31.106757134165544" lon="121.38291771457628">
        <ele>16.655029296875</ele>
        <time>2024-06-14T09:53:26Z</time>
      </trkpt>
      <trkpt lat="31.106798092821975" lon="121.38294768942731">
        <ele>14.4725341796875</ele>
        <time>2024-06-14T09:53:29Z</time>
      </trkpt>
      <trkpt lat="31.106826025896513" lon="121.3830306274767">
        <ele>15.34259033203125</ele>
        <time>2024-06-14T09:53:35Z</time>
      </trkpt>
      <trkpt lat="31.106827971785677" lon="121.38311656597044">
        <ele>16.065185546875</ele>
        <time>2024-06-14T09:53:41Z</time>
      </trkpt>
      <trkpt lat="31.10687889758267" lon="121.38319150834359">
        <ele>17.54833984375</ele>
        <time>2024-06-14T09:53:47Z</time>
      </trkpt>
      <trkpt lat="31.10687889758267" lon="121.38319150834359">
        <ele>17.54833984375</ele>
        <time>2024-06-14T09:53:52Z</time>
      </trkpt>
    </trkseg>
  </trk>
</gpx>