<?xml version="1.0" encoding="UTF-8"?>
<gpx xmlns="http://www.topografix.com/GPX/1/1" xmlns:gpxtpx="http://www.garmin.com/xmlschemas/TrackPointExtension/v1" xmlns:xsi="http://www.w3.org/2001/XMLSchema-instance" xsi:schemaLocation="http://www.topografix.com/GPX/1/1 http://www.topografix.com/GPX/1/1/gpx.xsd" version="1.1" creator="gpx.py -- https://github.com/tkrajina/gpxpy">
  <trk>
    <name>gpx from keep</name>
    <type>Run</type>
    <trkseg>
      <trkpt lat="30.52215849964311" lon="114.39256192564429">
        <ele>13.5718994140625</ele>
        <time>2022-05-01T13:48:31Z</time>
      </trkpt>
      <trkpt lat="30.522125648997577" lon="114.39277004807268">
        <ele>15.585205078125</ele>
        <time>2022-05-01T13:48:40Z</time>
      </trkpt>
      <trkpt lat="30.52213566513662" lon="114.39287098729284">
        <ele>15.7884521484375</ele>
        <time>2022-05-01T13:48:43Z</time>
      </trkpt>
      <trkpt lat="30.522337653252677" lon="114.39312495012449">
        <ele>24.25628662109375</ele>
        <time>2022-05-01T13:48:55Z</time>
      </trkpt>
      <trkpt lat="30.522394591964016" lon="114.39318409917092">
        <ele>22.53216552734375</ele>
        <time>2022-05-01T13:48:58Z</time>
      </trkpt>
      <trkpt lat="30.522680688661428" lon="114.39318407416701">
        <ele>23.70697021484375</ele>
        <time>2022-05-01T13:49:10Z</time>
      </trkpt>
      <trkpt lat="30.522894914290028" lon="114.39323398374206">
        <ele>22.9725341796875</ele>
        <time>2022-05-01T13:49:19Z</time>
      </trkpt>
      <trkpt lat="30.523188612093062" lon="114.3931821303317">
        <ele>29.3424072265625</ele>
        <time>2022-05-01T13:49:31Z</time>
      </trkpt>
      <trkpt lat="30.523236617150477" lon="114.39314495134397">
        <ele>31.2239990234375</ele>
        <time>2022-05-01T13:49:34Z</time>
      </trkpt>
      <trkpt lat="30.523362718289135" lon="114.3931340863815">
        <ele>32.66400146484375</ele>
        <time>2022-05-01T13:49:40Z</time>
      </trkpt>
      <trkpt lat="30.52353873401279" lon="114.39301793418282">
        <ele>34.9989013671875</ele>
        <time>2022-05-01T13:49:46Z</time>
      </trkpt>
      <trkpt lat="30.52357860806466" lon="114.39295579234293">
        <ele>34.1038818359375</ele>
        <time>2022-05-01T13:49:49Z</time>
      </trkpt>
      <trkpt lat="30.52364749901691" lon="114.39289174873663">
        <ele>35.8314208984375</ele>
        <time>2022-05-01T13:49:52Z</time>
      </trkpt>
      <trkpt lat="30.523666515734252" lon="114.39269773610921">
        <ele>32.150634765625</ele>
        <time>2022-05-01T13:50:01Z</time>
      </trkpt>
      <trkpt lat="30.52358953488337" lon="114.39250888915444">
        <ele>31.346923828125</ele>
        <time>2022-05-01T13:50:07Z</time>
      </trkpt>
      <trkpt lat="30.52351036927238" lon="114.39240687238618">
        <ele>33.59771728515625</ele>
        <time>2022-05-01T13:50:13Z</time>
      </trkpt>
      <trkpt lat="30.523402450855716" lon="114.3923458306497">
        <ele>34.898681640625</ele>
        <time>2022-05-01T13:50:16Z</time>
      </trkpt>
      <trkpt lat="30.523336569688276" lon="114.39226470646607">
        <ele>33.32012939453125</ele>
        <time>2022-05-01T13:50:19Z</time>
      </trkpt>
      <trkpt lat="30.523180363778987" lon="114.39229185384309">
        <ele>35.1451416015625</ele>
        <time>2022-05-01T13:50:25Z</time>
      </trkpt>
      <trkpt lat="30.522840298562" lon="114.39230979184238">
        <ele>32.44403076171875</ele>
        <time>2022-05-01T13:50:43Z</time>
      </trkpt>
      <trkpt lat="30.522675423268332" lon="114.3922937973368">
        <ele>30.1158447265625</ele>
        <time>2022-05-01T13:50:49Z</time>
      </trkpt>
      <trkpt lat="30.522527626102875" lon="114.3923098191696">
        <ele>28.62237548828125</ele>
        <time>2022-05-01T13:50:55Z</time>
      </trkpt>
      <trkpt lat="30.52244247818957" lon="114.39229381769584">
        <ele>25.96533203125</ele>
        <time>2022-05-01T13:51:01Z</time>
      </trkpt>
      <trkpt lat="30.522361662512143" lon="114.39231173303816">
        <ele>24.039794921875</ele>
        <time>2022-05-01T13:51:04Z</time>
      </trkpt>
      <trkpt lat="30.52225968067677" lon="114.39240182625667">
        <ele>27.0452880859375</ele>
        <time>2022-05-01T13:51:10Z</time>
      </trkpt>
      <trkpt lat="30.52222359579411" lon="114.3924948988478">
        <ele>26.7666015625</ele>
        <time>2022-05-01T13:51:13Z</time>
      </trkpt>
      <trkpt lat="30.522164471802494" lon="114.39252882155238">
        <ele>28.1312255859375</ele>
        <time>2022-05-01T13:51:16Z</time>
      </trkpt>
      <trkpt lat="30.522127562261744" lon="114.39268593153525">
        <ele>31.134521484375</ele>
        <time>2022-05-01T13:51:22Z</time>
      </trkpt>
      <trkpt lat="30.522149501976674" lon="114.39283299781776">
        <ele>28.14422607421875</ele>
        <time>2022-05-01T13:51:28Z</time>
      </trkpt>
      <trkpt lat="30.522187446219753" lon="114.39295699931279">
        <ele>26.0323486328125</ele>
        <time>2022-05-01T13:51:31Z</time>
      </trkpt>
      <trkpt lat="30.522350668186995" lon="114.39313607427194">
        <ele>26.074951171875</ele>
        <time>2022-05-01T13:51:40Z</time>
      </trkpt>
      <trkpt lat="30.52240273765994" lon="114.39312006016682">
        <ele>26.60540771484375</ele>
        <time>2022-05-01T13:51:43Z</time>
      </trkpt>
      <trkpt lat="30.52251174471177" lon="114.39316997878295">
        <ele>27.59600830078125</ele>
        <time>2022-05-01T13:51:49Z</time>
      </trkpt>
      <trkpt lat="30.522728692437497" lon="114.39315503563654">
        <ele>29.87945556640625</ele>
        <time>2022-05-01T13:51:58Z</time>
      </trkpt>
      <trkpt lat="30.522791610582356" lon="114.39313006606909">
        <ele>26.80523681640625</ele>
        <time>2022-05-01T13:52:01Z</time>
      </trkpt>
      <trkpt lat="30.52294970576336" lon="114.39315311687938">
        <ele>26.4525146484375</ele>
        <time>2022-05-01T13:52:07Z</time>
      </trkpt>
      <trkpt lat="30.523057640867542" lon="114.39312298776113">
        <ele>28.3963623046875</ele>
        <time>2022-05-01T13:52:10Z</time>
      </trkpt>
      <trkpt lat="30.523355666002512" lon="114.39314385554476">
        <ele>32.77069091796875</ele>
        <time>2022-05-01T13:52:25Z</time>
      </trkpt>
      <trkpt lat="30.523515673906235" lon="114.39307681856724">
        <ele>38.26446533203125</ele>
        <time>2022-05-01T13:52:31Z</time>
      </trkpt>
      <trkpt lat="30.523535483307896" lon="114.39299704076346">
        <ele>38.2706298828125</ele>
        <time>2022-05-01T13:52:34Z</time>
      </trkpt>
      <trkpt lat="30.52362663960562" lon="114.39276774613862">
        <ele>37.5726318359375</ele>
        <time>2022-05-01T13:52:43Z</time>
      </trkpt>
      <trkpt lat="30.523601708068632" lon="114.39267169288728">
        <ele>38.29052734375</ele>
        <time>2022-05-01T13:52:46Z</time>
      </trkpt>
      <trkpt lat="30.5236055217571" lon="114.39257780829831">
        <ele>38.15045166015625</ele>
        <time>2022-05-01T13:52:49Z</time>
      </trkpt>
      <trkpt lat="30.52357651390958" lon="114.39253168288704">
        <ele>35.14898681640625</ele>
        <time>2022-05-01T13:52:52Z</time>
      </trkpt>
      <trkpt lat="30.52356541339142" lon="114.39243671487864">
        <ele>36.43524169921875</ele>
        <time>2022-05-01T13:52:55Z</time>
      </trkpt>
      <trkpt lat="30.523443400049477" lon="114.39234175699917">
        <ele>37.315673828125</ele>
        <time>2022-05-01T13:53:01Z</time>
      </trkpt>
      <trkpt lat="30.523360419894868" lon="114.392334709463">
        <ele>41.9188232421875</ele>
        <time>2022-05-01T13:53:04Z</time>
      </trkpt>
      <trkpt lat="30.523283672203497" lon="114.39235181047079">
        <ele>41.820068359375</ele>
        <time>2022-05-01T13:53:07Z</time>
      </trkpt>
      <trkpt lat="30.523168694568884" lon="114.39233472621996">
        <ele>43.99798583984375</ele>
        <time>2022-05-01T13:53:10Z</time>
      </trkpt>
      <trkpt lat="30.523123413307633" lon="114.3923037976706">
        <ele>42.63568115234375</ele>
        <time>2022-05-01T13:53:13Z</time>
      </trkpt>
      <trkpt lat="30.523038255237424" lon="114.3923398930427">
        <ele>38.668212890625</ele>
        <time>2022-05-01T13:53:16Z</time>
      </trkpt>
      <trkpt lat="30.52277033684722" lon="114.39229378904146">
        <ele>34.7620849609375</ele>
        <time>2022-05-01T13:53:25Z</time>
      </trkpt>
      <trkpt lat="30.522589451599554" lon="114.3923298927624">
        <ele>33.93060302734375</ele>
        <time>2022-05-01T13:53:34Z</time>
      </trkpt>
      <trkpt lat="30.52225751760972" lon="114.39236872313134">
        <ele>37.33111572265625</ele>
        <time>2022-05-01T13:53:46Z</time>
      </trkpt>
      <trkpt lat="30.52216447724356" lon="114.39249978813653">
        <ele>34.36505126953125</ele>
        <time>2022-05-01T13:53:52Z</time>
      </trkpt>
      <trkpt lat="30.52213164748021" lon="114.39258987612818">
        <ele>33.253173828125</ele>
        <time>2022-05-01T13:53:55Z</time>
      </trkpt>
      <trkpt lat="30.52213241044146" lon="114.39287397237256">
        <ele>35.0113525390625</ele>
        <time>2022-05-01T13:54:04Z</time>
      </trkpt>
      <trkpt lat="30.522210497678202" lon="114.3929510276841">
        <ele>34.82550048828125</ele>
        <time>2022-05-01T13:54:07Z</time>
      </trkpt>
      <trkpt lat="30.52227474815713" lon="114.3930690579399">
        <ele>33.66033935546875</ele>
        <time>2022-05-01T13:54:10Z</time>
      </trkpt>
      <trkpt lat="30.522469718585135" lon="114.39312602397584">
        <ele>31.0751953125</ele>
        <time>2022-05-01T13:54:16Z</time>
      </trkpt>
      <trkpt lat="30.522759608100287" lon="114.39314906326328">
        <ele>30.86517333984375</ele>
        <time>2022-05-01T13:54:28Z</time>
      </trkpt>
      <trkpt lat="30.523044626080278" lon="114.39311104957622">
        <ele>29.03387451171875</ele>
        <time>2022-05-01T13:54:40Z</time>
      </trkpt>
      <trkpt lat="30.523300615812065" lon="114.39314603114497">
        <ele>30.0875244140625</ele>
        <time>2022-05-01T13:54:49Z</time>
      </trkpt>
      <trkpt lat="30.523467675898353" lon="114.39307003907066">
        <ele>29.0164794921875</ele>
        <time>2022-05-01T13:54:55Z</time>
      </trkpt>
      <trkpt lat="30.523603542562086" lon="114.39304099302092">
        <ele>28.36083984375</ele>
        <time>2022-05-01T13:54:58Z</time>
      </trkpt>
      <trkpt lat="30.523664595344957" lon="114.39282282565617">
        <ele>30.7261962890625</ele>
        <time>2022-05-01T13:55:04Z</time>
      </trkpt>
      <trkpt lat="30.523678720164703" lon="114.39269068013262">
        <ele>30.4932861328125</ele>
        <time>2022-05-01T13:55:07Z</time>
      </trkpt>
      <trkpt lat="30.523605544626715" lon="114.39245570513202">
        <ele>29.47613525390625</ele>
        <time>2022-05-01T13:55:13Z</time>
      </trkpt>
      <trkpt lat="30.523501433091596" lon="114.39234066657471">
        <ele>29.22613525390625</ele>
        <time>2022-05-01T13:55:19Z</time>
      </trkpt>
      <trkpt lat="30.523411406310817" lon="114.39231272664175">
        <ele>30.7718505859375</ele>
        <time>2022-05-01T13:55:22Z</time>
      </trkpt>
      <trkpt lat="30.523330604287025" lon="114.39226172227991">
        <ele>32.28240966796875</ele>
        <time>2022-05-01T13:55:25Z</time>
      </trkpt>
      <trkpt lat="30.52324436856952" lon="114.39226172981701">
        <ele>32.80548095703125</ele>
        <time>2022-05-01T13:55:28Z</time>
      </trkpt>
      <trkpt lat="30.5231472729763" lon="114.39232577394071">
        <ele>31.4215087890625</ele>
        <time>2022-05-01T13:55:31Z</time>
      </trkpt>
      <trkpt lat="30.522994330084344" lon="114.39230787901657">
        <ele>29.27264404296875</ele>
        <time>2022-05-01T13:55:37Z</time>
      </trkpt>
      <trkpt lat="30.522917307087813" lon="114.39234587305151">
        <ele>28.74078369140625</ele>
        <time>2022-05-01T13:55:40Z</time>
      </trkpt>
      <trkpt lat="30.522731558245795" lon="114.39229189306863">
        <ele>33.24200439453125</ele>
        <time>2022-05-01T13:55:49Z</time>
      </trkpt>
      <trkpt lat="30.52257346388432" lon="114.39226884321783">
        <ele>30.4783935546875</ele>
        <time>2022-05-01T13:55:55Z</time>
      </trkpt>
      <trkpt lat="30.52250458174653" lon="114.3922788887139">
        <ele>31.90155029296875</ele>
        <time>2022-05-01T13:55:58Z</time>
      </trkpt>
      <trkpt lat="30.522439501731093" lon="114.39226071481389">
        <ele>30.2838134765625</ele>
        <time>2022-05-01T13:56:01Z</time>
      </trkpt>
      <trkpt lat="30.522237453632798" lon="114.39235081655652">
        <ele>31.9193115234375</ele>
        <time>2022-05-01T13:56:10Z</time>
      </trkpt>
      <trkpt lat="30.522191608847617" lon="114.39242896610958">
        <ele>32.57147216796875</ele>
        <time>2022-05-01T13:56:13Z</time>
      </trkpt>
      <trkpt lat="30.52213869800748" lon="114.39259096087731">
        <ele>33.3499755859375</ele>
        <time>2022-05-01T13:56:19Z</time>
      </trkpt>
      <trkpt lat="30.522149500422973" lon="114.39284195218855">
        <ele>29.6680908203125</ele>
        <time>2022-05-01T13:56:28Z</time>
      </trkpt>
      <trkpt lat="30.52224573152934" lon="114.39307014586629">
        <ele>31.9710693359375</ele>
        <time>2022-05-01T13:56:37Z</time>
      </trkpt>
      <trkpt lat="30.522436627677546" lon="114.39316808590549">
        <ele>31.135498046875</ele>
        <time>2022-05-01T13:56:46Z</time>
      </trkpt>
      <trkpt lat="30.52274659012286" lon="114.39315693351355">
        <ele>32.09613037109375</ele>
        <time>2022-05-01T13:57:01Z</time>
      </trkpt>
      <trkpt lat="30.522952688153683" lon="114.39315691550101">
        <ele>27.48583984375</ele>
        <time>2022-05-01T13:57:13Z</time>
      </trkpt>
      <trkpt lat="30.523011809260574" lon="114.39313493109604">
        <ele>27.55352783203125</ele>
        <time>2022-05-01T13:57:16Z</time>
      </trkpt>
      <trkpt lat="30.523078790279616" lon="114.39314008086359">
        <ele>26.55670166015625</ele>
        <time>2022-05-01T13:57:19Z</time>
      </trkpt>
      <trkpt lat="30.52316068199044" lon="114.39317209285882">
        <ele>27.48284912109375</ele>
        <time>2022-05-01T13:57:22Z</time>
      </trkpt>
      <trkpt lat="30.523297635211538" lon="114.39313110723687">
        <ele>29.7320556640625</ele>
        <time>2022-05-01T13:57:28Z</time>
      </trkpt>
      <trkpt lat="30.523371674915037" lon="114.39308687102044">
        <ele>31.36029052734375</ele>
        <time>2022-05-01T13:57:31Z</time>
      </trkpt>
      <trkpt lat="30.523437573648543" lon="114.39307682539322">
        <ele>29.65301513671875</ele>
        <time>2022-05-01T13:57:34Z</time>
      </trkpt>
      <trkpt lat="30.523582673231825" lon="114.39297098737593">
        <ele>32.13873291015625</ele>
        <time>2022-05-01T13:57:40Z</time>
      </trkpt>
      <trkpt lat="30.52365159059761" lon="114.39275471946661">
        <ele>31.656494140625</ele>
        <time>2022-05-01T13:57:49Z</time>
      </trkpt>
      <trkpt lat="30.523613643292784" lon="114.39265378325383">
        <ele>30.2188720703125</ele>
        <time>2022-05-01T13:57:52Z</time>
      </trkpt>
      <trkpt lat="30.523569452426397" lon="114.3925897504655">
        <ele>29.60260009765625</ele>
        <time>2022-05-01T13:57:55Z</time>
      </trkpt>
      <trkpt lat="30.523490583879667" lon="114.39235070703364">
        <ele>31.17462158203125</ele>
        <time>2022-05-01T13:58:04Z</time>
      </trkpt>
      <trkpt lat="30.52344855641746" lon="114.39232167754065">
        <ele>28.11572265625</ele>
        <time>2022-05-01T13:58:07Z</time>
      </trkpt>
      <trkpt lat="30.52337046025205" lon="114.39230079136533">
        <ele>31.6187744140625</ele>
        <time>2022-05-01T13:58:10Z</time>
      </trkpt>
      <trkpt lat="30.523053446496363" lon="114.39231384327854">
        <ele>33.69268798828125</ele>
        <time>2022-05-01T13:58:22Z</time>
      </trkpt>
      <trkpt lat="30.522780370354244" lon="114.39229487351434">
        <ele>34.52288818359375</ele>
        <time>2022-05-01T13:58:34Z</time>
      </trkpt>
      <trkpt lat="30.52270959135684" lon="114.39229786441265">
        <ele>32.02642822265625</ele>
        <time>2022-05-01T13:58:37Z</time>
      </trkpt>
      <trkpt lat="30.522624434036953" lon="114.39232988970498">
        <ele>31.9554443359375</ele>
        <time>2022-05-01T13:58:40Z</time>
      </trkpt>
      <trkpt lat="30.522527620054927" lon="114.39234075168596">
        <ele>32.6048583984375</ele>
        <time>2022-05-01T13:58:43Z</time>
      </trkpt>
      <trkpt lat="30.52245657846497" lon="114.3922997858882">
        <ele>32.04937744140625</ele>
        <time>2022-05-01T13:58:46Z</time>
      </trkpt>
      <trkpt lat="30.522391493462653" lon="114.39230684635334">
        <ele>31.46014404296875</ele>
        <time>2022-05-01T13:58:49Z</time>
      </trkpt>
      <trkpt lat="30.522244489504107" lon="114.39242787613112">
        <ele>29.54693603515625</ele>
        <time>2022-05-01T13:58:58Z</time>
      </trkpt>
      <trkpt lat="30.522183459204754" lon="114.39250385658008">
        <ele>28.16632080078125</ele>
        <time>2022-05-01T13:59:01Z</time>
      </trkpt>
      <trkpt lat="30.522137599416105" lon="114.39266693668625">
        <ele>30.22784423828125</ele>
        <time>2022-05-01T13:59:07Z</time>
      </trkpt>
      <trkpt lat="30.522131612894324" lon="114.39278198667685">
        <ele>30.53631591796875</ele>
        <time>2022-05-01T13:59:10Z</time>
      </trkpt>
      <trkpt lat="30.522213481685302" lon="114.39294505781096">
        <ele>26.2298583984375</ele>
        <time>2022-05-01T13:59:16Z</time>
      </trkpt>
      <trkpt lat="30.52233359380226" lon="114.3930739370545">
        <ele>23.22393798828125</ele>
        <time>2022-05-01T13:59:22Z</time>
      </trkpt>
      <trkpt lat="30.522518526158215" lon="114.39315803884077">
        <ele>27.4501953125</ele>
        <time>2022-05-01T13:59:28Z</time>
      </trkpt>
      <trkpt lat="30.522606664384586" lon="114.39313198167186">
        <ele>32.38421630859375</ele>
        <time>2022-05-01T13:59:31Z</time>
      </trkpt>
      <trkpt lat="30.522854520542754" lon="114.39315611003443">
        <ele>34.81201171875</ele>
        <time>2022-05-01T13:59:40Z</time>
      </trkpt>
      <trkpt lat="30.523017772992024" lon="114.39314904070017">
        <ele>30.4224853515625</ele>
        <time>2022-05-01T13:59:46Z</time>
      </trkpt>
      <trkpt lat="30.52330169478388" lon="114.39318212044836">
        <ele>30.6094970703125</ele>
        <time>2022-05-01T13:59:55Z</time>
      </trkpt>
      <trkpt lat="30.523347523509504" lon="114.39318808612384">
        <ele>30.005615234375</ele>
        <time>2022-05-01T13:59:58Z</time>
      </trkpt>
      <trkpt lat="30.5234107172793" lon="114.39313489623179">
        <ele>30.916259765625</ele>
        <time>2022-05-01T14:00:01Z</time>
      </trkpt>
      <trkpt lat="30.523548489967606" lon="114.39305782136819">
        <ele>31.100830078125</ele>
        <time>2022-05-01T14:00:07Z</time>
      </trkpt>
      <trkpt lat="30.52363773713688" lon="114.39288795075626">
        <ele>33.3509521484375</ele>
        <time>2022-05-01T14:00:13Z</time>
      </trkpt>
      <trkpt lat="30.52365971512005" lon="114.39281685650731">
        <ele>34.6148681640625</ele>
        <time>2022-05-01T14:00:16Z</time>
      </trkpt>
      <trkpt lat="30.523656750141303" lon="114.39271483156215">
        <ele>30.2484130859375</ele>
        <time>2022-05-01T14:00:19Z</time>
      </trkpt>
      <trkpt lat="30.523621525328334" lon="114.39255691364045">
        <ele>29.8162841796875</ele>
        <time>2022-05-01T14:00:25Z</time>
      </trkpt>
      <trkpt lat="30.523546429553562" lon="114.39244268600372">
        <ele>29.7982177734375</ele>
        <time>2022-05-01T14:00:31Z</time>
      </trkpt>
      <trkpt lat="30.523468615075164" lon="114.39236671791325">
        <ele>30.0057373046875</ele>
        <time>2022-05-01T14:00:34Z</time>
      </trkpt>
      <trkpt lat="30.523400552796698" lon="114.39234474546312">
        <ele>33.62835693359375</ele>
        <time>2022-05-01T14:00:37Z</time>
      </trkpt>
      <trkpt lat="30.523326531040915" lon="114.39228967036868">
        <ele>32.484375</ele>
        <time>2022-05-01T14:00:40Z</time>
      </trkpt>
      <trkpt lat="30.523253588740932" lon="114.39226172901117">
        <ele>32.80230712890625</ele>
        <time>2022-05-01T14:00:43Z</time>
      </trkpt>
      <trkpt lat="30.523098474088986" lon="114.39225577315452">
        <ele>32.912841796875</ele>
        <time>2022-05-01T14:00:49Z</time>
      </trkpt>
      <trkpt lat="30.52303935237087" lon="114.39227667127747">
        <ele>32.0635986328125</ele>
        <time>2022-05-01T14:00:52Z</time>
      </trkpt>
      <trkpt lat="30.52284953117198" lon="114.39224684079471">
        <ele>33.5657958984375</ele>
        <time>2022-05-01T14:00:58Z</time>
      </trkpt>
      <trkpt lat="30.522552582893642" lon="114.3922688450428">
        <ele>30.1160888671875</ele>
        <time>2022-05-01T14:01:13Z</time>
      </trkpt>
      <trkpt lat="30.522394480412224" lon="114.39228676711834">
        <ele>29.8895263671875</ele>
        <time>2022-05-01T14:01:22Z</time>
      </trkpt>
      <trkpt lat="30.522216561626205" lon="114.3924077994809">
        <ele>33.54541015625</ele>
        <time>2022-05-01T14:01:31Z</time>
      </trkpt>
      <trkpt lat="30.52214250046986" lon="114.39255894229228">
        <ele>35.05975341796875</ele>
        <time>2022-05-01T14:01:37Z</time>
      </trkpt>
      <trkpt lat="30.522113456666453" lon="114.39270899690005">
        <ele>34.72088623046875</ele>
        <time>2022-05-01T14:01:43Z</time>
      </trkpt>
      <trkpt lat="30.522131589702454" lon="114.39291603096886">
        <ele>32.0185546875</ele>
        <time>2022-05-01T14:01:52Z</time>
      </trkpt>
      <trkpt lat="30.522295623763263" lon="114.39310216054979">
        <ele>33.57281494140625</ele>
        <time>2022-05-01T14:01:58Z</time>
      </trkpt>
      <trkpt lat="30.522565699298152" lon="114.3932369973623">
        <ele>32.11932373046875</ele>
        <time>2022-05-01T14:02:07Z</time>
      </trkpt>
      <trkpt lat="30.522880547810022" lon="114.39319491066733">
        <ele>32.78326416015625</ele>
        <time>2022-05-01T14:02:22Z</time>
      </trkpt>
      <trkpt lat="30.523004747994296" lon="114.39320114084637">
        <ele>29.96978759765625</ele>
        <time>2022-05-01T14:02:28Z</time>
      </trkpt>
      <trkpt lat="30.523166648459274" lon="114.393169107499">
        <ele>31.47100830078125</ele>
        <time>2022-05-01T14:02:37Z</time>
      </trkpt>
      <trkpt lat="30.523288674766214" lon="114.39320301547697">
        <ele>30.1876220703125</ele>
        <time>2022-05-01T14:02:43Z</time>
      </trkpt>
      <trkpt lat="30.52352759985229" lon="114.39311399219447">
        <ele>26.3756103515625</ele>
        <time>2022-05-01T14:02:52Z</time>
      </trkpt>
      <trkpt lat="30.523679515205544" lon="114.39279487590034">
        <ele>29.7305908203125</ele>
        <time>2022-05-01T14:03:04Z</time>
      </trkpt>
      <trkpt lat="30.523670580053192" lon="114.3927167297542">
        <ele>30.1087646484375</ele>
        <time>2022-05-01T14:03:07Z</time>
      </trkpt>
      <trkpt lat="30.523624763702166" lon="114.39264292859836">
        <ele>30.99090576171875</ele>
        <time>2022-05-01T14:03:10Z</time>
      </trkpt>
      <trkpt lat="30.523625319856478" lon="114.39256776694728">
        <ele>30.62939453125</ele>
        <time>2022-05-01T14:03:13Z</time>
      </trkpt>
      <trkpt lat="30.52357951617217" lon="114.39242965882498">
        <ele>32.00213623046875</ele>
        <time>2022-05-01T14:03:19Z</time>
      </trkpt>
      <trkpt lat="30.52351036927238" lon="114.39240687238618">
        <ele>30.4622802734375</ele>
        <time>2022-05-01T14:03:22Z</time>
      </trkpt>
      <trkpt lat="30.523383472865408" lon="114.39232168322906">
        <ele>32.0472412109375</ele>
        <time>2022-05-01T14:03:28Z</time>
      </trkpt>
      <trkpt lat="30.523260631960348" lon="114.39229971561433">
        <ele>30.32275390625</ele>
        <time>2022-05-01T14:03:34Z</time>
      </trkpt>
      <trkpt lat="30.523167343172677" lon="114.39231166262236">
        <ele>32.0506591796875</ele>
        <time>2022-05-01T14:03:37Z</time>
      </trkpt>
      <trkpt lat="30.522980508116" lon="114.39226582293436">
        <ele>30.689453125</ele>
        <time>2022-05-01T14:03:46Z</time>
      </trkpt>
      <trkpt lat="30.522802335319344" lon="114.39229867031942">
        <ele>32.99169921875</ele>
        <time>2022-05-01T14:03:55Z</time>
      </trkpt>
      <trkpt lat="30.522634477403546" lon="114.39228077672207">
        <ele>34.14581298828125</ele>
        <time>2022-05-01T14:04:01Z</time>
      </trkpt>
      <trkpt lat="30.522350541297616" lon="114.39232584357433">
        <ele>33.66241455078125</ele>
        <time>2022-05-01T14:04:13Z</time>
      </trkpt>
      <trkpt lat="30.522229580072818" lon="114.39239884416014">
        <ele>34.6552734375</ele>
        <time>2022-05-01T14:04:19Z</time>
      </trkpt>
      <trkpt lat="30.52212160678822" lon="114.39262786482536">
        <ele>37.8463134765625</ele>
        <time>2022-05-01T14:04:28Z</time>
      </trkpt>
      <trkpt lat="30.522129424369137" lon="114.39289188141417">
        <ele>30.7686767578125</ele>
        <time>2022-05-01T14:04:40Z</time>
      </trkpt>
      <trkpt lat="30.522304840565596" lon="114.3931230535539">
        <ele>32.32867431640625</ele>
        <time>2022-05-01T14:04:49Z</time>
      </trkpt>
      <trkpt lat="30.522367752332293" lon="114.39313797221834">
        <ele>33.00787353515625</ele>
        <time>2022-05-01T14:04:52Z</time>
      </trkpt>
      <trkpt lat="30.522427676308183" lon="114.39318301088304">
        <ele>33.06817626953125</ele>
        <time>2022-05-01T14:04:55Z</time>
      </trkpt>
      <trkpt lat="30.522522590039532" lon="114.39318218854062">
        <ele>34.09027099609375</ele>
        <time>2022-05-01T14:05:01Z</time>
      </trkpt>
      <trkpt lat="30.522598525062577" lon="114.39315613240778">
        <ele>34.26416015625</ele>
        <time>2022-05-01T14:05:04Z</time>
      </trkpt>
      <trkpt lat="30.522779672984267" lon="114.39316507108661">
        <ele>30.46490478515625</ele>
        <time>2022-05-01T14:05:13Z</time>
      </trkpt>
      <trkpt lat="30.522843666938638" lon="114.3931959992877">
        <ele>31.0643310546875</ele>
        <time>2022-05-01T14:05:16Z</time>
      </trkpt>
      <trkpt lat="30.523100751214763" lon="114.39316992730512">
        <ele>25.75335693359375</ele>
        <time>2022-05-01T14:05:25Z</time>
      </trkpt>
      <trkpt lat="30.52323281278988" lon="114.3931940658321">
        <ele>27.85699462890625</ele>
        <time>2022-05-01T14:05:31Z</time>
      </trkpt>
      <trkpt lat="30.523432686695916" lon="114.39311182970444">
        <ele>30.55487060546875</ele>
        <time>2022-05-01T14:05:37Z</time>
      </trkpt>
      <trkpt lat="30.523587533056435" lon="114.39310096224692">
        <ele>34.83251953125</ele>
        <time>2022-05-01T14:05:40Z</time>
      </trkpt>
      <trkpt lat="30.523691679655446" lon="114.39302199101968">
        <ele>36.05462646484375</ele>
        <time>2022-05-01T14:05:43Z</time>
      </trkpt>
      <trkpt lat="30.523671645541746" lon="114.39282580982831">
        <ele>31.01251220703125</ele>
        <time>2022-05-01T14:05:52Z</time>
      </trkpt>
      <trkpt lat="30.52367762540666" lon="114.39274684823164">
        <ele>29.626220703125</ele>
        <time>2022-05-01T14:05:55Z</time>
      </trkpt>
      <trkpt lat="30.523653516469103" lon="114.39260168213973">
        <ele>27.6436767578125</ele>
        <time>2022-05-01T14:06:01Z</time>
      </trkpt>
      <trkpt lat="30.523522588952794" lon="114.39232167107008">
        <ele>30.46417236328125</ele>
        <time>2022-05-01T14:06:13Z</time>
      </trkpt>
      <trkpt lat="30.523409524466853" lon="114.39222969763752">
        <ele>32.209228515625</ele>
        <time>2022-05-01T14:06:19Z</time>
      </trkpt>
      <trkpt lat="30.523274204688253" lon="114.39223079481111">
        <ele>35.222900390625</ele>
        <time>2022-05-01T14:06:25Z</time>
      </trkpt>
      <trkpt lat="30.523171418751705" lon="114.39227177566536">
        <ele>35.8040771484375</ele>
        <time>2022-05-01T14:06:28Z</time>
      </trkpt>
      <trkpt lat="30.522888296165586" lon="114.39231765644094">
        <ele>39.54937744140625</ele>
        <time>2022-05-01T14:06:37Z</time>
      </trkpt>
      <trkpt lat="30.522750549120683" lon="114.39225064816169">
        <ele>38.92059326171875</ele>
        <time>2022-05-01T14:06:43Z</time>
      </trkpt>
      <trkpt lat="30.522596517933657" lon="114.39225066162385">
        <ele>38.71722412109375</ele>
        <time>2022-05-01T14:06:49Z</time>
      </trkpt>
      <trkpt lat="30.52253549903739" lon="114.3922658618278">
        <ele>39.29705810546875</ele>
        <time>2022-05-01T14:06:52Z</time>
      </trkpt>
      <trkpt lat="30.522467436412917" lon="114.39224578884206">
        <ele>38.4493408203125</ele>
        <time>2022-05-01T14:06:55Z</time>
      </trkpt>
      <trkpt lat="30.52231638279995" lon="114.39227293574343">
        <ele>38.78033447265625</ele>
        <time>2022-05-01T14:07:01Z</time>
      </trkpt>
      <trkpt lat="30.52224558131314" lon="114.3923909739374">
        <ele>36.96807861328125</ele>
        <time>2022-05-01T14:07:07Z</time>
      </trkpt>
      <trkpt lat="30.52219052318772" lon="114.39243385031088">
        <ele>36.8038330078125</ele>
        <time>2022-05-01T14:07:10Z</time>
      </trkpt>
      <trkpt lat="30.52216662733936" lon="114.39260398282453">
        <ele>35.58697509765625</ele>
        <time>2022-05-01T14:07:16Z</time>
      </trkpt>
      <trkpt lat="30.52213759579346" lon="114.3926870160287">
        <ele>34.42938232421875</ele>
        <time>2022-05-01T14:07:19Z</time>
      </trkpt>
      <trkpt lat="30.522143539994705" lon="114.39280993406862">
        <ele>31.785888671875</ele>
        <time>2022-05-01T14:07:25Z</time>
      </trkpt>
      <trkpt lat="30.52224058949827" lon="114.39300692241714">
        <ele>31.225341796875</ele>
        <time>2022-05-01T14:07:34Z</time>
      </trkpt>
      <trkpt lat="30.52239758023658" lon="114.3931509943441">
        <ele>33.51025390625</ele>
        <time>2022-05-01T14:07:43Z</time>
      </trkpt>
      <trkpt lat="30.52270347094099" lon="114.39316507774647">
        <ele>29.84295654296875</ele>
        <time>2022-05-01T14:07:55Z</time>
      </trkpt>
      <trkpt lat="30.52280543333951" lon="114.39317700818881">
        <ele>30.06573486328125</ele>
        <time>2022-05-01T14:07:58Z</time>
      </trkpt>
      <trkpt lat="30.52286862294145" lon="114.39315013913027">
        <ele>28.1314697265625</ele>
        <time>2022-05-01T14:08:01Z</time>
      </trkpt>
      <trkpt lat="30.522939400862796" lon="114.39315311778002">
        <ele>28.14215087890625</ele>
        <time>2022-05-01T14:08:07Z</time>
      </trkpt>
      <trkpt lat="30.522991734801312" lon="114.39317889134969">
        <ele>27.1650390625</ele>
        <time>2022-05-01T14:08:10Z</time>
      </trkpt>
      <trkpt lat="30.523068752266504" lon="114.39316694526376">
        <ele>25.713134765625</ele>
        <time>2022-05-01T14:08:13Z</time>
      </trkpt>
      <trkpt lat="30.523122713904257" lon="114.39318891981955">
        <ele>27.20257568359375</ele>
        <time>2022-05-01T14:08:16Z</time>
      </trkpt>
      <trkpt lat="30.523462514379084" lon="114.39312593720709">
        <ele>26.1912841796875</ele>
        <time>2022-05-01T14:08:31Z</time>
      </trkpt>
      <trkpt lat="30.52354549848505" lon="114.39310992040755">
        <ele>27.2410888671875</ele>
        <time>2022-05-01T14:08:34Z</time>
      </trkpt>
      <trkpt lat="30.523586454877837" lon="114.39306080287231">
        <ele>28.88641357421875</ele>
        <time>2022-05-01T14:08:37Z</time>
      </trkpt>
      <trkpt lat="30.523620641001546" lon="114.39295687405372">
        <ele>29.58935546875</ele>
        <time>2022-05-01T14:08:40Z</time>
      </trkpt>
      <trkpt lat="30.523654547322444" lon="114.39290585807996">
        <ele>31.92303466796875</ele>
        <time>2022-05-01T14:08:43Z</time>
      </trkpt>
      <trkpt lat="30.523657571242875" lon="114.39267277337436">
        <ele>26.7406005859375</ele>
        <time>2022-05-01T14:08:52Z</time>
      </trkpt>
      <trkpt lat="30.52364429794753" lon="114.39259272867862">
        <ele>26.94366455078125</ele>
        <time>2022-05-01T14:08:55Z</time>
      </trkpt>
      <trkpt lat="30.52354237102972" lon="114.39239465934105">
        <ele>29.76812744140625</ele>
        <time>2022-05-01T14:09:04Z</time>
      </trkpt>
      <trkpt lat="30.52334660496356" lon="114.3922568368155">
        <ele>30.70855712890625</ele>
        <time>2022-05-01T14:09:13Z</time>
      </trkpt>
      <trkpt lat="30.523261448657976" lon="114.39228370663514">
        <ele>30.93487548828125</ele>
        <time>2022-05-01T14:09:16Z</time>
      </trkpt>
      <trkpt lat="30.52320125329361" lon="114.39224870941204">
        <ele>31.5870361328125</ele>
        <time>2022-05-01T14:09:19Z</time>
      </trkpt>
      <trkpt lat="30.523130467766666" lon="114.39228480343226">
        <ele>32.21014404296875</ele>
        <time>2022-05-01T14:09:22Z</time>
      </trkpt>
      <trkpt lat="30.522810478861906" lon="114.39225769768402">
        <ele>27.8216552734375</ele>
        <time>2022-05-01T14:09:37Z</time>
      </trkpt>
      <trkpt lat="30.52276247477241" lon="114.39228266489626">
        <ele>28.27960205078125</ele>
        <time>2022-05-01T14:09:40Z</time>
      </trkpt>
      <trkpt lat="30.52242945970537" lon="114.39230277297129">
        <ele>31.6187744140625</ele>
        <time>2022-05-01T14:09:55Z</time>
      </trkpt>
      <trkpt lat="30.522284634789496" lon="114.39237387619211">
        <ele>33.375</ele>
        <time>2022-05-01T14:10:01Z</time>
      </trkpt>
      <trkpt lat="30.522205708798793" lon="114.39243683371598">
        <ele>34.60711669921875</ele>
        <time>2022-05-01T14:10:07Z</time>
      </trkpt>
      <trkpt lat="30.522124596952942" lon="114.39258879137913">
        <ele>33.45556640625</ele>
        <time>2022-05-01T14:10:13Z</time>
      </trkpt>
      <trkpt lat="30.522176592582802" lon="114.39299498875495">
        <ele>28.55682373046875</ele>
        <time>2022-05-01T14:10:28Z</time>
      </trkpt>
      <trkpt lat="30.5223748130743" lon="114.39307610423354">
        <ele>25.5511474609375</ele>
        <time>2022-05-01T14:10:37Z</time>
      </trkpt>
      <trkpt lat="30.522385648370147" lon="114.39315018134086">
        <ele>25.039306640625</ele>
        <time>2022-05-01T14:10:40Z</time>
      </trkpt>
      <trkpt lat="30.522628616255787" lon="114.39321908278372">
        <ele>27.11285400390625</ele>
        <time>2022-05-01T14:10:52Z</time>
      </trkpt>
      <trkpt lat="30.52273546323993" lon="114.3932101189115">
        <ele>28.57696533203125</ele>
        <time>2022-05-01T14:10:58Z</time>
      </trkpt>
      <trkpt lat="30.522810588036695" lon="114.39316289759387">
        <ele>29.85760498046875</ele>
        <time>2022-05-01T14:11:01Z</time>
      </trkpt>
      <trkpt lat="30.523122713732388" lon="114.39319000521633">
        <ele>22.8079833984375</ele>
        <time>2022-05-01T14:11:13Z</time>
      </trkpt>
      <trkpt lat="30.52330358425271" lon="114.39323801827186">
        <ele>20.99456787109375</ele>
        <time>2022-05-01T14:11:19Z</time>
      </trkpt>
      <trkpt lat="30.5234527383208" lon="114.39321087027099">
        <ele>23.57086181640625</ele>
        <time>2022-05-01T14:11:25Z</time>
      </trkpt>
      <trkpt lat="30.523578575072374" lon="114.39315686079888">
        <ele>27.32861328125</ele>
        <time>2022-05-01T14:11:31Z</time>
      </trkpt>
      <trkpt lat="30.523630661687566" lon="114.3930350210123">
        <ele>26.53912353515625</ele>
        <time>2022-05-01T14:11:34Z</time>
      </trkpt>
      <trkpt lat="30.523705571379562" lon="114.39266707098926">
        <ele>31.62615966796875</ele>
        <time>2022-05-01T14:11:49Z</time>
      </trkpt>
      <trkpt lat="30.52371860882299" lon="114.39255392040556">
        <ele>32.0140380859375</ele>
        <time>2022-05-01T14:11:52Z</time>
      </trkpt>
      <trkpt lat="30.523665467410975" lon="114.39249965695093">
        <ele>33.25469970703125</ele>
        <time>2022-05-01T14:11:55Z</time>
      </trkpt>
      <trkpt lat="30.523626432841056" lon="114.39241771580193">
        <ele>34.42938232421875</ele>
        <time>2022-05-01T14:11:58Z</time>
      </trkpt>
      <trkpt lat="30.52356135970615" lon="114.392363725085">
        <ele>34.7203369140625</ele>
        <time>2022-05-01T14:12:01Z</time>
      </trkpt>
      <trkpt lat="30.52350957810307" lon="114.39229182506935">
        <ele>36.11041259765625</ele>
        <time>2022-05-01T14:12:04Z</time>
      </trkpt>
      <trkpt lat="30.52344857221743" lon="114.39224163303895">
        <ele>34.2081298828125</ele>
        <time>2022-05-01T14:12:07Z</time>
      </trkpt>
      <trkpt lat="30.52331515890694" lon="114.39220175823317">
        <ele>33.32879638671875</ele>
        <time>2022-05-01T14:12:13Z</time>
      </trkpt>
      <trkpt lat="30.523152447385456" lon="114.39221479659815">
        <ele>34.62420654296875</ele>
        <time>2022-05-01T14:12:19Z</time>
      </trkpt>
      <trkpt lat="30.523084384464788" lon="114.39219662301505">
        <ele>34.7318115234375</ele>
        <time>2022-05-01T14:12:22Z</time>
      </trkpt>
      <trkpt lat="30.52293441026019" lon="114.39225063209231">
        <ele>36.0560302734375</ele>
        <time>2022-05-01T14:12:28Z</time>
      </trkpt>
      <trkpt lat="30.522655361182434" lon="114.39226666536328">
        <ele>37.46368408203125</ele>
        <time>2022-05-01T14:12:40Z</time>
      </trkpt>
      <trkpt lat="30.522482621402553" lon="114.39225175692577">
        <ele>38.720947265625</ele>
        <time>2022-05-01T14:12:46Z</time>
      </trkpt>
      <trkpt lat="30.522277580763" lon="114.39239097114073">
        <ele>37.93829345703125</ele>
        <time>2022-05-01T14:12:58Z</time>
      </trkpt>
      <trkpt lat="30.52215172960949" lon="114.39251091419938">
        <ele>35.514892578125</ele>
        <time>2022-05-01T14:13:04Z</time>
      </trkpt>
      <trkpt lat="30.522104529498403" lon="114.39258879313296">
        <ele>35.7647705078125</ele>
        <time>2022-05-01T14:13:07Z</time>
      </trkpt>
      <trkpt lat="30.52210854369445" lon="114.3928899838222">
        <ele>36.59814453125</ele>
        <time>2022-05-01T14:13:16Z</time>
      </trkpt>
      <trkpt lat="30.52223380117446" lon="114.39306010704948">
        <ele>34.5169677734375</ele>
        <time>2022-05-01T14:13:25Z</time>
      </trkpt>
      <trkpt lat="30.52228477847517" lon="114.39308995083945">
        <ele>32.809326171875</ele>
        <time>2022-05-01T14:13:28Z</time>
      </trkpt>
      <trkpt lat="30.522384570895884" lon="114.3931051376048">
        <ele>33.45556640625</ele>
        <time>2022-05-01T14:13:31Z</time>
      </trkpt>
      <trkpt lat="30.522443673496273" lon="114.39319901908819">
        <ele>31.35443115234375</ele>
        <time>2022-05-01T14:13:34Z</time>
      </trkpt>
      <trkpt lat="30.522615600473546" lon="114.39321311423143">
        <ele>24.0880126953125</ele>
        <time>2022-05-01T14:13:43Z</time>
      </trkpt>
      <trkpt lat="30.522824415407182" lon="114.39318107676557">
        <ele>21.35162353515625</ele>
        <time>2022-05-01T14:13:52Z</time>
      </trkpt>
      <trkpt lat="30.52312162853382" lon="114.39319299015253">
        <ele>24.04351806640625</ele>
        <time>2022-05-01T14:14:04Z</time>
      </trkpt>
      <trkpt lat="30.52326155520478" lon="114.39321197237824">
        <ele>22.50274658203125</ele>
        <time>2022-05-01T14:14:10Z</time>
      </trkpt>
      <trkpt lat="30.523361622587334" lon="114.39320300910137">
        <ele>25.094482421875</ele>
        <time>2022-05-01T14:14:13Z</time>
      </trkpt>
      <trkpt lat="30.523504548465986" lon="114.39311996387038">
        <ele>25.60736083984375</ele>
        <time>2022-05-01T14:14:19Z</time>
      </trkpt>
      <trkpt lat="30.523575609580778" lon="114.3930488645337">
        <ele>29.87109375</ele>
        <time>2022-05-01T14:14:22Z</time>
      </trkpt>
      <trkpt lat="30.52363366552168" lon="114.392910744124">
        <ele>34.7010498046875</ele>
        <time>2022-05-01T14:14:28Z</time>
      </trkpt>
      <trkpt lat="30.52366867128787" lon="114.39277588277619">
        <ele>32.68096923828125</ele>
        <time>2022-05-01T14:14:31Z</time>
      </trkpt>
      <trkpt lat="30.52364373576615" lon="114.39270180824167">
        <ele>33.5626220703125</ele>
        <time>2022-05-01T14:14:34Z</time>
      </trkpt>
      <trkpt lat="30.523652699047663" lon="114.3926228468572">
        <ele>33.56463623046875</ele>
        <time>2022-05-01T14:14:37Z</time>
      </trkpt>
      <trkpt lat="30.52363129068384" lon="114.39254171770261">
        <ele>32.52313232421875</ele>
        <time>2022-05-01T14:14:40Z</time>
      </trkpt>
      <trkpt lat="30.523583308884863" lon="114.39244973760587">
        <ele>31.9466552734375</ele>
        <time>2022-05-01T14:14:43Z</time>
      </trkpt>
      <trkpt lat="30.52353450655919" lon="114.39239574538351">
        <ele>31.268798828125</ele>
        <time>2022-05-01T14:14:46Z</time>
      </trkpt>
      <trkpt lat="30.52346752935111" lon="114.39237187343842">
        <ele>30.7430419921875</ele>
        <time>2022-05-01T14:14:49Z</time>
      </trkpt>
      <trkpt lat="30.523421444932637" lon="114.3922877627114">
        <ele>31.25396728515625</ele>
        <time>2022-05-01T14:14:52Z</time>
      </trkpt>
      <trkpt lat="30.52333358868305" lon="114.39225466725753">
        <ele>29.56317138671875</ele>
        <time>2022-05-01T14:14:55Z</time>
      </trkpt>
      <trkpt lat="30.522996499963124" lon="114.39230570812597">
        <ele>27.23968505859375</ele>
        <time>2022-05-01T14:15:07Z</time>
      </trkpt>
      <trkpt lat="30.52280044138057" lon="114.39227669215823">
        <ele>31.95404052734375</ele>
        <time>2022-05-01T14:15:13Z</time>
      </trkpt>
      <trkpt lat="30.522578605339437" lon="114.39232473829054">
        <ele>32.970947265625</ele>
        <time>2022-05-01T14:15:19Z</time>
      </trkpt>
      <trkpt lat="30.52251461252707" lon="114.39229381139144">
        <ele>34.289306640625</ele>
        <time>2022-05-01T14:15:22Z</time>
      </trkpt>
      <trkpt lat="30.522435426290134" lon="114.39229978773686">
        <ele>33.01239013671875</ele>
        <time>2022-05-01T14:15:25Z</time>
      </trkpt>
      <trkpt lat="30.522274334565925" lon="114.39234972798049">
        <ele>34.55975341796875</ele>
        <time>2022-05-01T14:15:31Z</time>
      </trkpt>
      <trkpt lat="30.52220462407162" lon="114.39243683381078">
        <ele>33.60211181640625</ele>
        <time>2022-05-01T14:15:34Z</time>
      </trkpt>
      <trkpt lat="30.522123529709102" lon="114.39249490759325">
        <ele>31.91900634765625</ele>
        <time>2022-05-01T14:15:37Z</time>
      </trkpt>
      <trkpt lat="30.522130568822522" lon="114.39255704394874">
        <ele>30.27423095703125</ele>
        <time>2022-05-01T14:15:40Z</time>
      </trkpt>
      <trkpt lat="30.522097460884503" lon="114.39268701953634">
        <ele>31.1502685546875</ele>
        <time>2022-05-01T14:15:43Z</time>
      </trkpt>
      <trkpt lat="30.522131599982195" lon="114.39285606367824">
        <ele>29.83819580078125</ele>
        <time>2022-05-01T14:15:49Z</time>
      </trkpt>
      <trkpt lat="30.522298614598512" lon="114.3930541317412">
        <ele>23.51904296875</ele>
        <time>2022-05-01T14:15:55Z</time>
      </trkpt>
      <trkpt lat="30.522469721169557" lon="114.39311001442896">
        <ele>23.12652587890625</ele>
        <time>2022-05-01T14:16:01Z</time>
      </trkpt>
      <trkpt lat="30.52256951424119" lon="114.39312113098423">
        <ele>21.43145751953125</ele>
        <time>2022-05-01T14:16:04Z</time>
      </trkpt>
      <trkpt lat="30.522735468778038" lon="114.39317511486045">
        <ele>19.09619140625</ele>
        <time>2022-05-01T14:16:10Z</time>
      </trkpt>
      <trkpt lat="30.522897637639193" lon="114.39316099054413">
        <ele>17.77923583984375</ele>
        <time>2022-05-01T14:16:16Z</time>
      </trkpt>
      <trkpt lat="30.52298983683196" lon="114.3931769920723">
        <ele>16.38421630859375</ele>
        <time>2022-05-01T14:16:19Z</time>
      </trkpt>
      <trkpt lat="30.523151735075583" lon="114.39315906889479">
        <ele>19.46826171875</ele>
        <time>2022-05-01T14:16:25Z</time>
      </trkpt>
      <trkpt lat="30.523196747538872" lon="114.39318212962067">
        <ele>21.48455810546875</ele>
        <time>2022-05-01T14:16:28Z</time>
      </trkpt>
      <trkpt lat="30.52341749808188" lon="114.39312702653496">
        <ele>27.8328857421875</ele>
        <time>2022-05-01T14:16:37Z</time>
      </trkpt>
      <trkpt lat="30.523506724431744" lon="114.39307980417443">
        <ele>28.89892578125</ele>
        <time>2022-05-01T14:16:40Z</time>
      </trkpt>
      <trkpt lat="30.523583480614498" lon="114.39300789043776">
        <ele>31.69964599609375</ele>
        <time>2022-05-01T14:16:43Z</time>
      </trkpt>
      <trkpt lat="30.523640725827864" lon="114.3928548464035">
        <ele>30.68768310546875</ele>
        <time>2022-05-01T14:16:49Z</time>
      </trkpt>
      <trkpt lat="30.523674655475045" lon="114.39267385725081">
        <ele>29.1881103515625</ele>
        <time>2022-05-01T14:16:55Z</time>
      </trkpt>
      <trkpt lat="30.52353938339678" lon="114.39241880876651">
        <ele>30.56243896484375</ele>
        <time>2022-05-01T14:17:04Z</time>
      </trkpt>
      <trkpt lat="30.52348136291946" lon="114.39235477791284">
        <ele>32.486328125</ele>
        <time>2022-05-01T14:17:07Z</time>
      </trkpt>
      <trkpt lat="30.52343853451423" lon="114.39226171284666">
        <ele>33.326904296875</ele>
        <time>2022-05-01T14:17:10Z</time>
      </trkpt>
      <trkpt lat="30.523351491847567" lon="114.39222861736324">
        <ele>34.0830078125</ele>
        <time>2022-05-01T14:17:13Z</time>
      </trkpt>
      <trkpt lat="30.52319528433797" lon="114.3922636334663">
        <ele>32.10302734375</ele>
        <time>2022-05-01T14:17:19Z</time>
      </trkpt>
      <trkpt lat="30.522858481569543" lon="114.39223978525598">
        <ele>33.7237548828125</ele>
        <time>2022-05-01T14:17:31Z</time>
      </trkpt>
      <trkpt lat="30.522716383581784" lon="114.39223382826782">
        <ele>30.80706787109375</ele>
        <time>2022-05-01T14:17:37Z</time>
      </trkpt>
      <trkpt lat="30.52266240852689" lon="114.39228375899118">
        <ele>30.2435302734375</ele>
        <time>2022-05-01T14:17:40Z</time>
      </trkpt>
      <trkpt lat="30.522564505271898" lon="114.39231768473994">
        <ele>32.53955078125</ele>
        <time>2022-05-01T14:17:43Z</time>
      </trkpt>
      <trkpt lat="30.52245061996679" lon="114.39226179919027">
        <ele>34.7279052734375</ele>
        <time>2022-05-01T14:17:46Z</time>
      </trkpt>
      <trkpt lat="30.52233427902708" lon="114.392281888308">
        <ele>37.28179931640625</ele>
        <time>2022-05-01T14:17:49Z</time>
      </trkpt>
      <trkpt lat="30.522255358834364" lon="114.3923139130304">
        <ele>37.0513916015625</ele>
        <time>2022-05-01T14:17:52Z</time>
      </trkpt>
      <trkpt lat="30.522180229224592" lon="114.3923768700405">
        <ele>35.3743896484375</ele>
        <time>2022-05-01T14:17:55Z</time>
      </trkpt>
      <trkpt lat="30.522158502262783" lon="114.39254781591924">
        <ele>33.58441162109375</ele>
        <time>2022-05-01T14:17:58Z</time>
      </trkpt>
      <trkpt lat="30.522161441510534" lon="114.39278985304274">
        <ele>29.69097900390625</ele>
        <time>2022-05-01T14:18:04Z</time>
      </trkpt>
      <trkpt lat="30.522192608847895" lon="114.39289703145305">
        <ele>28.8724365234375</ele>
        <time>2022-05-01T14:18:07Z</time>
      </trkpt>
      <trkpt lat="30.52233766232689" lon="114.39306905244145">
        <ele>26.9949951171875</ele>
        <time>2022-05-01T14:18:13Z</time>
      </trkpt>
      <trkpt lat="30.522489778820205" lon="114.39317106609845">
        <ele>26.5745849609375</ele>
        <time>2022-05-01T14:18:19Z</time>
      </trkpt>
      <trkpt lat="30.522577639795557" lon="114.39318299777673">
        <ele>26.06353759765625</ele>
        <time>2022-05-01T14:18:22Z</time>
      </trkpt>
      <trkpt lat="30.522577639795557" lon="114.39318299777673">
        <ele>26.06353759765625</ele>
        <time>2022-05-01T14:18:27Z</time>
      </trkpt>
    </trkseg>
  </trk>
</gpx>