<?xml version="1.0" encoding="UTF-8"?>
<gpx xmlns="http://www.topografix.com/GPX/1/1" xmlns:gpxtpx="http://www.garmin.com/xmlschemas/TrackPointExtension/v1" xmlns:xsi="http://www.w3.org/2001/XMLSchema-instance" xsi:schemaLocation="http://www.topografix.com/GPX/1/1 http://www.topografix.com/GPX/1/1/gpx.xsd" version="1.1" creator="gpx.py -- https://github.com/tkrajina/gpxpy">
  <trk>
    <name>gpx from keep</name>
    <type>Run</type>
    <trkseg>
      <trkpt lat="36.030134581659965" lon="119.40169520379465">
        <ele>64.0589599609375</ele>
        <time>2023-06-08T13:23:22Z</time>
      </trkpt>
      <trkpt lat="36.0300835719632" lon="119.40159915260278">
        <ele>64.44219970703125</ele>
        <time>2023-06-08T13:23:28Z</time>
      </trkpt>
      <trkpt lat="36.03000251232936" lon="119.40123094833702">
        <ele>65.0489501953125</ele>
        <time>2023-06-08T13:23:40Z</time>
      </trkpt>
      <trkpt lat="36.029881467730895" lon="119.40086175566512">
        <ele>68.3963623046875</ele>
        <time>2023-06-08T13:23:52Z</time>
      </trkpt>
      <trkpt lat="36.02980146258907" lon="119.40073469543758">
        <ele>68.7025146484375</ele>
        <time>2023-06-08T13:23:58Z</time>
      </trkpt>
      <trkpt lat="36.02957647229637" lon="119.40049759397945">
        <ele>68.9761962890625</ele>
        <time>2023-06-08T13:24:10Z</time>
      </trkpt>
      <trkpt lat="36.02944948333586" lon="119.40039055206555">
        <ele>69.62841796875</ele>
        <time>2023-06-08T13:24:19Z</time>
      </trkpt>
      <trkpt lat="36.02941048071416" lon="119.40032052004409">
        <ele>71.51702880859375</ele>
        <time>2023-06-08T13:24:22Z</time>
      </trkpt>
      <trkpt lat="36.029353485827386" lon="119.4002715011285">
        <ele>72.55224609375</ele>
        <time>2023-06-08T13:24:25Z</time>
      </trkpt>
      <trkpt lat="36.02920051308926" lon="119.40022249312831">
        <ele>67.9688720703125</ele>
        <time>2023-06-08T13:24:34Z</time>
      </trkpt>
      <trkpt lat="36.02898556118328" lon="119.40021451317284">
        <ele>63.51043701171875</ele>
        <time>2023-06-08T13:24:43Z</time>
      </trkpt>
      <trkpt lat="36.02868463190257" lon="119.40022455209592">
        <ele>60.95196533203125</ele>
        <time>2023-06-08T13:24:55Z</time>
      </trkpt>
      <trkpt lat="36.02836371626179" lon="119.4002906220969">
        <ele>61.65155029296875</ele>
        <time>2023-06-08T13:25:10Z</time>
      </trkpt>
      <trkpt lat="36.02810680441806" lon="119.40046574217777">
        <ele>61.3646240234375</ele>
        <time>2023-06-08T13:25:22Z</time>
      </trkpt>
      <trkpt lat="36.027865895632075" lon="119.40067087829524">
        <ele>61.83294677734375</ele>
        <time>2023-06-08T13:25:34Z</time>
      </trkpt>
      <trkpt lat="36.02780691459173" lon="119.40070090107828">
        <ele>59.5201416015625</ele>
        <time>2023-06-08T13:25:37Z</time>
      </trkpt>
      <trkpt lat="36.02767792815281" lon="119.40061086724035">
        <ele>59.6826171875</ele>
        <time>2023-06-08T13:25:43Z</time>
      </trkpt>
      <trkpt lat="36.02743793854336" lon="119.40034875611656">
        <ele>60.5482177734375</ele>
        <time>2023-06-08T13:25:59Z</time>
      </trkpt>
      <trkpt lat="36.02725193927666" lon="119.40008464178852">
        <ele>59.513916015625</ele>
        <time>2023-06-08T13:26:11Z</time>
      </trkpt>
      <trkpt lat="36.027139953052085" lon="119.40000561466603">
        <ele>60.18157958984375</ele>
        <time>2023-06-08T13:26:17Z</time>
      </trkpt>
      <trkpt lat="36.02706396768674" lon="119.39998661370437">
        <ele>60.62335205078125</ele>
        <time>2023-06-08T13:26:20Z</time>
      </trkpt>
      <trkpt lat="36.02691000623213" lon="119.40000764149201">
        <ele>59.319091796875</ele>
        <time>2023-06-08T13:26:26Z</time>
      </trkpt>
      <trkpt lat="36.02684301969319" lon="119.39999464251459">
        <ele>58.47979736328125</ele>
        <time>2023-06-08T13:26:29Z</time>
      </trkpt>
      <trkpt lat="36.02658505527719" lon="119.39983159078587">
        <ele>58.185546875</ele>
        <time>2023-06-08T13:26:41Z</time>
      </trkpt>
      <trkpt lat="36.02643607611295" lon="119.39973556068813">
        <ele>60.6175537109375</ele>
        <time>2023-06-08T13:26:47Z</time>
      </trkpt>
      <trkpt lat="36.026368089691495" lon="119.39972056105331">
        <ele>60.712158203125</ele>
        <time>2023-06-08T13:26:50Z</time>
      </trkpt>
      <trkpt lat="36.02618712927411" lon="119.39970557411898">
        <ele>56.68707275390625</ele>
        <time>2023-06-08T13:26:59Z</time>
      </trkpt>
      <trkpt lat="36.02592616586138" lon="119.3995285187434">
        <ele>56.9644775390625</ele>
        <time>2023-06-08T13:27:11Z</time>
      </trkpt>
      <trkpt lat="36.02566820802455" lon="119.39939148337706">
        <ele>60.1533203125</ele>
        <time>2023-06-08T13:27:23Z</time>
      </trkpt>
      <trkpt lat="36.025496233223684" lon="119.39927144720417">
        <ele>60.969970703125</ele>
        <time>2023-06-08T13:27:32Z</time>
      </trkpt>
      <trkpt lat="36.02532725503912" lon="119.39912139796053">
        <ele>62.7945556640625</ele>
        <time>2023-06-08T13:27:41Z</time>
      </trkpt>
      <trkpt lat="36.02518528268627" lon="119.39907539323693">
        <ele>61.12353515625</ele>
        <time>2023-06-08T13:27:47Z</time>
      </trkpt>
      <trkpt lat="36.024992309410756" lon="119.39890633999643">
        <ele>64.8001708984375</ele>
        <time>2023-06-08T13:27:56Z</time>
      </trkpt>
      <trkpt lat="36.02485433461166" lon="119.39884032667115">
        <ele>63.345458984375</ele>
        <time>2023-06-08T13:28:02Z</time>
      </trkpt>
      <trkpt lat="36.02456939712003" lon="119.39880834478531">
        <ele>61.78802490234375</ele>
        <time>2023-06-08T13:28:14Z</time>
      </trkpt>
      <trkpt lat="36.02437244747732" lon="119.39885938906083">
        <ele>61.18292236328125</ele>
        <time>2023-06-08T13:28:23Z</time>
      </trkpt>
      <trkpt lat="36.02432846332275" lon="119.39891641893712">
        <ele>61.84307861328125</ele>
        <time>2023-06-08T13:28:29Z</time>
      </trkpt>
      <trkpt lat="36.024349476265975" lon="119.39908549158406">
        <ele>60.95550537109375</ele>
        <time>2023-06-08T13:28:38Z</time>
      </trkpt>
      <trkpt lat="36.02434949461404" lon="119.39924856544464">
        <ele>59.0457763671875</ele>
        <time>2023-06-08T13:28:44Z</time>
      </trkpt>
      <trkpt lat="36.02430355083444" lon="119.39961574237167">
        <ele>61.25482177734375</ele>
        <time>2023-06-08T13:28:56Z</time>
      </trkpt>
      <trkpt lat="36.02430057133866" lon="119.3997618131441">
        <ele>60.27227783203125</ele>
        <time>2023-06-08T13:29:02Z</time>
      </trkpt>
      <trkpt lat="36.02432159889026" lon="119.39998692168237">
        <ele>59.952880859375</ele>
        <time>2023-06-08T13:29:11Z</time>
      </trkpt>
      <trkpt lat="36.024308614553036" lon="119.4000709652735">
        <ele>59.59295654296875</ele>
        <time>2023-06-08T13:29:14Z</time>
      </trkpt>
      <trkpt lat="36.024314625059546" lon="119.4001480035695">
        <ele>59.42803955078125</ele>
        <time>2023-06-08T13:29:17Z</time>
      </trkpt>
      <trkpt lat="36.02434962708027" lon="119.40021203228447">
        <ele>59.55572509765625</ele>
        <time>2023-06-08T13:29:20Z</time>
      </trkpt>
      <trkpt lat="36.02455160622902" lon="119.40037009118488">
        <ele>61.57440185546875</ele>
        <time>2023-06-08T13:29:32Z</time>
      </trkpt>
      <trkpt lat="36.02475657244434" lon="119.40045011001176">
        <ele>62.404296875</ele>
        <time>2023-06-08T13:29:41Z</time>
      </trkpt>
      <trkpt lat="36.0248715598451" lon="119.40053113983363">
        <ele>61.6939697265625</ele>
        <time>2023-06-08T13:29:47Z</time>
      </trkpt>
      <trkpt lat="36.02513151877032" lon="119.40063816766008">
        <ele>62.7918701171875</ele>
        <time>2023-06-08T13:29:59Z</time>
      </trkpt>
      <trkpt lat="36.025199508295465" lon="119.40066717559003">
        <ele>61.531494140625</ele>
        <time>2023-06-08T13:30:02Z</time>
      </trkpt>
      <trkpt lat="36.025507442079" lon="119.4006931550048">
        <ele>63.3231201171875</ele>
        <time>2023-06-08T13:30:17Z</time>
      </trkpt>
      <trkpt lat="36.02574639214714" lon="119.40072114328531">
        <ele>58.6871337890625</ele>
        <time>2023-06-08T13:30:26Z</time>
      </trkpt>
      <trkpt lat="36.02603632288458" lon="119.40070710316313">
        <ele>61.65911865234375</ele>
        <time>2023-06-08T13:30:38Z</time>
      </trkpt>
      <trkpt lat="36.026161286565696" lon="119.40066506650747">
        <ele>59.4464111328125</ele>
        <time>2023-06-08T13:30:50Z</time>
      </trkpt>
      <trkpt lat="36.026225271843224" lon="119.40066505932177">
        <ele>60.57373046875</ele>
        <time>2023-06-08T13:30:53Z</time>
      </trkpt>
      <trkpt lat="36.0263362406014" lon="119.4006330296906">
        <ele>57.44122314453125</ele>
        <time>2023-06-08T13:30:59Z</time>
      </trkpt>
      <trkpt lat="36.02662017581582" lon="119.40063599941074">
        <ele>58.82745361328125</ele>
        <time>2023-06-08T13:31:11Z</time>
      </trkpt>
      <trkpt lat="36.02676214387254" lon="119.40063998561072">
        <ele>59.85931396484375</ele>
        <time>2023-06-08T13:31:17Z</time>
      </trkpt>
      <trkpt lat="36.02708708552818" lon="119.40073099813026">
        <ele>61.135986328125</ele>
        <time>2023-06-08T13:31:35Z</time>
      </trkpt>
      <trkpt lat="36.02726805936767" lon="119.40081502346268">
        <ele>62.3990478515625</ele>
        <time>2023-06-08T13:31:44Z</time>
      </trkpt>
      <trkpt lat="36.027400036117434" lon="119.40085302942597">
        <ele>61.95672607421875</ele>
        <time>2023-06-08T13:31:50Z</time>
      </trkpt>
      <trkpt lat="36.02767100869288" lon="119.40103509967409">
        <ele>63.7635498046875</ele>
        <time>2023-06-08T13:32:02Z</time>
      </trkpt>
      <trkpt lat="36.02784499774028" lon="119.40118116225152">
        <ele>63.82623291015625</ele>
        <time>2023-06-08T13:32:11Z</time>
      </trkpt>
      <trkpt lat="36.027938999678874" lon="119.40129621722397">
        <ele>64.7655029296875</ele>
        <time>2023-06-08T13:32:17Z</time>
      </trkpt>
      <trkpt lat="36.02796500769057" lon="119.40136325282569">
        <ele>65.09637451171875</ele>
        <time>2023-06-08T13:32:20Z</time>
      </trkpt>
      <trkpt lat="36.02798109328028" lon="119.40177049048252">
        <ele>60.68560791015625</ele>
        <time>2023-06-08T13:32:38Z</time>
      </trkpt>
      <trkpt lat="36.02802114139244" lon="119.4020156346516">
        <ele>64.48028564453125</ele>
        <time>2023-06-08T13:32:50Z</time>
      </trkpt>
      <trkpt lat="36.02814918656324" lon="119.40231880883304">
        <ele>65.45855712890625</ele>
        <time>2023-06-08T13:33:05Z</time>
      </trkpt>
      <trkpt lat="36.02838521343301" lon="119.40263098192416">
        <ele>63.44671630859375</ele>
        <time>2023-06-08T13:33:20Z</time>
      </trkpt>
      <trkpt lat="36.028634205550404" lon="119.4028130729423">
        <ele>63.81597900390625</ele>
        <time>2023-06-08T13:33:32Z</time>
      </trkpt>
      <trkpt lat="36.028689213114305" lon="119.40288611501552">
        <ele>61.8729248046875</ele>
        <time>2023-06-08T13:33:35Z</time>
      </trkpt>
      <trkpt lat="36.0287172279634" lon="119.40296216242407">
        <ele>61.44683837890625</ele>
        <time>2023-06-08T13:33:38Z</time>
      </trkpt>
      <trkpt lat="36.02870927342573" lon="119.40311526608556">
        <ele>62.65203857421875</ele>
        <time>2023-06-08T13:33:47Z</time>
      </trkpt>
      <trkpt lat="36.02874630252476" lon="119.40324434960708">
        <ele>60.46014404296875</ele>
        <time>2023-06-08T13:33:53Z</time>
      </trkpt>
      <trkpt lat="36.02873141608002" lon="119.40360860377866">
        <ele>61.10015869140625</ele>
        <time>2023-06-08T13:34:05Z</time>
      </trkpt>
      <trkpt lat="36.02868952841097" lon="119.40393183884267">
        <ele>63.76312255859375</ele>
        <time>2023-06-08T13:34:17Z</time>
      </trkpt>
      <trkpt lat="36.0286625512537" lon="119.40398287878652">
        <ele>62.408935546875</ele>
        <time>2023-06-08T13:34:20Z</time>
      </trkpt>
      <trkpt lat="36.02854958738118" lon="119.40401391398176">
        <ele>62.60687255859375</ele>
        <time>2023-06-08T13:34:26Z</time>
      </trkpt>
      <trkpt lat="36.02826772288439" lon="119.40422610103836">
        <ele>62.50006103515625</ele>
        <time>2023-06-08T13:34:41Z</time>
      </trkpt>
      <trkpt lat="36.02805785712533" lon="119.40447631114858">
        <ele>62.9053955078125</ele>
        <time>2023-06-08T13:34:53Z</time>
      </trkpt>
      <trkpt lat="36.02785801907031" lon="119.40480158141003">
        <ele>64.6138916015625</ele>
        <time>2023-06-08T13:35:05Z</time>
      </trkpt>
      <trkpt lat="36.027714172898555" lon="119.40512685139431">
        <ele>62.46319580078125</ele>
        <time>2023-06-08T13:35:17Z</time>
      </trkpt>
      <trkpt lat="36.027630333066924" lon="119.40549115223975">
        <ele>61.6109619140625</ele>
        <time>2023-06-08T13:35:29Z</time>
      </trkpt>
      <trkpt lat="36.02753844710309" lon="119.4057233522415">
        <ele>64.6617431640625</ele>
        <time>2023-06-08T13:35:44Z</time>
      </trkpt>
      <trkpt lat="36.02736645111902" lon="119.40563529924107">
        <ele>64.03009033203125</ele>
        <time>2023-06-08T13:35:53Z</time>
      </trkpt>
      <trkpt lat="36.02718540466981" lon="119.40541313910818">
        <ele>61.81658935546875</ele>
        <time>2023-06-08T13:36:05Z</time>
      </trkpt>
      <trkpt lat="36.02712636037525" lon="119.40526402619255">
        <ele>61.77740478515625</ele>
        <time>2023-06-08T13:36:11Z</time>
      </trkpt>
      <trkpt lat="36.02709628516965" lon="119.40504785851422">
        <ele>63.6175537109375</ele>
        <time>2023-06-08T13:36:17Z</time>
      </trkpt>
      <trkpt lat="36.02711522501981" lon="119.40489773916221">
        <ele>63.59405517578125</ele>
        <time>2023-06-08T13:36:20Z</time>
      </trkpt>
      <trkpt lat="36.02710214265095" lon="119.40466255955225">
        <ele>62.1256103515625</ele>
        <time>2023-06-08T13:36:26Z</time>
      </trkpt>
      <trkpt lat="36.02704709649661" lon="119.4044964397155">
        <ele>63.299072265625</ele>
        <time>2023-06-08T13:36:32Z</time>
      </trkpt>
      <trkpt lat="36.02693208051308" lon="119.40437436101371">
        <ele>64.3824462890625</ele>
        <time>2023-06-08T13:36:38Z</time>
      </trkpt>
      <trkpt lat="36.026783094839956" lon="119.40431633448367">
        <ele>62.20574951171875</ele>
        <time>2023-06-08T13:36:44Z</time>
      </trkpt>
      <trkpt lat="36.02655414647641" lon="119.40431335795748">
        <ele>61.48455810546875</ele>
        <time>2023-06-08T13:36:53Z</time>
      </trkpt>
      <trkpt lat="36.026530017385646" lon="119.40390906472746">
        <ele>60.27191162109375</ele>
        <time>2023-06-08T13:37:11Z</time>
      </trkpt>
      <trkpt lat="36.02650592272213" lon="119.40359284242044">
        <ele>61.24200439453125</ele>
        <time>2023-06-08T13:37:26Z</time>
      </trkpt>
      <trkpt lat="36.02653886853855" lon="119.40344073250749">
        <ele>63.76763916015625</ele>
        <time>2023-06-08T13:37:32Z</time>
      </trkpt>
      <trkpt lat="36.026523849979405" lon="119.40336768364968">
        <ele>62.61627197265625</ele>
        <time>2023-06-08T13:37:35Z</time>
      </trkpt>
      <trkpt lat="36.02645984055789" lon="119.40328663510785">
        <ele>60.6102294921875</ele>
        <time>2023-06-08T13:37:47Z</time>
      </trkpt>
      <trkpt lat="36.026498918142124" lon="119.4035728291565">
        <ele>0.0</ele>
        <time>2023-06-08T13:51:12Z</time>
      </trkpt>
      <trkpt lat="36.02643586991943" lon="119.40336669283829">
        <ele>66.97625732421875</ele>
        <time>2023-06-08T13:51:15Z</time>
      </trkpt>
      <trkpt lat="36.026372907628485" lon="119.40344375322604">
        <ele>64.01092529296875</ele>
        <time>2023-06-08T13:51:18Z</time>
      </trkpt>
      <trkpt lat="36.02641998570211" lon="119.40373094963687">
        <ele>63.2811279296875</ele>
        <time>2023-06-08T13:51:30Z</time>
      </trkpt>
      <trkpt lat="36.02644207124855" lon="119.40401214917082">
        <ele>62.99456787109375</ele>
        <time>2023-06-08T13:51:42Z</time>
      </trkpt>
      <trkpt lat="36.02641513197738" lon="119.40417627217059">
        <ele>62.648681640625</ele>
        <time>2023-06-08T13:51:48Z</time>
      </trkpt>
      <trkpt lat="36.026411257512855" lon="119.40453854284156">
        <ele>61.65179443359375</ele>
        <time>2023-06-08T13:52:03Z</time>
      </trkpt>
      <trkpt lat="36.02642739504534" lon="119.40492984128844">
        <ele>66.9898681640625</ele>
        <time>2023-06-08T13:52:18Z</time>
      </trkpt>
      <trkpt lat="36.02650642534788" lon="119.40505993417304">
        <ele>62.53851318359375</ele>
        <time>2023-06-08T13:52:24Z</time>
      </trkpt>
      <trkpt lat="36.026613439683956" lon="119.40516300346479">
        <ele>62.23345947265625</ele>
        <time>2023-06-08T13:52:30Z</time>
      </trkpt>
      <trkpt lat="36.02686342277071" lon="119.40526905970421">
        <ele>61.8941650390625</ele>
        <time>2023-06-08T13:52:42Z</time>
      </trkpt>
      <trkpt lat="36.02710448135266" lon="119.40556026737259">
        <ele>58.331298828125</ele>
        <time>2023-06-08T13:52:57Z</time>
      </trkpt>
      <trkpt lat="36.02731051944064" lon="119.40577241828592">
        <ele>59.67352294921875</ele>
        <time>2023-06-08T13:53:09Z</time>
      </trkpt>
      <trkpt lat="36.02754850450363" lon="119.40586947205544">
        <ele>58.3702392578125</ele>
        <time>2023-06-08T13:53:24Z</time>
      </trkpt>
      <trkpt lat="36.0276374832238" lon="119.40586746040088">
        <ele>60.0927734375</ele>
        <time>2023-06-08T13:53:30Z</time>
      </trkpt>
      <trkpt lat="36.027912378633886" lon="119.40576634575385">
        <ele>61.61920166015625</ele>
        <time>2023-06-08T13:53:45Z</time>
      </trkpt>
      <trkpt lat="36.02803231214283" lon="119.40567025319064">
        <ele>61.68792724609375</ele>
        <time>2023-06-08T13:53:51Z</time>
      </trkpt>
      <trkpt lat="36.02821617203453" lon="119.40542403225528">
        <ele>64.77447509765625</ele>
        <time>2023-06-08T13:54:03Z</time>
      </trkpt>
      <trkpt lat="36.02837305805072" lon="119.40522285354514">
        <ele>62.0751953125</ele>
        <time>2023-06-08T13:54:12Z</time>
      </trkpt>
      <trkpt lat="36.02848393817803" lon="119.40497264393774">
        <ele>59.59661865234375</ele>
        <time>2023-06-08T13:54:21Z</time>
      </trkpt>
      <trkpt lat="36.02861084025132" lon="119.40478548454044">
        <ele>61.61065673828125</ele>
        <time>2023-06-08T13:54:30Z</time>
      </trkpt>
      <trkpt lat="36.0286668372189" lon="119.40481249908723">
        <ele>59.86639404296875</ele>
        <time>2023-06-08T13:54:33Z</time>
      </trkpt>
      <trkpt lat="36.028725818930745" lon="119.40479948242799">
        <ele>60.908447265625</ele>
        <time>2023-06-08T13:54:36Z</time>
      </trkpt>
      <trkpt lat="36.028800761567425" lon="119.40468838870802">
        <ele>61.59112548828125</ele>
        <time>2023-06-08T13:54:42Z</time>
      </trkpt>
      <trkpt lat="36.02885967919572" lon="119.40449423468384">
        <ele>66.57220458984375</ele>
        <time>2023-06-08T13:54:51Z</time>
      </trkpt>
      <trkpt lat="36.02886565097071" lon="119.40441717609926">
        <ele>66.9560546875</ele>
        <time>2023-06-08T13:54:54Z</time>
      </trkpt>
      <trkpt lat="36.02893958857267" lon="119.40428506930014">
        <ele>63.44189453125</ele>
        <time>2023-06-08T13:55:00Z</time>
      </trkpt>
      <trkpt lat="36.02895655955733" lon="119.40421101261">
        <ele>62.3287353515625</ele>
        <time>2023-06-08T13:55:03Z</time>
      </trkpt>
      <trkpt lat="36.02899143125679" lon="119.40384574302783">
        <ele>63.61962890625</ele>
        <time>2023-06-08T13:55:18Z</time>
      </trkpt>
      <trkpt lat="36.029012338230416" lon="119.40356554201232">
        <ele>61.16387939453125</ele>
        <time>2023-06-08T13:55:30Z</time>
      </trkpt>
      <trkpt lat="36.0289953166638" lon="119.4034824858886">
        <ele>59.41748046875</ele>
        <time>2023-06-08T13:55:33Z</time>
      </trkpt>
      <trkpt lat="36.02902728566107" lon="119.40340442811605">
        <ele>58.685546875</ele>
        <time>2023-06-08T13:55:36Z</time>
      </trkpt>
      <trkpt lat="36.02907626118612" lon="119.40336039220409">
        <ele>60.9234619140625</ele>
        <time>2023-06-08T13:55:39Z</time>
      </trkpt>
      <trkpt lat="36.029360170088054" lon="119.40327330051183">
        <ele>63.4525146484375</ele>
        <time>2023-06-08T13:55:54Z</time>
      </trkpt>
      <trkpt lat="36.029409155589235" lon="119.40326228747921">
        <ele>62.7938232421875</ele>
        <time>2023-06-08T13:55:57Z</time>
      </trkpt>
      <trkpt lat="36.029495103070765" lon="119.40315020153312">
        <ele>63.50726318359375</ele>
        <time>2023-06-08T13:56:03Z</time>
      </trkpt>
      <trkpt lat="36.02957307013905" lon="119.40309815759697">
        <ele>62.18365478515625</ele>
        <time>2023-06-08T13:56:06Z</time>
      </trkpt>
      <trkpt lat="36.029678009565735" lon="119.40297005986781">
        <ele>61.9661865234375</ele>
        <time>2023-06-08T13:56:12Z</time>
      </trkpt>
      <trkpt lat="36.029708983931634" lon="119.40290401243745">
        <ele>62.107177734375</ele>
        <time>2023-06-08T13:56:15Z</time>
      </trkpt>
      <trkpt lat="36.02991388357631" lon="119.4027098616646">
        <ele>58.12615966796875</ele>
        <time>2023-06-08T13:56:24Z</time>
      </trkpt>
      <trkpt lat="36.03001080682036" lon="119.40250471809213">
        <ele>62.90728759765625</ele>
        <time>2023-06-08T13:56:33Z</time>
      </trkpt>
      <trkpt lat="36.03011274396704" lon="119.40235160916565">
        <ele>64.0439453125</ele>
        <time>2023-06-08T13:56:39Z</time>
      </trkpt>
      <trkpt lat="36.03012169979535" lon="119.4021835026526">
        <ele>67.06146240234375</ele>
        <time>2023-06-08T13:56:45Z</time>
      </trkpt>
      <trkpt lat="36.03016365507085" lon="119.40203940877794">
        <ele>66.05517578125</ele>
        <time>2023-06-08T13:56:51Z</time>
      </trkpt>
      <trkpt lat="36.03017860791292" lon="119.40185429427208">
        <ele>64.0391845703125</ele>
        <time>2023-06-08T13:56:57Z</time>
      </trkpt>
      <trkpt lat="36.03020458283072" lon="119.4017712413647">
        <ele>63.9881591796875</ele>
        <time>2023-06-08T13:57:00Z</time>
      </trkpt>
      <trkpt lat="36.03027055835687" lon="119.40173020940463">
        <ele>63.627685546875</ele>
        <time>2023-06-08T13:57:03Z</time>
      </trkpt>
      <trkpt lat="36.03034553910999" lon="119.40172119560687">
        <ele>62.3287353515625</ele>
        <time>2023-06-08T13:57:06Z</time>
      </trkpt>
      <trkpt lat="36.0304985174309" lon="119.4017802137533">
        <ele>63.151123046875</ele>
        <time>2023-06-08T13:57:12Z</time>
      </trkpt>
      <trkpt lat="36.03058352571496" lon="119.40190027666735">
        <ele>60.8441162109375</ele>
        <time>2023-06-08T13:57:24Z</time>
      </trkpt>
      <trkpt lat="36.030609535069075" lon="119.40196531333652">
        <ele>59.6807861328125</ele>
        <time>2023-06-08T13:57:27Z</time>
      </trkpt>
      <trkpt lat="36.030699526813486" lon="119.40201733507364">
        <ele>60.3861083984375</ele>
        <time>2023-06-08T13:57:33Z</time>
      </trkpt>
      <trkpt lat="36.03068355026936" lon="119.40209938739541">
        <ele>59.747314453125</ele>
        <time>2023-06-08T13:57:39Z</time>
      </trkpt>
      <trkpt lat="36.03071055653272" lon="119.40215041597982">
        <ele>60.0927734375</ele>
        <time>2023-06-08T13:57:42Z</time>
      </trkpt>
      <trkpt lat="36.030746552945054" lon="119.4021694237537">
        <ele>59.234130859375</ele>
        <time>2023-06-08T13:57:45Z</time>
      </trkpt>
    </trkseg>
  </trk>
</gpx>