<?xml version="1.0" encoding="UTF-8"?>
<gpx xmlns="http://www.topografix.com/GPX/1/1" xmlns:gpxtpx="http://www.garmin.com/xmlschemas/TrackPointExtension/v1" xmlns:xsi="http://www.w3.org/2001/XMLSchema-instance" xsi:schemaLocation="http://www.topografix.com/GPX/1/1 http://www.topografix.com/GPX/1/1/gpx.xsd" version="1.1" creator="gpx.py -- https://github.com/tkrajina/gpxpy">
  <trk>
    <name>gpx from keep</name>
    <type>Run</type>
    <trkseg>
      <trkpt lat="31.111933863157546" lon="121.37646706915103">
        <ele>3.526310940273106</ele>
        <time>2024-06-23T13:11:38Z</time>
      </trkpt>
      <trkpt lat="31.112044012656142" lon="121.37645212120829">
        <ele>3.56398444250226</ele>
        <time>2024-06-23T13:11:47Z</time>
      </trkpt>
      <trkpt lat="31.112131244880214" lon="121.37640548997452">
        <ele>3.9978601718321443</ele>
        <time>2024-06-23T13:11:50Z</time>
      </trkpt>
      <trkpt lat="31.112254505467355" lon="121.37642172336331">
        <ele>5.634379595518112</ele>
        <time>2024-06-23T13:11:56Z</time>
      </trkpt>
      <trkpt lat="31.1123452788599" lon="121.37624711421302">
        <ele>6.745011404156685</ele>
        <time>2024-06-23T13:12:02Z</time>
      </trkpt>
      <trkpt lat="31.11241269547023" lon="121.37620780639094">
        <ele>8.118535185232759</ele>
        <time>2024-06-23T13:12:05Z</time>
      </trkpt>
      <trkpt lat="31.112475880072708" lon="121.37620738467137">
        <ele>7.73079118411988</ele>
        <time>2024-06-23T13:12:08Z</time>
      </trkpt>
      <trkpt lat="31.112538103200198" lon="121.37617445545942">
        <ele>7.769851833581924</ele>
        <time>2024-06-23T13:12:11Z</time>
      </trkpt>
      <trkpt lat="31.11258959302636" lon="121.37609488314727">
        <ele>9.244889979250729</ele>
        <time>2024-06-23T13:12:14Z</time>
      </trkpt>
      <trkpt lat="31.112589245979077" lon="121.37601883547347">
        <ele>9.107925436459482</ele>
        <time>2024-06-23T13:12:17Z</time>
      </trkpt>
      <trkpt lat="31.112479408916688" lon="121.37583399456518">
        <ele>10.358071993105114</ele>
        <time>2024-06-23T13:12:24Z</time>
      </trkpt>
      <trkpt lat="31.11243468103287" lon="121.37578606843435">
        <ele>10.169713590294123</ele>
        <time>2024-06-23T13:12:27Z</time>
      </trkpt>
      <trkpt lat="31.112230913792736" lon="121.37572004442082">
        <ele>11.863291253335774</ele>
        <time>2024-06-23T13:12:36Z</time>
      </trkpt>
      <trkpt lat="31.112186940310586" lon="121.37579826962954">
        <ele>9.707852966152132</ele>
        <time>2024-06-23T13:12:39Z</time>
      </trkpt>
      <trkpt lat="31.112143785278697" lon="121.37584078956837">
        <ele>9.095916420221329</ele>
        <time>2024-06-23T13:12:42Z</time>
      </trkpt>
      <trkpt lat="31.112092670408135" lon="121.37583461310516">
        <ele>9.616092645563185</ele>
        <time>2024-06-23T13:12:45Z</time>
      </trkpt>
      <trkpt lat="31.11205033943352" lon="121.37577377605966">
        <ele>9.271349866874516</ele>
        <time>2024-06-23T13:12:48Z</time>
      </trkpt>
      <trkpt lat="31.111990113478104" lon="121.3758017365301">
        <ele>9.275244504213333</ele>
        <time>2024-06-23T13:12:51Z</time>
      </trkpt>
      <trkpt lat="31.111930620976736" lon="121.37579957491045">
        <ele>9.856160671450198</ele>
        <time>2024-06-23T13:12:54Z</time>
      </trkpt>
      <trkpt lat="31.11185995848503" lon="121.37575723858329">
        <ele>9.831990646198392</ele>
        <time>2024-06-23T13:12:57Z</time>
      </trkpt>
      <trkpt lat="31.11181025801688" lon="121.37577933257711">
        <ele>9.857851954177022</ele>
        <time>2024-06-23T13:13:00Z</time>
      </trkpt>
      <trkpt lat="31.11174908151624" lon="121.37575386420195">
        <ele>9.72295594215393</ele>
        <time>2024-06-23T13:13:03Z</time>
      </trkpt>
      <trkpt lat="31.111453320205904" lon="121.37569120817595">
        <ele>10.913100619800389</ele>
        <time>2024-06-23T13:13:36Z</time>
      </trkpt>
      <trkpt lat="31.111303222198146" lon="121.3756844970085">
        <ele>7.039291408844292</ele>
        <time>2024-06-23T13:13:42Z</time>
      </trkpt>
      <trkpt lat="31.11117276013821" lon="121.3756289214625">
        <ele>8.522072838619351</ele>
        <time>2024-06-23T13:13:48Z</time>
      </trkpt>
      <trkpt lat="31.11107202774605" lon="121.37566829858649">
        <ele>9.160832562483847</ele>
        <time>2024-06-23T13:13:51Z</time>
      </trkpt>
      <trkpt lat="31.11098604806731" lon="121.37567420390043">
        <ele>7.9795397985726595</ele>
        <time>2024-06-23T13:13:54Z</time>
      </trkpt>
      <trkpt lat="31.110921267878336" lon="121.37571326388581">
        <ele>8.409994857385755</ele>
        <time>2024-06-23T13:13:57Z</time>
      </trkpt>
      <trkpt lat="31.110865288643605" lon="121.37571625738764">
        <ele>8.695770320482552</ele>
        <time>2024-06-23T13:14:00Z</time>
      </trkpt>
      <trkpt lat="31.110823083241225" lon="121.37575541498336">
        <ele>7.368362583220005</ele>
        <time>2024-06-23T13:14:03Z</time>
      </trkpt>
      <trkpt lat="31.110790679676118" lon="121.37582004747557">
        <ele>6.390974165871739</ele>
        <time>2024-06-23T13:14:06Z</time>
      </trkpt>
      <trkpt lat="31.110822988112595" lon="121.37591276144107">
        <ele>5.284706776030362</ele>
        <time>2024-06-23T13:14:09Z</time>
      </trkpt>
      <trkpt lat="31.110919153355688" lon="121.37593091341324">
        <ele>4.078405501320958</ele>
        <time>2024-06-23T13:14:12Z</time>
      </trkpt>
      <trkpt lat="31.110991131693716" lon="121.37600032251149">
        <ele>4.884971500374377</ele>
        <time>2024-06-23T13:14:15Z</time>
      </trkpt>
      <trkpt lat="31.110978158957245" lon="121.37606104266591">
        <ele>3.7607164150103927</ele>
        <time>2024-06-23T13:14:21Z</time>
      </trkpt>
      <trkpt lat="31.11078397641949" lon="121.37604975526713">
        <ele>6.035436685197055</ele>
        <time>2024-06-23T13:14:27Z</time>
      </trkpt>
      <trkpt lat="31.110700317077836" lon="121.37612180422892">
        <ele>6.832416113466024</ele>
        <time>2024-06-23T13:14:31Z</time>
      </trkpt>
      <trkpt lat="31.110718745573145" lon="121.37606149812683">
        <ele>5.52785693667829</ele>
        <time>2024-06-23T13:14:37Z</time>
      </trkpt>
      <trkpt lat="31.110823548835878" lon="121.37603283050493">
        <ele>4.859918678179383</ele>
        <time>2024-06-23T13:14:40Z</time>
      </trkpt>
      <trkpt lat="31.110871806985593" lon="121.37605209153477">
        <ele>5.617023281753063</ele>
        <time>2024-06-23T13:14:43Z</time>
      </trkpt>
      <trkpt lat="31.11091656310828" lon="121.37604282649812">
        <ele>5.023252889513969</ele>
        <time>2024-06-23T13:14:46Z</time>
      </trkpt>
      <trkpt lat="31.11096284373105" lon="121.37608429576541">
        <ele>3.934827166609466</ele>
        <time>2024-06-23T13:14:58Z</time>
      </trkpt>
      <trkpt lat="31.110892171320504" lon="121.37581299194424">
        <ele>3.530698787420988</ele>
        <time>2024-06-23T13:15:28Z</time>
      </trkpt>
      <trkpt lat="31.110895295435565" lon="121.3756971410839">
        <ele>4.145759730599821</ele>
        <time>2024-06-23T13:15:34Z</time>
      </trkpt>
      <trkpt lat="31.110945368858463" lon="121.37564093236631">
        <ele>2.382241301238537</ele>
        <time>2024-06-23T13:15:40Z</time>
      </trkpt>
      <trkpt lat="31.11107038917493" lon="121.37568748261675">
        <ele>2.897467573173344</ele>
        <time>2024-06-23T13:15:49Z</time>
      </trkpt>
      <trkpt lat="31.11111377140484" lon="121.37573863898572">
        <ele>5.030857366509736</ele>
        <time>2024-06-23T13:15:52Z</time>
      </trkpt>
      <trkpt lat="31.111178131566536" lon="121.3759007383988">
        <ele>6.909513721242547</ele>
        <time>2024-06-23T13:16:01Z</time>
      </trkpt>
      <trkpt lat="31.111225633514533" lon="121.37597312849707">
        <ele>5.3283946719020605</ele>
        <time>2024-06-23T13:16:04Z</time>
      </trkpt>
      <trkpt lat="31.111276138018557" lon="121.37594565999046">
        <ele>4.968985336832702</ele>
        <time>2024-06-23T13:16:10Z</time>
      </trkpt>
      <trkpt lat="31.111301472323213" lon="121.37601411679587">
        <ele>5.79921461828053</ele>
        <time>2024-06-23T13:16:16Z</time>
      </trkpt>
      <trkpt lat="31.11129959863562" lon="121.37608364758275">
        <ele>5.956425161100924</ele>
        <time>2024-06-23T13:16:22Z</time>
      </trkpt>
      <trkpt lat="31.111325442380178" lon="121.37613167991502">
        <ele>5.238631925545633</ele>
        <time>2024-06-23T13:16:25Z</time>
      </trkpt>
      <trkpt lat="31.11148813567816" lon="121.37621836173133">
        <ele>5.33644859585911</ele>
        <time>2024-06-23T13:16:34Z</time>
      </trkpt>
      <trkpt lat="31.111707045381376" lon="121.3761098947834">
        <ele>4.952763999812305</ele>
        <time>2024-06-23T13:16:50Z</time>
      </trkpt>
      <trkpt lat="31.111741164260188" lon="121.37602536467485">
        <ele>4.316504017449915</ele>
        <time>2024-06-23T13:16:56Z</time>
      </trkpt>
      <trkpt lat="31.111779615465053" lon="121.3760626640138">
        <ele>4.441862163133919</ele>
        <time>2024-06-23T13:16:59Z</time>
      </trkpt>
      <trkpt lat="31.111828603943003" lon="121.37620533044988">
        <ele>2.964833628386259</ele>
        <time>2024-06-23T13:17:08Z</time>
      </trkpt>
      <trkpt lat="31.11180655644486" lon="121.37635881501095">
        <ele>4.878533457405865</ele>
        <time>2024-06-23T13:17:17Z</time>
      </trkpt>
      <trkpt lat="31.11182365894158" lon="121.3764149895977">
        <ele>3.3279946902766824</ele>
        <time>2024-06-23T13:17:23Z</time>
      </trkpt>
      <trkpt lat="31.111936570013" lon="121.37644369993316">
        <ele>1.2379931258037686</ele>
        <time>2024-06-23T13:17:35Z</time>
      </trkpt>
      <trkpt lat="31.11200954439386" lon="121.37642707007097">
        <ele>1.4948584092780948</ele>
        <time>2024-06-23T13:17:41Z</time>
      </trkpt>
      <trkpt lat="31.112106400434314" lon="121.37642644758783">
        <ele>-0.45989360846579075</ele>
        <time>2024-06-23T13:18:08Z</time>
      </trkpt>
      <trkpt lat="31.11217751370089" lon="121.37647315677061">
        <ele>1.58045441377908</ele>
        <time>2024-06-23T13:18:14Z</time>
      </trkpt>
      <trkpt lat="31.11220904126186" lon="121.37651556236538">
        <ele>3.6217830879613757</ele>
        <time>2024-06-23T13:18:17Z</time>
      </trkpt>
      <trkpt lat="31.112226190239742" lon="121.37659003302447">
        <ele>3.8096818635240197</ele>
        <time>2024-06-23T13:18:23Z</time>
      </trkpt>
      <trkpt lat="31.112272567964315" lon="121.376636649513">
        <ele>3.5151276169344783</ele>
        <time>2024-06-23T13:18:26Z</time>
      </trkpt>
      <trkpt lat="31.112565959742447" lon="121.37650980414612">
        <ele>4.807604956440628</ele>
        <time>2024-06-23T13:18:48Z</time>
      </trkpt>
      <trkpt lat="31.112800508448867" lon="121.37633692635053">
        <ele>6.936708353459835</ele>
        <time>2024-06-23T13:19:12Z</time>
      </trkpt>
      <trkpt lat="31.112871764866636" lon="121.37630610827945">
        <ele>7.475038489326835</ele>
        <time>2024-06-23T13:19:18Z</time>
      </trkpt>
      <trkpt lat="31.11293550504095" lon="121.37630359715138">
        <ele>6.5411820486187935</ele>
        <time>2024-06-23T13:19:24Z</time>
      </trkpt>
      <trkpt lat="31.113001025070595" lon="121.37634221461754">
        <ele>5.970324348658323</ele>
        <time>2024-06-23T13:19:30Z</time>
      </trkpt>
      <trkpt lat="31.113136356331495" lon="121.37646654864031">
        <ele>5.181406068615615</ele>
        <time>2024-06-23T13:19:42Z</time>
      </trkpt>
      <trkpt lat="31.113207191512828" lon="121.37661848797566">
        <ele>3.0960353733971715</ele>
        <time>2024-06-23T13:19:54Z</time>
      </trkpt>
      <trkpt lat="31.113268985877234" lon="121.3766737350338">
        <ele>4.149239167571068</ele>
        <time>2024-06-23T13:20:00Z</time>
      </trkpt>
      <trkpt lat="31.11330648054621" lon="121.37673775051114">
        <ele>4.430473578162491</ele>
        <time>2024-06-23T13:20:03Z</time>
      </trkpt>
      <trkpt lat="31.113380941226367" lon="121.37679614131542">
        <ele>3.985520577058196</ele>
        <time>2024-06-23T13:20:09Z</time>
      </trkpt>
      <trkpt lat="31.11350587877353" lon="121.37681646955397">
        <ele>3.9197859866544604</ele>
        <time>2024-06-23T13:20:18Z</time>
      </trkpt>
      <trkpt lat="31.1136669968252" lon="121.37689835826532">
        <ele>4.958812441676855</ele>
        <time>2024-06-23T13:20:30Z</time>
      </trkpt>
      <trkpt lat="31.113696689380905" lon="121.37697927340278">
        <ele>4.769571330398321</ele>
        <time>2024-06-23T13:20:36Z</time>
      </trkpt>
      <trkpt lat="31.11370478956158" lon="121.37706141175975">
        <ele>4.087445190176368</ele>
        <time>2024-06-23T13:20:42Z</time>
      </trkpt>
      <trkpt lat="31.1137479498079" lon="121.3771688010858">
        <ele>5.77847551740706</ele>
        <time>2024-06-23T13:20:49Z</time>
      </trkpt>
      <trkpt lat="31.11381595460216" lon="121.37726831750092">
        <ele>5.939806797541678</ele>
        <time>2024-06-23T13:20:57Z</time>
      </trkpt>
      <trkpt lat="31.113873883405315" lon="121.37738771047528">
        <ele>3.7594445310533047</ele>
        <time>2024-06-23T13:21:07Z</time>
      </trkpt>
      <trkpt lat="31.11384731749464" lon="121.37730227892482">
        <ele>4.924508058466017</ele>
        <time>2024-06-23T13:21:28Z</time>
      </trkpt>
      <trkpt lat="31.11384739539567" lon="121.3772443350765">
        <ele>3.845354854129255</ele>
        <time>2024-06-23T13:21:31Z</time>
      </trkpt>
      <trkpt lat="31.113900176173466" lon="121.37724514987967">
        <ele>3.871099567040801</ele>
        <time>2024-06-23T13:21:40Z</time>
      </trkpt>
      <trkpt lat="31.114076350711553" lon="121.37736361571503">
        <ele>2.938421417027712</ele>
        <time>2024-06-23T13:22:10Z</time>
      </trkpt>
      <trkpt lat="31.114111707661557" lon="121.37745186423015">
        <ele>-1.896163273602724</ele>
        <time>2024-06-23T13:22:19Z</time>
      </trkpt>
      <trkpt lat="31.114238409520997" lon="121.37763368494431">
        <ele>-1.2900159563869238</ele>
        <time>2024-06-23T13:22:34Z</time>
      </trkpt>
      <trkpt lat="31.11434472264797" lon="121.37772458084633">
        <ele>-0.806615904904902</ele>
        <time>2024-06-23T13:22:46Z</time>
      </trkpt>
      <trkpt lat="31.114384508173508" lon="121.37776608666366">
        <ele>1.002529352903366</ele>
        <time>2024-06-23T13:23:02Z</time>
      </trkpt>
      <trkpt lat="31.11439479866013" lon="121.37785274924076">
        <ele>1.7759948000311852</ele>
        <time>2024-06-23T13:23:09Z</time>
      </trkpt>
      <trkpt lat="31.114383057457474" lon="121.37792957067475">
        <ele>2.5582617158070207</ele>
        <time>2024-06-23T13:23:15Z</time>
      </trkpt>
      <trkpt lat="31.114355181451504" lon="121.3779957904779">
        <ele>1.0941076381132007</ele>
        <time>2024-06-23T13:23:21Z</time>
      </trkpt>
      <trkpt lat="31.114135099758087" lon="121.37817898864775">
        <ele>1.633157780393958</ele>
        <time>2024-06-23T13:23:42Z</time>
      </trkpt>
      <trkpt lat="31.11408287465593" lon="121.37817811810211">
        <ele>2.3019032599404454</ele>
        <time>2024-06-23T13:23:45Z</time>
      </trkpt>
      <trkpt lat="31.11406212706252" lon="121.37809902291215">
        <ele>1.0086980378255248</ele>
        <time>2024-06-23T13:23:51Z</time>
      </trkpt>
      <trkpt lat="31.11401894209312" lon="121.37803776729261">
        <ele>2.1175393229350448</ele>
        <time>2024-06-23T13:24:00Z</time>
      </trkpt>
      <trkpt lat="31.113966520369107" lon="121.37790614878685">
        <ele>1.2765139071270823</ele>
        <time>2024-06-23T13:24:12Z</time>
      </trkpt>
      <trkpt lat="31.113927334819383" lon="121.37786736149192">
        <ele>0.792319992557168</ele>
        <time>2024-06-23T13:24:18Z</time>
      </trkpt>
      <trkpt lat="31.113877741046306" lon="121.37767394232117">
        <ele>-1.5100249452516437</ele>
        <time>2024-06-23T13:24:36Z</time>
      </trkpt>
      <trkpt lat="31.11387282705606" lon="121.37745155291178">
        <ele>-1.5071086082607508</ele>
        <time>2024-06-23T13:24:54Z</time>
      </trkpt>
      <trkpt lat="31.1138213369335" lon="121.37736748161211">
        <ele>0.20248044840991497</ele>
        <time>2024-06-23T13:25:01Z</time>
      </trkpt>
      <trkpt lat="31.113802034331467" lon="121.37728540837348">
        <ele>0.6370872659608722</ele>
        <time>2024-06-23T13:25:07Z</time>
      </trkpt>
      <trkpt lat="31.11366469387069" lon="121.3770689800257">
        <ele>3.057949723675847</ele>
        <time>2024-06-23T13:25:25Z</time>
      </trkpt>
      <trkpt lat="31.113604582895444" lon="121.37691304534762">
        <ele>5.242625920102</ele>
        <time>2024-06-23T13:25:37Z</time>
      </trkpt>
      <trkpt lat="31.113501746572133" lon="121.37681523427672">
        <ele>5.928061011247337</ele>
        <time>2024-06-23T13:25:49Z</time>
      </trkpt>
      <trkpt lat="31.113380101721994" lon="121.37678603948454">
        <ele>5.129021618515253</ele>
        <time>2024-06-23T13:26:01Z</time>
      </trkpt>
      <trkpt lat="31.11322746727174" lon="121.37665122027474">
        <ele>4.650401193648577</ele>
        <time>2024-06-23T13:26:19Z</time>
      </trkpt>
      <trkpt lat="31.113115123021277" lon="121.37644493535514">
        <ele>3.5189806278795004</ele>
        <time>2024-06-23T13:26:37Z</time>
      </trkpt>
      <trkpt lat="31.113001933322302" lon="121.37637128902752">
        <ele>4.893682328052819</ele>
        <time>2024-06-23T13:26:49Z</time>
      </trkpt>
      <trkpt lat="31.11289614170087" lon="121.3762886187906">
        <ele>4.229412320069969</ele>
        <time>2024-06-23T13:27:01Z</time>
      </trkpt>
      <trkpt lat="31.112920801577584" lon="121.376179650799">
        <ele>3.790592164732516</ele>
        <time>2024-06-23T13:27:08Z</time>
      </trkpt>
      <trkpt lat="31.11297419609734" lon="121.37612642472348">
        <ele>3.3091512974351645</ele>
        <time>2024-06-23T13:27:14Z</time>
      </trkpt>
      <trkpt lat="31.112938886700377" lon="121.37604865202185">
        <ele>3.506531094200909</ele>
        <time>2024-06-23T13:27:20Z</time>
      </trkpt>
      <trkpt lat="31.112726590696067" lon="121.3758119243203">
        <ele>4.410651298239827</ele>
        <time>2024-06-23T13:27:44Z</time>
      </trkpt>
      <trkpt lat="31.112678778462445" lon="121.37574965207598">
        <ele>4.786082659848034</ele>
        <time>2024-06-23T13:27:50Z</time>
      </trkpt>
      <trkpt lat="31.11261784890807" lon="121.37570692936596">
        <ele>4.4827669663354754</ele>
        <time>2024-06-23T13:27:56Z</time>
      </trkpt>
      <trkpt lat="31.11240733349829" lon="121.37545891464042">
        <ele>6.963639521971345</ele>
        <time>2024-06-23T13:28:20Z</time>
      </trkpt>
      <trkpt lat="31.112305188768225" lon="121.37533721756526">
        <ele>6.675907078199089</ele>
        <time>2024-06-23T13:28:32Z</time>
      </trkpt>
      <trkpt lat="31.112177756902316" lon="121.37528132755412">
        <ele>6.293458832427859</ele>
        <time>2024-06-23T13:28:41Z</time>
      </trkpt>
      <trkpt lat="31.112126578081142" lon="121.37520566067332">
        <ele>5.170240912586451</ele>
        <time>2024-06-23T13:28:47Z</time>
      </trkpt>
      <trkpt lat="31.111923171967693" lon="121.37499162957558">
        <ele>2.6576380655169487</ele>
        <time>2024-06-23T13:29:12Z</time>
      </trkpt>
      <trkpt lat="31.11176840406794" lon="121.37484036472958">
        <ele>3.9746732488274574</ele>
        <time>2024-06-23T13:29:27Z</time>
      </trkpt>
      <trkpt lat="31.111738973430597" lon="121.37474951075345">
        <ele>6.0581489922478795</ele>
        <time>2024-06-23T13:29:35Z</time>
      </trkpt>
      <trkpt lat="31.111555615931216" lon="121.37463372000447">
        <ele>7.128493746742606</ele>
        <time>2024-06-23T13:29:48Z</time>
      </trkpt>
      <trkpt lat="31.111492468424856" lon="121.37461411809205">
        <ele>9.126872665248811</ele>
        <time>2024-06-23T13:29:54Z</time>
      </trkpt>
      <trkpt lat="31.11150879103853" lon="121.37454573903095">
        <ele>9.89986586291343</ele>
        <time>2024-06-23T13:30:00Z</time>
      </trkpt>
      <trkpt lat="31.11176718526007" lon="121.3744339135569">
        <ele>9.858784048818052</ele>
        <time>2024-06-23T13:30:27Z</time>
      </trkpt>
      <trkpt lat="31.11180884058594" lon="121.37439026259234">
        <ele>7.483674463815987</ele>
        <time>2024-06-23T13:30:33Z</time>
      </trkpt>
      <trkpt lat="31.111735990728597" lon="121.3742303117302">
        <ele>6.227410601451993</ele>
        <time>2024-06-23T13:31:09Z</time>
      </trkpt>
      <trkpt lat="31.111660538283303" lon="121.37410557115064">
        <ele>6.457251012325287</ele>
        <time>2024-06-23T13:31:19Z</time>
      </trkpt>
      <trkpt lat="31.111651948167907" lon="121.3739053508945">
        <ele>4.1846777237951756</ele>
        <time>2024-06-23T13:31:35Z</time>
      </trkpt>
      <trkpt lat="31.11161237965153" lon="121.37387581810378">
        <ele>5.85103065520525</ele>
        <time>2024-06-23T13:31:57Z</time>
      </trkpt>
      <trkpt lat="31.111602271564013" lon="121.37382062918189">
        <ele>4.15385152772069</ele>
        <time>2024-06-23T13:32:03Z</time>
      </trkpt>
      <trkpt lat="31.111632305609344" lon="121.37376729228032">
        <ele>5.441033216193318</ele>
        <time>2024-06-23T13:32:09Z</time>
      </trkpt>
      <trkpt lat="31.111654891694762" lon="121.37366058447711">
        <ele>5.096849705092609</ele>
        <time>2024-06-23T13:32:18Z</time>
      </trkpt>
      <trkpt lat="31.11165143742819" lon="121.37357860911004">
        <ele>5.499983209185302</ele>
        <time>2024-06-23T13:32:24Z</time>
      </trkpt>
      <trkpt lat="31.111626015655943" lon="121.37352330898086">
        <ele>4.683881939388812</ele>
        <time>2024-06-23T13:32:30Z</time>
      </trkpt>
      <trkpt lat="31.11160626722416" lon="121.37340160337016">
        <ele>3.1219118935987353</ele>
        <time>2024-06-23T13:32:42Z</time>
      </trkpt>
      <trkpt lat="31.11154604410342" lon="121.3733540019709">
        <ele>4.036739652976394</ele>
        <time>2024-06-23T13:32:48Z</time>
      </trkpt>
      <trkpt lat="31.111495660436745" lon="121.37321862063204">
        <ele>3.18791907094419</ele>
        <time>2024-06-23T13:33:00Z</time>
      </trkpt>
      <trkpt lat="31.111484646088687" lon="121.37304877573379">
        <ele>3.3408090732991695</ele>
        <time>2024-06-23T13:33:18Z</time>
      </trkpt>
      <trkpt lat="31.111387671140978" lon="121.37305833006587">
        <ele>0.08885485772043467</ele>
        <time>2024-06-23T13:33:46Z</time>
      </trkpt>
      <trkpt lat="31.111368212355803" lon="121.3731094131009">
        <ele>-0.264183453284204</ele>
        <time>2024-06-23T13:33:52Z</time>
      </trkpt>
      <trkpt lat="31.111281059206053" lon="121.37299995742325">
        <ele>-4.058499114587903</ele>
        <time>2024-06-23T13:34:07Z</time>
      </trkpt>
      <trkpt lat="31.111188233105867" lon="121.372937770936">
        <ele>-8.130274737253785</ele>
        <time>2024-06-23T13:34:22Z</time>
      </trkpt>
      <trkpt lat="31.111143225456193" lon="121.37288683556065">
        <ele>-8.668563646264374</ele>
        <time>2024-06-23T13:34:37Z</time>
      </trkpt>
      <trkpt lat="31.1111973478025" lon="121.37274597318299">
        <ele>-13.713290420360863</ele>
        <time>2024-06-23T13:34:49Z</time>
      </trkpt>
      <trkpt lat="31.111194460633254" lon="121.37250764722482">
        <ele>-20.3100721007213</ele>
        <time>2024-06-23T13:34:52Z</time>
      </trkpt>
      <trkpt lat="31.111247430778803" lon="121.37233472181549">
        <ele>-18.230726417154074</ele>
        <time>2024-06-23T13:34:55Z</time>
      </trkpt>
      <trkpt lat="31.111299408572307" lon="121.37227589159802">
        <ele>-16.372506020590663</ele>
        <time>2024-06-23T13:35:01Z</time>
      </trkpt>
      <trkpt lat="31.111489896959167" lon="121.37214846671557">
        <ele>-11.269005302339792</ele>
        <time>2024-06-23T13:35:22Z</time>
      </trkpt>
      <trkpt lat="31.111735894415162" lon="121.37193922383416">
        <ele>-7.260666564106941</ele>
        <time>2024-06-23T13:35:50Z</time>
      </trkpt>
      <trkpt lat="31.111944243034007" lon="121.37167495114632">
        <ele>-2.231176340021193</ele>
        <time>2024-06-23T13:36:08Z</time>
      </trkpt>
      <trkpt lat="31.111986598654468" lon="121.37163600871332">
        <ele>-2.581118325702846</ele>
        <time>2024-06-23T13:36:11Z</time>
      </trkpt>
      <trkpt lat="31.111957394033688" lon="121.37158769469202">
        <ele>-0.6241172412410378</ele>
        <time>2024-06-23T13:36:14Z</time>
      </trkpt>
      <trkpt lat="31.111958811942564" lon="121.37138168688256">
        <ele>2.105645119212568</ele>
        <time>2024-06-23T13:36:26Z</time>
      </trkpt>
      <trkpt lat="31.111980052117453" lon="121.37131524602263">
        <ele>2.4310755943879485</ele>
        <time>2024-06-23T13:36:32Z</time>
      </trkpt>
      <trkpt lat="31.112022138654783" lon="121.37134606996014">
        <ele>8.07392298988998</ele>
        <time>2024-06-23T13:37:08Z</time>
      </trkpt>
      <trkpt lat="31.112116502834052" lon="121.37130451726776">
        <ele>8.904602320864797</ele>
        <time>2024-06-23T13:37:17Z</time>
      </trkpt>
      <trkpt lat="31.112150321699136" lon="121.37124323349573">
        <ele>9.128621137700975</ele>
        <time>2024-06-23T13:37:20Z</time>
      </trkpt>
      <trkpt lat="31.112112776989722" lon="121.37111106337282">
        <ele>9.895359698683023</ele>
        <time>2024-06-23T13:37:29Z</time>
      </trkpt>
      <trkpt lat="31.112035868141625" lon="121.3709899620403">
        <ele>9.446319684386253</ele>
        <time>2024-06-23T13:37:36Z</time>
      </trkpt>
      <trkpt lat="31.111983381710555" lon="121.37095277721917">
        <ele>9.347711769863963</ele>
        <time>2024-06-23T13:37:39Z</time>
      </trkpt>
      <trkpt lat="31.111851926261693" lon="121.37075697723881">
        <ele>7.485747326165438</ele>
        <time>2024-06-23T13:37:55Z</time>
      </trkpt>
      <trkpt lat="31.11185351494189" lon="121.37065009561054">
        <ele>7.298927929252386</ele>
        <time>2024-06-23T13:38:01Z</time>
      </trkpt>
      <trkpt lat="31.111724747356213" lon="121.37046905211902">
        <ele>6.884587432257831</ele>
        <time>2024-06-23T13:38:16Z</time>
      </trkpt>
      <trkpt lat="31.111643098045047" lon="121.37042260237614">
        <ele>6.989473519846797</ele>
        <time>2024-06-23T13:38:22Z</time>
      </trkpt>
      <trkpt lat="31.11161491367571" lon="121.37036778095495">
        <ele>6.9933032020926476</ele>
        <time>2024-06-23T13:38:28Z</time>
      </trkpt>
      <trkpt lat="31.111553958684784" lon="121.37032666336272">
        <ele>6.511758559383452</ele>
        <time>2024-06-23T13:38:34Z</time>
      </trkpt>
      <trkpt lat="31.111457473852816" lon="121.37000019654086">
        <ele>5.613095189444721</ele>
        <time>2024-06-23T13:38:58Z</time>
      </trkpt>
      <trkpt lat="31.111370877348747" lon="121.369778310822">
        <ele>3.7795154815539718</ele>
        <time>2024-06-23T13:39:13Z</time>
      </trkpt>
      <trkpt lat="31.111370600371743" lon="121.36972392660941">
        <ele>5.166372429579496</ele>
        <time>2024-06-23T13:39:16Z</time>
      </trkpt>
      <trkpt lat="31.111287312294625" lon="121.36965318038487">
        <ele>5.150546595454216</ele>
        <time>2024-06-23T13:39:25Z</time>
      </trkpt>
      <trkpt lat="31.111330630679213" lon="121.3695801561019">
        <ele>2.965442162938416</ele>
        <time>2024-06-23T13:39:28Z</time>
      </trkpt>
      <trkpt lat="31.11139296769176" lon="121.36951614894498">
        <ele>2.4380587209016085</ele>
        <time>2024-06-23T13:39:31Z</time>
      </trkpt>
      <trkpt lat="31.11138392445496" lon="121.36942342620591">
        <ele>2.8036722848191857</ele>
        <time>2024-06-23T13:39:34Z</time>
      </trkpt>
      <trkpt lat="31.111339419879638" lon="121.3694045194097">
        <ele>2.8285271329805255</ele>
        <time>2024-06-23T13:39:37Z</time>
      </trkpt>
      <trkpt lat="31.11125193972603" lon="121.36932008926615">
        <ele>3.4272522879764438</ele>
        <time>2024-06-23T13:39:44Z</time>
      </trkpt>
      <trkpt lat="31.11125367554622" lon="121.36924903449709">
        <ele>3.839027668349445</ele>
        <time>2024-06-23T13:39:48Z</time>
      </trkpt>
      <trkpt lat="31.111174164041245" lon="121.36916063008199">
        <ele>4.841651816852391</ele>
        <time>2024-06-23T13:40:00Z</time>
      </trkpt>
      <trkpt lat="31.111182935391234" lon="121.36909801504511">
        <ele>5.728808747604489</ele>
        <time>2024-06-23T13:40:04Z</time>
      </trkpt>
      <trkpt lat="31.11125012043766" lon="121.36905817258923">
        <ele>5.593367864377797</ele>
        <time>2024-06-23T13:40:08Z</time>
      </trkpt>
      <trkpt lat="31.111317963593123" lon="121.3690515953701">
        <ele>4.619256035424769</ele>
        <time>2024-06-23T13:40:12Z</time>
      </trkpt>
      <trkpt lat="31.111405330242683" lon="121.36896765970496">
        <ele>3.9610049361363053</ele>
        <time>2024-06-23T13:40:19Z</time>
      </trkpt>
      <trkpt lat="31.111652095373262" lon="121.36873510072985">
        <ele>4.460171305574477</ele>
        <time>2024-06-23T13:40:43Z</time>
      </trkpt>
      <trkpt lat="31.111801538581357" lon="121.36862893966462">
        <ele>4.035151579417288</ele>
        <time>2024-06-23T13:40:55Z</time>
      </trkpt>
      <trkpt lat="31.11196658196347" lon="121.36857915310347">
        <ele>3.424824313260615</ele>
        <time>2024-06-23T13:41:07Z</time>
      </trkpt>
      <trkpt lat="31.11209923444474" lon="121.3684638811826">
        <ele>4.027234805747867</ele>
        <time>2024-06-23T13:41:19Z</time>
      </trkpt>
      <trkpt lat="31.11219393470121" lon="121.36838483107827">
        <ele>4.0527703911066055</ele>
        <time>2024-06-23T13:41:28Z</time>
      </trkpt>
      <trkpt lat="31.11246764762523" lon="121.36822013076502">
        <ele>5.256904715672135</ele>
        <time>2024-06-23T13:41:54Z</time>
      </trkpt>
      <trkpt lat="31.11251376577292" lon="121.3681616881446">
        <ele>5.452743257395923</ele>
        <time>2024-06-23T13:41:58Z</time>
      </trkpt>
      <trkpt lat="31.11269962329526" lon="121.36806377340275">
        <ele>6.700788037851453</ele>
        <time>2024-06-23T13:42:14Z</time>
      </trkpt>
      <trkpt lat="31.112716825398323" lon="121.36798739438787">
        <ele>6.570818833075464</ele>
        <time>2024-06-23T13:42:18Z</time>
      </trkpt>
      <trkpt lat="31.112866112524074" lon="121.3678925426772">
        <ele>5.798204097896814</ele>
        <time>2024-06-23T13:42:45Z</time>
      </trkpt>
      <trkpt lat="31.112865975568525" lon="121.36775166054979">
        <ele>7.296299833804369</ele>
        <time>2024-06-23T13:42:54Z</time>
      </trkpt>
      <trkpt lat="31.112818269328088" lon="121.36771142909376">
        <ele>7.927570875734091</ele>
        <time>2024-06-23T13:42:57Z</time>
      </trkpt>
      <trkpt lat="31.1128049596443" lon="121.36761556457705">
        <ele>5.4296621568501</ele>
        <time>2024-06-23T13:43:06Z</time>
      </trkpt>
      <trkpt lat="31.112858075861887" lon="121.36760036680674">
        <ele>5.6270735347643495</ele>
        <time>2024-06-23T13:43:09Z</time>
      </trkpt>
      <trkpt lat="31.112897132809707" lon="121.36754029731794">
        <ele>7.453731304965913</ele>
        <time>2024-06-23T13:43:15Z</time>
      </trkpt>
      <trkpt lat="31.112898325124004" lon="121.36739103163721">
        <ele>5.791010819375515</ele>
        <time>2024-06-23T13:43:24Z</time>
      </trkpt>
      <trkpt lat="31.112857797357695" lon="121.36728214828354">
        <ele>5.918216076679528</ele>
        <time>2024-06-23T13:43:30Z</time>
      </trkpt>
      <trkpt lat="31.112713905726373" lon="121.36714194187219">
        <ele>4.26807064563036</ele>
        <time>2024-06-23T13:43:45Z</time>
      </trkpt>
      <trkpt lat="31.112508069606847" lon="121.36682057954458">
        <ele>0.6164553463459015</ele>
        <time>2024-06-23T13:44:15Z</time>
      </trkpt>
      <trkpt lat="31.112330417888124" lon="121.36649203839394">
        <ele>1.8863055668771267</ele>
        <time>2024-06-23T13:44:43Z</time>
      </trkpt>
      <trkpt lat="31.112207586328186" lon="121.36629419738598">
        <ele>1.8622546885162592</ele>
        <time>2024-06-23T13:45:01Z</time>
      </trkpt>
      <trkpt lat="31.11208315209273" lon="121.36601104753498">
        <ele>4.134254842065275</ele>
        <time>2024-06-23T13:45:25Z</time>
      </trkpt>
      <trkpt lat="31.11198985916307" lon="121.3659084591247">
        <ele>6.181795010343194</ele>
        <time>2024-06-23T13:45:34Z</time>
      </trkpt>
      <trkpt lat="31.111848668259636" lon="121.36561337106994">
        <ele>6.0170319955796</ele>
        <time>2024-06-23T13:45:55Z</time>
      </trkpt>
      <trkpt lat="31.111752104727096" lon="121.36541809765211">
        <ele>3.7685744408518076</ele>
        <time>2024-06-23T13:46:09Z</time>
      </trkpt>
      <trkpt lat="31.111701452690156" lon="121.36528920148534">
        <ele>3.702326321043074</ele>
        <time>2024-06-23T13:46:18Z</time>
      </trkpt>
      <trkpt lat="31.11165112949552" lon="121.36521063230849">
        <ele>3.648013459518552</ele>
        <time>2024-06-23T13:46:24Z</time>
      </trkpt>
      <trkpt lat="31.11149099518706" lon="121.36501347771348">
        <ele>-2.41798132378608</ele>
        <time>2024-06-23T13:46:45Z</time>
      </trkpt>
      <trkpt lat="31.11173931467269" lon="121.36488298659452">
        <ele>0.43665007408708334</ele>
        <time>2024-06-23T13:47:12Z</time>
      </trkpt>
      <trkpt lat="31.11186365513794" lon="121.3648429399559">
        <ele>0.34114709217101336</ele>
        <time>2024-06-23T13:47:24Z</time>
      </trkpt>
      <trkpt lat="31.111906886547775" lon="121.36480399069914">
        <ele>0.7397508751600981</ele>
        <time>2024-06-23T13:47:30Z</time>
      </trkpt>
      <trkpt lat="31.111991310441425" lon="121.36478627293113">
        <ele>0.9068983467295766</ele>
        <time>2024-06-23T13:47:36Z</time>
      </trkpt>
      <trkpt lat="31.112051943758747" lon="121.36474595900673">
        <ele>-0.04037248529493809</ele>
        <time>2024-06-23T13:47:42Z</time>
      </trkpt>
      <trkpt lat="31.11209728805747" lon="121.364751177299">
        <ele>0.2830726830288768</ele>
        <time>2024-06-23T13:47:48Z</time>
      </trkpt>
      <trkpt lat="31.112266196481265" lon="121.36491786976804">
        <ele>1.8761226572096348</ele>
        <time>2024-06-23T13:48:07Z</time>
      </trkpt>
      <trkpt lat="31.112312817967766" lon="121.36487491225861">
        <ele>2.743557423353195</ele>
        <time>2024-06-23T13:48:27Z</time>
      </trkpt>
    </trkseg>
  </trk>
</gpx>