<?xml version="1.0" encoding="UTF-8"?>
<gpx xmlns="http://www.topografix.com/GPX/1/1" xmlns:gpxtpx="http://www.garmin.com/xmlschemas/TrackPointExtension/v1" xmlns:xsi="http://www.w3.org/2001/XMLSchema-instance" xsi:schemaLocation="http://www.topografix.com/GPX/1/1 http://www.topografix.com/GPX/1/1/gpx.xsd" version="1.1" creator="gpx.py -- https://github.com/tkrajina/gpxpy">
  <trk>
    <name>gpx from keep</name>
    <type>Run</type>
    <trkseg>
      <trkpt lat="35.97546594101792" lon="119.50658054220472">
        <ele>89.94</ele>
        <time>2020-02-11T09:56:17Z</time>
      </trkpt>
      <trkpt lat="35.975411459333095" lon="119.5062262712342">
        <ele>103.04</ele>
        <time>2020-02-11T09:56:27Z</time>
      </trkpt>
      <trkpt lat="35.9753975374312" lon="119.50585972999934">
        <ele>102.94</ele>
        <time>2020-02-11T09:56:51Z</time>
      </trkpt>
      <trkpt lat="35.97540343185922" lon="119.50576694704279">
        <ele>103.74</ele>
        <time>2020-02-11T09:56:57Z</time>
      </trkpt>
      <trkpt lat="35.97538736882104" lon="119.50562268822237">
        <ele>101.81</ele>
        <time>2020-02-11T09:57:09Z</time>
      </trkpt>
      <trkpt lat="35.97538448624244" lon="119.50524769624796">
        <ele>103.21</ele>
        <time>2020-02-11T09:57:33Z</time>
      </trkpt>
      <trkpt lat="35.97539180762052" lon="119.50499382466126">
        <ele>102.63</ele>
        <time>2020-02-11T09:57:42Z</time>
      </trkpt>
      <trkpt lat="35.9753758352717" lon="119.50504874089255">
        <ele>103.66</ele>
        <time>2020-02-11T09:57:45Z</time>
      </trkpt>
      <trkpt lat="35.975336911453894" lon="119.50491475105517">
        <ele>102.02</ele>
        <time>2020-02-11T09:57:57Z</time>
      </trkpt>
      <trkpt lat="35.97536188024742" lon="119.50470957534192">
        <ele>101.91</ele>
        <time>2020-02-11T09:58:09Z</time>
      </trkpt>
      <trkpt lat="35.97535101750384" lon="119.50430238377639">
        <ele>103.99</ele>
        <time>2020-02-11T09:58:33Z</time>
      </trkpt>
      <trkpt lat="35.975350724604816" lon="119.5041288155611">
        <ele>99.56</ele>
        <time>2020-02-11T09:58:45Z</time>
      </trkpt>
      <trkpt lat="35.97531803784455" lon="119.50405344104324">
        <ele>98.95</ele>
        <time>2020-02-11T09:58:51Z</time>
      </trkpt>
      <trkpt lat="35.9752062635289" lon="119.50392800083085">
        <ele>98.94</ele>
        <time>2020-02-11T09:59:03Z</time>
      </trkpt>
      <trkpt lat="35.975128985387435" lon="119.503892894143">
        <ele>99.96</ele>
        <time>2020-02-11T09:59:09Z</time>
      </trkpt>
      <trkpt lat="35.974842487462155" lon="119.50388457835835">
        <ele>101.44</ele>
        <time>2020-02-11T09:59:30Z</time>
      </trkpt>
      <trkpt lat="35.97455978842296" lon="119.50390392069723">
        <ele>102.41</ele>
        <time>2020-02-11T09:59:54Z</time>
      </trkpt>
      <trkpt lat="35.97426854907342" lon="119.50393237253925">
        <ele>102.24</ele>
        <time>2020-02-11T10:00:18Z</time>
      </trkpt>
      <trkpt lat="35.97398034010958" lon="119.50395055501986">
        <ele>102.01</ele>
        <time>2020-02-11T10:00:42Z</time>
      </trkpt>
      <trkpt lat="35.97366551955115" lon="119.504012754906">
        <ele>107.03</ele>
        <time>2020-02-11T10:01:06Z</time>
      </trkpt>
      <trkpt lat="35.973380810332884" lon="119.50403658695525">
        <ele>106.62</ele>
        <time>2020-02-11T10:01:27Z</time>
      </trkpt>
      <trkpt lat="35.97308840190847" lon="119.50404175034959">
        <ele>102.79</ele>
        <time>2020-02-11T10:01:45Z</time>
      </trkpt>
      <trkpt lat="35.97273767417425" lon="119.5040385650479">
        <ele>101.86</ele>
        <time>2020-02-11T10:02:09Z</time>
      </trkpt>
      <trkpt lat="35.972401394397664" lon="119.5040840063024">
        <ele>102.99</ele>
        <time>2020-02-11T10:02:33Z</time>
      </trkpt>
      <trkpt lat="35.972273294240814" lon="119.5041072463783">
        <ele>101.58</ele>
        <time>2020-02-11T10:02:42Z</time>
      </trkpt>
      <trkpt lat="35.972216655919134" lon="119.5040741893234">
        <ele>102.84</ele>
        <time>2020-02-11T10:02:48Z</time>
      </trkpt>
      <trkpt lat="35.9721200451074" lon="119.50410891822519">
        <ele>104.49</ele>
        <time>2020-02-11T10:02:54Z</time>
      </trkpt>
      <trkpt lat="35.971800965982645" lon="119.50413535052404">
        <ele>104.71</ele>
        <time>2020-02-11T10:03:18Z</time>
      </trkpt>
      <trkpt lat="35.97149200656167" lon="119.50416747230464">
        <ele>101.82</ele>
        <time>2020-02-11T10:03:39Z</time>
      </trkpt>
      <trkpt lat="35.9712612165612" lon="119.50420200291664">
        <ele>100.73</ele>
        <time>2020-02-11T10:03:54Z</time>
      </trkpt>
      <trkpt lat="35.97113446460675" lon="119.50426855001214">
        <ele>100.69</ele>
        <time>2020-02-11T10:04:03Z</time>
      </trkpt>
      <trkpt lat="35.97084845666838" lon="119.5042608041955">
        <ele>107.0</ele>
        <time>2020-02-11T10:04:21Z</time>
      </trkpt>
      <trkpt lat="35.97080237724452" lon="119.50425361527407">
        <ele>107.93</ele>
        <time>2020-02-11T10:04:24Z</time>
      </trkpt>
      <trkpt lat="35.97071173649062" lon="119.50428537426707">
        <ele>107.67</ele>
        <time>2020-02-11T10:04:30Z</time>
      </trkpt>
      <trkpt lat="35.97053065973208" lon="119.504233340126">
        <ele>110.6</ele>
        <time>2020-02-11T10:04:42Z</time>
      </trkpt>
      <trkpt lat="35.970358930613024" lon="119.50423738204572">
        <ele>110.32</ele>
        <time>2020-02-11T10:04:54Z</time>
      </trkpt>
      <trkpt lat="35.970183949559804" lon="119.50428895076739">
        <ele>111.71</ele>
        <time>2020-02-11T10:05:06Z</time>
      </trkpt>
      <trkpt lat="35.96995373082002" lon="119.5042924134725">
        <ele>111.49</ele>
        <time>2020-02-11T10:05:21Z</time>
      </trkpt>
      <trkpt lat="35.96967763965873" lon="119.50436112229329">
        <ele>110.54</ele>
        <time>2020-02-11T10:05:39Z</time>
      </trkpt>
      <trkpt lat="35.96936924183437" lon="119.50435398672323">
        <ele>112.26</ele>
        <time>2020-02-11T10:05:57Z</time>
      </trkpt>
      <trkpt lat="35.96907644251768" lon="119.50438046864346">
        <ele>110.54</ele>
        <time>2020-02-11T10:06:15Z</time>
      </trkpt>
      <trkpt lat="35.968781944946286" lon="119.5043652234534">
        <ele>110.5</ele>
        <time>2020-02-11T10:06:33Z</time>
      </trkpt>
      <trkpt lat="35.9686364666359" lon="119.50434587663992">
        <ele>110.86</ele>
        <time>2020-02-11T10:06:42Z</time>
      </trkpt>
      <trkpt lat="35.96843885548334" lon="119.50440252526819">
        <ele>112.14</ele>
        <time>2020-02-11T10:06:54Z</time>
      </trkpt>
      <trkpt lat="35.968147335062184" lon="119.50445503536417">
        <ele>113.9</ele>
        <time>2020-02-11T10:07:12Z</time>
      </trkpt>
      <trkpt lat="35.96784122574195" lon="119.5044832373188">
        <ele>113.38</ele>
        <time>2020-02-11T10:07:30Z</time>
      </trkpt>
      <trkpt lat="35.96755066652298" lon="119.50450670939891">
        <ele>115.82</ele>
        <time>2020-02-11T10:07:48Z</time>
      </trkpt>
      <trkpt lat="35.96724078735572" lon="119.5045316816178">
        <ele>114.83</ele>
        <time>2020-02-11T10:08:06Z</time>
      </trkpt>
      <trkpt lat="35.96718759806622" lon="119.50452254293309">
        <ele>115.89</ele>
        <time>2020-02-11T10:08:09Z</time>
      </trkpt>
      <trkpt lat="35.96713745758348" lon="119.50454117227574">
        <ele>117.06</ele>
        <time>2020-02-11T10:08:12Z</time>
      </trkpt>
      <trkpt lat="35.96708751828346" lon="119.50453182356462">
        <ele>116.16</ele>
        <time>2020-02-11T10:08:15Z</time>
      </trkpt>
      <trkpt lat="35.96704279764907" lon="119.50455323264322">
        <ele>115.27</ele>
        <time>2020-02-11T10:08:18Z</time>
      </trkpt>
      <trkpt lat="35.96687119888174" lon="119.50454881514194">
        <ele>113.35</ele>
        <time>2020-02-11T10:08:30Z</time>
      </trkpt>
      <trkpt lat="35.96681142149505" lon="119.5044955996084">
        <ele>114.49</ele>
        <time>2020-02-11T10:08:36Z</time>
      </trkpt>
      <trkpt lat="35.966789619476565" lon="119.50454650634431">
        <ele>114.64</ele>
        <time>2020-02-11T10:09:00Z</time>
      </trkpt>
      <trkpt lat="35.966510990441755" lon="119.5045637686964">
        <ele>114.36</ele>
        <time>2020-02-11T10:09:18Z</time>
      </trkpt>
      <trkpt lat="35.96619547200685" lon="119.50457217213655">
        <ele>117.51</ele>
        <time>2020-02-11T10:09:39Z</time>
      </trkpt>
      <trkpt lat="35.96611312145255" lon="119.5045969914517">
        <ele>116.12</ele>
        <time>2020-02-11T10:09:45Z</time>
      </trkpt>
      <trkpt lat="35.9658054717831" lon="119.50463315284269">
        <ele>116.09</ele>
        <time>2020-02-11T10:10:06Z</time>
      </trkpt>
      <trkpt lat="35.9657072514755" lon="119.50465431260922">
        <ele>113.76</ele>
        <time>2020-02-11T10:10:12Z</time>
      </trkpt>
      <trkpt lat="35.96566000807562" lon="119.50473996716786">
        <ele>114.09</ele>
        <time>2020-02-11T10:10:18Z</time>
      </trkpt>
      <trkpt lat="35.96563329138474" lon="119.50489715631089">
        <ele>114.21</ele>
        <time>2020-02-11T10:10:27Z</time>
      </trkpt>
      <trkpt lat="35.96563636410241" lon="119.5050610244522">
        <ele>116.66</ele>
        <time>2020-02-11T10:10:36Z</time>
      </trkpt>
      <trkpt lat="35.96565275047176" lon="119.50513970851493">
        <ele>115.94</ele>
        <time>2020-02-11T10:10:45Z</time>
      </trkpt>
      <trkpt lat="35.96565443314584" lon="119.50551695055474">
        <ele>114.7</ele>
        <time>2020-02-11T10:11:03Z</time>
      </trkpt>
      <trkpt lat="35.96566782957274" lon="119.50580163877925">
        <ele>113.48</ele>
        <time>2020-02-11T10:11:15Z</time>
      </trkpt>
      <trkpt lat="35.965643500063614" lon="119.50620336784309">
        <ele>114.44</ele>
        <time>2020-02-11T10:11:30Z</time>
      </trkpt>
      <trkpt lat="35.96566528368128" lon="119.50632807768456">
        <ele>113.72</ele>
        <time>2020-02-11T10:11:36Z</time>
      </trkpt>
      <trkpt lat="35.965672314455844" lon="119.50670251741512">
        <ele>114.32</ele>
        <time>2020-02-11T10:11:54Z</time>
      </trkpt>
      <trkpt lat="35.96567495569684" lon="119.50705709809361">
        <ele>116.44</ele>
        <time>2020-02-11T10:12:12Z</time>
      </trkpt>
      <trkpt lat="35.96567786653727" lon="119.50740874833133">
        <ele>111.74</ele>
        <time>2020-02-11T10:12:27Z</time>
      </trkpt>
      <trkpt lat="35.96568339544108" lon="119.50760750116146">
        <ele>118.08</ele>
        <time>2020-02-11T10:12:36Z</time>
      </trkpt>
      <trkpt lat="35.965707073977114" lon="119.50798196805793">
        <ele>115.88</ele>
        <time>2020-02-11T10:12:51Z</time>
      </trkpt>
      <trkpt lat="35.96571744084166" lon="119.50837545263673">
        <ele>115.79</ele>
        <time>2020-02-11T10:13:06Z</time>
      </trkpt>
      <trkpt lat="35.96573922945574" lon="119.5087279900288">
        <ele>116.02</ele>
        <time>2020-02-11T10:13:21Z</time>
      </trkpt>
      <trkpt lat="35.965741788009375" lon="119.50907460755346">
        <ele>114.82</ele>
        <time>2020-02-11T10:13:36Z</time>
      </trkpt>
      <trkpt lat="35.965734733407906" lon="119.50946304051641">
        <ele>115.5</ele>
        <time>2020-02-11T10:13:51Z</time>
      </trkpt>
      <trkpt lat="35.9657457239098" lon="119.50960898621648">
        <ele>116.96</ele>
        <time>2020-02-11T10:13:57Z</time>
      </trkpt>
      <trkpt lat="35.965732509859016" lon="119.50967247019003">
        <ele>117.19</ele>
        <time>2020-02-11T10:14:00Z</time>
      </trkpt>
      <trkpt lat="35.965747422969436" lon="119.50977634981612">
        <ele>115.01</ele>
        <time>2020-02-11T10:14:06Z</time>
      </trkpt>
      <trkpt lat="35.965760247866676" lon="119.51015267227541">
        <ele>116.19</ele>
        <time>2020-02-11T10:14:27Z</time>
      </trkpt>
      <trkpt lat="35.965755785537745" lon="119.51048125907609">
        <ele>116.14</ele>
        <time>2020-02-11T10:14:45Z</time>
      </trkpt>
      <trkpt lat="35.965778868312036" lon="119.5105839682681">
        <ele>113.61</ele>
        <time>2020-02-11T10:14:51Z</time>
      </trkpt>
      <trkpt lat="35.96577303041186" lon="119.51084107177797">
        <ele>113.6</ele>
        <time>2020-02-11T10:15:09Z</time>
      </trkpt>
      <trkpt lat="35.965783693696146" lon="119.51093537181033">
        <ele>114.69</ele>
        <time>2020-02-11T10:15:15Z</time>
      </trkpt>
      <trkpt lat="35.965836902639495" lon="119.51094571005089">
        <ele>113.24</ele>
        <time>2020-02-11T10:15:18Z</time>
      </trkpt>
      <trkpt lat="35.966123895100765" lon="119.5108860426196">
        <ele>113.4</ele>
        <time>2020-02-11T10:15:36Z</time>
      </trkpt>
      <trkpt lat="35.96647605505227" lon="119.51085618123757">
        <ele>111.84</ele>
        <time>2020-02-11T10:16:00Z</time>
      </trkpt>
      <trkpt lat="35.96680128432249" lon="119.51083829894857">
        <ele>114.58</ele>
        <time>2020-02-11T10:16:21Z</time>
      </trkpt>
      <trkpt lat="35.96685431235211" lon="119.51086169583739">
        <ele>112.23</ele>
        <time>2020-02-11T10:16:24Z</time>
      </trkpt>
      <trkpt lat="35.966868605651435" lon="119.51095534588109">
        <ele>114.83</ele>
        <time>2020-02-11T10:16:27Z</time>
      </trkpt>
      <trkpt lat="35.96690938013165" lon="119.51102959757824">
        <ele>116.22</ele>
        <time>2020-02-11T10:16:30Z</time>
      </trkpt>
      <trkpt lat="35.96697274744297" lon="119.51106191337341">
        <ele>117.0</ele>
        <time>2020-02-11T10:16:33Z</time>
      </trkpt>
      <trkpt lat="35.967146238201565" lon="119.51103637384423">
        <ele>115.4</ele>
        <time>2020-02-11T10:16:42Z</time>
      </trkpt>
      <trkpt lat="35.96745190676159" lon="119.51103035057623">
        <ele>115.7</ele>
        <time>2020-02-11T10:16:54Z</time>
      </trkpt>
      <trkpt lat="35.967526266125645" lon="119.51103289935962">
        <ele>114.24</ele>
        <time>2020-02-11T10:16:57Z</time>
      </trkpt>
      <trkpt lat="35.96767914897743" lon="119.5109796029986">
        <ele>112.58</ele>
        <time>2020-02-11T10:17:06Z</time>
      </trkpt>
      <trkpt lat="35.967989547979066" lon="119.51096692036501">
        <ele>111.77</ele>
        <time>2020-02-11T10:17:18Z</time>
      </trkpt>
      <trkpt lat="35.96824860928755" lon="119.51092606133092">
        <ele>108.95</ele>
        <time>2020-02-11T10:17:30Z</time>
      </trkpt>
      <trkpt lat="35.968369677817016" lon="119.51093638870644">
        <ele>110.73</ele>
        <time>2020-02-11T10:17:36Z</time>
      </trkpt>
      <trkpt lat="35.96844750831912" lon="119.51092255915782">
        <ele>111.37</ele>
        <time>2020-02-11T10:17:39Z</time>
      </trkpt>
      <trkpt lat="35.96878232653881" lon="119.51091878527771">
        <ele>111.62</ele>
        <time>2020-02-11T10:17:51Z</time>
      </trkpt>
      <trkpt lat="35.96908374607677" lon="119.51089923347008">
        <ele>110.75</ele>
        <time>2020-02-11T10:18:03Z</time>
      </trkpt>
      <trkpt lat="35.96936862578112" lon="119.51087873197025">
        <ele>109.12</ele>
        <time>2020-02-11T10:18:18Z</time>
      </trkpt>
      <trkpt lat="35.96958805748635" lon="119.51083545367325">
        <ele>106.97</ele>
        <time>2020-02-11T10:18:33Z</time>
      </trkpt>
      <trkpt lat="35.96985964811128" lon="119.51080291358565">
        <ele>106.21</ele>
        <time>2020-02-11T10:18:51Z</time>
      </trkpt>
      <trkpt lat="35.970161128908025" lon="119.51076524364193">
        <ele>104.32</ele>
        <time>2020-02-11T10:19:12Z</time>
      </trkpt>
      <trkpt lat="35.970499147873426" lon="119.51075049085253">
        <ele>106.42</ele>
        <time>2020-02-11T10:19:36Z</time>
      </trkpt>
      <trkpt lat="35.97083893738095" lon="119.51072780885902">
        <ele>108.56</ele>
        <time>2020-02-11T10:20:00Z</time>
      </trkpt>
      <trkpt lat="35.97115416708797" lon="119.51070438725247">
        <ele>107.42</ele>
        <time>2020-02-11T10:20:21Z</time>
      </trkpt>
      <trkpt lat="35.97146621770923" lon="119.5106680770123">
        <ele>108.99</ele>
        <time>2020-02-11T10:20:42Z</time>
      </trkpt>
      <trkpt lat="35.97177097588261" lon="119.51066754317347">
        <ele>113.17</ele>
        <time>2020-02-11T10:20:57Z</time>
      </trkpt>
      <trkpt lat="35.972053616189015" lon="119.51063827257684">
        <ele>110.38</ele>
        <time>2020-02-11T10:21:09Z</time>
      </trkpt>
      <trkpt lat="35.97233435487295" lon="119.51063249958338">
        <ele>109.25</ele>
        <time>2020-02-11T10:21:21Z</time>
      </trkpt>
      <trkpt lat="35.972610795051274" lon="119.51060555882054">
        <ele>106.87</ele>
        <time>2020-02-11T10:21:33Z</time>
      </trkpt>
      <trkpt lat="35.97290027467881" lon="119.51058537719325">
        <ele>106.76</ele>
        <time>2020-02-11T10:21:45Z</time>
      </trkpt>
      <trkpt lat="35.97319949427262" lon="119.51056479547998">
        <ele>108.39</ele>
        <time>2020-02-11T10:21:57Z</time>
      </trkpt>
      <trkpt lat="35.97349743487036" lon="119.51052975526076">
        <ele>105.51</ele>
        <time>2020-02-11T10:22:12Z</time>
      </trkpt>
      <trkpt lat="35.97379565525382" lon="119.51049772472359">
        <ele>103.98</ele>
        <time>2020-02-11T10:22:30Z</time>
      </trkpt>
      <trkpt lat="35.97407493470859" lon="119.51048082287905">
        <ele>104.38</ele>
        <time>2020-02-11T10:22:48Z</time>
      </trkpt>
      <trkpt lat="35.97435255580469" lon="119.51044014347747">
        <ele>102.68</ele>
        <time>2020-02-11T10:23:06Z</time>
      </trkpt>
      <trkpt lat="35.97463702557285" lon="119.51041814207969">
        <ele>98.88</ele>
        <time>2020-02-11T10:23:24Z</time>
      </trkpt>
      <trkpt lat="35.97493894485992" lon="119.51040157990298">
        <ele>104.1</ele>
        <time>2020-02-11T10:23:42Z</time>
      </trkpt>
      <trkpt lat="35.97527008434361" lon="119.51037950791029">
        <ele>101.18</ele>
        <time>2020-02-11T10:24:03Z</time>
      </trkpt>
      <trkpt lat="35.97546203565467" lon="119.51034309914849">
        <ele>101.7</ele>
        <time>2020-02-11T10:24:15Z</time>
      </trkpt>
      <trkpt lat="35.97550195783821" lon="119.51030745224708">
        <ele>101.18</ele>
        <time>2020-02-11T10:24:18Z</time>
      </trkpt>
      <trkpt lat="35.9755587237657" lon="119.51021494085596">
        <ele>101.47</ele>
        <time>2020-02-11T10:24:24Z</time>
      </trkpt>
      <trkpt lat="35.975589357606644" lon="119.50985544630413">
        <ele>102.04</ele>
        <time>2020-02-11T10:24:42Z</time>
      </trkpt>
      <trkpt lat="35.9756142284982" lon="119.5095334175017">
        <ele>102.39</ele>
        <time>2020-02-11T10:24:57Z</time>
      </trkpt>
      <trkpt lat="35.97559253141866" lon="119.50917656205141">
        <ele>101.13</ele>
        <time>2020-02-11T10:25:15Z</time>
      </trkpt>
      <trkpt lat="35.97555855403709" lon="119.50881672634871">
        <ele>101.23</ele>
        <time>2020-02-11T10:25:33Z</time>
      </trkpt>
      <trkpt lat="35.97553606616508" lon="119.50845437002849">
        <ele>104.1</ele>
        <time>2020-02-11T10:25:51Z</time>
      </trkpt>
      <trkpt lat="35.97552847788253" lon="119.50808753320531">
        <ele>103.43</ele>
        <time>2020-02-11T10:26:09Z</time>
      </trkpt>
      <trkpt lat="35.97553419002184" lon="119.50770126717332">
        <ele>102.5</ele>
        <time>2020-02-11T10:26:27Z</time>
      </trkpt>
      <trkpt lat="35.975519943320165" lon="119.5076443523027">
        <ele>103.11</ele>
        <time>2020-02-11T10:26:30Z</time>
      </trkpt>
      <trkpt lat="35.97530995467154" lon="119.50764313509468">
        <ele>106.29</ele>
        <time>2020-02-11T10:26:42Z</time>
      </trkpt>
      <trkpt lat="35.97524948383708" lon="119.50766450401304">
        <ele>106.27</ele>
        <time>2020-02-11T10:26:45Z</time>
      </trkpt>
      <trkpt lat="35.975192515644935" lon="119.50763858699152">
        <ele>106.11</ele>
        <time>2020-02-11T10:26:48Z</time>
      </trkpt>
      <trkpt lat="35.97514002184098" lon="119.50788716593404">
        <ele>106.54</ele>
        <time>2020-02-11T10:27:00Z</time>
      </trkpt>
      <trkpt lat="35.97511109643497" lon="119.50798410773888">
        <ele>108.05</ele>
        <time>2020-02-11T10:27:06Z</time>
      </trkpt>
      <trkpt lat="35.975085373872446" lon="119.50803107389989">
        <ele>108.02</ele>
        <time>2020-02-11T10:27:09Z</time>
      </trkpt>
      <trkpt lat="35.974944171738414" lon="119.50808263111676">
        <ele>105.72</ele>
        <time>2020-02-11T10:27:21Z</time>
      </trkpt>
      <trkpt lat="35.974778504927684" lon="119.50804519656931">
        <ele>106.53</ele>
        <time>2020-02-11T10:27:30Z</time>
      </trkpt>
      <trkpt lat="35.97473396702556" lon="119.50801371993612">
        <ele>106.41</ele>
        <time>2020-02-11T10:27:33Z</time>
      </trkpt>
      <trkpt lat="35.97466227837763" lon="119.50799793225393">
        <ele>108.52</ele>
        <time>2020-02-11T10:27:39Z</time>
      </trkpt>
      <trkpt lat="35.974592831328906" lon="119.50795418701684">
        <ele>107.08</ele>
        <time>2020-02-11T10:27:45Z</time>
      </trkpt>
      <trkpt lat="35.97456535455302" lon="119.50790108205797">
        <ele>106.4</ele>
        <time>2020-02-11T10:27:48Z</time>
      </trkpt>
      <trkpt lat="35.97470839565092" lon="119.50804011791769">
        <ele>101.18</ele>
        <time>2020-02-11T10:28:02Z</time>
      </trkpt>
      <trkpt lat="35.97456504619841" lon="119.50787243458542">
        <ele>108.05</ele>
        <time>2020-02-11T10:28:15Z</time>
      </trkpt>
    </trkseg>
  </trk>
</gpx>