<?xml version="1.0" encoding="UTF-8"?>
<gpx xmlns="http://www.topografix.com/GPX/1/1" xmlns:gpxtpx="http://www.garmin.com/xmlschemas/TrackPointExtension/v1" xmlns:xsi="http://www.w3.org/2001/XMLSchema-instance" xsi:schemaLocation="http://www.topografix.com/GPX/1/1 http://www.topografix.com/GPX/1/1/gpx.xsd" version="1.1" creator="gpx.py -- https://github.com/tkrajina/gpxpy">
  <trk>
    <name>gpx from keep</name>
    <type>Run</type>
    <trkseg>
      <trkpt lat="30.522150693656798" lon="114.39228310690916">
        <ele>12.56</ele>
        <time>2021-06-06T14:19:11Z</time>
      </trkpt>
      <trkpt lat="30.522175253184276" lon="114.39240809950932">
        <ele>13.41</ele>
        <time>2021-06-06T14:19:14Z</time>
      </trkpt>
      <trkpt lat="30.522099518292645" lon="114.39260320097152">
        <ele>12.14</ele>
        <time>2021-06-06T14:19:20Z</time>
      </trkpt>
      <trkpt lat="30.52208870481043" lon="114.39275900189214">
        <ele>12.04</ele>
        <time>2021-06-06T14:19:23Z</time>
      </trkpt>
      <trkpt lat="30.522108332259002" lon="114.39291741340496">
        <ele>14.13</ele>
        <time>2021-06-06T14:19:26Z</time>
      </trkpt>
      <trkpt lat="30.52217935114737" lon="114.3930373446091">
        <ele>15.73</ele>
        <time>2021-06-06T14:19:29Z</time>
      </trkpt>
      <trkpt lat="30.522250597975468" lon="114.39310601234817">
        <ele>15.93</ele>
        <time>2021-06-06T14:19:32Z</time>
      </trkpt>
      <trkpt lat="30.52232101830551" lon="114.39314712284634">
        <ele>15.58</ele>
        <time>2021-06-06T14:19:35Z</time>
      </trkpt>
      <trkpt lat="30.522615637147098" lon="114.39317329839798">
        <ele>17.12</ele>
        <time>2021-06-06T14:19:44Z</time>
      </trkpt>
      <trkpt lat="30.522927870681784" lon="114.39317629776943">
        <ele>14.47</ele>
        <time>2021-06-06T14:19:53Z</time>
      </trkpt>
      <trkpt lat="30.523007625957252" lon="114.39315320132783">
        <ele>15.37</ele>
        <time>2021-06-06T14:19:56Z</time>
      </trkpt>
      <trkpt lat="30.523246390304198" lon="114.39316247268339">
        <ele>15.13</ele>
        <time>2021-06-06T14:20:02Z</time>
      </trkpt>
      <trkpt lat="30.523418953153595" lon="114.39308310101332">
        <ele>14.52</ele>
        <time>2021-06-06T14:20:08Z</time>
      </trkpt>
      <trkpt lat="30.523565941375903" lon="114.39290008222855">
        <ele>15.4</ele>
        <time>2021-06-06T14:20:14Z</time>
      </trkpt>
      <trkpt lat="30.523596144435412" lon="114.3926568082273">
        <ele>15.58</ele>
        <time>2021-06-06T14:20:20Z</time>
      </trkpt>
      <trkpt lat="30.523575576213926" lon="114.39253744702606">
        <ele>16.35</ele>
        <time>2021-06-06T14:20:23Z</time>
      </trkpt>
      <trkpt lat="30.52346741520137" lon="114.39236682282879">
        <ele>16.1</ele>
        <time>2021-06-06T14:20:29Z</time>
      </trkpt>
      <trkpt lat="30.523400952832677" lon="114.39231662999514">
        <ele>16.43</ele>
        <time>2021-06-06T14:20:32Z</time>
      </trkpt>
      <trkpt lat="30.523306313534757" lon="114.39228061100202">
        <ele>16.76</ele>
        <time>2021-06-06T14:20:35Z</time>
      </trkpt>
      <trkpt lat="30.52297239938188" lon="114.39227578125723">
        <ele>13.8</ele>
        <time>2021-06-06T14:20:47Z</time>
      </trkpt>
      <trkpt lat="30.522690438055708" lon="114.39228101390812">
        <ele>16.46</ele>
        <time>2021-06-06T14:20:56Z</time>
      </trkpt>
      <trkpt lat="30.52243335602776" lon="114.39228229541209">
        <ele>15.29</ele>
        <time>2021-06-06T14:21:05Z</time>
      </trkpt>
      <trkpt lat="30.52227018836623" lon="114.39234124157686">
        <ele>16.79</ele>
        <time>2021-06-06T14:21:11Z</time>
      </trkpt>
      <trkpt lat="30.522193249152604" lon="114.39239021474515">
        <ele>16.56</ele>
        <time>2021-06-06T14:21:14Z</time>
      </trkpt>
      <trkpt lat="30.522142084999395" lon="114.3924597431842">
        <ele>15.89</ele>
        <time>2021-06-06T14:21:17Z</time>
      </trkpt>
      <trkpt lat="30.522076080386746" lon="114.39265558481496">
        <ele>17.6</ele>
        <time>2021-06-06T14:21:23Z</time>
      </trkpt>
      <trkpt lat="30.522078531625088" lon="114.3928733819722">
        <ele>20.63</ele>
        <time>2021-06-06T14:21:29Z</time>
      </trkpt>
      <trkpt lat="30.52216123394799" lon="114.39304992800068">
        <ele>20.63</ele>
        <time>2021-06-06T14:21:35Z</time>
      </trkpt>
      <trkpt lat="30.52222392120928" lon="114.39312075634872">
        <ele>20.18</ele>
        <time>2021-06-06T14:21:38Z</time>
      </trkpt>
      <trkpt lat="30.522370871983714" lon="114.39320320738311">
        <ele>18.63</ele>
        <time>2021-06-06T14:21:44Z</time>
      </trkpt>
      <trkpt lat="30.5224504774274" lon="114.39318083113086">
        <ele>18.15</ele>
        <time>2021-06-06T14:21:47Z</time>
      </trkpt>
      <trkpt lat="30.522620561353047" lon="114.39319094302049">
        <ele>16.33</ele>
        <time>2021-06-06T14:21:53Z</time>
      </trkpt>
      <trkpt lat="30.522895758662035" lon="114.39316896598535">
        <ele>15.81</ele>
        <time>2021-06-06T14:22:02Z</time>
      </trkpt>
      <trkpt lat="30.523225023559544" lon="114.39317709662984">
        <ele>16.58</ele>
        <time>2021-06-06T14:22:14Z</time>
      </trkpt>
      <trkpt lat="30.52331829463684" lon="114.39317808646666">
        <ele>16.16</ele>
        <time>2021-06-06T14:22:17Z</time>
      </trkpt>
      <trkpt lat="30.523395337271594" lon="114.39314389711761">
        <ele>17.43</ele>
        <time>2021-06-06T14:22:20Z</time>
      </trkpt>
      <trkpt lat="30.523525904517136" lon="114.39299989864536">
        <ele>16.46</ele>
        <time>2021-06-06T14:22:26Z</time>
      </trkpt>
      <trkpt lat="30.523636020899982" lon="114.39273417873292">
        <ele>14.9</ele>
        <time>2021-06-06T14:22:35Z</time>
      </trkpt>
      <trkpt lat="30.523648923857102" lon="114.39266026316368">
        <ele>14.96</ele>
        <time>2021-06-06T14:22:38Z</time>
      </trkpt>
      <trkpt lat="30.523629484002765" lon="114.39256898933057">
        <ele>14.95</ele>
        <time>2021-06-06T14:22:41Z</time>
      </trkpt>
      <trkpt lat="30.523513626523037" lon="114.3924133147902">
        <ele>15.42</ele>
        <time>2021-06-06T14:22:47Z</time>
      </trkpt>
      <trkpt lat="30.52344248357336" lon="114.39236497689913">
        <ele>17.24</ele>
        <time>2021-06-06T14:22:50Z</time>
      </trkpt>
      <trkpt lat="30.523246388178265" lon="114.39230273706308">
        <ele>16.96</ele>
        <time>2021-06-06T14:22:56Z</time>
      </trkpt>
      <trkpt lat="30.523092707411703" lon="114.39230539845833">
        <ele>13.04</ele>
        <time>2021-06-06T14:23:02Z</time>
      </trkpt>
      <trkpt lat="30.52275757557183" lon="114.39226782015164">
        <ele>19.48</ele>
        <time>2021-06-06T14:23:14Z</time>
      </trkpt>
      <trkpt lat="30.522449783466907" lon="114.39227073231271">
        <ele>17.49</ele>
        <time>2021-06-06T14:23:26Z</time>
      </trkpt>
      <trkpt lat="30.52236590351813" lon="114.39227419359939">
        <ele>18.49</ele>
        <time>2021-06-06T14:23:29Z</time>
      </trkpt>
      <trkpt lat="30.522298478094896" lon="114.39233899085926">
        <ele>19.44</ele>
        <time>2021-06-06T14:23:32Z</time>
      </trkpt>
      <trkpt lat="30.522216017808315" lon="114.39238360291077">
        <ele>20.86</ele>
        <time>2021-06-06T14:23:35Z</time>
      </trkpt>
      <trkpt lat="30.522120654188356" lon="114.39254232491794">
        <ele>19.95</ele>
        <time>2021-06-06T14:23:41Z</time>
      </trkpt>
      <trkpt lat="30.52207487931821" lon="114.39265108363983">
        <ele>21.9</ele>
        <time>2021-06-06T14:23:44Z</time>
      </trkpt>
      <trkpt lat="30.522062014210988" lon="114.39275748161435">
        <ele>22.75</ele>
        <time>2021-06-06T14:23:47Z</time>
      </trkpt>
      <trkpt lat="30.52207129577864" lon="114.39284881555241">
        <ele>22.54</ele>
        <time>2021-06-06T14:23:50Z</time>
      </trkpt>
      <trkpt lat="30.52223761536336" lon="114.39309542962285">
        <ele>20.85</ele>
        <time>2021-06-06T14:23:59Z</time>
      </trkpt>
      <trkpt lat="30.522315058334055" lon="114.39314747296555">
        <ele>18.92</ele>
        <time>2021-06-06T14:24:02Z</time>
      </trkpt>
      <trkpt lat="30.5226420481954" lon="114.39317672918115">
        <ele>21.17</ele>
        <time>2021-06-06T14:24:14Z</time>
      </trkpt>
      <trkpt lat="30.52295997182394" lon="114.39317990857411">
        <ele>17.21</ele>
        <time>2021-06-06T14:24:26Z</time>
      </trkpt>
      <trkpt lat="30.523113056329006" lon="114.39319290732226">
        <ele>15.55</ele>
        <time>2021-06-06T14:24:32Z</time>
      </trkpt>
      <trkpt lat="30.523374198780886" lon="114.39315110911176">
        <ele>15.94</ele>
        <time>2021-06-06T14:24:41Z</time>
      </trkpt>
      <trkpt lat="30.523511382991355" lon="114.39303642831698">
        <ele>13.6</ele>
        <time>2021-06-06T14:24:47Z</time>
      </trkpt>
      <trkpt lat="30.523575855343154" lon="114.39295902767398">
        <ele>11.4</ele>
        <time>2021-06-06T14:24:50Z</time>
      </trkpt>
      <trkpt lat="30.523623604434437" lon="114.39286837363618">
        <ele>12.6</ele>
        <time>2021-06-06T14:24:53Z</time>
      </trkpt>
      <trkpt lat="30.523626501167044" lon="114.39268428529708">
        <ele>16.62</ele>
        <time>2021-06-06T14:24:59Z</time>
      </trkpt>
      <trkpt lat="30.52357958078113" lon="114.39251415090304">
        <ele>18.17</ele>
        <time>2021-06-06T14:25:05Z</time>
      </trkpt>
      <trkpt lat="30.52342667909169" lon="114.3923423366052">
        <ele>18.79</ele>
        <time>2021-06-06T14:25:14Z</time>
      </trkpt>
      <trkpt lat="30.523269037178096" lon="114.3922975956149">
        <ele>17.21</ele>
        <time>2021-06-06T14:25:20Z</time>
      </trkpt>
      <trkpt lat="30.523024222211276" lon="114.39228585365643">
        <ele>16.31</ele>
        <time>2021-06-06T14:25:29Z</time>
      </trkpt>
      <trkpt lat="30.522968007504897" lon="114.39231061038907">
        <ele>16.46</ele>
        <time>2021-06-06T14:25:32Z</time>
      </trkpt>
      <trkpt lat="30.522650738460452" lon="114.39228427494169">
        <ele>15.21</ele>
        <time>2021-06-06T14:25:44Z</time>
      </trkpt>
      <trkpt lat="30.522392299329248" lon="114.39229796969921">
        <ele>16.96</ele>
        <time>2021-06-06T14:25:53Z</time>
      </trkpt>
      <trkpt lat="30.522316225261207" lon="114.39232621743598">
        <ele>15.95</ele>
        <time>2021-06-06T14:25:56Z</time>
      </trkpt>
      <trkpt lat="30.52218035535325" lon="114.39245977301813">
        <ele>18.1</ele>
        <time>2021-06-06T14:26:02Z</time>
      </trkpt>
      <trkpt lat="30.522129654521212" lon="114.39254339515753">
        <ele>19.64</ele>
        <time>2021-06-06T14:26:05Z</time>
      </trkpt>
      <trkpt lat="30.52207783666643" lon="114.39272478296098">
        <ele>20.99</ele>
        <time>2021-06-06T14:26:11Z</time>
      </trkpt>
      <trkpt lat="30.522095675685957" lon="114.39288997625363">
        <ele>19.81</ele>
        <time>2021-06-06T14:26:17Z</time>
      </trkpt>
      <trkpt lat="30.522128916270503" lon="114.39297612874287">
        <ele>19.58</ele>
        <time>2021-06-06T14:26:20Z</time>
      </trkpt>
      <trkpt lat="30.522239898854654" lon="114.3931101534863">
        <ele>17.89</ele>
        <time>2021-06-06T14:26:26Z</time>
      </trkpt>
      <trkpt lat="30.52231168141678" lon="114.39316067645593">
        <ele>18.43</ele>
        <time>2021-06-06T14:26:29Z</time>
      </trkpt>
      <trkpt lat="30.522394977325625" lon="114.39318253183058">
        <ele>16.33</ele>
        <time>2021-06-06T14:26:32Z</time>
      </trkpt>
      <trkpt lat="30.522713108008546" lon="114.39317320793153">
        <ele>17.22</ele>
        <time>2021-06-06T14:26:44Z</time>
      </trkpt>
      <trkpt lat="30.52288070424877" lon="114.39319323244173">
        <ele>17.76</ele>
        <time>2021-06-06T14:26:50Z</time>
      </trkpt>
      <trkpt lat="30.52319466263143" lon="114.39317432603846">
        <ele>17.54</ele>
        <time>2021-06-06T14:27:02Z</time>
      </trkpt>
      <trkpt lat="30.52329862633278" lon="114.39318144337929">
        <ele>18.78</ele>
        <time>2021-06-06T14:27:05Z</time>
      </trkpt>
      <trkpt lat="30.5233363750662" lon="114.39313680551922">
        <ele>18.77</ele>
        <time>2021-06-06T14:27:08Z</time>
      </trkpt>
      <trkpt lat="30.52341407020373" lon="114.39311319895421">
        <ele>19.1</ele>
        <time>2021-06-06T14:27:11Z</time>
      </trkpt>
      <trkpt lat="30.523599659473874" lon="114.39280570728724">
        <ele>15.7</ele>
        <time>2021-06-06T14:27:23Z</time>
      </trkpt>
      <trkpt lat="30.5236201992639" lon="114.3927189744274">
        <ele>15.55</ele>
        <time>2021-06-06T14:27:26Z</time>
      </trkpt>
      <trkpt lat="30.52356766805175" lon="114.39254557919334">
        <ele>16.46</ele>
        <time>2021-06-06T14:27:32Z</time>
      </trkpt>
      <trkpt lat="30.523459919278416" lon="114.39238449748962">
        <ele>18.37</ele>
        <time>2021-06-06T14:27:38Z</time>
      </trkpt>
      <trkpt lat="30.52338834619134" lon="114.39233144392894">
        <ele>16.7</ele>
        <time>2021-06-06T14:27:41Z</time>
      </trkpt>
      <trkpt lat="30.523209036834675" lon="114.39229844611032">
        <ele>15.71</ele>
        <time>2021-06-06T14:27:47Z</time>
      </trkpt>
      <trkpt lat="30.522900497468374" lon="114.39231306133733">
        <ele>17.08</ele>
        <time>2021-06-06T14:27:59Z</time>
      </trkpt>
      <trkpt lat="30.52259332212274" lon="114.39230211987119">
        <ele>18.51</ele>
        <time>2021-06-06T14:28:11Z</time>
      </trkpt>
      <trkpt lat="30.52251569772991" lon="114.39228637610526">
        <ele>17.01</ele>
        <time>2021-06-06T14:28:14Z</time>
      </trkpt>
      <trkpt lat="30.52223378491992" lon="114.39237059942612">
        <ele>16.33</ele>
        <time>2021-06-06T14:28:26Z</time>
      </trkpt>
      <trkpt lat="30.522181539156552" lon="114.39243331608373">
        <ele>14.9</ele>
        <time>2021-06-06T14:28:29Z</time>
      </trkpt>
      <trkpt lat="30.522093555694934" lon="114.39266315056825">
        <ele>14.15</ele>
        <time>2021-06-06T14:28:38Z</time>
      </trkpt>
      <trkpt lat="30.52210084761402" lon="114.39285547716784">
        <ele>14.98</ele>
        <time>2021-06-06T14:28:44Z</time>
      </trkpt>
      <trkpt lat="30.522130329918898" lon="114.3929491016325">
        <ele>16.18</ele>
        <time>2021-06-06T14:28:47Z</time>
      </trkpt>
      <trkpt lat="30.5221858015829" lon="114.39303894500067">
        <ele>16.08</ele>
        <time>2021-06-06T14:28:50Z</time>
      </trkpt>
      <trkpt lat="30.522257077949305" lon="114.393105652224">
        <ele>18.12</ele>
        <time>2021-06-06T14:28:53Z</time>
      </trkpt>
      <trkpt lat="30.522342458094123" lon="114.39314540229617">
        <ele>17.17</ele>
        <time>2021-06-06T14:28:56Z</time>
      </trkpt>
      <trkpt lat="30.52265353256762" lon="114.39315242273122">
        <ele>16.54</ele>
        <time>2021-06-06T14:29:08Z</time>
      </trkpt>
      <trkpt lat="30.522810238418575" lon="114.39317121696631">
        <ele>19.51</ele>
        <time>2021-06-06T14:29:14Z</time>
      </trkpt>
      <trkpt lat="30.522896875874682" lon="114.39315710285777">
        <ele>21.64</ele>
        <time>2021-06-06T14:29:17Z</time>
      </trkpt>
      <trkpt lat="30.523198728165312" lon="114.39315523099386">
        <ele>19.64</ele>
        <time>2021-06-06T14:29:26Z</time>
      </trkpt>
      <trkpt lat="30.52339619228452" lon="114.39312271153852">
        <ele>20.77</ele>
        <time>2021-06-06T14:29:32Z</time>
      </trkpt>
      <trkpt lat="30.52348688564748" lon="114.3930486416404">
        <ele>20.75</ele>
        <time>2021-06-06T14:29:35Z</time>
      </trkpt>
      <trkpt lat="30.523586681359742" lon="114.39287509995802">
        <ele>15.14</ele>
        <time>2021-06-06T14:29:41Z</time>
      </trkpt>
      <trkpt lat="30.523562021146468" lon="114.39276209059396">
        <ele>13.97</ele>
        <time>2021-06-06T14:29:44Z</time>
      </trkpt>
      <trkpt lat="30.523524302310364" lon="114.39250654117699">
        <ele>15.4</ele>
        <time>2021-06-06T14:29:50Z</time>
      </trkpt>
      <trkpt lat="30.523481044583484" lon="114.39241892404014">
        <ele>16.13</ele>
        <time>2021-06-06T14:29:53Z</time>
      </trkpt>
      <trkpt lat="30.52334409955739" lon="114.39234750833432">
        <ele>16.33</ele>
        <time>2021-06-06T14:29:59Z</time>
      </trkpt>
      <trkpt lat="30.523025517343946" lon="114.3923503605296">
        <ele>16.81</ele>
        <time>2021-06-06T14:30:11Z</time>
      </trkpt>
      <trkpt lat="30.522682391742954" lon="114.39229705814198">
        <ele>17.58</ele>
        <time>2021-06-06T14:30:23Z</time>
      </trkpt>
      <trkpt lat="30.522371871467534" lon="114.39230788238554">
        <ele>15.22</ele>
        <time>2021-06-06T14:30:38Z</time>
      </trkpt>
      <trkpt lat="30.522164694777125" lon="114.39245792260462">
        <ele>18.32</ele>
        <time>2021-06-06T14:30:47Z</time>
      </trkpt>
      <trkpt lat="30.52211605482069" lon="114.39254519569118">
        <ele>19.64</ele>
        <time>2021-06-06T14:30:50Z</time>
      </trkpt>
      <trkpt lat="30.5220765085518" lon="114.39281789740932">
        <ele>21.84</ele>
        <time>2021-06-06T14:30:59Z</time>
      </trkpt>
      <trkpt lat="30.522082448881008" lon="114.39290406001388">
        <ele>22.5</ele>
        <time>2021-06-06T14:31:02Z</time>
      </trkpt>
      <trkpt lat="30.5221132002625" lon="114.39299368342913">
        <ele>22.87</ele>
        <time>2021-06-06T14:31:05Z</time>
      </trkpt>
      <trkpt lat="30.522224839708493" lon="114.39311435466009">
        <ele>22.73</ele>
        <time>2021-06-06T14:31:11Z</time>
      </trkpt>
      <trkpt lat="30.52236919317622" lon="114.39316592757693">
        <ele>18.91</ele>
        <time>2021-06-06T14:31:17Z</time>
      </trkpt>
      <trkpt lat="30.52255679658823" lon="114.39317318863631">
        <ele>19.22</ele>
        <time>2021-06-06T14:31:23Z</time>
      </trkpt>
      <trkpt lat="30.522648283789017" lon="114.39315780417144">
        <ele>18.41</ele>
        <time>2021-06-06T14:31:26Z</time>
      </trkpt>
      <trkpt lat="30.522751918923753" lon="114.3931755983845">
        <ele>16.56</ele>
        <time>2021-06-06T14:31:29Z</time>
      </trkpt>
      <trkpt lat="30.52282523767924" lon="114.39316750592137">
        <ele>18.24</ele>
        <time>2021-06-06T14:31:32Z</time>
      </trkpt>
      <trkpt lat="30.52290701163708" lon="114.39318114914126">
        <ele>18.81</ele>
        <time>2021-06-06T14:31:35Z</time>
      </trkpt>
      <trkpt lat="30.523065115885533" lon="114.3931506904058">
        <ele>19.05</ele>
        <time>2021-06-06T14:31:41Z</time>
      </trkpt>
      <trkpt lat="30.52331246189729" lon="114.3931666934942">
        <ele>20.48</ele>
        <time>2021-06-06T14:31:50Z</time>
      </trkpt>
      <trkpt lat="30.523448759991638" lon="114.39311096820961">
        <ele>19.22</ele>
        <time>2021-06-06T14:31:56Z</time>
      </trkpt>
      <trkpt lat="30.523506258837255" lon="114.39306143491726">
        <ele>19.05</ele>
        <time>2021-06-06T14:31:59Z</time>
      </trkpt>
      <trkpt lat="30.52360699008879" lon="114.39288595089174">
        <ele>16.38</ele>
        <time>2021-06-06T14:32:05Z</time>
      </trkpt>
      <trkpt lat="30.5236360551788" lon="114.39280259477412">
        <ele>14.32</ele>
        <time>2021-06-06T14:32:08Z</time>
      </trkpt>
      <trkpt lat="30.52361981760598" lon="114.39262683025737">
        <ele>13.65</ele>
        <time>2021-06-06T14:32:14Z</time>
      </trkpt>
      <trkpt lat="30.523598400133302" lon="114.39255326106698">
        <ele>15.24</ele>
        <time>2021-06-06T14:32:17Z</time>
      </trkpt>
      <trkpt lat="30.52353892158619" lon="114.39247654123433">
        <ele>15.19</ele>
        <time>2021-06-06T14:32:20Z</time>
      </trkpt>
      <trkpt lat="30.523388166769426" lon="114.39237656573958">
        <ele>15.83</ele>
        <time>2021-06-06T14:32:26Z</time>
      </trkpt>
      <trkpt lat="30.52330673936962" lon="114.39234814867181">
        <ele>14.96</ele>
        <time>2021-06-06T14:32:29Z</time>
      </trkpt>
      <trkpt lat="30.52311761326193" lon="114.39232939462396">
        <ele>17.12</ele>
        <time>2021-06-06T14:32:35Z</time>
      </trkpt>
      <trkpt lat="30.523043706961335" lon="114.39230536867336">
        <ele>14.34</ele>
        <time>2021-06-06T14:32:38Z</time>
      </trkpt>
      <trkpt lat="30.52270018357324" lon="114.39230417992434">
        <ele>16.23</ele>
        <time>2021-06-06T14:32:50Z</time>
      </trkpt>
      <trkpt lat="30.522381877964012" lon="114.39233520949062">
        <ele>16.76</ele>
        <time>2021-06-06T14:33:02Z</time>
      </trkpt>
      <trkpt lat="30.522243336610874" lon="114.39237744117361">
        <ele>17.17</ele>
        <time>2021-06-06T14:33:08Z</time>
      </trkpt>
      <trkpt lat="30.522140567852492" lon="114.39251456755363">
        <ele>17.14</ele>
        <time>2021-06-06T14:33:14Z</time>
      </trkpt>
      <trkpt lat="30.522101995629747" lon="114.39259176796278">
        <ele>17.83</ele>
        <time>2021-06-06T14:33:17Z</time>
      </trkpt>
      <trkpt lat="30.522082958129044" lon="114.3927733356807">
        <ele>18.08</ele>
        <time>2021-06-06T14:33:23Z</time>
      </trkpt>
      <trkpt lat="30.52212842128179" lon="114.39295496318172">
        <ele>18.44</ele>
        <time>2021-06-06T14:33:29Z</time>
      </trkpt>
      <trkpt lat="30.522179761174655" lon="114.39303744463353">
        <ele>19.15</ele>
        <time>2021-06-06T14:33:32Z</time>
      </trkpt>
      <trkpt lat="30.522384407895117" lon="114.39318535262113">
        <ele>18.07</ele>
        <time>2021-06-06T14:33:41Z</time>
      </trkpt>
      <trkpt lat="30.522665790031045" lon="114.39318360088222">
        <ele>15.66</ele>
        <time>2021-06-06T14:33:53Z</time>
      </trkpt>
      <trkpt lat="30.522964563533364" lon="114.39318698041492">
        <ele>10.43</ele>
        <time>2021-06-06T14:34:05Z</time>
      </trkpt>
      <trkpt lat="30.523017459400318" lon="114.39316742502693">
        <ele>10.59</ele>
        <time>2021-06-06T14:34:08Z</time>
      </trkpt>
      <trkpt lat="30.52316677483956" lon="114.39318475891154">
        <ele>12.32</ele>
        <time>2021-06-06T14:34:14Z</time>
      </trkpt>
      <trkpt lat="30.523403183055176" lon="114.3931257122964">
        <ele>16.8</ele>
        <time>2021-06-06T14:34:23Z</time>
      </trkpt>
      <trkpt lat="30.52347095456921" lon="114.39308711183214">
        <ele>17.17</ele>
        <time>2021-06-06T14:34:26Z</time>
      </trkpt>
      <trkpt lat="30.52358005553659" lon="114.39295968782841">
        <ele>14.44</ele>
        <time>2021-06-06T14:34:32Z</time>
      </trkpt>
      <trkpt lat="30.523617329090598" lon="114.39288839892538">
        <ele>15.22</ele>
        <time>2021-06-06T14:34:35Z</time>
      </trkpt>
      <trkpt lat="30.523638925359357" lon="114.39274418095727">
        <ele>12.04</ele>
        <time>2021-06-06T14:34:41Z</time>
      </trkpt>
      <trkpt lat="30.523614045960496" lon="114.39253488617997">
        <ele>14.52</ele>
        <time>2021-06-06T14:34:47Z</time>
      </trkpt>
      <trkpt lat="30.523538460992327" lon="114.39243140941552">
        <ele>15.96</ele>
        <time>2021-06-06T14:34:53Z</time>
      </trkpt>
      <trkpt lat="30.523476248070185" lon="114.39237871590183">
        <ele>16.77</ele>
        <time>2021-06-06T14:34:56Z</time>
      </trkpt>
      <trkpt lat="30.5232498882826" lon="114.3923030471283">
        <ele>14.65</ele>
        <time>2021-06-06T14:35:05Z</time>
      </trkpt>
      <trkpt lat="30.52309547835582" lon="114.39230931947164">
        <ele>15.76</ele>
        <time>2021-06-06T14:35:11Z</time>
      </trkpt>
      <trkpt lat="30.523013901595153" lon="114.39228362311985">
        <ele>15.67</ele>
        <time>2021-06-06T14:35:14Z</time>
      </trkpt>
      <trkpt lat="30.522696968342206" lon="114.39228198413223">
        <ele>18.64</ele>
        <time>2021-06-06T14:35:26Z</time>
      </trkpt>
      <trkpt lat="30.52240995103644" lon="114.39230457134616">
        <ele>15.58</ele>
        <time>2021-06-06T14:35:38Z</time>
      </trkpt>
      <trkpt lat="30.522269124163515" lon="114.39236600806369">
        <ele>16.6</ele>
        <time>2021-06-06T14:35:44Z</time>
      </trkpt>
      <trkpt lat="30.522203475875468" lon="114.3924184820996">
        <ele>17.8</ele>
        <time>2021-06-06T14:35:47Z</time>
      </trkpt>
      <trkpt lat="30.522106563925675" lon="114.39258433599366">
        <ele>17.5</ele>
        <time>2021-06-06T14:35:53Z</time>
      </trkpt>
      <trkpt lat="30.522088786021005" lon="114.3926790709178">
        <ele>17.24</ele>
        <time>2021-06-06T14:35:56Z</time>
      </trkpt>
      <trkpt lat="30.522099556748167" lon="114.392766823896">
        <ele>17.07</ele>
        <time>2021-06-06T14:35:59Z</time>
      </trkpt>
      <trkpt lat="30.5221704989099" lon="114.39294326991741">
        <ele>15.49</ele>
        <time>2021-06-06T14:36:05Z</time>
      </trkpt>
      <trkpt lat="30.52227778356785" lon="114.39308626702997">
        <ele>15.5</ele>
        <time>2021-06-06T14:36:11Z</time>
      </trkpt>
      <trkpt lat="30.52242746733844" lon="114.3931389302069">
        <ele>14.38</ele>
        <time>2021-06-06T14:36:17Z</time>
      </trkpt>
      <trkpt lat="30.522774408077662" lon="114.39317114711066">
        <ele>16.69</ele>
        <time>2021-06-06T14:36:29Z</time>
      </trkpt>
      <trkpt lat="30.5231057690083" lon="114.39316237329608">
        <ele>17.81</ele>
        <time>2021-06-06T14:36:41Z</time>
      </trkpt>
      <trkpt lat="30.523295232140075" lon="114.39316838401744">
        <ele>16.55</ele>
        <time>2021-06-06T14:36:50Z</time>
      </trkpt>
      <trkpt lat="30.52343038627023" lon="114.39313830548679">
        <ele>18.32</ele>
        <time>2021-06-06T14:36:56Z</time>
      </trkpt>
      <trkpt lat="30.523610365428087" lon="114.3929529669446">
        <ele>12.99</ele>
        <time>2021-06-06T14:37:05Z</time>
      </trkpt>
      <trkpt lat="30.523628878386017" lon="114.39287424084746">
        <ele>12.54</ele>
        <time>2021-06-06T14:37:08Z</time>
      </trkpt>
      <trkpt lat="30.523552813092067" lon="114.39248242271192">
        <ele>13.11</ele>
        <time>2021-06-06T14:37:20Z</time>
      </trkpt>
      <trkpt lat="30.52349785754896" lon="114.3924182961663">
        <ele>14.26</ele>
        <time>2021-06-06T14:37:23Z</time>
      </trkpt>
      <trkpt lat="30.523348485500247" lon="114.3923300337412">
        <ele>16.49</ele>
        <time>2021-06-06T14:37:29Z</time>
      </trkpt>
      <trkpt lat="30.52319095118104" lon="114.39227502006419">
        <ele>14.99</ele>
        <time>2021-06-06T14:37:35Z</time>
      </trkpt>
      <trkpt lat="30.52312097330698" lon="114.39228679346229">
        <ele>15.7</ele>
        <time>2021-06-06T14:37:38Z</time>
      </trkpt>
      <trkpt lat="30.522848577014322" lon="114.39227046042849">
        <ele>18.45</ele>
        <time>2021-06-06T14:37:50Z</time>
      </trkpt>
      <trkpt lat="30.522803310915293" lon="114.39228885544625">
        <ele>16.82</ele>
        <time>2021-06-06T14:37:53Z</time>
      </trkpt>
      <trkpt lat="30.522517722284498" lon="114.39226305999706">
        <ele>16.43</ele>
        <time>2021-06-06T14:38:05Z</time>
      </trkpt>
      <trkpt lat="30.52239263114685" lon="114.39226304056064">
        <ele>16.83</ele>
        <time>2021-06-06T14:38:11Z</time>
      </trkpt>
      <trkpt lat="30.52234176503637" lon="114.392281605648">
        <ele>16.12</ele>
        <time>2021-06-06T14:38:14Z</time>
      </trkpt>
      <trkpt lat="30.52214964558919" lon="114.39250457489415">
        <ele>14.56</ele>
        <time>2021-06-06T14:38:26Z</time>
      </trkpt>
      <trkpt lat="30.522090584984195" lon="114.39267458973409">
        <ele>15.65</ele>
        <time>2021-06-06T14:38:32Z</time>
      </trkpt>
      <trkpt lat="30.522088282465983" lon="114.39283408160576">
        <ele>15.67</ele>
        <time>2021-06-06T14:38:38Z</time>
      </trkpt>
      <trkpt lat="30.522121913145025" lon="114.39292065419485">
        <ele>15.35</ele>
        <time>2021-06-06T14:38:41Z</time>
      </trkpt>
      <trkpt lat="30.522239096300982" lon="114.3930993506477">
        <ele>16.59</ele>
        <time>2021-06-06T14:38:47Z</time>
      </trkpt>
      <trkpt lat="30.52231060014039" lon="114.39315530504709">
        <ele>18.53</ele>
        <time>2021-06-06T14:38:50Z</time>
      </trkpt>
      <trkpt lat="30.52267029240974" lon="114.39319351347133">
        <ele>16.68</ele>
        <time>2021-06-06T14:39:02Z</time>
      </trkpt>
      <trkpt lat="30.522917944099873" lon="114.39319117173007">
        <ele>17.39</ele>
        <time>2021-06-06T14:39:11Z</time>
      </trkpt>
      <trkpt lat="30.52298696814564" lon="114.39320567523495">
        <ele>14.44</ele>
        <time>2021-06-06T14:39:14Z</time>
      </trkpt>
      <trkpt lat="30.523226408087446" lon="114.3931962416636">
        <ele>15.68</ele>
        <time>2021-06-06T14:39:23Z</time>
      </trkpt>
      <trkpt lat="30.523461765779793" lon="114.39311162470591">
        <ele>18.88</ele>
        <time>2021-06-06T14:39:32Z</time>
      </trkpt>
      <trkpt lat="30.523525510806255" lon="114.39307201184242">
        <ele>15.87</ele>
        <time>2021-06-06T14:39:35Z</time>
      </trkpt>
      <trkpt lat="30.52361690413937" lon="114.39290986456719">
        <ele>11.61</ele>
        <time>2021-06-06T14:39:44Z</time>
      </trkpt>
      <trkpt lat="30.52361570071879" lon="114.39272533611727">
        <ele>9.98</ele>
        <time>2021-06-06T14:39:50Z</time>
      </trkpt>
      <trkpt lat="30.523571717717292" lon="114.3925439987607">
        <ele>14.27</ele>
        <time>2021-06-06T14:39:56Z</time>
      </trkpt>
      <trkpt lat="30.523330799562974" lon="114.39230538737257">
        <ele>17.53</ele>
        <time>2021-06-06T14:40:08Z</time>
      </trkpt>
      <trkpt lat="30.523248558155867" lon="114.39225988584353">
        <ele>16.91</ele>
        <time>2021-06-06T14:40:11Z</time>
      </trkpt>
      <trkpt lat="30.523119642936287" lon="114.39228526306799">
        <ele>16.12</ele>
        <time>2021-06-06T14:40:17Z</time>
      </trkpt>
      <trkpt lat="30.523052789045124" lon="114.39227123970367">
        <ele>16.77</ele>
        <time>2021-06-06T14:40:20Z</time>
      </trkpt>
      <trkpt lat="30.522720698770357" lon="114.39228289426242">
        <ele>16.85</ele>
        <time>2021-06-06T14:40:35Z</time>
      </trkpt>
      <trkpt lat="30.522443904979415" lon="114.39227741408725">
        <ele>18.5</ele>
        <time>2021-06-06T14:40:47Z</time>
      </trkpt>
      <trkpt lat="30.522365604485824" lon="114.39227833468398">
        <ele>18.93</ele>
        <time>2021-06-06T14:40:50Z</time>
      </trkpt>
      <trkpt lat="30.52218997288596" lon="114.39240625896053">
        <ele>16.07</ele>
        <time>2021-06-06T14:40:59Z</time>
      </trkpt>
      <trkpt lat="30.52212516331538" lon="114.39249583271496">
        <ele>17.42</ele>
        <time>2021-06-06T14:41:02Z</time>
      </trkpt>
      <trkpt lat="30.52209561831387" lon="114.39268856337696">
        <ele>15.88</ele>
        <time>2021-06-06T14:41:08Z</time>
      </trkpt>
      <trkpt lat="30.522104031549937" lon="114.39278706919022">
        <ele>17.66</ele>
        <time>2021-06-06T14:41:11Z</time>
      </trkpt>
      <trkpt lat="30.522199379453028" lon="114.3930293824243">
        <ele>16.85</ele>
        <time>2021-06-06T14:41:17Z</time>
      </trkpt>
      <trkpt lat="30.522322425002415" lon="114.39313305913885">
        <ele>12.63</ele>
        <time>2021-06-06T14:41:23Z</time>
      </trkpt>
      <trkpt lat="30.52254654758873" lon="114.39322022106506">
        <ele>14.06</ele>
        <time>2021-06-06T14:41:32Z</time>
      </trkpt>
      <trkpt lat="30.522821859398938" lon="114.39317492789034">
        <ele>17.59</ele>
        <time>2021-06-06T14:41:44Z</time>
      </trkpt>
      <trkpt lat="30.52313842738343" lon="114.3931966321661">
        <ele>18.9</ele>
        <time>2021-06-06T14:41:56Z</time>
      </trkpt>
      <trkpt lat="30.52334636115914" lon="114.39320466333588">
        <ele>19.44</ele>
        <time>2021-06-06T14:42:05Z</time>
      </trkpt>
      <trkpt lat="30.523422129025022" lon="114.39319270984456">
        <ele>17.38</ele>
        <time>2021-06-06T14:42:08Z</time>
      </trkpt>
      <trkpt lat="30.523486560415" lon="114.39315372929082">
        <ele>18.36</ele>
        <time>2021-06-06T14:42:11Z</time>
      </trkpt>
      <trkpt lat="30.523609948154913" lon="114.39292718915125">
        <ele>13.79</ele>
        <time>2021-06-06T14:42:20Z</time>
      </trkpt>
      <trkpt lat="30.523631864586736" lon="114.39265607787331">
        <ele>15.36</ele>
        <time>2021-06-06T14:42:29Z</time>
      </trkpt>
      <trkpt lat="30.523555983834378" lon="114.39248546349411">
        <ele>17.95</ele>
        <time>2021-06-06T14:42:35Z</time>
      </trkpt>
      <trkpt lat="30.523435123621727" lon="114.39236133153831">
        <ele>19.03</ele>
        <time>2021-06-06T14:42:41Z</time>
      </trkpt>
      <trkpt lat="30.523181431137118" lon="114.3922752001546">
        <ele>16.45</ele>
        <time>2021-06-06T14:42:50Z</time>
      </trkpt>
      <trkpt lat="30.52291986107" lon="114.39228501391133">
        <ele>17.56</ele>
        <time>2021-06-06T14:42:59Z</time>
      </trkpt>
      <trkpt lat="30.522711745128817" lon="114.39226770032869">
        <ele>14.79</ele>
        <time>2021-06-06T14:43:08Z</time>
      </trkpt>
      <trkpt lat="30.52238952988322" lon="114.3923004403582">
        <ele>17.76</ele>
        <time>2021-06-06T14:43:23Z</time>
      </trkpt>
      <trkpt lat="30.522201720836353" lon="114.39239706650041">
        <ele>15.04</ele>
        <time>2021-06-06T14:43:32Z</time>
      </trkpt>
      <trkpt lat="30.522084528777057" lon="114.39260584173199">
        <ele>13.71</ele>
        <time>2021-06-06T14:43:41Z</time>
      </trkpt>
      <trkpt lat="30.522057887384292" lon="114.39277113521695">
        <ele>14.55</ele>
        <time>2021-06-06T14:43:47Z</time>
      </trkpt>
      <trkpt lat="30.522091488271492" lon="114.39294360036304">
        <ele>14.68</ele>
        <time>2021-06-06T14:43:53Z</time>
      </trkpt>
      <trkpt lat="30.522133576389425" lon="114.39301890996929">
        <ele>15.23</ele>
        <time>2021-06-06T14:43:56Z</time>
      </trkpt>
      <trkpt lat="30.52229799093657" lon="114.39315916612055">
        <ele>15.48</ele>
        <time>2021-06-06T14:44:05Z</time>
      </trkpt>
      <trkpt lat="30.522594676436633" lon="114.39321348907394">
        <ele>18.68</ele>
        <time>2021-06-06T14:44:17Z</time>
      </trkpt>
      <trkpt lat="30.52289089699292" lon="114.3932044753554">
        <ele>18.51</ele>
        <time>2021-06-06T14:44:29Z</time>
      </trkpt>
      <trkpt lat="30.52302393415295" lon="114.39317185839786">
        <ele>13.7</ele>
        <time>2021-06-06T14:44:35Z</time>
      </trkpt>
      <trkpt lat="30.52315050957563" lon="114.39317217306063">
        <ele>11.6</ele>
        <time>2021-06-06T14:44:41Z</time>
      </trkpt>
      <trkpt lat="30.52320803773622" lon="114.39319121404655">
        <ele>12.92</ele>
        <time>2021-06-06T14:44:44Z</time>
      </trkpt>
      <trkpt lat="30.523359409125902" lon="114.3931531397134">
        <ele>14.59</ele>
        <time>2021-06-06T14:44:50Z</time>
      </trkpt>
      <trkpt lat="30.523518737823416" lon="114.39305665360294">
        <ele>13.46</ele>
        <time>2021-06-06T14:44:56Z</time>
      </trkpt>
      <trkpt lat="30.523575802720657" lon="114.39299035590966">
        <ele>11.74</ele>
        <time>2021-06-06T14:44:59Z</time>
      </trkpt>
      <trkpt lat="30.523636290954872" lon="114.3928530995665">
        <ele>13.26</ele>
        <time>2021-06-06T14:45:05Z</time>
      </trkpt>
      <trkpt lat="30.523638538005716" lon="114.392585239267">
        <ele>15.25</ele>
        <time>2021-06-06T14:45:14Z</time>
      </trkpt>
      <trkpt lat="30.523524775300533" lon="114.39240767326233">
        <ele>19.18</ele>
        <time>2021-06-06T14:45:20Z</time>
      </trkpt>
      <trkpt lat="30.52340223366725" lon="114.392320140908">
        <ele>18.82</ele>
        <time>2021-06-06T14:45:26Z</time>
      </trkpt>
      <trkpt lat="30.523141034838734" lon="114.3922925548783">
        <ele>16.92</ele>
        <time>2021-06-06T14:45:38Z</time>
      </trkpt>
      <trkpt lat="30.523070316369807" lon="114.39230181762329">
        <ele>18.18</ele>
        <time>2021-06-06T14:45:41Z</time>
      </trkpt>
      <trkpt lat="30.52292397518884" lon="114.39225975728608">
        <ele>17.56</ele>
        <time>2021-06-06T14:45:47Z</time>
      </trkpt>
      <trkpt lat="30.522630663004858" lon="114.39226176914596">
        <ele>17.3</ele>
        <time>2021-06-06T14:45:59Z</time>
      </trkpt>
      <trkpt lat="30.522537943147313" lon="114.39226596066382">
        <ele>15.8</ele>
        <time>2021-06-06T14:46:05Z</time>
      </trkpt>
      <trkpt lat="30.522486447929154" lon="114.39228835675637">
        <ele>16.14</ele>
        <time>2021-06-06T14:46:08Z</time>
      </trkpt>
      <trkpt lat="30.52234363937374" lon="114.39230004046216">
        <ele>20.04</ele>
        <time>2021-06-06T14:46:14Z</time>
      </trkpt>
      <trkpt lat="30.522163233813345" lon="114.39245387155023">
        <ele>17.24</ele>
        <time>2021-06-06T14:46:23Z</time>
      </trkpt>
      <trkpt lat="30.52208420698855" lon="114.39259823974032">
        <ele>14.52</ele>
        <time>2021-06-06T14:46:29Z</time>
      </trkpt>
      <trkpt lat="30.522073549552626" lon="114.39269468508326">
        <ele>14.28</ele>
        <time>2021-06-06T14:46:32Z</time>
      </trkpt>
      <trkpt lat="30.52208434386058" lon="114.39279765205802">
        <ele>13.61</ele>
        <time>2021-06-06T14:46:35Z</time>
      </trkpt>
      <trkpt lat="30.522225465621045" lon="114.39309699008855">
        <ele>15.98</ele>
        <time>2021-06-06T14:46:47Z</time>
      </trkpt>
      <trkpt lat="30.522291972033074" lon="114.39316404743268">
        <ele>16.24</ele>
        <time>2021-06-06T14:46:50Z</time>
      </trkpt>
      <trkpt lat="30.522435784131403" lon="114.39320981882906">
        <ele>14.61</ele>
        <time>2021-06-06T14:46:56Z</time>
      </trkpt>
      <trkpt lat="30.522591879816993" lon="114.39318553172619">
        <ele>15.75</ele>
        <time>2021-06-06T14:47:02Z</time>
      </trkpt>
      <trkpt lat="30.522913449153073" lon="114.39321276743624">
        <ele>15.42</ele>
        <time>2021-06-06T14:47:14Z</time>
      </trkpt>
      <trkpt lat="30.523022943903094" lon="114.39322870113448">
        <ele>13.92</ele>
        <time>2021-06-06T14:47:17Z</time>
      </trkpt>
      <trkpt lat="30.52330953457771" lon="114.39322056769086">
        <ele>14.13</ele>
        <time>2021-06-06T14:47:26Z</time>
      </trkpt>
      <trkpt lat="30.523455509664846" lon="114.39315173890806">
        <ele>11.71</ele>
        <time>2021-06-06T14:47:32Z</time>
      </trkpt>
      <trkpt lat="30.52359952712661" lon="114.3930081504804">
        <ele>10.61</ele>
        <time>2021-06-06T14:47:41Z</time>
      </trkpt>
      <trkpt lat="30.52365803556957" lon="114.39287187439926">
        <ele>8.63</ele>
        <time>2021-06-06T14:47:47Z</time>
      </trkpt>
      <trkpt lat="30.523668612822856" lon="114.39277477885378">
        <ele>9.4</ele>
        <time>2021-06-06T14:47:50Z</time>
      </trkpt>
      <trkpt lat="30.52360028950555" lon="114.39250791917597">
        <ele>13.85</ele>
        <time>2021-06-06T14:47:59Z</time>
      </trkpt>
      <trkpt lat="30.523498519044733" lon="114.39233936550086">
        <ele>16.62</ele>
        <time>2021-06-06T14:48:08Z</time>
      </trkpt>
      <trkpt lat="30.523206379764236" lon="114.39226837825667">
        <ele>14.24</ele>
        <time>2021-06-06T14:48:23Z</time>
      </trkpt>
      <trkpt lat="30.52297006569499" lon="114.39226013717584">
        <ele>13.68</ele>
        <time>2021-06-06T14:48:32Z</time>
      </trkpt>
      <trkpt lat="30.52266254614598" lon="114.39227394218507">
        <ele>16.26</ele>
        <time>2021-06-06T14:48:44Z</time>
      </trkpt>
      <trkpt lat="30.522509792252528" lon="114.39226323007759">
        <ele>15.74</ele>
        <time>2021-06-06T14:48:50Z</time>
      </trkpt>
      <trkpt lat="30.522290364750233" lon="114.39232503724467">
        <ele>20.31</ele>
        <time>2021-06-06T14:48:59Z</time>
      </trkpt>
      <trkpt lat="30.52215114090394" lon="114.3924419384799">
        <ele>20.1</ele>
        <time>2021-06-06T14:49:05Z</time>
      </trkpt>
      <trkpt lat="30.52208603654935" lon="114.39259629922324">
        <ele>17.29</ele>
        <time>2021-06-06T14:49:11Z</time>
      </trkpt>
      <trkpt lat="30.522061846803886" lon="114.39276851451106">
        <ele>16.16</ele>
        <time>2021-06-06T14:49:17Z</time>
      </trkpt>
      <trkpt lat="30.522126734333984" lon="114.39301044777531">
        <ele>17.02</ele>
        <time>2021-06-06T14:49:26Z</time>
      </trkpt>
      <trkpt lat="30.522320565961895" lon="114.39313720023705">
        <ele>15.6</ele>
        <time>2021-06-06T14:49:35Z</time>
      </trkpt>
      <trkpt lat="30.522473800424798" lon="114.39319264413476">
        <ele>13.1</ele>
        <time>2021-06-06T14:49:41Z</time>
      </trkpt>
      <trkpt lat="30.522576794722127" lon="114.39320690742224">
        <ele>13.32</ele>
        <time>2021-06-06T14:49:44Z</time>
      </trkpt>
      <trkpt lat="30.522717070103806" lon="114.39318194021217">
        <ele>18.05</ele>
        <time>2021-06-06T14:49:50Z</time>
      </trkpt>
      <trkpt lat="30.52306106849775" lon="114.39320432454275">
        <ele>16.27</ele>
        <time>2021-06-06T14:50:05Z</time>
      </trkpt>
      <trkpt lat="30.523216169769047" lon="114.3932037636905">
        <ele>14.04</ele>
        <time>2021-06-06T14:50:11Z</time>
      </trkpt>
      <trkpt lat="30.523300476454914" lon="114.39318647875687">
        <ele>15.2</ele>
        <time>2021-06-06T14:50:14Z</time>
      </trkpt>
      <trkpt lat="30.52338284969097" lon="114.39319161330563">
        <ele>18.3</ele>
        <time>2021-06-06T14:50:17Z</time>
      </trkpt>
      <trkpt lat="30.523468734027816" lon="114.39316316077029">
        <ele>15.49</ele>
        <time>2021-06-06T14:50:20Z</time>
      </trkpt>
      <trkpt lat="30.523597685796126" lon="114.39304502018437">
        <ele>15.38</ele>
        <time>2021-06-06T14:50:26Z</time>
      </trkpt>
      <trkpt lat="30.523673003499823" lon="114.39290499303213">
        <ele>15.5</ele>
        <time>2021-06-06T14:50:32Z</time>
      </trkpt>
      <trkpt lat="30.523704216836197" lon="114.39274795165007">
        <ele>13.3</ele>
        <time>2021-06-06T14:50:38Z</time>
      </trkpt>
      <trkpt lat="30.52365982672992" lon="114.39257898753124">
        <ele>11.16</ele>
        <time>2021-06-06T14:50:44Z</time>
      </trkpt>
      <trkpt lat="30.523576155010463" lon="114.39244708334896">
        <ele>13.46</ele>
        <time>2021-06-06T14:50:50Z</time>
      </trkpt>
      <trkpt lat="30.52337886473468" lon="114.39228293127897">
        <ele>14.76</ele>
        <time>2021-06-06T14:50:59Z</time>
      </trkpt>
      <trkpt lat="30.523313407392422" lon="114.39225412404157">
        <ele>14.66</ele>
        <time>2021-06-06T14:51:02Z</time>
      </trkpt>
      <trkpt lat="30.5232581910251" lon="114.39227175890531">
        <ele>15.43</ele>
        <time>2021-06-06T14:51:05Z</time>
      </trkpt>
      <trkpt lat="30.52294846209192" lon="114.39224559347032">
        <ele>15.46</ele>
        <time>2021-06-06T14:51:17Z</time>
      </trkpt>
      <trkpt lat="30.52267483868958" lon="114.39224164368157">
        <ele>14.62</ele>
        <time>2021-06-06T14:51:29Z</time>
      </trkpt>
      <trkpt lat="30.522481357778876" lon="114.39224523550055">
        <ele>15.45</ele>
        <time>2021-06-06T14:51:38Z</time>
      </trkpt>
      <trkpt lat="30.522393143209367" lon="114.39227182285545">
        <ele>15.56</ele>
        <time>2021-06-06T14:51:44Z</time>
      </trkpt>
    </trkseg>
  </trk>
</gpx>