<?xml version="1.0" encoding="UTF-8"?>
<gpx xmlns="http://www.topografix.com/GPX/1/1" xmlns:gpxtpx="http://www.garmin.com/xmlschemas/TrackPointExtension/v1" xmlns:xsi="http://www.w3.org/2001/XMLSchema-instance" xsi:schemaLocation="http://www.topografix.com/GPX/1/1 http://www.topografix.com/GPX/1/1/gpx.xsd" version="1.1" creator="gpx.py -- https://github.com/tkrajina/gpxpy">
  <trk>
    <name>gpx from keep</name>
    <type>Run</type>
    <trkseg>
      <trkpt lat="35.974898685478294" lon="119.50784941234285">
        <ele>104.65</ele>
        <time>2020-05-30T13:21:27Z</time>
      </trkpt>
      <trkpt lat="35.97487740267557" lon="119.50790057811128">
        <ele>112.6</ele>
        <time>2020-05-30T13:21:33Z</time>
      </trkpt>
      <trkpt lat="35.97490296909577" lon="119.50796005253119">
        <ele>114.58</ele>
        <time>2020-05-30T13:21:42Z</time>
      </trkpt>
      <trkpt lat="35.97496044772513" lon="119.50797771023268">
        <ele>113.35</ele>
        <time>2020-05-30T13:21:51Z</time>
      </trkpt>
      <trkpt lat="35.974996829398776" lon="119.50794485267498">
        <ele>111.56</ele>
        <time>2020-05-30T13:21:57Z</time>
      </trkpt>
      <trkpt lat="35.97500105919587" lon="119.50777326770951">
        <ele>107.36</ele>
        <time>2020-05-30T13:22:09Z</time>
      </trkpt>
      <trkpt lat="35.97505137339959" lon="119.50769369400898">
        <ele>105.96</ele>
        <time>2020-05-30T13:22:15Z</time>
      </trkpt>
      <trkpt lat="35.97525980366184" lon="119.50766649370814">
        <ele>104.65</ele>
        <time>2020-05-30T13:22:30Z</time>
      </trkpt>
      <trkpt lat="35.97532822197969" lon="119.50768889088552">
        <ele>102.92</ele>
        <time>2020-05-30T13:22:36Z</time>
      </trkpt>
      <trkpt lat="35.9753564131779" lon="119.50784073724996">
        <ele>104.09</ele>
        <time>2020-05-30T13:22:45Z</time>
      </trkpt>
      <trkpt lat="35.97538528932304" lon="119.50790492123164">
        <ele>105.83</ele>
        <time>2020-05-30T13:22:48Z</time>
      </trkpt>
      <trkpt lat="35.97538043582301" lon="119.50813831056385">
        <ele>107.36</ele>
        <time>2020-05-30T13:23:03Z</time>
      </trkpt>
      <trkpt lat="35.97542480356589" lon="119.50850901646155">
        <ele>106.79</ele>
        <time>2020-05-30T13:23:27Z</time>
      </trkpt>
      <trkpt lat="35.9754407999998" lon="119.50889388065328">
        <ele>105.9</ele>
        <time>2020-05-30T13:23:51Z</time>
      </trkpt>
      <trkpt lat="35.975440080980036" lon="119.50903908702132">
        <ele>105.87</ele>
        <time>2020-05-30T13:24:15Z</time>
      </trkpt>
      <trkpt lat="35.97547732370961" lon="119.50930934085332">
        <ele>104.99</ele>
        <time>2020-05-30T13:24:33Z</time>
      </trkpt>
      <trkpt lat="35.97547726682065" lon="119.50957227548038">
        <ele>105.68</ele>
        <time>2020-05-30T13:24:48Z</time>
      </trkpt>
      <trkpt lat="35.97555197664042" lon="119.50987352499648">
        <ele>108.13</ele>
        <time>2020-05-30T13:25:03Z</time>
      </trkpt>
      <trkpt lat="35.97555126972606" lon="119.50997778467253">
        <ele>108.45</ele>
        <time>2020-05-30T13:25:09Z</time>
      </trkpt>
      <trkpt lat="35.97552992413452" lon="119.51006347640916">
        <ele>107.92</ele>
        <time>2020-05-30T13:25:15Z</time>
      </trkpt>
      <trkpt lat="35.97547009027692" lon="119.51012642087905">
        <ele>105.81</ele>
        <time>2020-05-30T13:25:21Z</time>
      </trkpt>
      <trkpt lat="35.975162629209215" lon="119.51017021041947">
        <ele>106.42</ele>
        <time>2020-05-30T13:25:42Z</time>
      </trkpt>
      <trkpt lat="35.9748829896951" lon="119.51018836217226">
        <ele>106.18</ele>
        <time>2020-05-30T13:26:06Z</time>
      </trkpt>
      <trkpt lat="35.974815310661015" lon="119.51018018385967">
        <ele>105.83</ele>
        <time>2020-05-30T13:26:12Z</time>
      </trkpt>
      <trkpt lat="35.9747480585042" lon="119.51021820089619">
        <ele>106.14</ele>
        <time>2020-05-30T13:26:18Z</time>
      </trkpt>
      <trkpt lat="35.974461097672595" lon="119.51025640071609">
        <ele>105.08</ele>
        <time>2020-05-30T13:26:42Z</time>
      </trkpt>
      <trkpt lat="35.974376928041586" lon="119.51025855157539">
        <ele>104.84</ele>
        <time>2020-05-30T13:26:48Z</time>
      </trkpt>
      <trkpt lat="35.97406325143564" lon="119.51023677778178">
        <ele>104.85</ele>
        <time>2020-05-30T13:27:12Z</time>
      </trkpt>
      <trkpt lat="35.97375215199188" lon="119.51025664975563">
        <ele>104.62</ele>
        <time>2020-05-30T13:27:36Z</time>
      </trkpt>
      <trkpt lat="35.97359332074193" lon="119.51028937848157">
        <ele>106.3</ele>
        <time>2020-05-30T13:27:48Z</time>
      </trkpt>
      <trkpt lat="35.97354370186435" lon="119.5102773203341">
        <ele>106.6</ele>
        <time>2020-05-30T13:27:51Z</time>
      </trkpt>
      <trkpt lat="35.97347950147735" lon="119.5102887999951">
        <ele>106.59</ele>
        <time>2020-05-30T13:27:57Z</time>
      </trkpt>
      <trkpt lat="35.97328112323986" lon="119.51028071334808">
        <ele>106.07</ele>
        <time>2020-05-30T13:28:15Z</time>
      </trkpt>
      <trkpt lat="35.97300952259982" lon="119.51031456339751">
        <ele>106.99</ele>
        <time>2020-05-30T13:28:36Z</time>
      </trkpt>
      <trkpt lat="35.97271631330546" lon="119.51033053552824">
        <ele>105.86</ele>
        <time>2020-05-30T13:29:00Z</time>
      </trkpt>
      <trkpt lat="35.97241586256068" lon="119.51036839552988">
        <ele>108.93</ele>
        <time>2020-05-30T13:29:24Z</time>
      </trkpt>
      <trkpt lat="35.97213597219575" lon="119.51039877602118">
        <ele>108.58</ele>
        <time>2020-05-30T13:29:48Z</time>
      </trkpt>
      <trkpt lat="35.97186251214176" lon="119.51042398695128">
        <ele>110.15</ele>
        <time>2020-05-30T13:30:12Z</time>
      </trkpt>
      <trkpt lat="35.97157657263403" lon="119.51044230873916">
        <ele>109.93</ele>
        <time>2020-05-30T13:30:36Z</time>
      </trkpt>
      <trkpt lat="35.97137365111906" lon="119.51048242724029">
        <ele>111.55</ele>
        <time>2020-05-30T13:30:54Z</time>
      </trkpt>
      <trkpt lat="35.97104250193534" lon="119.51049998967707">
        <ele>112.3</ele>
        <time>2020-05-30T13:31:24Z</time>
      </trkpt>
      <trkpt lat="35.97072084161374" lon="119.51053319039045">
        <ele>111.41</ele>
        <time>2020-05-30T13:31:54Z</time>
      </trkpt>
      <trkpt lat="35.97057013231706" lon="119.51053635199185">
        <ele>112.5</ele>
        <time>2020-05-30T13:32:06Z</time>
      </trkpt>
      <trkpt lat="35.97050742098711" lon="119.51056116025133">
        <ele>112.73</ele>
        <time>2020-05-30T13:32:12Z</time>
      </trkpt>
      <trkpt lat="35.970394213326244" lon="119.51053731414032">
        <ele>112.97</ele>
        <time>2020-05-30T13:32:24Z</time>
      </trkpt>
      <trkpt lat="35.97010722407476" lon="119.51055188631317">
        <ele>111.53</ele>
        <time>2020-05-30T13:32:48Z</time>
      </trkpt>
      <trkpt lat="35.970023725491" lon="119.51053876872317">
        <ele>111.65</ele>
        <time>2020-05-30T13:32:54Z</time>
      </trkpt>
      <trkpt lat="35.969741983351454" lon="119.51059462659336">
        <ele>112.18</ele>
        <time>2020-05-30T13:33:18Z</time>
      </trkpt>
      <trkpt lat="35.96947581349546" lon="119.51061602779328">
        <ele>112.63</ele>
        <time>2020-05-30T13:33:42Z</time>
      </trkpt>
      <trkpt lat="35.96919916114112" lon="119.51067425533053">
        <ele>114.52</ele>
        <time>2020-05-30T13:34:06Z</time>
      </trkpt>
      <trkpt lat="35.96892819131052" lon="119.51069560658723">
        <ele>116.17</ele>
        <time>2020-05-30T13:34:33Z</time>
      </trkpt>
      <trkpt lat="35.96885958289799" lon="119.51067883919333">
        <ele>115.91</ele>
        <time>2020-05-30T13:34:39Z</time>
      </trkpt>
      <trkpt lat="35.96870210351032" lon="119.51068387068476">
        <ele>116.16</ele>
        <time>2020-05-30T13:34:51Z</time>
      </trkpt>
      <trkpt lat="35.96861312139989" lon="119.51072193788951">
        <ele>117.44</ele>
        <time>2020-05-30T13:34:57Z</time>
      </trkpt>
      <trkpt lat="35.96831883329844" lon="119.5107205117936">
        <ele>115.11</ele>
        <time>2020-05-30T13:35:21Z</time>
      </trkpt>
      <trkpt lat="35.96820716362285" lon="119.51072564268858">
        <ele>116.61</ele>
        <time>2020-05-30T13:35:30Z</time>
      </trkpt>
      <trkpt lat="35.96813040559837" lon="119.51070405589901">
        <ele>116.9</ele>
        <time>2020-05-30T13:35:36Z</time>
      </trkpt>
      <trkpt lat="35.967806914594966" lon="119.51074674561417">
        <ele>114.94</ele>
        <time>2020-05-30T13:36:00Z</time>
      </trkpt>
      <trkpt lat="35.96749138246133" lon="119.5108047436291">
        <ele>115.19</ele>
        <time>2020-05-30T13:36:24Z</time>
      </trkpt>
      <trkpt lat="35.967216562411544" lon="119.5108293745775">
        <ele>117.42</ele>
        <time>2020-05-30T13:36:45Z</time>
      </trkpt>
      <trkpt lat="35.966996422833226" lon="119.51084251602009">
        <ele>118.11</ele>
        <time>2020-05-30T13:37:03Z</time>
      </trkpt>
      <trkpt lat="35.96685961397095" lon="119.51083822821168">
        <ele>117.75</ele>
        <time>2020-05-30T13:37:18Z</time>
      </trkpt>
      <trkpt lat="35.9667866731083" lon="119.51085682720728">
        <ele>117.83</ele>
        <time>2020-05-30T13:37:24Z</time>
      </trkpt>
      <trkpt lat="35.966722414658236" lon="119.51084037973847">
        <ele>117.16</ele>
        <time>2020-05-30T13:37:30Z</time>
      </trkpt>
      <trkpt lat="35.966396714273074" lon="119.51087413038063">
        <ele>118.48</ele>
        <time>2020-05-30T13:38:00Z</time>
      </trkpt>
      <trkpt lat="35.96606693463628" lon="119.51089756214499">
        <ele>118.61</ele>
        <time>2020-05-30T13:38:30Z</time>
      </trkpt>
      <trkpt lat="35.96581480594056" lon="119.5109009150114">
        <ele>118.72</ele>
        <time>2020-05-30T13:38:54Z</time>
      </trkpt>
      <trkpt lat="35.96578996076323" lon="119.5108346022348">
        <ele>119.7</ele>
        <time>2020-05-30T13:39:00Z</time>
      </trkpt>
      <trkpt lat="35.965803656442205" lon="119.51046384024293">
        <ele>119.03</ele>
        <time>2020-05-30T13:39:30Z</time>
      </trkpt>
      <trkpt lat="35.96578223260381" lon="119.51008013925818">
        <ele>118.62</ele>
        <time>2020-05-30T13:40:00Z</time>
      </trkpt>
      <trkpt lat="35.96576766180183" lon="119.50979223799527">
        <ele>120.09</ele>
        <time>2020-05-30T13:40:24Z</time>
      </trkpt>
      <trkpt lat="35.965784133166075" lon="119.50946210997618">
        <ele>120.96</ele>
        <time>2020-05-30T13:40:48Z</time>
      </trkpt>
      <trkpt lat="35.96575032427777" lon="119.5091332718895">
        <ele>122.09</ele>
        <time>2020-05-30T13:41:12Z</time>
      </trkpt>
      <trkpt lat="35.965746287095385" lon="119.50876588642338">
        <ele>120.93</ele>
        <time>2020-05-30T13:41:42Z</time>
      </trkpt>
      <trkpt lat="35.96574854990255" lon="119.5085548958679">
        <ele>119.35</ele>
        <time>2020-05-30T13:42:00Z</time>
      </trkpt>
      <trkpt lat="35.96572665086082" lon="119.50820505790401">
        <ele>119.76</ele>
        <time>2020-05-30T13:42:30Z</time>
      </trkpt>
      <trkpt lat="35.96571582144981" lon="119.50785101950359">
        <ele>121.5</ele>
        <time>2020-05-30T13:43:00Z</time>
      </trkpt>
      <trkpt lat="35.965688311323454" lon="119.50750167023054">
        <ele>123.42</ele>
        <time>2020-05-30T13:43:30Z</time>
      </trkpt>
      <trkpt lat="35.96571071389535" lon="119.50727109962826">
        <ele>123.24</ele>
        <time>2020-05-30T13:43:48Z</time>
      </trkpt>
      <trkpt lat="35.96568632350136" lon="119.50690943022938">
        <ele>121.81</ele>
        <time>2020-05-30T13:44:18Z</time>
      </trkpt>
      <trkpt lat="35.96569626948604" lon="119.50660267523197">
        <ele>123.29</ele>
        <time>2020-05-30T13:44:42Z</time>
      </trkpt>
      <trkpt lat="35.96573749858743" lon="119.5064200494216">
        <ele>124.2</ele>
        <time>2020-05-30T13:44:54Z</time>
      </trkpt>
      <trkpt lat="35.96572233215627" lon="119.5061516109128">
        <ele>121.89</ele>
        <time>2020-05-30T13:45:15Z</time>
      </trkpt>
      <trkpt lat="35.9656934402687" lon="119.50599043387865">
        <ele>121.38</ele>
        <time>2020-05-30T13:45:27Z</time>
      </trkpt>
      <trkpt lat="35.96568039645731" lon="119.5056557097491">
        <ele>119.94</ele>
        <time>2020-05-30T13:45:51Z</time>
      </trkpt>
      <trkpt lat="35.96566149351465" lon="119.50529179723428">
        <ele>122.07</ele>
        <time>2020-05-30T13:46:15Z</time>
      </trkpt>
      <trkpt lat="35.96566175738542" lon="119.50520677349064">
        <ele>121.99</ele>
        <time>2020-05-30T13:46:21Z</time>
      </trkpt>
      <trkpt lat="35.96563873086069" lon="119.5051329691858">
        <ele>122.61</ele>
        <time>2020-05-30T13:46:27Z</time>
      </trkpt>
      <trkpt lat="35.96565514191921" lon="119.50488195712082">
        <ele>121.4</ele>
        <time>2020-05-30T13:46:45Z</time>
      </trkpt>
      <trkpt lat="35.965678404802624" lon="119.50481278176295">
        <ele>120.88</ele>
        <time>2020-05-30T13:46:51Z</time>
      </trkpt>
      <trkpt lat="35.96573282623168" lon="119.50477229394694">
        <ele>120.9</ele>
        <time>2020-05-30T13:46:57Z</time>
      </trkpt>
      <trkpt lat="35.96598348475693" lon="119.5047710908336">
        <ele>120.31</ele>
        <time>2020-05-30T13:47:21Z</time>
      </trkpt>
      <trkpt lat="35.966056715543765" lon="119.50474263191664">
        <ele>121.92</ele>
        <time>2020-05-30T13:47:27Z</time>
      </trkpt>
      <trkpt lat="35.96620447314086" lon="119.50477730757194">
        <ele>119.67</ele>
        <time>2020-05-30T13:47:39Z</time>
      </trkpt>
      <trkpt lat="35.966346983057804" lon="119.50475920703751">
        <ele>121.11</ele>
        <time>2020-05-30T13:47:51Z</time>
      </trkpt>
      <trkpt lat="35.96647136130144" lon="119.50478222381648">
        <ele>117.4</ele>
        <time>2020-05-30T13:48:03Z</time>
      </trkpt>
      <trkpt lat="35.9667971031668" lon="119.50469318596149">
        <ele>119.68</ele>
        <time>2020-05-30T13:48:33Z</time>
      </trkpt>
      <trkpt lat="35.96684693274014" lon="119.50469604512371">
        <ele>116.61</ele>
        <time>2020-05-30T13:48:39Z</time>
      </trkpt>
      <trkpt lat="35.9668994339341" lon="119.50466081693567">
        <ele>117.3</ele>
        <time>2020-05-30T13:48:45Z</time>
      </trkpt>
      <trkpt lat="35.966976034008376" lon="119.50464819684537">
        <ele>116.6</ele>
        <time>2020-05-30T13:48:51Z</time>
      </trkpt>
      <trkpt lat="35.967184992578616" lon="119.50465185392069">
        <ele>119.34</ele>
        <time>2020-05-30T13:49:09Z</time>
      </trkpt>
      <trkpt lat="35.967275044070504" lon="119.50460411612124">
        <ele>114.06</ele>
        <time>2020-05-30T13:49:15Z</time>
      </trkpt>
      <trkpt lat="35.96753208395582" lon="119.50457001522496">
        <ele>114.87</ele>
        <time>2020-05-30T13:49:21Z</time>
      </trkpt>
      <trkpt lat="35.96784379135314" lon="119.50458656008844">
        <ele>114.87</ele>
        <time>2020-05-30T13:49:27Z</time>
      </trkpt>
      <trkpt lat="35.968236841109864" lon="119.50453586860797">
        <ele>112.69</ele>
        <time>2020-05-30T13:49:36Z</time>
      </trkpt>
      <trkpt lat="35.96833843024237" lon="119.5045417369017">
        <ele>112.34</ele>
        <time>2020-05-30T13:49:39Z</time>
      </trkpt>
      <trkpt lat="35.968558740333734" lon="119.50450782644839">
        <ele>116.29</ele>
        <time>2020-05-30T13:49:45Z</time>
      </trkpt>
      <trkpt lat="35.96875320903953" lon="119.50451041378477">
        <ele>116.45</ele>
        <time>2020-05-30T13:49:51Z</time>
      </trkpt>
      <trkpt lat="35.96884200964629" lon="119.50448318454158">
        <ele>115.42</ele>
        <time>2020-05-30T13:49:54Z</time>
      </trkpt>
      <trkpt lat="35.969016044437446" lon="119.50458121549133">
        <ele>111.02</ele>
        <time>2020-05-30T13:50:06Z</time>
      </trkpt>
      <trkpt lat="35.9691027548026" lon="119.50456018585284">
        <ele>112.92</ele>
        <time>2020-05-30T13:50:12Z</time>
      </trkpt>
      <trkpt lat="35.96914895283348" lon="119.50459986248892">
        <ele>111.31</ele>
        <time>2020-05-30T13:50:15Z</time>
      </trkpt>
      <trkpt lat="35.96919455343135" lon="119.50457929334551">
        <ele>113.2</ele>
        <time>2020-05-30T13:50:18Z</time>
      </trkpt>
      <trkpt lat="35.96931736327496" lon="119.50456536275">
        <ele>110.51</ele>
        <time>2020-05-30T13:50:27Z</time>
      </trkpt>
      <trkpt lat="35.96936870391768" lon="119.50454283366592">
        <ele>109.63</ele>
        <time>2020-05-30T13:50:30Z</time>
      </trkpt>
      <trkpt lat="35.96950833217705" lon="119.50456381041884">
        <ele>106.82</ele>
        <time>2020-05-30T13:50:39Z</time>
      </trkpt>
      <trkpt lat="35.969714673825855" lon="119.50449511256606">
        <ele>109.62</ele>
        <time>2020-05-30T13:50:54Z</time>
      </trkpt>
      <trkpt lat="35.97000207309103" lon="119.50447096056955">
        <ele>112.44</ele>
        <time>2020-05-30T13:51:15Z</time>
      </trkpt>
      <trkpt lat="35.97008885141661" lon="119.50449816757319">
        <ele>110.06</ele>
        <time>2020-05-30T13:51:21Z</time>
      </trkpt>
      <trkpt lat="35.970295812332914" lon="119.50444637851822">
        <ele>113.03</ele>
        <time>2020-05-30T13:51:36Z</time>
      </trkpt>
      <trkpt lat="35.97044528944626" lon="119.50449337335156">
        <ele>106.25</ele>
        <time>2020-05-30T13:51:48Z</time>
      </trkpt>
      <trkpt lat="35.970584369632704" lon="119.50446880327844">
        <ele>105.76</ele>
        <time>2020-05-30T13:51:57Z</time>
      </trkpt>
      <trkpt lat="35.970695222380996" lon="119.50438698751222">
        <ele>107.52</ele>
        <time>2020-05-30T13:52:06Z</time>
      </trkpt>
      <trkpt lat="35.97097467269731" lon="119.50433838727963">
        <ele>110.28</ele>
        <time>2020-05-30T13:52:27Z</time>
      </trkpt>
      <trkpt lat="35.97104862321099" lon="119.5043150879305">
        <ele>112.17</ele>
        <time>2020-05-30T13:52:33Z</time>
      </trkpt>
      <trkpt lat="35.971198462406065" lon="119.50431246619475">
        <ele>112.48</ele>
        <time>2020-05-30T13:52:45Z</time>
      </trkpt>
      <trkpt lat="35.971295351117334" lon="119.50432934380078">
        <ele>114.04</ele>
        <time>2020-05-30T13:52:51Z</time>
      </trkpt>
      <trkpt lat="35.971419422491884" lon="119.50427773574334">
        <ele>113.33</ele>
        <time>2020-05-30T13:53:03Z</time>
      </trkpt>
      <trkpt lat="35.971694571951886" lon="119.50425007411124">
        <ele>113.71</ele>
        <time>2020-05-30T13:53:27Z</time>
      </trkpt>
      <trkpt lat="35.97183817094898" lon="119.5042531820639">
        <ele>111.96</ele>
        <time>2020-05-30T13:53:39Z</time>
      </trkpt>
      <trkpt lat="35.97196508793383" lon="119.5043076067274">
        <ele>108.79</ele>
        <time>2020-05-30T13:53:51Z</time>
      </trkpt>
      <trkpt lat="35.97204375810513" lon="119.50429183679947">
        <ele>112.78</ele>
        <time>2020-05-30T13:53:57Z</time>
      </trkpt>
      <trkpt lat="35.97225450574853" lon="119.50431779233031">
        <ele>108.01</ele>
        <time>2020-05-30T13:54:15Z</time>
      </trkpt>
      <trkpt lat="35.97232972668968" lon="119.50428388368636">
        <ele>105.72</ele>
        <time>2020-05-30T13:54:21Z</time>
      </trkpt>
      <trkpt lat="35.97254319809569" lon="119.50421793544636">
        <ele>108.37</ele>
        <time>2020-05-30T13:55:18Z</time>
      </trkpt>
      <trkpt lat="35.97283907746328" lon="119.50418925360786">
        <ele>108.02</ele>
        <time>2020-05-30T13:55:42Z</time>
      </trkpt>
      <trkpt lat="35.97314369608386" lon="119.50417753050596">
        <ele>108.33</ele>
        <time>2020-05-30T13:56:06Z</time>
      </trkpt>
      <trkpt lat="35.97345616494453" lon="119.50415870778228">
        <ele>107.99</ele>
        <time>2020-05-30T13:56:30Z</time>
      </trkpt>
      <trkpt lat="35.97375392448719" lon="119.50412522623269">
        <ele>105.61</ele>
        <time>2020-05-30T13:56:54Z</time>
      </trkpt>
      <trkpt lat="35.97382147389315" lon="119.50412972506547">
        <ele>106.71</ele>
        <time>2020-05-30T13:57:00Z</time>
      </trkpt>
      <trkpt lat="35.97412449340092" lon="119.50409620344543">
        <ele>106.79</ele>
        <time>2020-05-30T13:57:24Z</time>
      </trkpt>
      <trkpt lat="35.97442037043327" lon="119.50412498772326">
        <ele>106.83</ele>
        <time>2020-05-30T13:57:48Z</time>
      </trkpt>
      <trkpt lat="35.974710812272114" lon="119.50403538002197">
        <ele>107.36</ele>
        <time>2020-05-30T13:58:12Z</time>
      </trkpt>
      <trkpt lat="35.97475510411116" lon="119.50398260297686">
        <ele>108.2</ele>
        <time>2020-05-30T13:58:18Z</time>
      </trkpt>
      <trkpt lat="35.974988592595885" lon="119.5039848998363">
        <ele>106.53</ele>
        <time>2020-05-30T13:58:36Z</time>
      </trkpt>
      <trkpt lat="35.975148580078304" lon="119.50402350521414">
        <ele>104.63</ele>
        <time>2020-05-30T13:58:48Z</time>
      </trkpt>
      <trkpt lat="35.975194707120764" lon="119.50409011016191">
        <ele>105.25</ele>
        <time>2020-05-30T13:58:54Z</time>
      </trkpt>
      <trkpt lat="35.97521782276336" lon="119.50443587630599">
        <ele>105.93</ele>
        <time>2020-05-30T13:59:18Z</time>
      </trkpt>
      <trkpt lat="35.97523584779102" lon="119.50478405167972">
        <ele>106.6</ele>
        <time>2020-05-30T13:59:42Z</time>
      </trkpt>
      <trkpt lat="35.97526362122527" lon="119.50515409465946">
        <ele>106.95</ele>
        <time>2020-05-30T14:00:06Z</time>
      </trkpt>
      <trkpt lat="35.975245832935016" lon="119.5053384413203">
        <ele>106.61</ele>
        <time>2020-05-30T14:00:18Z</time>
      </trkpt>
      <trkpt lat="35.97526904712123" lon="119.50567381586004">
        <ele>105.13</ele>
        <time>2020-05-30T14:00:39Z</time>
      </trkpt>
      <trkpt lat="35.97527605953252" lon="119.50603707781438">
        <ele>104.02</ele>
        <time>2020-05-30T14:01:03Z</time>
      </trkpt>
      <trkpt lat="35.975274240922104" lon="119.50621122417789">
        <ele>104.72</ele>
        <time>2020-05-30T14:01:15Z</time>
      </trkpt>
      <trkpt lat="35.975303518862496" lon="119.50644683505685">
        <ele>106.01</ele>
        <time>2020-05-30T14:01:33Z</time>
      </trkpt>
      <trkpt lat="35.9753208989063" lon="119.50682996369981">
        <ele>107.08</ele>
        <time>2020-05-30T14:02:03Z</time>
      </trkpt>
      <trkpt lat="35.97532914153902" lon="119.50715430660799">
        <ele>107.01</ele>
        <time>2020-05-30T14:02:27Z</time>
      </trkpt>
      <trkpt lat="35.975342163227175" lon="119.50730549366548">
        <ele>109.53</ele>
        <time>2020-05-30T14:02:36Z</time>
      </trkpt>
      <trkpt lat="35.97522313041138" lon="119.50736998970002">
        <ele>108.51</ele>
        <time>2020-05-30T14:02:48Z</time>
      </trkpt>
      <trkpt lat="35.975155250375884" lon="119.50737815987152">
        <ele>108.02</ele>
        <time>2020-05-30T14:02:54Z</time>
      </trkpt>
      <trkpt lat="35.975112107356" lon="119.50743759534306">
        <ele>107.3</ele>
        <time>2020-05-30T14:03:00Z</time>
      </trkpt>
      <trkpt lat="35.97512803949231" lon="119.50757706314229">
        <ele>109.1</ele>
        <time>2020-05-30T14:03:12Z</time>
      </trkpt>
      <trkpt lat="35.97502966882491" lon="119.50777671704184">
        <ele>107.0</ele>
        <time>2020-05-30T14:03:30Z</time>
      </trkpt>
      <trkpt lat="35.97501717461833" lon="119.50785179061823">
        <ele>106.66</ele>
        <time>2020-05-30T14:03:36Z</time>
      </trkpt>
      <trkpt lat="35.97498054060672" lon="119.50792560458393">
        <ele>105.84</ele>
        <time>2020-05-30T14:03:42Z</time>
      </trkpt>
      <trkpt lat="35.97492175871268" lon="119.50796470187939">
        <ele>105.25</ele>
        <time>2020-05-30T14:03:48Z</time>
      </trkpt>
      <trkpt lat="35.974589921169056" lon="119.5079572667816">
        <ele>106.8</ele>
        <time>2020-05-30T14:04:18Z</time>
      </trkpt>
      <trkpt lat="35.97451821741787" lon="119.50785613661799">
        <ele>107.15</ele>
        <time>2020-05-30T14:04:33Z</time>
      </trkpt>
      <trkpt lat="35.97445225894273" lon="119.5078365191853">
        <ele>105.53</ele>
        <time>2020-05-30T14:04:42Z</time>
      </trkpt>
      <trkpt lat="35.97473072289612" lon="119.50784981152488">
        <ele>131.12</ele>
        <time>2020-05-30T14:04:57Z</time>
      </trkpt>
      <trkpt lat="35.974740823639365" lon="119.50780217924239">
        <ele>113.44</ele>
        <time>2020-05-30T14:05:00Z</time>
      </trkpt>
      <trkpt lat="35.97476069241331" lon="119.50778320398129">
        <ele>122.55</ele>
        <time>2020-05-30T14:05:05Z</time>
      </trkpt>
      <trkpt lat="35.974881833015026" lon="119.50779598405522">
        <ele>113.34</ele>
        <time>2020-05-30T14:05:11Z</time>
      </trkpt>
      <trkpt lat="35.974892071493166" lon="119.50783484705381">
        <ele>112.07</ele>
        <time>2020-05-30T14:05:14Z</time>
      </trkpt>
      <trkpt lat="35.97491103465274" lon="119.50778745885763">
        <ele>115.92</ele>
        <time>2020-05-30T14:05:20Z</time>
      </trkpt>
      <trkpt lat="35.974726724665175" lon="119.50773862148495">
        <ele>118.73</ele>
        <time>2020-05-30T14:05:26Z</time>
      </trkpt>
      <trkpt lat="35.97463035168885" lon="119.50769153249914">
        <ele>113.7</ele>
        <time>2020-05-30T14:05:29Z</time>
      </trkpt>
      <trkpt lat="35.97458293155451" lon="119.50773491050771">
        <ele>116.4</ele>
        <time>2020-05-30T14:05:32Z</time>
      </trkpt>
      <trkpt lat="35.974351085984694" lon="119.50770531676771">
        <ele>117.41</ele>
        <time>2020-05-30T14:05:50Z</time>
      </trkpt>
      <trkpt lat="35.97454059200851" lon="119.50777327359856">
        <ele>118.46</ele>
        <time>2020-05-30T14:06:05Z</time>
      </trkpt>
      <trkpt lat="35.97450615016388" lon="119.50780936087897">
        <ele>112.02</ele>
        <time>2020-05-30T14:12:59Z</time>
      </trkpt>
      <trkpt lat="35.974505100113845" lon="119.5078103508056">
        <ele>112.1</ele>
        <time>2020-05-30T14:13:29Z</time>
      </trkpt>
    </trkseg>
  </trk>
</gpx>