<?xml version="1.0" encoding="UTF-8"?>
<gpx xmlns="http://www.topografix.com/GPX/1/1" xmlns:gpxtpx="http://www.garmin.com/xmlschemas/TrackPointExtension/v1" xmlns:xsi="http://www.w3.org/2001/XMLSchema-instance" xsi:schemaLocation="http://www.topografix.com/GPX/1/1 http://www.topografix.com/GPX/1/1/gpx.xsd" version="1.1" creator="gpx.py -- https://github.com/tkrajina/gpxpy">
  <trk>
    <name>gpx from keep</name>
    <type>Run</type>
    <trkseg>
      <trkpt lat="30.522100649477075" lon="114.3925656211147">
        <ele>9.71</ele>
        <time>2021-06-16T14:11:26Z</time>
      </trkpt>
      <trkpt lat="30.522084868858798" lon="114.39264874298055">
        <ele>13.97</ele>
        <time>2021-06-16T14:11:29Z</time>
      </trkpt>
      <trkpt lat="30.522106433487124" lon="114.39283772247946">
        <ele>22.16</ele>
        <time>2021-06-16T14:11:35Z</time>
      </trkpt>
      <trkpt lat="30.522145680102778" lon="114.39294929161271">
        <ele>23.1</ele>
        <time>2021-06-16T14:11:38Z</time>
      </trkpt>
      <trkpt lat="30.522214930157624" lon="114.39307421414476">
        <ele>24.78</ele>
        <time>2021-06-16T14:11:41Z</time>
      </trkpt>
      <trkpt lat="30.52233369648886" lon="114.3931389306328">
        <ele>24.22</ele>
        <time>2021-06-16T14:11:44Z</time>
      </trkpt>
      <trkpt lat="30.522602946131073" lon="114.39316947744987">
        <ele>20.21</ele>
        <time>2021-06-16T14:11:50Z</time>
      </trkpt>
      <trkpt lat="30.522877159835485" lon="114.39313224640564">
        <ele>21.34</ele>
        <time>2021-06-16T14:11:56Z</time>
      </trkpt>
      <trkpt lat="30.522993034216675" lon="114.39314637959872">
        <ele>20.58</ele>
        <time>2021-06-16T14:11:59Z</time>
      </trkpt>
      <trkpt lat="30.523328786756586" lon="114.3931237341357">
        <ele>18.36</ele>
        <time>2021-06-16T14:12:08Z</time>
      </trkpt>
      <trkpt lat="30.52342874986188" lon="114.39308762208614">
        <ele>18.24</ele>
        <time>2021-06-16T14:12:11Z</time>
      </trkpt>
      <trkpt lat="30.523527190255432" lon="114.39302575651767">
        <ele>15.86</ele>
        <time>2021-06-16T14:12:14Z</time>
      </trkpt>
      <trkpt lat="30.523589513303847" lon="114.39293398208949">
        <ele>13.6</ele>
        <time>2021-06-16T14:12:17Z</time>
      </trkpt>
      <trkpt lat="30.523604309694736" lon="114.39280646746569">
        <ele>13.82</ele>
        <time>2021-06-16T14:12:20Z</time>
      </trkpt>
      <trkpt lat="30.523551250767724" lon="114.39239979261842">
        <ele>15.34</ele>
        <time>2021-06-16T14:12:29Z</time>
      </trkpt>
      <trkpt lat="30.523454776126048" lon="114.39232860288331">
        <ele>16.99</ele>
        <time>2021-06-16T14:12:32Z</time>
      </trkpt>
      <trkpt lat="30.523350993938823" lon="114.39228061079872">
        <ele>15.74</ele>
        <time>2021-06-16T14:12:35Z</time>
      </trkpt>
      <trkpt lat="30.52306902682244" lon="114.39226112698468">
        <ele>14.99</ele>
        <time>2021-06-16T14:12:44Z</time>
      </trkpt>
      <trkpt lat="30.522781750172975" lon="114.39224384377083">
        <ele>17.6</ele>
        <time>2021-06-16T14:12:53Z</time>
      </trkpt>
      <trkpt lat="30.522506489874267" lon="114.39225320747121">
        <ele>15.48</ele>
        <time>2021-06-16T14:13:02Z</time>
      </trkpt>
      <trkpt lat="30.522409820887713" lon="114.3922612700194">
        <ele>16.15</ele>
        <time>2021-06-16T14:13:05Z</time>
      </trkpt>
      <trkpt lat="30.522332257034176" lon="114.39229049801743">
        <ele>15.61</ele>
        <time>2021-06-16T14:13:08Z</time>
      </trkpt>
      <trkpt lat="30.522242761698863" lon="114.39235651569899">
        <ele>16.65</ele>
        <time>2021-06-16T14:13:11Z</time>
      </trkpt>
      <trkpt lat="30.52212467173549" lon="114.39253172212105">
        <ele>18.69</ele>
        <time>2021-06-16T14:13:17Z</time>
      </trkpt>
      <trkpt lat="30.522101764741816" lon="114.39263056813735">
        <ele>17.91</ele>
        <time>2021-06-16T14:13:20Z</time>
      </trkpt>
      <trkpt lat="30.52208993526742" lon="114.39284592470852">
        <ele>18.92</ele>
        <time>2021-06-16T14:13:26Z</time>
      </trkpt>
      <trkpt lat="30.522113596879855" lon="114.39293683848561">
        <ele>18.6</ele>
        <time>2021-06-16T14:13:29Z</time>
      </trkpt>
      <trkpt lat="30.52216864648814" lon="114.39301797956539">
        <ele>18.19</ele>
        <time>2021-06-16T14:13:32Z</time>
      </trkpt>
      <trkpt lat="30.522321315202245" lon="114.39313394937815">
        <ele>16.36</ele>
        <time>2021-06-16T14:13:38Z</time>
      </trkpt>
      <trkpt lat="30.522560060661185" lon="114.39319033313465">
        <ele>17.28</ele>
        <time>2021-06-16T14:13:47Z</time>
      </trkpt>
      <trkpt lat="30.522732904142185" lon="114.3931984544878">
        <ele>17.96</ele>
        <time>2021-06-16T14:13:53Z</time>
      </trkpt>
      <trkpt lat="30.5230429611455" lon="114.39317384660141">
        <ele>20.44</ele>
        <time>2021-06-16T14:14:05Z</time>
      </trkpt>
      <trkpt lat="30.52332065300456" lon="114.39317107461018">
        <ele>21.97</ele>
        <time>2021-06-16T14:14:14Z</time>
      </trkpt>
      <trkpt lat="30.523399871543905" lon="114.39316184181997">
        <ele>21.73</ele>
        <time>2021-06-16T14:14:17Z</time>
      </trkpt>
      <trkpt lat="30.52352946869827" lon="114.39305995442236">
        <ele>19.53</ele>
        <time>2021-06-16T14:14:23Z</time>
      </trkpt>
      <trkpt lat="30.523587772897862" lon="114.39293057697726">
        <ele>18.38</ele>
        <time>2021-06-16T14:14:29Z</time>
      </trkpt>
      <trkpt lat="30.52360614181638" lon="114.39284999246684">
        <ele>15.74</ele>
        <time>2021-06-16T14:14:32Z</time>
      </trkpt>
      <trkpt lat="30.523633261254133" lon="114.39259927297032">
        <ele>11.76</ele>
        <time>2021-06-16T14:14:41Z</time>
      </trkpt>
      <trkpt lat="30.523531013302613" lon="114.3923679017404">
        <ele>12.11</ele>
        <time>2021-06-16T14:14:50Z</time>
      </trkpt>
      <trkpt lat="30.523472180492057" lon="114.39230389633937">
        <ele>11.4</ele>
        <time>2021-06-16T14:14:53Z</time>
      </trkpt>
      <trkpt lat="30.523343257097558" lon="114.39225171327527">
        <ele>10.46</ele>
        <time>2021-06-16T14:14:59Z</time>
      </trkpt>
      <trkpt lat="30.523002660646718" lon="114.39223733106306">
        <ele>13.02</ele>
        <time>2021-06-16T14:15:11Z</time>
      </trkpt>
      <trkpt lat="30.522673124744436" lon="114.39222486930284">
        <ele>11.61</ele>
        <time>2021-06-16T14:15:23Z</time>
      </trkpt>
      <trkpt lat="30.522528221349432" lon="114.3922159776367">
        <ele>10.1</ele>
        <time>2021-06-16T14:15:29Z</time>
      </trkpt>
      <trkpt lat="30.522359111276813" lon="114.39226489119704">
        <ele>11.93</ele>
        <time>2021-06-16T14:15:35Z</time>
      </trkpt>
      <trkpt lat="30.522217232680266" lon="114.3923715743305">
        <ele>15.1</ele>
        <time>2021-06-16T14:15:41Z</time>
      </trkpt>
      <trkpt lat="30.522152349616142" lon="114.3924799927092">
        <ele>15.94</ele>
        <time>2021-06-16T14:15:44Z</time>
      </trkpt>
      <trkpt lat="30.522094652235857" lon="114.3926201754444">
        <ele>21.47</ele>
        <time>2021-06-16T14:15:47Z</time>
      </trkpt>
      <trkpt lat="30.522084283147457" lon="114.39275210010075">
        <ele>23.33</ele>
        <time>2021-06-16T14:15:50Z</time>
      </trkpt>
      <trkpt lat="30.52211990506276" lon="114.39288639520282">
        <ele>23.32</ele>
        <time>2021-06-16T14:15:53Z</time>
      </trkpt>
      <trkpt lat="30.522188657041806" lon="114.39301955989006">
        <ele>24.31</ele>
        <time>2021-06-16T14:15:56Z</time>
      </trkpt>
      <trkpt lat="30.522296096848166" lon="114.39309948042303">
        <ele>22.23</ele>
        <time>2021-06-16T14:15:59Z</time>
      </trkpt>
      <trkpt lat="30.52240456871347" lon="114.39314564207726">
        <ele>22.51</ele>
        <time>2021-06-16T14:16:02Z</time>
      </trkpt>
      <trkpt lat="30.522657235867918" lon="114.39316627636073">
        <ele>24.21</ele>
        <time>2021-06-16T14:16:08Z</time>
      </trkpt>
      <trkpt lat="30.52279246590598" lon="114.39320364558401">
        <ele>21.02</ele>
        <time>2021-06-16T14:16:14Z</time>
      </trkpt>
      <trkpt lat="30.523113195239425" lon="114.39318851014245">
        <ele>22.33</ele>
        <time>2021-06-16T14:16:26Z</time>
      </trkpt>
      <trkpt lat="30.523354890021405" lon="114.39315711077913">
        <ele>20.84</ele>
        <time>2021-06-16T14:16:35Z</time>
      </trkpt>
      <trkpt lat="30.52351217379621" lon="114.3930822503659">
        <ele>20.99</ele>
        <time>2021-06-16T14:16:41Z</time>
      </trkpt>
      <trkpt lat="30.523571229295413" lon="114.39301844331546">
        <ele>19.94</ele>
        <time>2021-06-16T14:16:44Z</time>
      </trkpt>
      <trkpt lat="30.52364605991579" lon="114.39284830826364">
        <ele>15.95</ele>
        <time>2021-06-16T14:16:50Z</time>
      </trkpt>
      <trkpt lat="30.52366555781563" lon="114.39275360330922">
        <ele>14.09</ele>
        <time>2021-06-16T14:16:53Z</time>
      </trkpt>
      <trkpt lat="30.52364601538217" lon="114.39265891855405">
        <ele>15.45</ele>
        <time>2021-06-16T14:16:56Z</time>
      </trkpt>
      <trkpt lat="30.523577174086974" lon="114.39248572346584">
        <ele>13.34</ele>
        <time>2021-06-16T14:17:02Z</time>
      </trkpt>
      <trkpt lat="30.52337944684971" lon="114.39229193363141">
        <ele>10.57</ele>
        <time>2021-06-16T14:17:11Z</time>
      </trkpt>
      <trkpt lat="30.52330531088169" lon="114.39226932805515">
        <ele>9.84</ele>
        <time>2021-06-16T14:17:14Z</time>
      </trkpt>
      <trkpt lat="30.522982755458262" lon="114.39225863672569">
        <ele>12.28</ele>
        <time>2021-06-16T14:17:26Z</time>
      </trkpt>
      <trkpt lat="30.52267507232884" lon="114.39225716774055">
        <ele>14.94</ele>
        <time>2021-06-16T14:17:38Z</time>
      </trkpt>
      <trkpt lat="30.522373635557134" lon="114.39228259576213">
        <ele>13.77</ele>
        <time>2021-06-16T14:17:50Z</time>
      </trkpt>
      <trkpt lat="30.522225085052195" lon="114.39237149970131">
        <ele>13.75</ele>
        <time>2021-06-16T14:17:56Z</time>
      </trkpt>
      <trkpt lat="30.522166746810726" lon="114.3924426331109">
        <ele>15.71</ele>
        <time>2021-06-16T14:17:59Z</time>
      </trkpt>
      <trkpt lat="30.52207102955632" lon="114.39266532664243">
        <ele>20.49</ele>
        <time>2021-06-16T14:18:05Z</time>
      </trkpt>
      <trkpt lat="30.522081232471116" lon="114.39287687287693">
        <ele>21.81</ele>
        <time>2021-06-16T14:18:11Z</time>
      </trkpt>
      <trkpt lat="30.522115884941595" lon="114.39297098745058">
        <ele>23.21</ele>
        <time>2021-06-16T14:18:14Z</time>
      </trkpt>
      <trkpt lat="30.522162932777903" lon="114.39304489666974">
        <ele>22.73</ele>
        <time>2021-06-16T14:18:17Z</time>
      </trkpt>
      <trkpt lat="30.522297252018866" lon="114.39316823914898">
        <ele>25.61</ele>
        <time>2021-06-16T14:18:23Z</time>
      </trkpt>
      <trkpt lat="30.522511134235923" lon="114.39320736784163">
        <ele>22.31</ele>
        <time>2021-06-16T14:18:32Z</time>
      </trkpt>
      <trkpt lat="30.52281171302967" lon="114.39319071209155">
        <ele>22.76</ele>
        <time>2021-06-16T14:18:44Z</time>
      </trkpt>
      <trkpt lat="30.523130591949922" lon="114.39313148505403">
        <ele>20.99</ele>
        <time>2021-06-16T14:18:56Z</time>
      </trkpt>
      <trkpt lat="30.52337167188825" lon="114.3931219714552">
        <ele>21.96</ele>
        <time>2021-06-16T14:19:05Z</time>
      </trkpt>
      <trkpt lat="30.523501102775853" lon="114.39303590822695">
        <ele>18.66</ele>
        <time>2021-06-16T14:19:11Z</time>
      </trkpt>
      <trkpt lat="30.52356229466939" lon="114.39295668712042">
        <ele>18.03</ele>
        <time>2021-06-16T14:19:14Z</time>
      </trkpt>
      <trkpt lat="30.523658913514033" lon="114.39275089291081">
        <ele>17.26</ele>
        <time>2021-06-16T14:19:20Z</time>
      </trkpt>
      <trkpt lat="30.523655851787254" lon="114.39260067323471">
        <ele>14.54</ele>
        <time>2021-06-16T14:19:26Z</time>
      </trkpt>
      <trkpt lat="30.523609534027372" lon="114.39248422292556">
        <ele>12.55</ele>
        <time>2021-06-16T14:19:32Z</time>
      </trkpt>
      <trkpt lat="30.523507506954775" lon="114.39237275419903">
        <ele>15.7</ele>
        <time>2021-06-16T14:19:38Z</time>
      </trkpt>
      <trkpt lat="30.52337068151558" lon="114.39231217896817">
        <ele>16.0</ele>
        <time>2021-06-16T14:19:44Z</time>
      </trkpt>
      <trkpt lat="30.523105687397862" lon="114.39226216709001">
        <ele>17.08</ele>
        <time>2021-06-16T14:19:53Z</time>
      </trkpt>
      <trkpt lat="30.522768171315533" lon="114.39224924524521">
        <ele>13.73</ele>
        <time>2021-06-16T14:20:05Z</time>
      </trkpt>
      <trkpt lat="30.522548427282516" lon="114.39224052396348">
        <ele>10.31</ele>
        <time>2021-06-16T14:20:14Z</time>
      </trkpt>
      <trkpt lat="30.522385342601957" lon="114.39226953229175">
        <ele>11.2</ele>
        <time>2021-06-16T14:20:20Z</time>
      </trkpt>
      <trkpt lat="30.52223672953582" lon="114.3923475233729">
        <ele>13.12</ele>
        <time>2021-06-16T14:20:26Z</time>
      </trkpt>
      <trkpt lat="30.522162705562334" lon="114.39241872234778">
        <ele>13.0</ele>
        <time>2021-06-16T14:20:29Z</time>
      </trkpt>
      <trkpt lat="30.5221089737861" lon="114.39249846347776">
        <ele>13.22</ele>
        <time>2021-06-16T14:20:32Z</time>
      </trkpt>
      <trkpt lat="30.522062191283513" lon="114.39270248718184">
        <ele>16.15</ele>
        <time>2021-06-16T14:20:38Z</time>
      </trkpt>
      <trkpt lat="30.522064583115167" lon="114.39292273500197">
        <ele>18.05</ele>
        <time>2021-06-16T14:20:44Z</time>
      </trkpt>
      <trkpt lat="30.522117866204614" lon="114.3930187299933">
        <ele>18.88</ele>
        <time>2021-06-16T14:20:47Z</time>
      </trkpt>
      <trkpt lat="30.522187553231074" lon="114.3930883079766">
        <ele>20.71</ele>
        <time>2021-06-16T14:20:50Z</time>
      </trkpt>
      <trkpt lat="30.522282173864188" lon="114.39312977845829">
        <ele>20.3</ele>
        <time>2021-06-16T14:20:53Z</time>
      </trkpt>
      <trkpt lat="30.52263621626491" lon="114.39316876711179">
        <ele>19.97</ele>
        <time>2021-06-16T14:21:02Z</time>
      </trkpt>
      <trkpt lat="30.522981997999054" lon="114.39316284398222">
        <ele>15.51</ele>
        <time>2021-06-16T14:21:11Z</time>
      </trkpt>
      <trkpt lat="30.523263953546092" lon="114.39317554604482">
        <ele>17.83</ele>
        <time>2021-06-16T14:21:20Z</time>
      </trkpt>
      <trkpt lat="30.52340789854557" lon="114.39314881835573">
        <ele>18.28</ele>
        <time>2021-06-16T14:21:26Z</time>
      </trkpt>
      <trkpt lat="30.523563214039754" lon="114.39303888872848">
        <ele>16.94</ele>
        <time>2021-06-16T14:21:32Z</time>
      </trkpt>
      <trkpt lat="30.52365489057905" lon="114.392893280037">
        <ele>17.47</ele>
        <time>2021-06-16T14:21:38Z</time>
      </trkpt>
      <trkpt lat="30.52366506764635" lon="114.39266782080256">
        <ele>15.35</ele>
        <time>2021-06-16T14:21:47Z</time>
      </trkpt>
      <trkpt lat="30.5235442844352" lon="114.39240323201074">
        <ele>13.77</ele>
        <time>2021-06-16T14:21:59Z</time>
      </trkpt>
      <trkpt lat="30.523434760906312" lon="114.39230710734971">
        <ele>14.98</ele>
        <time>2021-06-16T14:22:05Z</time>
      </trkpt>
      <trkpt lat="30.52331351982386" lon="114.39226449675408">
        <ele>13.7</ele>
        <time>2021-06-16T14:22:11Z</time>
      </trkpt>
      <trkpt lat="30.523035948517734" lon="114.39226963936164">
        <ele>13.22</ele>
        <time>2021-06-16T14:22:23Z</time>
      </trkpt>
      <trkpt lat="30.522888975668963" lon="114.3922631583348">
        <ele>14.94</ele>
        <time>2021-06-16T14:22:29Z</time>
      </trkpt>
      <trkpt lat="30.5228116903479" lon="114.3922434335274">
        <ele>14.54</ele>
        <time>2021-06-16T14:22:32Z</time>
      </trkpt>
      <trkpt lat="30.522615268408" lon="114.39224274424024">
        <ele>16.72</ele>
        <time>2021-06-16T14:22:41Z</time>
      </trkpt>
      <trkpt lat="30.522349586234736" lon="114.39228641687103">
        <ele>15.03</ele>
        <time>2021-06-16T14:22:53Z</time>
      </trkpt>
      <trkpt lat="30.522234568995618" lon="114.39234530280159">
        <ele>16.35</ele>
        <time>2021-06-16T14:22:59Z</time>
      </trkpt>
      <trkpt lat="30.5221306175689" lon="114.39247113622052">
        <ele>21.06</ele>
        <time>2021-06-16T14:23:05Z</time>
      </trkpt>
      <trkpt lat="30.522057706664306" lon="114.39264045092924">
        <ele>23.12</ele>
        <time>2021-06-16T14:23:11Z</time>
      </trkpt>
      <trkpt lat="30.52205009892887" lon="114.39273547589303">
        <ele>25.73</ele>
        <time>2021-06-16T14:23:14Z</time>
      </trkpt>
      <trkpt lat="30.522085552452822" lon="114.39291911395524">
        <ele>25.47</ele>
        <time>2021-06-16T14:23:20Z</time>
      </trkpt>
      <trkpt lat="30.522145086891648" lon="114.39306304152308">
        <ele>25.89</ele>
        <time>2021-06-16T14:23:26Z</time>
      </trkpt>
      <trkpt lat="30.522192840246134" lon="114.39311786572924">
        <ele>23.57</ele>
        <time>2021-06-16T14:23:29Z</time>
      </trkpt>
      <trkpt lat="30.5223257870455" lon="114.39318400253188">
        <ele>19.05</ele>
        <time>2021-06-16T14:23:35Z</time>
      </trkpt>
      <trkpt lat="30.522405691950006" lon="114.39320172683522">
        <ele>18.67</ele>
        <time>2021-06-16T14:23:38Z</time>
      </trkpt>
      <trkpt lat="30.52270622857947" lon="114.39321828983142">
        <ele>17.04</ele>
        <time>2021-06-16T14:23:50Z</time>
      </trkpt>
      <trkpt lat="30.522984205574907" lon="114.39319488240601">
        <ele>18.84</ele>
        <time>2021-06-16T14:24:02Z</time>
      </trkpt>
      <trkpt lat="30.52330778996804" lon="114.39315869140916">
        <ele>13.95</ele>
        <time>2021-06-16T14:24:14Z</time>
      </trkpt>
      <trkpt lat="30.523479678736276" lon="114.39310445635574">
        <ele>12.43</ele>
        <time>2021-06-16T14:24:20Z</time>
      </trkpt>
      <trkpt lat="30.523599768978485" lon="114.39301600254393">
        <ele>12.58</ele>
        <time>2021-06-16T14:24:26Z</time>
      </trkpt>
      <trkpt lat="30.523669731490145" lon="114.39289658083678">
        <ele>11.95</ele>
        <time>2021-06-16T14:24:32Z</time>
      </trkpt>
      <trkpt lat="30.523635811920943" lon="114.3926020136773">
        <ele>11.14</ele>
        <time>2021-06-16T14:24:44Z</time>
      </trkpt>
      <trkpt lat="30.523616387181697" lon="114.39253999750889">
        <ele>10.07</ele>
        <time>2021-06-16T14:24:47Z</time>
      </trkpt>
      <trkpt lat="30.523534326236224" lon="114.39241129416698">
        <ele>10.34</ele>
        <time>2021-06-16T14:24:53Z</time>
      </trkpt>
      <trkpt lat="30.52340277032399" lon="114.39230585716814">
        <ele>11.01</ele>
        <time>2021-06-16T14:24:59Z</time>
      </trkpt>
      <trkpt lat="30.523326571690408" lon="114.39227195864653">
        <ele>10.02</ele>
        <time>2021-06-16T14:25:02Z</time>
      </trkpt>
      <trkpt lat="30.522995058932963" lon="114.3922303092614">
        <ele>10.26</ele>
        <time>2021-06-16T14:25:14Z</time>
      </trkpt>
      <trkpt lat="30.522708663175354" lon="114.39221679703053">
        <ele>10.8</ele>
        <time>2021-06-16T14:25:26Z</time>
      </trkpt>
      <trkpt lat="30.522634956903747" lon="114.39223556227253">
        <ele>11.31</ele>
        <time>2021-06-16T14:25:29Z</time>
      </trkpt>
      <trkpt lat="30.522438032936588" lon="114.39222624073028">
        <ele>13.12</ele>
        <time>2021-06-16T14:25:38Z</time>
      </trkpt>
      <trkpt lat="30.522373445034553" lon="114.39223769401892">
        <ele>13.74</ele>
        <time>2021-06-16T14:25:41Z</time>
      </trkpt>
      <trkpt lat="30.522168265435702" lon="114.39237533096241">
        <ele>16.4</ele>
        <time>2021-06-16T14:25:50Z</time>
      </trkpt>
      <trkpt lat="30.52207124078627" lon="114.39252974184487">
        <ele>16.03</ele>
        <time>2021-06-16T14:25:56Z</time>
      </trkpt>
      <trkpt lat="30.522039008722512" lon="114.39273502582529">
        <ele>16.91</ele>
        <time>2021-06-16T14:26:02Z</time>
      </trkpt>
      <trkpt lat="30.52204336065389" lon="114.39282811024167">
        <ele>17.28</ele>
        <time>2021-06-16T14:26:05Z</time>
      </trkpt>
      <trkpt lat="30.522107186530548" lon="114.39297806935167">
        <ele>16.37</ele>
        <time>2021-06-16T14:26:11Z</time>
      </trkpt>
      <trkpt lat="30.522170016459977" lon="114.3930602506758">
        <ele>15.52</ele>
        <time>2021-06-16T14:26:14Z</time>
      </trkpt>
      <trkpt lat="30.522312660767586" lon="114.39315788571696">
        <ele>17.64</ele>
        <time>2021-06-16T14:26:20Z</time>
      </trkpt>
      <trkpt lat="30.522497681313506" lon="114.3931954947768">
        <ele>16.23</ele>
        <time>2021-06-16T14:26:26Z</time>
      </trkpt>
      <trkpt lat="30.522805799809028" lon="114.39321967974521">
        <ele>17.99</ele>
        <time>2021-06-16T14:26:38Z</time>
      </trkpt>
      <trkpt lat="30.523096679348516" lon="114.39320656497087">
        <ele>16.99</ele>
        <time>2021-06-16T14:26:50Z</time>
      </trkpt>
      <trkpt lat="30.523214100604445" lon="114.39320738465325">
        <ele>17.14</ele>
        <time>2021-06-16T14:26:56Z</time>
      </trkpt>
      <trkpt lat="30.52347618192792" lon="114.39311812996945">
        <ele>14.39</ele>
        <time>2021-06-16T14:27:05Z</time>
      </trkpt>
      <trkpt lat="30.523579371864543" lon="114.39302903606396">
        <ele>15.0</ele>
        <time>2021-06-16T14:27:11Z</time>
      </trkpt>
      <trkpt lat="30.523653931448052" lon="114.39289662646935">
        <ele>16.08</ele>
        <time>2021-06-16T14:27:17Z</time>
      </trkpt>
      <trkpt lat="30.523678163589807" lon="114.39280592855974">
        <ele>15.52</ele>
        <time>2021-06-16T14:27:20Z</time>
      </trkpt>
      <trkpt lat="30.52365419882619" lon="114.39263070111615">
        <ele>14.59</ele>
        <time>2021-06-16T14:27:26Z</time>
      </trkpt>
      <trkpt lat="30.523623209298332" lon="114.39254874977173">
        <ele>12.47</ele>
        <time>2021-06-16T14:27:29Z</time>
      </trkpt>
      <trkpt lat="30.523487407465023" lon="114.3923757050629">
        <ele>7.49</ele>
        <time>2021-06-16T14:27:38Z</time>
      </trkpt>
      <trkpt lat="30.52328245725313" lon="114.39225472433935">
        <ele>9.58</ele>
        <time>2021-06-16T14:27:47Z</time>
      </trkpt>
      <trkpt lat="30.52296281841386" lon="114.39227202031701">
        <ele>10.27</ele>
        <time>2021-06-16T14:28:02Z</time>
      </trkpt>
      <trkpt lat="30.5228278504848" lon="114.39224339344344">
        <ele>8.3</ele>
        <time>2021-06-16T14:28:08Z</time>
      </trkpt>
      <trkpt lat="30.522507191174302" lon="114.39225872891213">
        <ele>10.08</ele>
        <time>2021-06-16T14:28:23Z</time>
      </trkpt>
      <trkpt lat="30.522295522667957" lon="114.39231595484472">
        <ele>12.26</ele>
        <time>2021-06-16T14:28:32Z</time>
      </trkpt>
      <trkpt lat="30.52218727001803" lon="114.39239413579882">
        <ele>11.94</ele>
        <time>2021-06-16T14:28:38Z</time>
      </trkpt>
      <trkpt lat="30.522124876052207" lon="114.3924648946117">
        <ele>11.85</ele>
        <time>2021-06-16T14:28:41Z</time>
      </trkpt>
      <trkpt lat="30.52205495456663" lon="114.39263162862811">
        <ele>11.82</ele>
        <time>2021-06-16T14:28:47Z</time>
      </trkpt>
      <trkpt lat="30.522058192467075" lon="114.39287774321019">
        <ele>14.85</ele>
        <time>2021-06-16T14:28:56Z</time>
      </trkpt>
      <trkpt lat="30.522108005113793" lon="114.39301447892028">
        <ele>14.41</ele>
        <time>2021-06-16T14:29:02Z</time>
      </trkpt>
      <trkpt lat="30.522197758774556" lon="114.39311143401459">
        <ele>14.34</ele>
        <time>2021-06-16T14:29:08Z</time>
      </trkpt>
      <trkpt lat="30.52226347011192" lon="114.39315699570605">
        <ele>12.85</ele>
        <time>2021-06-16T14:29:11Z</time>
      </trkpt>
      <trkpt lat="30.522584759193396" lon="114.39318316113446">
        <ele>18.4</ele>
        <time>2021-06-16T14:29:23Z</time>
      </trkpt>
      <trkpt lat="30.522858011620503" lon="114.39318295984047">
        <ele>15.25</ele>
        <time>2021-06-16T14:29:35Z</time>
      </trkpt>
      <trkpt lat="30.52308022116424" lon="114.39317249607666">
        <ele>15.47</ele>
        <time>2021-06-16T14:29:44Z</time>
      </trkpt>
      <trkpt lat="30.523246185564425" lon="114.39322717971974">
        <ele>14.43</ele>
        <time>2021-06-16T14:29:56Z</time>
      </trkpt>
      <trkpt lat="30.523470103391467" lon="114.39316698285408">
        <ele>14.43</ele>
        <time>2021-06-16T14:30:05Z</time>
      </trkpt>
      <trkpt lat="30.523570979528827" lon="114.39310431590388">
        <ele>11.33</ele>
        <time>2021-06-16T14:30:11Z</time>
      </trkpt>
      <trkpt lat="30.523661154270965" lon="114.39290872406634">
        <ele>13.77</ele>
        <time>2021-06-16T14:30:20Z</time>
      </trkpt>
      <trkpt lat="30.523683992866292" lon="114.39260418402725">
        <ele>13.19</ele>
        <time>2021-06-16T14:30:32Z</time>
      </trkpt>
      <trkpt lat="30.523563714132916" lon="114.39244382255153">
        <ele>10.9</ele>
        <time>2021-06-16T14:30:41Z</time>
      </trkpt>
      <trkpt lat="30.523360829154644" lon="114.39230248647699">
        <ele>8.68</ele>
        <time>2021-06-16T14:30:53Z</time>
      </trkpt>
      <trkpt lat="30.5230897358239" lon="114.3922560655667">
        <ele>8.26</ele>
        <time>2021-06-16T14:31:05Z</time>
      </trkpt>
      <trkpt lat="30.522789020662948" lon="114.39224565421125">
        <ele>9.87</ele>
        <time>2021-06-16T14:31:20Z</time>
      </trkpt>
      <trkpt lat="30.522462913883505" lon="114.39227200258529">
        <ele>10.58</ele>
        <time>2021-06-16T14:31:35Z</time>
      </trkpt>
      <trkpt lat="30.52232753629753" lon="114.39228753726435">
        <ele>12.98</ele>
        <time>2021-06-16T14:31:41Z</time>
      </trkpt>
      <trkpt lat="30.522164559488495" lon="114.39239275554068">
        <ele>13.15</ele>
        <time>2021-06-16T14:31:50Z</time>
      </trkpt>
      <trkpt lat="30.522088529808787" lon="114.39252491050027">
        <ele>14.06</ele>
        <time>2021-06-16T14:31:56Z</time>
      </trkpt>
      <trkpt lat="30.522029153193397" lon="114.39275442096027">
        <ele>16.24</ele>
        <time>2021-06-16T14:32:05Z</time>
      </trkpt>
      <trkpt lat="30.522094509230815" lon="114.39299002255156">
        <ele>16.83</ele>
        <time>2021-06-16T14:32:17Z</time>
      </trkpt>
      <trkpt lat="30.5222253042308" lon="114.39313351970102">
        <ele>17.39</ele>
        <time>2021-06-16T14:32:29Z</time>
      </trkpt>
      <trkpt lat="30.52239770239904" lon="114.39320393745349">
        <ele>14.6</ele>
        <time>2021-06-16T14:32:38Z</time>
      </trkpt>
      <trkpt lat="30.522554286061364" lon="114.39321344924687">
        <ele>17.62</ele>
        <time>2021-06-16T14:32:44Z</time>
      </trkpt>
      <trkpt lat="30.522615203442015" lon="114.39320000543066">
        <ele>18.45</ele>
        <time>2021-06-16T14:32:47Z</time>
      </trkpt>
      <trkpt lat="30.522820379679104" lon="114.39321856938662">
        <ele>16.54</ele>
        <time>2021-06-16T14:32:56Z</time>
      </trkpt>
      <trkpt lat="30.52316042471369" lon="114.39318446886404">
        <ele>15.28</ele>
        <time>2021-06-16T14:33:11Z</time>
      </trkpt>
      <trkpt lat="30.523401198598183" lon="114.39314929851255">
        <ele>13.66</ele>
        <time>2021-06-16T14:33:23Z</time>
      </trkpt>
      <trkpt lat="30.52351521183406" lon="114.39307380813126">
        <ele>12.93</ele>
        <time>2021-06-16T14:33:29Z</time>
      </trkpt>
      <trkpt lat="30.523642431648323" lon="114.39289830141294">
        <ele>11.89</ele>
        <time>2021-06-16T14:33:38Z</time>
      </trkpt>
      <trkpt lat="30.523693499114863" lon="114.39275805435048">
        <ele>10.63</ele>
        <time>2021-06-16T14:33:44Z</time>
      </trkpt>
      <trkpt lat="30.523681558791502" lon="114.39262950067692">
        <ele>6.44</ele>
        <time>2021-06-16T14:33:50Z</time>
      </trkpt>
      <trkpt lat="30.523494968671063" lon="114.39238055629845">
        <ele>2.13</ele>
        <time>2021-06-16T14:34:05Z</time>
      </trkpt>
      <trkpt lat="30.52331301434781" lon="114.39228382181147">
        <ele>10.06</ele>
        <time>2021-06-16T14:34:14Z</time>
      </trkpt>
      <trkpt lat="30.52297730259662" lon="114.3922466336112">
        <ele>6.81</ele>
        <time>2021-06-16T14:34:29Z</time>
      </trkpt>
      <trkpt lat="30.522785353113914" lon="114.39225625700091">
        <ele>12.41</ele>
        <time>2021-06-16T14:34:38Z</time>
      </trkpt>
      <trkpt lat="30.522668465801196" lon="114.39222956055073">
        <ele>8.38</ele>
        <time>2021-06-16T14:34:44Z</time>
      </trkpt>
      <trkpt lat="30.522435976533604" lon="114.39224167477566">
        <ele>10.03</ele>
        <time>2021-06-16T14:34:56Z</time>
      </trkpt>
      <trkpt lat="30.522298347559182" lon="114.39229404910057">
        <ele>12.89</ele>
        <time>2021-06-16T14:35:02Z</time>
      </trkpt>
      <trkpt lat="30.522170592555497" lon="114.39240559887577">
        <ele>16.64</ele>
        <time>2021-06-16T14:35:08Z</time>
      </trkpt>
      <trkpt lat="30.522090125060085" lon="114.39254721633858">
        <ele>17.12</ele>
        <time>2021-06-16T14:35:14Z</time>
      </trkpt>
      <trkpt lat="30.522047024578878" lon="114.39271709108256">
        <ele>13.34</ele>
        <time>2021-06-16T14:35:20Z</time>
      </trkpt>
      <trkpt lat="30.52205030599661" lon="114.3928080449413">
        <ele>13.58</ele>
        <time>2021-06-16T14:35:23Z</time>
      </trkpt>
      <trkpt lat="30.522122282649853" lon="114.39304591712269">
        <ele>17.43</ele>
        <time>2021-06-16T14:35:32Z</time>
      </trkpt>
      <trkpt lat="30.52218995275725" lon="114.39312862857442">
        <ele>18.46</ele>
        <time>2021-06-16T14:35:38Z</time>
      </trkpt>
      <trkpt lat="30.52244897917606" lon="114.39318830310464">
        <ele>20.63</ele>
        <time>2021-06-16T14:35:50Z</time>
      </trkpt>
      <trkpt lat="30.52276144538918" lon="114.39320264546157">
        <ele>21.77</ele>
        <time>2021-06-16T14:36:02Z</time>
      </trkpt>
      <trkpt lat="30.52303677242231" lon="114.39317949811722">
        <ele>18.92</ele>
        <time>2021-06-16T14:36:14Z</time>
      </trkpt>
      <trkpt lat="30.523214387480888" lon="114.39319413116259">
        <ele>16.24</ele>
        <time>2021-06-16T14:36:23Z</time>
      </trkpt>
      <trkpt lat="30.52329360374222" lon="114.39321763699154">
        <ele>15.14</ele>
        <time>2021-06-16T14:36:29Z</time>
      </trkpt>
      <trkpt lat="30.523435412622494" lon="114.39316505250359">
        <ele>19.28</ele>
        <time>2021-06-16T14:36:38Z</time>
      </trkpt>
      <trkpt lat="30.523532182546194" lon="114.39307617867772">
        <ele>17.59</ele>
        <time>2021-06-16T14:36:44Z</time>
      </trkpt>
      <trkpt lat="30.523610412122636" lon="114.3929440235733">
        <ele>14.22</ele>
        <time>2021-06-16T14:36:50Z</time>
      </trkpt>
      <trkpt lat="30.523645823314503" lon="114.39273521857375">
        <ele>13.34</ele>
        <time>2021-06-16T14:36:59Z</time>
      </trkpt>
      <trkpt lat="30.523636429508983" lon="114.39259172097591">
        <ele>10.31</ele>
        <time>2021-06-16T14:37:05Z</time>
      </trkpt>
      <trkpt lat="30.523543011692887" lon="114.39239158896821">
        <ele>6.22</ele>
        <time>2021-06-16T14:37:14Z</time>
      </trkpt>
      <trkpt lat="30.523471222534873" lon="114.39231264863375">
        <ele>4.6</ele>
        <time>2021-06-16T14:37:20Z</time>
      </trkpt>
      <trkpt lat="30.523378029218943" lon="114.39225942513411">
        <ele>6.09</ele>
        <time>2021-06-16T14:37:26Z</time>
      </trkpt>
      <trkpt lat="30.523076711063634" lon="114.3922362504437">
        <ele>10.19</ele>
        <time>2021-06-16T14:37:41Z</time>
      </trkpt>
      <trkpt lat="30.52279967101479" lon="114.39224674444793">
        <ele>13.17</ele>
        <time>2021-06-16T14:37:56Z</time>
      </trkpt>
      <trkpt lat="30.522515841097952" lon="114.39225806870013">
        <ele>16.4</ele>
        <time>2021-06-16T14:38:11Z</time>
      </trkpt>
      <trkpt lat="30.522355639321177" lon="114.39225667906494">
        <ele>15.49</ele>
        <time>2021-06-16T14:38:20Z</time>
      </trkpt>
      <trkpt lat="30.522104321675663" lon="114.3924896511902">
        <ele>16.19</ele>
        <time>2021-06-16T14:38:32Z</time>
      </trkpt>
      <trkpt lat="30.522052297935137" lon="114.39260350126477">
        <ele>16.65</ele>
        <time>2021-06-16T14:38:35Z</time>
      </trkpt>
      <trkpt lat="30.522042685901027" lon="114.39272288262198">
        <ele>17.24</ele>
        <time>2021-06-16T14:38:38Z</time>
      </trkpt>
      <trkpt lat="30.52211984660445" lon="114.39293542808657">
        <ele>16.37</ele>
        <time>2021-06-16T14:38:44Z</time>
      </trkpt>
      <trkpt lat="30.52224555035733" lon="114.39307388391886">
        <ele>18.09</ele>
        <time>2021-06-16T14:38:50Z</time>
      </trkpt>
      <trkpt lat="30.52241594838497" lon="114.39314381154382">
        <ele>17.22</ele>
        <time>2021-06-16T14:38:56Z</time>
      </trkpt>
      <trkpt lat="30.522763956379038" lon="114.39316434536778">
        <ele>19.08</ele>
        <time>2021-06-16T14:39:05Z</time>
      </trkpt>
      <trkpt lat="30.523071887175636" lon="114.39315590174665">
        <ele>19.89</ele>
        <time>2021-06-16T14:39:14Z</time>
      </trkpt>
      <trkpt lat="30.523268456640423" lon="114.39314608827078">
        <ele>20.06</ele>
        <time>2021-06-16T14:39:20Z</time>
      </trkpt>
      <trkpt lat="30.52335733153924" lon="114.39312104127558">
        <ele>19.03</ele>
        <time>2021-06-16T14:39:23Z</time>
      </trkpt>
      <trkpt lat="30.52355288395766" lon="114.39299648762591">
        <ele>17.25</ele>
        <time>2021-06-16T14:39:29Z</time>
      </trkpt>
      <trkpt lat="30.523608037026147" lon="114.39292246791926">
        <ele>14.73</ele>
        <time>2021-06-16T14:39:32Z</time>
      </trkpt>
      <trkpt lat="30.523621822001658" lon="114.39273055745963">
        <ele>13.61</ele>
        <time>2021-06-16T14:39:38Z</time>
      </trkpt>
      <trkpt lat="30.523548589047564" lon="114.39250795942165">
        <ele>10.92</ele>
        <time>2021-06-16T14:39:47Z</time>
      </trkpt>
      <trkpt lat="30.52342324014405" lon="114.39234695783028">
        <ele>5.84</ele>
        <time>2021-06-16T14:39:56Z</time>
      </trkpt>
      <trkpt lat="30.523276004545217" lon="114.39228609257385">
        <ele>9.32</ele>
        <time>2021-06-16T14:40:02Z</time>
      </trkpt>
      <trkpt lat="30.522949913100106" lon="114.39229251573721">
        <ele>14.83</ele>
        <time>2021-06-16T14:40:17Z</time>
      </trkpt>
      <trkpt lat="30.52267164363604" lon="114.39230555041266">
        <ele>18.61</ele>
        <time>2021-06-16T14:40:29Z</time>
      </trkpt>
      <trkpt lat="30.52235803594794" lon="114.39228486642702">
        <ele>18.11</ele>
        <time>2021-06-16T14:40:44Z</time>
      </trkpt>
      <trkpt lat="30.522238835612896" lon="114.39233070896304">
        <ele>17.11</ele>
        <time>2021-06-16T14:40:50Z</time>
      </trkpt>
      <trkpt lat="30.522182584683502" lon="114.39237156991283">
        <ele>17.8</ele>
        <time>2021-06-16T14:40:53Z</time>
      </trkpt>
      <trkpt lat="30.52206926015092" lon="114.39256970232707">
        <ele>14.57</ele>
        <time>2021-06-16T14:41:02Z</time>
      </trkpt>
      <trkpt lat="30.52203952638751" lon="114.39276760437352">
        <ele>16.36</ele>
        <time>2021-06-16T14:41:11Z</time>
      </trkpt>
      <trkpt lat="30.522039328412127" lon="114.3928612389606">
        <ele>15.61</ele>
        <time>2021-06-16T14:41:14Z</time>
      </trkpt>
      <trkpt lat="30.52207017540769" lon="114.3929322574789">
        <ele>16.1</ele>
        <time>2021-06-16T14:41:17Z</time>
      </trkpt>
      <trkpt lat="30.522241218686165" lon="114.39315180444078">
        <ele>20.47</ele>
        <time>2021-06-16T14:41:29Z</time>
      </trkpt>
      <trkpt lat="30.522380570372878" lon="114.39319600544297">
        <ele>22.94</ele>
        <time>2021-06-16T14:41:35Z</time>
      </trkpt>
      <trkpt lat="30.52265311527413" lon="114.3932063169202">
        <ele>20.79</ele>
        <time>2021-06-16T14:41:47Z</time>
      </trkpt>
      <trkpt lat="30.522961463309493" lon="114.39318615021044">
        <ele>18.38</ele>
        <time>2021-06-16T14:41:59Z</time>
      </trkpt>
      <trkpt lat="30.5231309897177" lon="114.39316441371857">
        <ele>19.42</ele>
        <time>2021-06-16T14:42:05Z</time>
      </trkpt>
      <trkpt lat="30.52334900447585" lon="114.39317622583734">
        <ele>16.47</ele>
        <time>2021-06-16T14:42:14Z</time>
      </trkpt>
      <trkpt lat="30.523425459136" lon="114.39315064875768">
        <ele>16.84</ele>
        <time>2021-06-16T14:42:17Z</time>
      </trkpt>
      <trkpt lat="30.52358264902871" lon="114.3930168728506">
        <ele>15.29</ele>
        <time>2021-06-16T14:42:26Z</time>
      </trkpt>
      <trkpt lat="30.52362156424896" lon="114.39295262578352">
        <ele>15.35</ele>
        <time>2021-06-16T14:42:29Z</time>
      </trkpt>
      <trkpt lat="30.523647325107575" lon="114.39278531171566">
        <ele>16.76</ele>
        <time>2021-06-16T14:42:35Z</time>
      </trkpt>
      <trkpt lat="30.523633933263383" lon="114.39265036636583">
        <ele>11.92</ele>
        <time>2021-06-16T14:42:41Z</time>
      </trkpt>
      <trkpt lat="30.523610219229766" lon="114.39259154104793">
        <ele>8.19</ele>
        <time>2021-06-16T14:42:44Z</time>
      </trkpt>
      <trkpt lat="30.523611675424778" lon="114.3925326956167">
        <ele>6.79</ele>
        <time>2021-06-16T14:42:47Z</time>
      </trkpt>
      <trkpt lat="30.523453693597308" lon="114.39236051123912">
        <ele>3.76</ele>
        <time>2021-06-16T14:42:59Z</time>
      </trkpt>
      <trkpt lat="30.523318668102867" lon="114.39229962592036">
        <ele>6.22</ele>
        <time>2021-06-16T14:43:05Z</time>
      </trkpt>
      <trkpt lat="30.523177470866894" lon="114.39227419991096">
        <ele>8.42</ele>
        <time>2021-06-16T14:43:11Z</time>
      </trkpt>
      <trkpt lat="30.52311112482133" lon="114.392293635297">
        <ele>7.06</ele>
        <time>2021-06-16T14:43:14Z</time>
      </trkpt>
      <trkpt lat="30.522792287733044" lon="114.39227570205553">
        <ele>17.3</ele>
        <time>2021-06-16T14:43:26Z</time>
      </trkpt>
      <trkpt lat="30.522660679491725" lon="114.39224561478449">
        <ele>14.51</ele>
        <time>2021-06-16T14:43:32Z</time>
      </trkpt>
      <trkpt lat="30.522544631726635" lon="114.39225963897995">
        <ele>17.23</ele>
        <time>2021-06-16T14:43:38Z</time>
      </trkpt>
      <trkpt lat="30.522446884928808" lon="114.39223440282439">
        <ele>15.29</ele>
        <time>2021-06-16T14:43:44Z</time>
      </trkpt>
    </trkseg>
  </trk>
</gpx>