<?xml version="1.0" encoding="UTF-8"?>
<gpx xmlns="http://www.topografix.com/GPX/1/1" xmlns:gpxtpx="http://www.garmin.com/xmlschemas/TrackPointExtension/v1" xmlns:xsi="http://www.w3.org/2001/XMLSchema-instance" xsi:schemaLocation="http://www.topografix.com/GPX/1/1 http://www.topografix.com/GPX/1/1/gpx.xsd" version="1.1" creator="gpx.py -- https://github.com/tkrajina/gpxpy">
  <trk>
    <name>gpx from keep</name>
    <type>Run</type>
    <trkseg>
      <trkpt lat="30.522067638294118" lon="114.39264604945177">
        <ele>17.9017333984375</ele>
        <time>2021-05-28T14:18:35Z</time>
      </trkpt>
      <trkpt lat="30.52207656666925" lon="114.39276109802273">
        <ele>16.5418701171875</ele>
        <time>2021-05-28T14:18:41Z</time>
      </trkpt>
      <trkpt lat="30.522107468984025" lon="114.39283191611328">
        <ele>16.48638916015625</ele>
        <time>2021-05-28T14:18:44Z</time>
      </trkpt>
      <trkpt lat="30.52215464409176" lon="114.39289296459123">
        <ele>17.19854736328125</ele>
        <time>2021-05-28T14:18:47Z</time>
      </trkpt>
      <trkpt lat="30.52226769155697" lon="114.39310514781961">
        <ele>21.16473388671875</ele>
        <time>2021-05-28T14:18:53Z</time>
      </trkpt>
      <trkpt lat="30.522348767348266" lon="114.39315208400491">
        <ele>19.73211669921875</ele>
        <time>2021-05-28T14:18:56Z</time>
      </trkpt>
      <trkpt lat="30.522471607102734" lon="114.39318707728059">
        <ele>18.5601806640625</ele>
        <time>2021-05-28T14:18:59Z</time>
      </trkpt>
      <trkpt lat="30.522611537807983" lon="114.39318109537052">
        <ele>18.717041015625</ele>
        <time>2021-05-28T14:19:02Z</time>
      </trkpt>
      <trkpt lat="30.522901698048" lon="114.39320711953913">
        <ele>22.21246337890625</ele>
        <time>2021-05-28T14:19:11Z</time>
      </trkpt>
      <trkpt lat="30.5231747807597" lon="114.39318891526896">
        <ele>22.57916259765625</ele>
        <time>2021-05-28T14:19:20Z</time>
      </trkpt>
      <trkpt lat="30.523297627879998" lon="114.3931769651717">
        <ele>21.7987060546875</ele>
        <time>2021-05-28T14:19:23Z</time>
      </trkpt>
      <trkpt lat="30.523460623231617" lon="114.39308197898579">
        <ele>24.08807373046875</ele>
        <time>2021-05-28T14:19:29Z</time>
      </trkpt>
      <trkpt lat="30.523547684170424" lon="114.39301087838145">
        <ele>24.2010498046875</ele>
        <time>2021-05-28T14:19:32Z</time>
      </trkpt>
      <trkpt lat="30.523652664924327" lon="114.39281387233646">
        <ele>19.58563232421875</ele>
        <time>2021-05-28T14:19:38Z</time>
      </trkpt>
      <trkpt lat="30.52366868372553" lon="114.39270587620341">
        <ele>18.2666015625</ele>
        <time>2021-05-28T14:19:41Z</time>
      </trkpt>
      <trkpt lat="30.523663551078435" lon="114.39259679711667">
        <ele>18.57110595703125</ele>
        <time>2021-05-28T14:19:44Z</time>
      </trkpt>
      <trkpt lat="30.523621540166335" lon="114.39247768225047">
        <ele>18.29180908203125</ele>
        <time>2021-05-28T14:19:47Z</time>
      </trkpt>
      <trkpt lat="30.52356732123762" lon="114.39238678833759">
        <ele>20.48016357421875</ele>
        <time>2021-05-28T14:19:50Z</time>
      </trkpt>
      <trkpt lat="30.523476493005223" lon="114.39229671203522">
        <ele>20.5968017578125</ele>
        <time>2021-05-28T14:19:53Z</time>
      </trkpt>
      <trkpt lat="30.523221328689946" lon="114.3922088211776">
        <ele>18.39337158203125</ele>
        <time>2021-05-28T14:20:02Z</time>
      </trkpt>
      <trkpt lat="30.52293847341229" lon="114.39227369538506">
        <ele>16.697021484375</ele>
        <time>2021-05-28T14:20:11Z</time>
      </trkpt>
      <trkpt lat="30.522855492001526" lon="114.39227288862605">
        <ele>17.399169921875</ele>
        <time>2021-05-28T14:20:14Z</time>
      </trkpt>
      <trkpt lat="30.522772514995584" lon="114.39224983223126">
        <ele>17.401611328125</ele>
        <time>2021-05-28T14:20:17Z</time>
      </trkpt>
      <trkpt lat="30.522697397516563" lon="114.39225065280709">
        <ele>16.1375732421875</ele>
        <time>2021-05-28T14:20:20Z</time>
      </trkpt>
      <trkpt lat="30.52262444090004" lon="114.39229488714243">
        <ele>17.56842041015625</ele>
        <time>2021-05-28T14:20:23Z</time>
      </trkpt>
      <trkpt lat="30.522541456369822" lon="114.39230981796085">
        <ele>18.702880859375</ele>
        <time>2021-05-28T14:20:26Z</time>
      </trkpt>
      <trkpt lat="30.52238770006648" lon="114.39229083777164">
        <ele>19.7122802734375</ele>
        <time>2021-05-28T14:20:32Z</time>
      </trkpt>
      <trkpt lat="30.52220545202135" lon="114.3923619442222">
        <ele>19.03314208984375</ele>
        <time>2021-05-28T14:20:38Z</time>
      </trkpt>
      <trkpt lat="30.522128424264885" lon="114.39242490154389">
        <ele>16.21240234375</ele>
        <time>2021-05-28T14:20:41Z</time>
      </trkpt>
      <trkpt lat="30.52208773350451" lon="114.39249599608205">
        <ele>16.90313720703125</ele>
        <time>2021-05-28T14:20:44Z</time>
      </trkpt>
      <trkpt lat="30.52205761319511" lon="114.39259883686401">
        <ele>17.14239501953125</ele>
        <time>2021-05-28T14:20:47Z</time>
      </trkpt>
      <trkpt lat="30.522050538557938" lon="114.39273098118383">
        <ele>19.09674072265625</ele>
        <time>2021-05-28T14:20:50Z</time>
      </trkpt>
      <trkpt lat="30.52206868514372" lon="114.39285986800441">
        <ele>21.7674560546875</ele>
        <time>2021-05-28T14:20:53Z</time>
      </trkpt>
      <trkpt lat="30.522109615671475" lon="114.39296514650046">
        <ele>25.1546630859375</ele>
        <time>2021-05-28T14:20:56Z</time>
      </trkpt>
      <trkpt lat="30.522197727623933" lon="114.39309918427729">
        <ele>25.112548828125</ele>
        <time>2021-05-28T14:21:02Z</time>
      </trkpt>
      <trkpt lat="30.52237371096964" lon="114.39318410099584">
        <ele>22.84332275390625</ele>
        <time>2021-05-28T14:21:08Z</time>
      </trkpt>
      <trkpt lat="30.52254862034871" lon="114.39320199475885">
        <ele>21.736083984375</ele>
        <time>2021-05-28T14:21:14Z</time>
      </trkpt>
      <trkpt lat="30.522863464613927" lon="114.39318704303334">
        <ele>20.24853515625</ele>
        <time>2021-05-28T14:21:26Z</time>
      </trkpt>
      <trkpt lat="30.52293750276522" lon="114.39315203255109">
        <ele>19.26507568359375</ele>
        <time>2021-05-28T14:21:29Z</time>
      </trkpt>
      <trkpt lat="30.52313464731207" lon="114.39317996425555">
        <ele>19.97613525390625</ele>
        <time>2021-05-28T14:21:35Z</time>
      </trkpt>
      <trkpt lat="30.523388755605293" lon="114.39310993410692">
        <ele>17.2474365234375</ele>
        <time>2021-05-28T14:21:44Z</time>
      </trkpt>
      <trkpt lat="30.523548497354376" lon="114.39301304908524">
        <ele>19.1085205078125</ele>
        <time>2021-05-28T14:21:50Z</time>
      </trkpt>
      <trkpt lat="30.523612513371635" lon="114.39291074597273">
        <ele>19.81329345703125</ele>
        <time>2021-05-28T14:21:53Z</time>
      </trkpt>
      <trkpt lat="30.523621775101244" lon="114.39267386187265">
        <ele>21.7984619140625</ele>
        <time>2021-05-28T14:21:59Z</time>
      </trkpt>
      <trkpt lat="30.52357543197428" lon="114.39251675925615">
        <ele>21.6258544921875</ele>
        <time>2021-05-28T14:22:05Z</time>
      </trkpt>
      <trkpt lat="30.523459397643595" lon="114.39235260912679">
        <ele>21.19134521484375</ele>
        <time>2021-05-28T14:22:11Z</time>
      </trkpt>
      <trkpt lat="30.523372630130677" lon="114.39229862047547">
        <ele>22.2247314453125</ele>
        <time>2021-05-28T14:22:14Z</time>
      </trkpt>
      <trkpt lat="30.52327744815274" lon="114.39228479058606">
        <ele>22.2569580078125</ele>
        <time>2021-05-28T14:22:17Z</time>
      </trkpt>
      <trkpt lat="30.523201514176318" lon="114.3923008061314">
        <ele>21.90008544921875</ele>
        <time>2021-05-28T14:22:20Z</time>
      </trkpt>
      <trkpt lat="30.52312043624658" lon="114.39227367948148">
        <ele>21.29083251953125</ele>
        <time>2021-05-28T14:22:23Z</time>
      </trkpt>
      <trkpt lat="30.5230713462363" lon="114.39230488757163">
        <ele>20.657470703125</ele>
        <time>2021-05-28T14:22:26Z</time>
      </trkpt>
      <trkpt lat="30.52300626074345" lon="114.39231466141572">
        <ele>19.44219970703125</ele>
        <time>2021-05-28T14:22:29Z</time>
      </trkpt>
      <trkpt lat="30.522759494294572" lon="114.3922699123075">
        <ele>19.2286376953125</ele>
        <time>2021-05-28T14:22:35Z</time>
      </trkpt>
      <trkpt lat="30.522669457485346" lon="114.39229271250846">
        <ele>21.3341064453125</ele>
        <time>2021-05-28T14:22:38Z</time>
      </trkpt>
      <trkpt lat="30.522546617326" lon="114.39226667486734">
        <ele>21.2918701171875</ele>
        <time>2021-05-28T14:22:41Z</time>
      </trkpt>
      <trkpt lat="30.522413464526107" lon="114.39227971068915">
        <ele>22.21240234375</ele>
        <time>2021-05-28T14:22:44Z</time>
      </trkpt>
      <trkpt lat="30.522230398643554" lon="114.39237279557825">
        <ele>18.75250244140625</ele>
        <time>2021-05-28T14:22:50Z</time>
      </trkpt>
      <trkpt lat="30.522084736330314" lon="114.39257197170868">
        <ele>18.036865234375</ele>
        <time>2021-05-28T14:22:56Z</time>
      </trkpt>
      <trkpt lat="30.52209445103184" lon="114.39283897220899">
        <ele>20.49969482421875</ele>
        <time>2021-05-28T14:23:02Z</time>
      </trkpt>
      <trkpt lat="30.522132394306077" lon="114.39296894335743">
        <ele>20.41375732421875</ele>
        <time>2021-05-28T14:23:05Z</time>
      </trkpt>
      <trkpt lat="30.522197461836697" lon="114.39306607987098">
        <ele>21.89447021484375</ele>
        <time>2021-05-28T14:23:08Z</time>
      </trkpt>
      <trkpt lat="30.522335748371162" lon="114.39316619527972">
        <ele>21.57147216796875</ele>
        <time>2021-05-28T14:23:14Z</time>
      </trkpt>
      <trkpt lat="30.52252774378499" lon="114.39317404761906">
        <ele>21.1417236328125</ele>
        <time>2021-05-28T14:23:20Z</time>
      </trkpt>
      <trkpt lat="30.5226766234808" lon="114.3931680649306">
        <ele>22.08544921875</ele>
        <time>2021-05-28T14:23:26Z</time>
      </trkpt>
      <trkpt lat="30.522724628410675" lon="114.39313197136211">
        <ele>19.95562744140625</ele>
        <time>2021-05-28T14:23:29Z</time>
      </trkpt>
      <trkpt lat="30.522807605341786" lon="114.39316099841277">
        <ele>20.7589111328125</ele>
        <time>2021-05-28T14:23:32Z</time>
      </trkpt>
      <trkpt lat="30.523020756163124" lon="114.39314795504484">
        <ele>19.3402099609375</ele>
        <time>2021-05-28T14:23:41Z</time>
      </trkpt>
      <trkpt lat="30.52319973006226" lon="114.39318511420024">
        <ele>19.513671875</ele>
        <time>2021-05-28T14:23:47Z</time>
      </trkpt>
      <trkpt lat="30.523332612538912" lon="114.39316285196962">
        <ele>20.17108154296875</ele>
        <time>2021-05-28T14:23:53Z</time>
      </trkpt>
      <trkpt lat="30.52350970951084" lon="114.39306705057331">
        <ele>20.7642822265625</ele>
        <time>2021-05-28T14:23:59Z</time>
      </trkpt>
      <trkpt lat="30.523570735267995" lon="114.39300680616452">
        <ele>21.44537353515625</ele>
        <time>2021-05-28T14:24:02Z</time>
      </trkpt>
      <trkpt lat="30.523607634978223" lon="114.39289392298315">
        <ele>20.327392578125</ele>
        <time>2021-05-28T14:24:05Z</time>
      </trkpt>
      <trkpt lat="30.52361255532524" lon="114.39267169193921">
        <ele>21.1746826171875</ele>
        <time>2021-05-28T14:24:11Z</time>
      </trkpt>
      <trkpt lat="30.52356350335266" lon="114.39249885184238">
        <ele>21.63580322265625</ele>
        <time>2021-05-28T14:24:17Z</time>
      </trkpt>
      <trkpt lat="30.52343337280782" lon="114.39230865465682">
        <ele>18.12109375</ele>
        <time>2021-05-28T14:24:26Z</time>
      </trkpt>
      <trkpt lat="30.523180368762635" lon="114.39226661947774">
        <ele>20.63983154296875</ele>
        <time>2021-05-28T14:24:35Z</time>
      </trkpt>
      <trkpt lat="30.523048304531525" lon="114.39226066160504">
        <ele>21.17645263671875</ele>
        <time>2021-05-28T14:24:41Z</time>
      </trkpt>
      <trkpt lat="30.522971283011014" lon="114.39229078676715">
        <ele>20.713134765625</ele>
        <time>2021-05-28T14:24:44Z</time>
      </trkpt>
      <trkpt lat="30.5228213217765" lon="114.39227967504297">
        <ele>18.21881103515625</ele>
        <time>2021-05-28T14:24:50Z</time>
      </trkpt>
      <trkpt lat="30.522656441513526" lon="114.39228891492232">
        <ele>21.65087890625</ele>
        <time>2021-05-28T14:24:56Z</time>
      </trkpt>
      <trkpt lat="30.522577533222417" lon="114.39226070275016">
        <ele>20.66131591796875</ele>
        <time>2021-05-28T14:24:59Z</time>
      </trkpt>
      <trkpt lat="30.522495630983144" lon="114.39228784362743">
        <ele>20.2042236328125</ele>
        <time>2021-05-28T14:25:02Z</time>
      </trkpt>
      <trkpt lat="30.522436513581447" lon="114.39228676344473">
        <ele>20.72711181640625</ele>
        <time>2021-05-28T14:25:05Z</time>
      </trkpt>
      <trkpt lat="30.522297388877007" lon="114.39232991828808">
        <ele>12.85028076171875</ele>
        <time>2021-05-28T14:25:11Z</time>
      </trkpt>
      <trkpt lat="30.52222524424928" lon="114.39238283555488">
        <ele>13.34130859375</ele>
        <time>2021-05-28T14:25:14Z</time>
      </trkpt>
      <trkpt lat="30.522171537205317" lon="114.39245094635173">
        <ele>15.5345458984375</ele>
        <time>2021-05-28T14:25:17Z</time>
      </trkpt>
      <trkpt lat="30.522105607804207" lon="114.39262379609676">
        <ele>17.97607421875</ele>
        <time>2021-05-28T14:25:23Z</time>
      </trkpt>
      <trkpt lat="30.522094473599" lon="114.39271089795933">
        <ele>18.128662109375</ele>
        <time>2021-05-28T14:25:26Z</time>
      </trkpt>
      <trkpt lat="30.522109625685587" lon="114.39290599310382">
        <ele>21.8294677734375</ele>
        <time>2021-05-28T14:25:32Z</time>
      </trkpt>
      <trkpt lat="30.52214757495443" lon="114.3930020463046">
        <ele>23.41070556640625</ele>
        <time>2021-05-28T14:25:35Z</time>
      </trkpt>
      <trkpt lat="30.5222736558004" lon="114.39311600122436">
        <ele>23.0819091796875</ele>
        <time>2021-05-28T14:25:41Z</time>
      </trkpt>
      <trkpt lat="30.522471608695763" lon="114.39317703736411">
        <ele>25.292236328125</ele>
        <time>2021-05-28T14:25:47Z</time>
      </trkpt>
      <trkpt lat="30.52258252171203" lon="114.39317892711394">
        <ele>23.9647216796875</ele>
        <time>2021-05-28T14:25:50Z</time>
      </trkpt>
      <trkpt lat="30.522630524197737" lon="114.39315802905249">
        <ele>22.34124755859375</ele>
        <time>2021-05-28T14:25:53Z</time>
      </trkpt>
      <trkpt lat="30.522900619339264" lon="114.39316913074957">
        <ele>24.59698486328125</ele>
        <time>2021-05-28T14:26:02Z</time>
      </trkpt>
      <trkpt lat="30.523081770886556" lon="114.39315500477815">
        <ele>22.3623046875</ele>
        <time>2021-05-28T14:26:08Z</time>
      </trkpt>
      <trkpt lat="30.52327159493024" lon="114.39317398260792">
        <ele>20.90765380859375</ele>
        <time>2021-05-28T14:26:14Z</time>
      </trkpt>
      <trkpt lat="30.523439744385815" lon="114.39306895612144">
        <ele>23.00311279296875</ele>
        <time>2021-05-28T14:26:20Z</time>
      </trkpt>
      <trkpt lat="30.52357671350671" lon="114.39293381348448">
        <ele>20.8939208984375</ele>
        <time>2021-05-28T14:26:26Z</time>
      </trkpt>
      <trkpt lat="30.52361252090168" lon="114.39286678804311">
        <ele>20.39715576171875</ele>
        <time>2021-05-28T14:26:29Z</time>
      </trkpt>
      <trkpt lat="30.523624753067597" lon="114.39270180990079">
        <ele>21.00714111328125</ele>
        <time>2021-05-28T14:26:35Z</time>
      </trkpt>
      <trkpt lat="30.523596311268314" lon="114.39252571166526">
        <ele>21.01690673828125</ele>
        <time>2021-05-28T14:26:41Z</time>
      </trkpt>
      <trkpt lat="30.52346346689601" lon="114.39234473996433">
        <ele>20.8187255859375</ele>
        <time>2021-05-28T14:26:50Z</time>
      </trkpt>
      <trkpt lat="30.523291548627963" lon="114.39228967342618">
        <ele>18.49237060546875</ele>
        <time>2021-05-28T14:26:56Z</time>
      </trkpt>
      <trkpt lat="30.52314945031401" lon="114.39228561578518">
        <ele>19.44573974609375</ele>
        <time>2021-05-28T14:27:02Z</time>
      </trkpt>
      <trkpt lat="30.523055355037027" lon="114.39226174633691">
        <ele>19.3634033203125</ele>
        <time>2021-05-28T14:27:05Z</time>
      </trkpt>
      <trkpt lat="30.52277332557913" lon="114.39226475569374">
        <ele>21.03753662109375</ele>
        <time>2021-05-28T14:27:14Z</time>
      </trkpt>
      <trkpt lat="30.522600579104164" lon="114.39228376439499">
        <ele>19.54095458984375</ele>
        <time>2021-05-28T14:27:20Z</time>
      </trkpt>
      <trkpt lat="30.522404519448678" lon="114.39225990386025">
        <ele>21.33563232421875</ele>
        <time>2021-05-28T14:27:26Z</time>
      </trkpt>
      <trkpt lat="30.522306346128033" lon="114.39228786017053">
        <ele>19.15594482421875</ele>
        <time>2021-05-28T14:27:29Z</time>
      </trkpt>
      <trkpt lat="30.522225253570454" lon="114.39233480867563">
        <ele>17.20703125</ele>
        <time>2021-05-28T14:27:32Z</time>
      </trkpt>
      <trkpt lat="30.522167204042336" lon="114.39242082806766">
        <ele>19.7589111328125</ele>
        <time>2021-05-28T14:27:35Z</time>
      </trkpt>
      <trkpt lat="30.52208364262202" lon="114.39262081325722">
        <ele>20.99169921875</ele>
        <time>2021-05-28T14:27:41Z</time>
      </trkpt>
      <trkpt lat="30.522078451492412" lon="114.39283788822898">
        <ele>21.47607421875</ele>
        <time>2021-05-28T14:27:47Z</time>
      </trkpt>
      <trkpt lat="30.52211965278114" lon="114.39294506601122">
        <ele>22.62408447265625</ele>
        <time>2021-05-28T14:27:50Z</time>
      </trkpt>
      <trkpt lat="30.522186620006583" lon="114.39303297644202">
        <ele>24.11773681640625</ele>
        <time>2021-05-28T14:27:53Z</time>
      </trkpt>
      <trkpt lat="30.522370729737347" lon="114.39317297594562">
        <ele>23.8154296875</ele>
        <time>2021-05-28T14:27:59Z</time>
      </trkpt>
      <trkpt lat="30.52248977563333" lon="114.39319114593046">
        <ele>22.91107177734375</ele>
        <time>2021-05-28T14:28:02Z</time>
      </trkpt>
      <trkpt lat="30.52281763906208" lon="114.39316099753584">
        <ele>20.488037109375</ele>
        <time>2021-05-28T14:28:14Z</time>
      </trkpt>
      <trkpt lat="30.523142784008936" lon="114.39317209442308">
        <ele>19.66534423828125</ele>
        <time>2021-05-28T14:28:26Z</time>
      </trkpt>
      <trkpt lat="30.52322359883078" lon="114.39315499238253">
        <ele>19.0980224609375</ele>
        <time>2021-05-28T14:28:29Z</time>
      </trkpt>
      <trkpt lat="30.523314711840207" lon="114.39317994851805">
        <ele>18.3948974609375</ele>
        <time>2021-05-28T14:28:32Z</time>
      </trkpt>
      <trkpt lat="30.523408543656036" lon="114.39316094589147">
        <ele>19.7569580078125</ele>
        <time>2021-05-28T14:28:35Z</time>
      </trkpt>
      <trkpt lat="30.523514583976972" lon="114.39310883771695">
        <ele>18.072509765625</ele>
        <time>2021-05-28T14:28:38Z</time>
      </trkpt>
      <trkpt lat="30.52358862959895" lon="114.3930287837022">
        <ele>18.45159912109375</ele>
        <time>2021-05-28T14:28:41Z</time>
      </trkpt>
      <trkpt lat="30.523634479204595" lon="114.3929099300163">
        <ele>20.63592529296875</ele>
        <time>2021-05-28T14:28:44Z</time>
      </trkpt>
      <trkpt lat="30.523645616817205" lon="114.39279894902364">
        <ele>17.9835205078125</ele>
        <time>2021-05-28T14:28:47Z</time>
      </trkpt>
      <trkpt lat="30.52363371037269" lon="114.39265568089515">
        <ele>17.3514404296875</ele>
        <time>2021-05-28T14:28:50Z</time>
      </trkpt>
      <trkpt lat="30.52357434816388" lon="114.39251187522488">
        <ele>16.64410400390625</ele>
        <time>2021-05-28T14:28:56Z</time>
      </trkpt>
      <trkpt lat="30.52351036469968" lon="114.39243075022587">
        <ele>15.95916748046875</ele>
        <time>2021-05-28T14:28:59Z</time>
      </trkpt>
      <trkpt lat="30.52336448428802" lon="114.39235180340772">
        <ele>16.765869140625</ele>
        <time>2021-05-28T14:29:05Z</time>
      </trkpt>
      <trkpt lat="30.523177379233694" lon="114.39229972289068">
        <ele>17.6021728515625</ele>
        <time>2021-05-28T14:29:11Z</time>
      </trkpt>
      <trkpt lat="30.522993249093567" lon="114.39228888548554">
        <ele>18.1651611328125</ele>
        <time>2021-05-28T14:29:17Z</time>
      </trkpt>
      <trkpt lat="30.522927348231683" lon="114.39230788487077">
        <ele>18.266845703125</ele>
        <time>2021-05-28T14:29:20Z</time>
      </trkpt>
      <trkpt lat="30.522766544265856" lon="114.39227371041157">
        <ele>17.1629638671875</ele>
        <time>2021-05-28T14:29:26Z</time>
      </trkpt>
      <trkpt lat="30.522491568191665" lon="114.39226288095959">
        <ele>19.576904296875</ele>
        <time>2021-05-28T14:29:35Z</time>
      </trkpt>
      <trkpt lat="30.52243543438183" lon="114.39225881581035">
        <ele>17.9029541015625</ele>
        <time>2021-05-28T14:29:38Z</time>
      </trkpt>
      <trkpt lat="30.52226132249644" lon="114.39232585137182">
        <ele>17.738525390625</ele>
        <time>2021-05-28T14:29:47Z</time>
      </trkpt>
      <trkpt lat="30.522203280622012" lon="114.39237198393288">
        <ele>19.41192626953125</ele>
        <time>2021-05-28T14:29:50Z</time>
      </trkpt>
      <trkpt lat="30.522116467217064" lon="114.39255785920386">
        <ele>19.9835205078125</ele>
        <time>2021-05-28T14:29:56Z</time>
      </trkpt>
      <trkpt lat="30.522067641209237" lon="114.3926300402764">
        <ele>19.739990234375</ele>
        <time>2021-05-28T14:29:59Z</time>
      </trkpt>
      <trkpt lat="30.522067608895394" lon="114.39281102608153">
        <ele>19.126220703125</ele>
        <time>2021-05-28T14:30:05Z</time>
      </trkpt>
      <trkpt lat="30.522081424629786" lon="114.39289514175275">
        <ele>18.9544677734375</ele>
        <time>2021-05-28T14:30:08Z</time>
      </trkpt>
      <trkpt lat="30.522157602390045" lon="114.39304003400464">
        <ele>22.4927978515625</ele>
        <time>2021-05-28T14:30:14Z</time>
      </trkpt>
      <trkpt lat="30.52235174809477" lon="114.3931661938814">
        <ele>22.1014404296875</ele>
        <time>2021-05-28T14:30:23Z</time>
      </trkpt>
      <trkpt lat="30.52254075607936" lon="114.39320199544616">
        <ele>22.188232421875</ele>
        <time>2021-05-28T14:30:32Z</time>
      </trkpt>
      <trkpt lat="30.522895727665087" lon="114.39323506907009">
        <ele>21.3834228515625</ele>
        <time>2021-05-28T14:30:44Z</time>
      </trkpt>
      <trkpt lat="30.52318481413263" lon="114.39319108518562">
        <ele>22.9793701171875</ele>
        <time>2021-05-28T14:30:56Z</time>
      </trkpt>
      <trkpt lat="30.52326968954076" lon="114.3932190267551">
        <ele>21.94024658203125</ele>
        <time>2021-05-28T14:30:59Z</time>
      </trkpt>
      <trkpt lat="30.523476605759193" lon="114.3931888888896">
        <ele>21.2979736328125</ele>
        <time>2021-05-28T14:31:05Z</time>
      </trkpt>
      <trkpt lat="30.523603557898717" lon="114.3929490065104">
        <ele>23.47955322265625</ele>
        <time>2021-05-28T14:31:14Z</time>
      </trkpt>
      <trkpt lat="30.523633674080735" lon="114.3928608166062">
        <ele>23.40838623046875</ele>
        <time>2021-05-28T14:31:17Z</time>
      </trkpt>
      <trkpt lat="30.52364670755679" lon="114.39276475960469">
        <ele>22.40704345703125</ele>
        <time>2021-05-28T14:31:20Z</time>
      </trkpt>
      <trkpt lat="30.52367275091191" lon="114.39270886061941">
        <ele>21.58892822265625</ele>
        <time>2021-05-28T14:31:23Z</time>
      </trkpt>
      <trkpt lat="30.523608515751764" lon="114.39251865574722">
        <ele>20.6893310546875</ele>
        <time>2021-05-28T14:31:29Z</time>
      </trkpt>
      <trkpt lat="30.52349247788696" lon="114.3923726852733">
        <ele>18.46734619140625</ele>
        <time>2021-05-28T14:31:35Z</time>
      </trkpt>
      <trkpt lat="30.523381574754374" lon="114.39232086938154">
        <ele>19.49688720703125</ele>
        <time>2021-05-28T14:31:41Z</time>
      </trkpt>
      <trkpt lat="30.5230434187014" lon="114.39228372569109">
        <ele>18.24957275390625</ele>
        <time>2021-05-28T14:31:53Z</time>
      </trkpt>
      <trkpt lat="30.522743488903362" lon="114.39229867546256">
        <ele>18.04412841796875</ele>
        <time>2021-05-28T14:32:02Z</time>
      </trkpt>
      <trkpt lat="30.52241156684354" lon="114.39227672614534">
        <ele>19.9404296875</ele>
        <time>2021-05-28T14:32:11Z</time>
      </trkpt>
      <trkpt lat="30.522286271431966" lon="114.39232476383992">
        <ele>17.863525390625</ele>
        <time>2021-05-28T14:32:17Z</time>
      </trkpt>
      <trkpt lat="30.52218157170616" lon="114.39244687538263">
        <ele>16.99566650390625</ele>
        <time>2021-05-28T14:32:23Z</time>
      </trkpt>
      <trkpt lat="30.522083644062032" lon="114.39261294434856">
        <ele>18.15191650390625</ele>
        <time>2021-05-28T14:32:29Z</time>
      </trkpt>
      <trkpt lat="30.52209148861068" lon="114.39272202328233">
        <ele>18.16082763671875</ele>
        <time>2021-05-28T14:32:32Z</time>
      </trkpt>
      <trkpt lat="30.522189608947343" lon="114.39299715839056">
        <ele>21.22698974609375</ele>
        <time>2021-05-28T14:32:41Z</time>
      </trkpt>
      <trkpt lat="30.522295621173416" lon="114.39311817009057">
        <ele>20.829345703125</ele>
        <time>2021-05-28T14:32:47Z</time>
      </trkpt>
      <trkpt lat="30.522450725465372" lon="114.3931911493433">
        <ele>18.77520751953125</ele>
        <time>2021-05-28T14:32:56Z</time>
      </trkpt>
      <trkpt lat="30.52268962695554" lon="114.39325218212646">
        <ele>19.3831787109375</ele>
        <time>2021-05-28T14:33:05Z</time>
      </trkpt>
      <trkpt lat="30.522831725081865" lon="114.39325895345888">
        <ele>23.2642822265625</ele>
        <time>2021-05-28T14:33:11Z</time>
      </trkpt>
      <trkpt lat="30.522899796791243" lon="114.39322611417343">
        <ele>22.958251953125</ele>
        <time>2021-05-28T14:33:14Z</time>
      </trkpt>
      <trkpt lat="30.523179659326193" lon="114.39320600984807">
        <ele>27.5455322265625</ele>
        <time>2021-05-28T14:33:29Z</time>
      </trkpt>
      <trkpt lat="30.523253689363127" lon="114.39322201299906">
        <ele>25.23797607421875</ele>
        <time>2021-05-28T14:33:32Z</time>
      </trkpt>
      <trkpt lat="30.523418574648662" lon="114.39317803999711">
        <ele>22.056884765625</ele>
        <time>2021-05-28T14:33:38Z</time>
      </trkpt>
      <trkpt lat="30.523482582287492" lon="114.39312295062147">
        <ele>21.95391845703125</ele>
        <time>2021-05-28T14:33:41Z</time>
      </trkpt>
      <trkpt lat="30.52353954343301" lon="114.39304289804525">
        <ele>20.2799072265625</ele>
        <time>2021-05-28T14:33:44Z</time>
      </trkpt>
      <trkpt lat="30.523628541043426" lon="114.39274983729908">
        <ele>20.024169921875</ele>
        <time>2021-05-28T14:33:53Z</time>
      </trkpt>
      <trkpt lat="30.52364240338161" lon="114.39257264959332">
        <ele>22.99951171875</ele>
        <time>2021-05-28T14:33:59Z</time>
      </trkpt>
      <trkpt lat="30.523477574959323" lon="114.39231082149473">
        <ele>24.509521484375</ele>
        <time>2021-05-28T14:34:11Z</time>
      </trkpt>
      <trkpt lat="30.52336341584927" lon="114.39226877417609">
        <ele>23.11480712890625</ele>
        <time>2021-05-28T14:34:17Z</time>
      </trkpt>
      <trkpt lat="30.523092232346507" lon="114.39227883735364">
        <ele>20.332275390625</ele>
        <time>2021-05-28T14:34:26Z</time>
      </trkpt>
      <trkpt lat="30.523015488392556" lon="114.39227667336318">
        <ele>20.0146484375</ele>
        <time>2021-05-28T14:34:29Z</time>
      </trkpt>
      <trkpt lat="30.52292247961886" lon="114.39224384971409">
        <ele>19.453369140625</ele>
        <time>2021-05-28T14:34:35Z</time>
      </trkpt>
      <trkpt lat="30.52282756249725" lon="114.39226176624594">
        <ele>20.46685791015625</ele>
        <time>2021-05-28T14:34:38Z</time>
      </trkpt>
      <trkpt lat="30.522499438829243" lon="114.39223086252542">
        <ele>18.0889892578125</ele>
        <time>2021-05-28T14:34:50Z</time>
      </trkpt>
      <trkpt lat="30.522328313832084" lon="114.39227781877038">
        <ele>18.64764404296875</ele>
        <time>2021-05-28T14:34:56Z</time>
      </trkpt>
      <trkpt lat="30.522210338360246" lon="114.39233589533113">
        <ele>19.96514892578125</ele>
        <time>2021-05-28T14:34:59Z</time>
      </trkpt>
      <trkpt lat="30.522100749670525" lon="114.3924989796857">
        <ele>18.8282470703125</ele>
        <time>2021-05-28T14:35:05Z</time>
      </trkpt>
      <trkpt lat="30.5220497361618" lon="114.39266884376157">
        <ele>21.25579833984375</ele>
        <time>2021-05-28T14:35:11Z</time>
      </trkpt>
      <trkpt lat="30.522062452942365" lon="114.39283110601404">
        <ele>19.4945068359375</ele>
        <time>2021-05-28T14:35:17Z</time>
      </trkpt>
      <trkpt lat="30.522108532633226" lon="114.39295510678666">
        <ele>21.328857421875</ele>
        <time>2021-05-28T14:35:23Z</time>
      </trkpt>
      <trkpt lat="30.522207766434075" lon="114.39306797840345">
        <ele>22.13250732421875</ele>
        <time>2021-05-28T14:35:29Z</time>
      </trkpt>
      <trkpt lat="30.522395678587422" lon="114.39317215971829">
        <ele>20.9603271484375</ele>
        <time>2021-05-28T14:35:38Z</time>
      </trkpt>
      <trkpt lat="30.52248353927042" lon="114.39318599084116">
        <ele>19.94488525390625</ele>
        <time>2021-05-28T14:35:41Z</time>
      </trkpt>
      <trkpt lat="30.522574660597066" lon="114.39315911932992">
        <ele>21.25439453125</ele>
        <time>2021-05-28T14:35:44Z</time>
      </trkpt>
      <trkpt lat="30.522651671577734" lon="114.39318814694018">
        <ele>20.48089599609375</ele>
        <time>2021-05-28T14:35:47Z</time>
      </trkpt>
      <trkpt lat="30.52292773482682" lon="114.39318595201965">
        <ele>19.10113525390625</ele>
        <time>2021-05-28T14:35:59Z</time>
      </trkpt>
      <trkpt lat="30.522978713620986" lon="114.3932071128081">
        <ele>18.36395263671875</ele>
        <time>2021-05-28T14:36:02Z</time>
      </trkpt>
      <trkpt lat="30.52313572855927" lon="114.3932019434469">
        <ele>20.4381103515625</ele>
        <time>2021-05-28T14:36:08Z</time>
      </trkpt>
      <trkpt lat="30.523182647090497" lon="114.39317588982487">
        <ele>20.4478759765625</ele>
        <time>2021-05-28T14:36:11Z</time>
      </trkpt>
      <trkpt lat="30.523301693236014" lon="114.39319188901813">
        <ele>19.729736328125</ele>
        <time>2021-05-28T14:36:14Z</time>
      </trkpt>
      <trkpt lat="30.52350563657224" lon="114.39309906996861">
        <ele>19.88201904296875</ele>
        <time>2021-05-28T14:36:23Z</time>
      </trkpt>
      <trkpt lat="30.523549573848275" lon="114.39306297687584">
        <ele>18.21514892578125</ele>
        <time>2021-05-28T14:36:26Z</time>
      </trkpt>
      <trkpt lat="30.52364071725598" lon="114.39290477390689">
        <ele>19.429931640625</ele>
        <time>2021-05-28T14:36:32Z</time>
      </trkpt>
      <trkpt lat="30.523637782089533" lon="114.392633701834">
        <ele>19.50067138671875</ele>
        <time>2021-05-28T14:36:41Z</time>
      </trkpt>
      <trkpt lat="30.523580327025236" lon="114.39244376839862">
        <ele>21.67901611328125</ele>
        <time>2021-05-28T14:36:47Z</time>
      </trkpt>
      <trkpt lat="30.52342848978612" lon="114.39231760922772">
        <ele>23.1243896484375</ele>
        <time>2021-05-28T14:36:53Z</time>
      </trkpt>
      <trkpt lat="30.523360429903743" lon="114.39228369798407">
        <ele>20.97784423828125</ele>
        <time>2021-05-28T14:36:56Z</time>
      </trkpt>
      <trkpt lat="30.52313535515657" lon="114.39225387057255">
        <ele>18.60418701171875</ele>
        <time>2021-05-28T14:37:05Z</time>
      </trkpt>
      <trkpt lat="30.523055352244153" lon="114.39227585586742">
        <ele>19.28729248046875</ele>
        <time>2021-05-28T14:37:08Z</time>
      </trkpt>
      <trkpt lat="30.522899426432716" lon="114.39225768991004">
        <ele>19.926025390625</ele>
        <time>2021-05-28T14:37:14Z</time>
      </trkpt>
      <trkpt lat="30.52277955819895" lon="114.39228781881255">
        <ele>18.59259033203125</ele>
        <time>2021-05-28T14:37:20Z</time>
      </trkpt>
      <trkpt lat="30.52257563237162" lon="114.39227372709706">
        <ele>17.09246826171875</ele>
        <time>2021-05-28T14:37:29Z</time>
      </trkpt>
      <trkpt lat="30.522482621779986" lon="114.39224985756756">
        <ele>18.37164306640625</ele>
        <time>2021-05-28T14:37:32Z</time>
      </trkpt>
      <trkpt lat="30.52229034581551" lon="114.39229084628018">
        <ele>21.45166015625</ele>
        <time>2021-05-28T14:37:38Z</time>
      </trkpt>
      <trkpt lat="30.522179412015298" lon="114.39239586381787">
        <ele>21.27264404296875</ele>
        <time>2021-05-28T14:37:44Z</time>
      </trkpt>
      <trkpt lat="30.522097491010282" lon="114.39252285791568">
        <ele>21.99554443359375</ele>
        <time>2021-05-28T14:37:50Z</time>
      </trkpt>
      <trkpt lat="30.522066556679945" lon="114.39262895500383">
        <ele>21.7833251953125</ele>
        <time>2021-05-28T14:37:53Z</time>
      </trkpt>
      <trkpt lat="30.522059482789828" lon="114.39275784339328">
        <ele>20.29742431640625</ele>
        <time>2021-05-28T14:37:59Z</time>
      </trkpt>
      <trkpt lat="30.522132393122945" lon="114.39297599836227">
        <ele>25.43060302734375</ele>
        <time>2021-05-28T14:38:08Z</time>
      </trkpt>
      <trkpt lat="30.522243826287003" lon="114.3931130190011">
        <ele>22.07275390625</ele>
        <time>2021-05-28T14:38:14Z</time>
      </trkpt>
      <trkpt lat="30.522446653162145" lon="114.39322018408502">
        <ele>21.760009765625</ele>
        <time>2021-05-28T14:38:20Z</time>
      </trkpt>
      <trkpt lat="30.522622649790186" lon="114.39322206815072">
        <ele>21.572509765625</ele>
        <time>2021-05-28T14:38:26Z</time>
      </trkpt>
      <trkpt lat="30.522811669870666" lon="114.3931810778795">
        <ele>22.8492431640625</ele>
        <time>2021-05-28T14:38:32Z</time>
      </trkpt>
      <trkpt lat="30.522924747885845" lon="114.39321091641683">
        <ele>21.84564208984375</ele>
        <time>2021-05-28T14:38:35Z</time>
      </trkpt>
      <trkpt lat="30.522986842816884" lon="114.3932470005009">
        <ele>22.47296142578125</ele>
        <time>2021-05-28T14:38:38Z</time>
      </trkpt>
      <trkpt lat="30.523127587912352" lon="114.39323504880589">
        <ele>22.5220947265625</ele>
        <time>2021-05-28T14:38:44Z</time>
      </trkpt>
      <trkpt lat="30.52323578684467" lon="114.3932510489931">
        <ele>17.38116455078125</ele>
        <time>2021-05-28T14:38:50Z</time>
      </trkpt>
      <trkpt lat="30.523452741791285" lon="114.39318889097531">
        <ele>15.583251953125</ele>
        <time>2021-05-28T14:38:59Z</time>
      </trkpt>
      <trkpt lat="30.523511594995195" lon="114.3931460127054">
        <ele>16.501708984375</ele>
        <time>2021-05-28T14:39:02Z</time>
      </trkpt>
      <trkpt lat="30.523574522228532" lon="114.39306487412811">
        <ele>13.6146240234375</ele>
        <time>2021-05-28T14:39:08Z</time>
      </trkpt>
      <trkpt lat="30.523636654133597" lon="114.39287791107986">
        <ele>15.09771728515625</ele>
        <time>2021-05-28T14:39:14Z</time>
      </trkpt>
      <trkpt lat="30.52363128138982" lon="114.39259191579224">
        <ele>15.53656005859375</ele>
        <time>2021-05-28T14:39:23Z</time>
      </trkpt>
      <trkpt lat="30.523616381690868" lon="114.39250970082878">
        <ele>17.88720703125</ele>
        <time>2021-05-28T14:39:26Z</time>
      </trkpt>
      <trkpt lat="30.523562440390727" lon="114.39238461805499">
        <ele>18.82025146484375</ele>
        <time>2021-05-28T14:39:29Z</time>
      </trkpt>
      <trkpt lat="30.52348950832785" lon="114.3923037656735">
        <ele>19.7838134765625</ele>
        <time>2021-05-28T14:39:32Z</time>
      </trkpt>
      <trkpt lat="30.523285592742347" lon="114.39223866257939">
        <ele>20.09283447265625</ele>
        <time>2021-05-28T14:39:38Z</time>
      </trkpt>
      <trkpt lat="30.52294743233037" lon="114.39222376862016">
        <ele>16.2567138671875</ele>
        <time>2021-05-28T14:39:47Z</time>
      </trkpt>
      <trkpt lat="30.522879357971288" lon="114.39226284706719">
        <ele>18.03851318359375</ele>
        <time>2021-05-28T14:39:50Z</time>
      </trkpt>
      <trkpt lat="30.522786344073463" lon="114.39225580043464">
        <ele>18.68157958984375</ele>
        <time>2021-05-28T14:39:53Z</time>
      </trkpt>
      <trkpt lat="30.522722342623457" lon="114.39226883020602">
        <ele>18.58612060546875</ele>
        <time>2021-05-28T14:39:56Z</time>
      </trkpt>
      <trkpt lat="30.52261658537838" lon="114.39225065986997">
        <ele>15.49249267578125</ele>
        <time>2021-05-28T14:40:02Z</time>
      </trkpt>
      <trkpt lat="30.522393400405527" lon="114.39226288953927">
        <ele>18.0718994140625</ele>
        <time>2021-05-28T14:40:11Z</time>
      </trkpt>
      <trkpt lat="30.522241255044626" lon="114.39232585312566">
        <ele>17.6923828125</ele>
        <time>2021-05-28T14:40:17Z</time>
      </trkpt>
      <trkpt lat="30.522135470799093" lon="114.3924468794117">
        <ele>18.043701171875</ele>
        <time>2021-05-28T14:40:23Z</time>
      </trkpt>
      <trkpt lat="30.522083658507228" lon="114.39253479810749">
        <ele>19.68170166015625</ele>
        <time>2021-05-28T14:40:26Z</time>
      </trkpt>
      <trkpt lat="30.52205052481914" lon="114.39280885682096">
        <ele>19.6661376953125</ele>
        <time>2021-05-28T14:40:32Z</time>
      </trkpt>
      <trkpt lat="30.522082499543973" lon="114.39295293829308">
        <ele>20.84722900390625</ele>
        <time>2021-05-28T14:40:35Z</time>
      </trkpt>
      <trkpt lat="30.52212858575751" lon="114.39304112192949">
        <ele>21.4058837890625</ele>
        <time>2021-05-28T14:40:38Z</time>
      </trkpt>
      <trkpt lat="30.522270674908246" lon="114.39310297677434">
        <ele>21.775634765625</ele>
        <time>2021-05-28T14:40:41Z</time>
      </trkpt>
      <trkpt lat="30.52239269321867" lon="114.39318708417737">
        <ele>20.547119140625</ele>
        <time>2021-05-28T14:40:44Z</time>
      </trkpt>
      <trkpt lat="30.52267065623213" lon="114.39317593457191">
        <ele>18.87188720703125</ele>
        <time>2021-05-28T14:40:50Z</time>
      </trkpt>
      <trkpt lat="30.52289274828579" lon="114.39321200461146">
        <ele>19.55523681640625</ele>
        <time>2021-05-28T14:40:56Z</time>
      </trkpt>
      <trkpt lat="30.52316664561461" lon="114.39318701653579">
        <ele>20.4925537109375</ele>
        <time>2021-05-28T14:41:05Z</time>
      </trkpt>
      <trkpt lat="30.523375728623" lon="114.39317397350668">
        <ele>19.38336181640625</ele>
        <time>2021-05-28T14:41:14Z</time>
      </trkpt>
      <trkpt lat="30.523558524660416" lon="114.39305185084791">
        <ele>19.44403076171875</ele>
        <time>2021-05-28T14:41:23Z</time>
      </trkpt>
      <trkpt lat="30.523606541260612" lon="114.39294683548152">
        <ele>21.51348876953125</ele>
        <time>2021-05-28T14:41:26Z</time>
      </trkpt>
      <trkpt lat="30.52364968192889" lon="114.39281387259717">
        <ele>19.67919921875</ele>
        <time>2021-05-28T14:41:32Z</time>
      </trkpt>
      <trkpt lat="30.523618265431654" lon="114.39258784681002">
        <ele>21.4677734375</ele>
        <time>2021-05-28T14:41:41Z</time>
      </trkpt>
      <trkpt lat="30.52355944491947" lon="114.39244973969163">
        <ele>23.21234130859375</ele>
        <time>2021-05-28T14:41:47Z</time>
      </trkpt>
      <trkpt lat="30.523420623135507" lon="114.39232982011804">
        <ele>22.0648193359375</ele>
        <time>2021-05-28T14:41:53Z</time>
      </trkpt>
      <trkpt lat="30.523272568063916" lon="114.39227882159219">
        <ele>20.15093994140625</ele>
        <time>2021-05-28T14:41:59Z</time>
      </trkpt>
      <trkpt lat="30.522969390854104" lon="114.39225985449109">
        <ele>20.64447021484375</ele>
        <time>2021-05-28T14:42:11Z</time>
      </trkpt>
      <trkpt lat="30.522681394192855" lon="114.39226883378487">
        <ele>23.85906982421875</ele>
        <time>2021-05-28T14:42:23Z</time>
      </trkpt>
      <trkpt lat="30.522533602540715" lon="114.39225690787181">
        <ele>20.96685791015625</ele>
        <time>2021-05-28T14:42:29Z</time>
      </trkpt>
      <trkpt lat="30.522299292678305" lon="114.39230169899737">
        <ele>23.49554443359375</ele>
        <time>2021-05-28T14:42:38Z</time>
      </trkpt>
      <trkpt lat="30.522171272548842" lon="114.39241675762587">
        <ele>22.63262939453125</ele>
        <time>2021-05-28T14:42:44Z</time>
      </trkpt>
      <trkpt lat="30.522116476890364" lon="114.39250603315577">
        <ele>22.562744140625</ele>
        <time>2021-05-28T14:42:47Z</time>
      </trkpt>
      <trkpt lat="30.522070602109633" lon="114.3927529582387">
        <ele>21.3172607421875</ele>
        <time>2021-05-28T14:42:56Z</time>
      </trkpt>
      <trkpt lat="30.522089553113005" lon="114.39293611422652">
        <ele>22.36865234375</ele>
        <time>2021-05-28T14:43:02Z</time>
      </trkpt>
      <trkpt lat="30.522175497088828" lon="114.39306011214501">
        <ele>25.15869140625</ele>
        <time>2021-05-28T14:43:08Z</time>
      </trkpt>
      <trkpt lat="30.52231866808596" lon="114.3931401472963">
        <ele>24.50543212890625</ele>
        <time>2021-05-28T14:43:14Z</time>
      </trkpt>
      <trkpt lat="30.522629704917122" lon="114.3931941185426">
        <ele>18.70086669921875</ele>
        <time>2021-05-28T14:43:26Z</time>
      </trkpt>
      <trkpt lat="30.52271756525085" lon="114.39321012047573">
        <ele>20.56341552734375</ele>
        <time>2021-05-28T14:43:29Z</time>
      </trkpt>
      <trkpt lat="30.522891396491975" lon="114.39318595519555">
        <ele>20.72760009765625</ele>
        <time>2021-05-28T14:43:35Z</time>
      </trkpt>
      <trkpt lat="30.522939664756308" lon="114.39319897573992">
        <ele>20.1953125</ele>
        <time>2021-05-28T14:43:38Z</time>
      </trkpt>
      <trkpt lat="30.523212745057172" lon="114.39319596703083">
        <ele>18.98345947265625</ele>
        <time>2021-05-28T14:43:50Z</time>
      </trkpt>
      <trkpt lat="30.523402574942043" lon="114.39317804139549">
        <ele>18.5758056640625</ele>
        <time>2021-05-28T14:43:56Z</time>
      </trkpt>
      <trkpt lat="30.52346874915324" lon="114.39314086082705">
        <ele>18.19036865234375</ele>
        <time>2021-05-28T14:43:59Z</time>
      </trkpt>
      <trkpt lat="30.523570734907274" lon="114.39300897693899">
        <ele>17.9161376953125</ele>
        <time>2021-05-28T14:44:05Z</time>
      </trkpt>
      <trkpt lat="30.523632605596625" lon="114.39276774561719">
        <ele>17.1820068359375</ele>
        <time>2021-05-28T14:44:11Z</time>
      </trkpt>
      <trkpt lat="30.52362964265156" lon="114.39265568125067">
        <ele>16.4244384765625</ele>
        <time>2021-05-28T14:44:14Z</time>
      </trkpt>
      <trkpt lat="30.523506573149106" lon="114.39240470200666">
        <ele>20.08831787109375</ele>
        <time>2021-05-28T14:44:23Z</time>
      </trkpt>
      <trkpt lat="30.523465363793807" lon="114.39235179459071">
        <ele>19.96295166015625</ele>
        <time>2021-05-28T14:44:26Z</time>
      </trkpt>
      <trkpt lat="30.52333954598974" lon="114.39229862336707">
        <ele>17.91009521484375</ele>
        <time>2021-05-28T14:44:32Z</time>
      </trkpt>
      <trkpt lat="30.52305047001121" lon="114.39228074036454">
        <ele>19.3963623046875</ele>
        <time>2021-05-28T14:44:41Z</time>
      </trkpt>
      <trkpt lat="30.52295149329978" lon="114.39225768535941">
        <ele>17.8309326171875</ele>
        <time>2021-05-28T14:44:44Z</time>
      </trkpt>
      <trkpt lat="30.522869323069237" lon="114.39226881736002">
        <ele>18.790283203125</ele>
        <time>2021-05-28T14:44:47Z</time>
      </trkpt>
      <trkpt lat="30.52268248311842" lon="114.3922476694051">
        <ele>15.711669921875</ele>
        <time>2021-05-28T14:44:53Z</time>
      </trkpt>
      <trkpt lat="30.522403432142326" lon="114.39227292813551">
        <ele>16.8544921875</ele>
        <time>2021-05-28T14:45:02Z</time>
      </trkpt>
      <trkpt lat="30.52230335960527" lon="114.39230576870557">
        <ele>17.92681884765625</ele>
        <time>2021-05-28T14:45:05Z</time>
      </trkpt>
      <trkpt lat="30.522111575988596" lon="114.39261185654095">
        <ele>18.17169189453125</ele>
        <time>2021-05-28T14:45:14Z</time>
      </trkpt>
      <trkpt lat="30.52210260262332" lon="114.3927469858868">
        <ele>18.768310546875</ele>
        <time>2021-05-28T14:45:17Z</time>
      </trkpt>
      <trkpt lat="30.52213240801965" lon="114.39288808231986">
        <ele>20.85125732421875</ele>
        <time>2021-05-28T14:45:20Z</time>
      </trkpt>
      <trkpt lat="30.522202620718893" lon="114.3930270054076">
        <ele>22.57330322265625</ele>
        <time>2021-05-28T14:45:23Z</time>
      </trkpt>
      <trkpt lat="30.52249059717826" lon="114.39314094631597">
        <ele>22.16314697265625</ele>
        <time>2021-05-28T14:45:32Z</time>
      </trkpt>
      <trkpt lat="30.522771537708117" lon="114.39316398640216">
        <ele>21.35626220703125</ele>
        <time>2021-05-28T14:45:41Z</time>
      </trkpt>
      <trkpt lat="30.523062789610357" lon="114.39314605193076">
        <ele>20.84246826171875</ele>
        <time>2021-05-28T14:45:50Z</time>
      </trkpt>
      <trkpt lat="30.52317966855252" lon="114.39314794115609">
        <ele>19.6478271484375</ele>
        <time>2021-05-28T14:45:53Z</time>
      </trkpt>
      <trkpt lat="30.523263739140862" lon="114.3931210703102">
        <ele>19.95806884765625</ele>
        <time>2021-05-28T14:45:56Z</time>
      </trkpt>
      <trkpt lat="30.523349699661967" lon="114.39314602685505">
        <ele>19.005615234375</ele>
        <time>2021-05-28T14:45:59Z</time>
      </trkpt>
      <trkpt lat="30.523488567789208" lon="114.39300382853155">
        <ele>17.41204833984375</ele>
        <time>2021-05-28T14:46:05Z</time>
      </trkpt>
      <trkpt lat="30.52354552934507" lon="114.39292377641667">
        <ele>18.47003173828125</ele>
        <time>2021-05-28T14:46:08Z</time>
      </trkpt>
      <trkpt lat="30.523588664739215" lon="114.39282174691513">
        <ele>17.44647216796875</ele>
        <time>2021-05-28T14:46:11Z</time>
      </trkpt>
      <trkpt lat="30.52358626567463" lon="114.392589748996">
        <ele>17.65545654296875</ele>
        <time>2021-05-28T14:46:17Z</time>
      </trkpt>
      <trkpt lat="30.52355238849394" lon="114.3924798590134">
        <ele>18.49786376953125</ele>
        <time>2021-05-28T14:46:20Z</time>
      </trkpt>
      <trkpt lat="30.523434442539447" lon="114.39238571459678">
        <ele>18.7655029296875</ele>
        <time>2021-05-28T14:46:23Z</time>
      </trkpt>
      <trkpt lat="30.52331458985287" lon="114.39233661283457">
        <ele>19.16448974609375</ele>
        <time>2021-05-28T14:46:26Z</time>
      </trkpt>
      <trkpt lat="30.523058329947755" lon="114.39230271800861">
        <ele>20.2340087890625</ele>
        <time>2021-05-28T14:46:35Z</time>
      </trkpt>
      <trkpt lat="30.522780369180076" lon="114.39230084293945">
        <ele>16.8565673828125</ele>
        <time>2021-05-28T14:46:44Z</time>
      </trkpt>
      <trkpt lat="30.522594612304356" lon="114.39228783497661">
        <ele>18.021728515625</ele>
        <time>2021-05-28T14:46:50Z</time>
      </trkpt>
      <trkpt lat="30.522410219283476" lon="114.39223466903614">
        <ele>17.71435546875</ele>
        <time>2021-05-28T14:46:56Z</time>
      </trkpt>
      <trkpt lat="30.52234025277076" lon="114.39224281525286">
        <ele>18.50537109375</ele>
        <time>2021-05-28T14:47:02Z</time>
      </trkpt>
    </trkseg>
  </trk>
</gpx>