<?xml version="1.0" encoding="UTF-8"?>
<gpx xmlns="http://www.topografix.com/GPX/1/1" xmlns:gpxtpx="http://www.garmin.com/xmlschemas/TrackPointExtension/v1" xmlns:xsi="http://www.w3.org/2001/XMLSchema-instance" xsi:schemaLocation="http://www.topografix.com/GPX/1/1 http://www.topografix.com/GPX/1/1/gpx.xsd" version="1.1" creator="gpx.py -- https://github.com/tkrajina/gpxpy">
  <trk>
    <name>gpx from keep</name>
    <type>Run</type>
    <trkseg>
      <trkpt lat="36.03167064905513" lon="119.41301440561276">
        <ele>71.977294921875</ele>
        <time>2023-05-04T11:51:48Z</time>
      </trkpt>
      <trkpt lat="36.03170638242391" lon="119.41265796385156">
        <ele>62.90924072265625</ele>
        <time>2023-05-04T11:52:03Z</time>
      </trkpt>
      <trkpt lat="36.031711245713296" lon="119.41246773262927">
        <ele>61.49774169921875</ele>
        <time>2023-05-04T11:52:09Z</time>
      </trkpt>
      <trkpt lat="36.031666137517" lon="119.41229953543798">
        <ele>61.89013671875</ele>
        <time>2023-05-04T11:52:15Z</time>
      </trkpt>
      <trkpt lat="36.03168800967785" lon="119.41212332282497">
        <ele>62.9346923828125</ele>
        <time>2023-05-04T11:52:21Z</time>
      </trkpt>
      <trkpt lat="36.03167491941431" lon="119.41198816428933">
        <ele>63.12884521484375</ele>
        <time>2023-05-04T11:52:27Z</time>
      </trkpt>
      <trkpt lat="36.031704733914765" lon="119.41172585338133">
        <ele>63.7281494140625</ele>
        <time>2023-05-04T11:52:36Z</time>
      </trkpt>
      <trkpt lat="36.031699497309" lon="119.41136944233321">
        <ele>65.65655517578125</ele>
        <time>2023-05-04T11:52:48Z</time>
      </trkpt>
      <trkpt lat="36.03172734811791" lon="119.41115119070722">
        <ele>63.413330078125</ele>
        <time>2023-05-04T11:52:57Z</time>
      </trkpt>
      <trkpt lat="36.03173922075519" lon="119.41095797163479">
        <ele>64.28173828125</ele>
        <time>2023-05-04T11:53:06Z</time>
      </trkpt>
      <trkpt lat="36.03172009648688" lon="119.41075574816384">
        <ele>59.4647216796875</ele>
        <time>2023-05-04T11:53:18Z</time>
      </trkpt>
      <trkpt lat="36.03169604025002" lon="119.41065764224473">
        <ele>62.22857666015625</ele>
        <time>2023-05-04T11:53:24Z</time>
      </trkpt>
      <trkpt lat="36.03168491440439" lon="119.41045141695871">
        <ele>62.8804931640625</ele>
        <time>2023-05-04T11:53:36Z</time>
      </trkpt>
      <trkpt lat="36.031667885584895" lon="119.4103983609785">
        <ele>59.53570556640625</ele>
        <time>2023-05-04T11:53:39Z</time>
      </trkpt>
      <trkpt lat="36.03166582465758" lon="119.4102982524172">
        <ele>55.56036376953125</ele>
        <time>2023-05-04T11:53:45Z</time>
      </trkpt>
      <trkpt lat="36.03172765774923" lon="119.410045973851">
        <ele>63.81439208984375</ele>
        <time>2023-05-04T11:54:00Z</time>
      </trkpt>
      <trkpt lat="36.03172759675879" lon="119.40994386494447">
        <ele>64.85760498046875</ele>
        <time>2023-05-04T11:54:06Z</time>
      </trkpt>
      <trkpt lat="36.03169039315147" lon="119.4095824884231">
        <ele>65.677490234375</ele>
        <time>2023-05-04T11:54:27Z</time>
      </trkpt>
      <trkpt lat="36.03170023380368" lon="119.40930820333438">
        <ele>64.01593017578125</ele>
        <time>2023-05-04T11:54:42Z</time>
      </trkpt>
      <trkpt lat="36.03168917703757" lon="119.40920309688538">
        <ele>64.11260986328125</ele>
        <time>2023-05-04T11:54:48Z</time>
      </trkpt>
      <trkpt lat="36.031799359382354" lon="119.40770261573759">
        <ele>94.52508544921875</ele>
        <time>2023-05-04T11:56:06Z</time>
      </trkpt>
      <trkpt lat="36.03189940966481" lon="119.40784974286942">
        <ele>70.30023193359375</ele>
        <time>2023-05-04T11:56:09Z</time>
      </trkpt>
      <trkpt lat="36.031939234593345" lon="119.40751342394839">
        <ele>72.47137451171875</ele>
        <time>2023-05-04T11:56:18Z</time>
      </trkpt>
      <trkpt lat="36.031971151003276" lon="119.4073552747256">
        <ele>67.59979248046875</ele>
        <time>2023-05-04T11:56:24Z</time>
      </trkpt>
      <trkpt lat="36.03196511657581" lon="119.40728020676904">
        <ele>65.57586669921875</ele>
        <time>2023-05-04T11:56:27Z</time>
      </trkpt>
      <trkpt lat="36.03192910015401" lon="119.40722816341494">
        <ele>63.89837646484375</ele>
        <time>2023-05-04T11:56:30Z</time>
      </trkpt>
      <trkpt lat="36.03175306115235" lon="119.40705903020242">
        <ele>64.03253173828125</ele>
        <time>2023-05-04T11:56:46Z</time>
      </trkpt>
      <trkpt lat="36.031733042507845" lon="119.40700898750282">
        <ele>64.82135009765625</ele>
        <time>2023-05-04T11:56:49Z</time>
      </trkpt>
      <trkpt lat="36.03166303359533" lon="119.40695494698042">
        <ele>64.57025146484375</ele>
        <time>2023-05-04T11:56:55Z</time>
      </trkpt>
      <trkpt lat="36.03159806466273" lon="119.40698998561521">
        <ele>60.68115234375</ele>
        <time>2023-05-04T11:57:01Z</time>
      </trkpt>
      <trkpt lat="36.03156509867159" lon="119.40704704050587">
        <ele>60.79071044921875</ele>
        <time>2023-05-04T11:57:04Z</time>
      </trkpt>
      <trkpt lat="36.03137121202565" lon="119.40719419514437">
        <ele>61.8782958984375</ele>
        <time>2023-05-04T11:57:10Z</time>
      </trkpt>
      <trkpt lat="36.03140728031531" lon="119.4073553380334">
        <ele>63.27178955078125</ele>
        <time>2023-05-04T11:57:19Z</time>
      </trkpt>
      <trkpt lat="36.03140831421303" lon="119.40742640318624">
        <ele>62.97161865234375</ele>
        <time>2023-05-04T11:57:22Z</time>
      </trkpt>
      <trkpt lat="36.03138435504181" lon="119.40749947328351">
        <ele>59.9288330078125</ele>
        <time>2023-05-04T11:57:28Z</time>
      </trkpt>
      <trkpt lat="36.031260420510215" lon="119.4075755576982">
        <ele>55.5478515625</ele>
        <time>2023-05-04T11:57:40Z</time>
      </trkpt>
      <trkpt lat="36.031192439039835" lon="119.40758157091028">
        <ele>54.65069580078125</ele>
        <time>2023-05-04T11:57:46Z</time>
      </trkpt>
      <trkpt lat="36.03089345746546" lon="119.40747850897415">
        <ele>62.63311767578125</ele>
        <time>2023-05-04T11:58:10Z</time>
      </trkpt>
      <trkpt lat="36.03066751124783" lon="119.40748253803822">
        <ele>59.11224365234375</ele>
        <time>2023-05-04T11:58:28Z</time>
      </trkpt>
      <trkpt lat="36.03048657706919" lon="119.40753260464709">
        <ele>60.399658203125</ele>
        <time>2023-05-04T11:58:40Z</time>
      </trkpt>
      <trkpt lat="36.030420612707694" lon="119.40757465105142">
        <ele>58.44854736328125</ele>
        <time>2023-05-04T11:58:46Z</time>
      </trkpt>
      <trkpt lat="36.03029166631903" lon="119.40762371115332">
        <ele>62.99090576171875</ele>
        <time>2023-05-04T11:58:58Z</time>
      </trkpt>
      <trkpt lat="36.030240703622106" lon="119.40767576544356">
        <ele>61.7587890625</ele>
        <time>2023-05-04T11:59:04Z</time>
      </trkpt>
      <trkpt lat="36.03004277676552" lon="119.40773184014091">
        <ele>59.974853515625</ele>
        <time>2023-05-04T11:59:19Z</time>
      </trkpt>
      <trkpt lat="36.02995685083556" lon="119.40784095244388">
        <ele>58.8515625</ele>
        <time>2023-05-04T11:59:28Z</time>
      </trkpt>
      <trkpt lat="36.0298959171756" lon="119.40794505786405">
        <ele>59.29400634765625</ele>
        <time>2023-05-04T11:59:40Z</time>
      </trkpt>
      <trkpt lat="36.02984195135265" lon="119.40798810486149">
        <ele>53.84918212890625</ele>
        <time>2023-05-04T11:59:46Z</time>
      </trkpt>
      <trkpt lat="36.029713997506484" lon="119.40802115071538">
        <ele>51.12841796875</ele>
        <time>2023-05-04T11:59:58Z</time>
      </trkpt>
      <trkpt lat="36.02940707613248" lon="119.40803720045955">
        <ele>57.2830810546875</ele>
        <time>2023-05-04T12:00:22Z</time>
      </trkpt>
      <trkpt lat="36.02918311330704" lon="119.40800919885233">
        <ele>57.788330078125</ele>
        <time>2023-05-04T12:00:40Z</time>
      </trkpt>
      <trkpt lat="36.029109135386115" lon="119.4080192167045">
        <ele>63.93072509765625</ele>
        <time>2023-05-04T12:00:46Z</time>
      </trkpt>
      <trkpt lat="36.02885414529364" lon="119.4079231539052">
        <ele>61.94586181640625</ele>
        <time>2023-05-04T12:01:10Z</time>
      </trkpt>
      <trkpt lat="36.02871715862127" lon="119.40788713513457">
        <ele>61.13824462890625</ele>
        <time>2023-05-04T12:01:22Z</time>
      </trkpt>
      <trkpt lat="36.028449130865845" lon="119.4077079965291">
        <ele>60.052001953125</ele>
        <time>2023-05-04T12:01:46Z</time>
      </trkpt>
      <trkpt lat="36.028234086548785" lon="119.40751684268406">
        <ele>59.65850830078125</ele>
        <time>2023-05-04T12:02:10Z</time>
      </trkpt>
      <trkpt lat="36.02763334345991" lon="119.40551917463216">
        <ele>48.08978271484375</ele>
        <time>2023-05-04T12:04:31Z</time>
      </trkpt>
      <trkpt lat="36.0276683160447" lon="119.40547013095679">
        <ele>53.47332763671875</ele>
        <time>2023-05-04T12:04:34Z</time>
      </trkpt>
      <trkpt lat="36.02770323313819" lon="119.40527797260326">
        <ele>57.87249755859375</ele>
        <time>2023-05-04T12:04:46Z</time>
      </trkpt>
      <trkpt lat="36.02775416825474" lon="119.40513885639116">
        <ele>59.13800048828125</ele>
        <time>2023-05-04T12:04:58Z</time>
      </trkpt>
      <trkpt lat="36.02776314011898" lon="119.40506980094318">
        <ele>58.34722900390625</ele>
        <time>2023-05-04T12:05:04Z</time>
      </trkpt>
      <trkpt lat="36.0277531210446" lon="119.40501275729983">
        <ele>59.53863525390625</ele>
        <time>2023-05-04T12:05:13Z</time>
      </trkpt>
      <trkpt lat="36.02782105905948" lon="119.40488765214323">
        <ele>60.36590576171875</ele>
        <time>2023-05-04T12:05:25Z</time>
      </trkpt>
      <trkpt lat="36.02817009216665" lon="119.40195257937094">
        <ele>0.0</ele>
        <time>2023-05-04T12:06:34Z</time>
      </trkpt>
      <trkpt lat="36.02856820048049" lon="119.4027390317516">
        <ele>0.0</ele>
        <time>2023-05-04T12:06:49Z</time>
      </trkpt>
      <trkpt lat="36.02874415057374" lon="119.40270398911254">
        <ele>0.0</ele>
        <time>2023-05-04T12:07:13Z</time>
      </trkpt>
      <trkpt lat="36.02908417895787" lon="119.40308620440314">
        <ele>0.0</ele>
        <time>2023-05-04T12:07:43Z</time>
      </trkpt>
      <trkpt lat="36.02885526809557" lon="119.4032123155324">
        <ele>0.0</ele>
        <time>2023-05-04T12:07:49Z</time>
      </trkpt>
      <trkpt lat="36.028675235076335" lon="119.402953161136">
        <ele>0.0</ele>
        <time>2023-05-04T12:08:16Z</time>
      </trkpt>
      <trkpt lat="36.028751476115154" lon="119.40381374704286">
        <ele>59.637451171875</ele>
        <time>2023-05-04T12:08:28Z</time>
      </trkpt>
      <trkpt lat="36.02878738774149" lon="119.40355856236356">
        <ele>60.4287109375</ele>
        <time>2023-05-04T12:08:46Z</time>
      </trkpt>
      <trkpt lat="36.028737295488796" lon="119.40321332946199">
        <ele>60.26397705078125</ele>
        <time>2023-05-04T12:09:13Z</time>
      </trkpt>
      <trkpt lat="36.02872124829841" lon="119.40303721218322">
        <ele>63.0859375</ele>
        <time>2023-05-04T12:09:25Z</time>
      </trkpt>
      <trkpt lat="36.02867024722949" lon="119.40299218774591">
        <ele>62.14874267578125</ele>
        <time>2023-05-04T12:09:31Z</time>
      </trkpt>
      <trkpt lat="36.028544262635776" lon="119.40294416984479">
        <ele>62.37158203125</ele>
        <time>2023-05-04T12:09:43Z</time>
      </trkpt>
      <trkpt lat="36.028371262940084" lon="119.4028020952261">
        <ele>63.94830322265625</ele>
        <time>2023-05-04T12:10:16Z</time>
      </trkpt>
      <trkpt lat="36.02821624905856" lon="119.40261899311994">
        <ele>62.053466796875</ele>
        <time>2023-05-04T12:10:34Z</time>
      </trkpt>
      <trkpt lat="36.02806420634581" lon="119.4023198190073">
        <ele>59.55462646484375</ele>
        <time>2023-05-04T12:10:55Z</time>
      </trkpt>
      <trkpt lat="36.02794714529847" lon="119.40196060929172">
        <ele>62.25836181640625</ele>
        <time>2023-05-04T12:11:19Z</time>
      </trkpt>
      <trkpt lat="36.027938101791165" lon="119.40176449171241">
        <ele>62.2230224609375</ele>
        <time>2023-05-04T12:11:31Z</time>
      </trkpt>
      <trkpt lat="36.02795407955669" lon="119.40168244094667">
        <ele>60.92071533203125</ele>
        <time>2023-05-04T12:11:37Z</time>
      </trkpt>
      <trkpt lat="36.027947059160034" lon="119.40158338311788">
        <ele>61.506591796875</ele>
        <time>2023-05-04T12:11:43Z</time>
      </trkpt>
      <trkpt lat="36.02796603387388" lon="119.40148732467526">
        <ele>61.7325439453125</ele>
        <time>2023-05-04T12:11:49Z</time>
      </trkpt>
      <trkpt lat="36.02692507558275" lon="119.40046287331874">
        <ele>0.0</ele>
        <time>2023-05-04T12:13:52Z</time>
      </trkpt>
      <trkpt lat="36.02685712523889" lon="119.40065798460148">
        <ele>0.0</ele>
        <time>2023-05-04T12:14:01Z</time>
      </trkpt>
      <trkpt lat="36.02625627572141" lon="119.4007260887285">
        <ele>58.00726318359375</ele>
        <time>2023-05-04T12:14:31Z</time>
      </trkpt>
      <trkpt lat="36.026111303822674" lon="119.40069708934743">
        <ele>59.20513916015625</ele>
        <time>2023-05-04T12:14:40Z</time>
      </trkpt>
      <trkpt lat="36.02586936639224" lon="119.4007351370491">
        <ele>64.031494140625</ele>
        <time>2023-05-04T12:14:58Z</time>
      </trkpt>
      <trkpt lat="36.02563242275177" lon="119.40074516907447">
        <ele>66.00341796875</ele>
        <time>2023-05-04T12:15:16Z</time>
      </trkpt>
      <trkpt lat="36.025487449392394" lon="119.40070816534147">
        <ele>64.498046875</ele>
        <time>2023-05-04T12:15:28Z</time>
      </trkpt>
      <trkpt lat="36.02550342782928" lon="119.40060810984339">
        <ele>61.990478515625</ele>
        <time>2023-05-04T12:15:34Z</time>
      </trkpt>
      <trkpt lat="36.025699360315876" lon="119.40047901939529">
        <ele>61.06219482421875</ele>
        <time>2023-05-04T12:15:52Z</time>
      </trkpt>
      <trkpt lat="36.025861319291984" lon="119.40045698962793">
        <ele>62.11834716796875</ele>
        <time>2023-05-04T12:16:04Z</time>
      </trkpt>
      <trkpt lat="36.0261542678718" lon="119.40055000586354">
        <ele>58.8765869140625</ele>
        <time>2023-05-04T12:16:28Z</time>
      </trkpt>
      <trkpt lat="36.026344221907905" lon="119.40053697763351">
        <ele>59.5755615234375</ele>
        <time>2023-05-04T12:16:46Z</time>
      </trkpt>
      <trkpt lat="36.026422221887444" lon="119.40063902324941">
        <ele>61.25347900390625</ele>
        <time>2023-05-04T12:16:58Z</time>
      </trkpt>
      <trkpt lat="36.026615175899536" lon="119.40062999675845">
        <ele>60.564697265625</ele>
        <time>2023-05-04T12:17:16Z</time>
      </trkpt>
      <trkpt lat="36.027057079253844" lon="119.40065796214549">
        <ele>0.0</ele>
        <time>2023-05-04T12:18:04Z</time>
      </trkpt>
      <trkpt lat="36.02730298936062" lon="119.40046683298078">
        <ele>0.0</ele>
        <time>2023-05-04T12:18:25Z</time>
      </trkpt>
      <trkpt lat="36.02728305629118" lon="119.40081702287036">
        <ele>0.0</ele>
        <time>2023-05-04T12:18:46Z</time>
      </trkpt>
      <trkpt lat="36.027577026004145" lon="119.40101309795948">
        <ele>65.89056396484375</ele>
        <time>2023-05-04T12:18:52Z</time>
      </trkpt>
      <trkpt lat="36.0276340164143" lon="119.40103110159573">
        <ele>65.303466796875</ele>
        <time>2023-05-04T12:18:58Z</time>
      </trkpt>
      <trkpt lat="36.02768601726067" lon="119.4010961321515">
        <ele>66.07830810546875</ele>
        <time>2023-05-04T12:19:04Z</time>
      </trkpt>
      <trkpt lat="36.0279360005755" lon="119.40129721813389">
        <ele>62.89642333984375</ele>
        <time>2023-05-04T12:19:28Z</time>
      </trkpt>
      <trkpt lat="36.02803600577617" lon="119.40143128420912">
        <ele>63.01251220703125</ele>
        <time>2023-05-04T12:19:40Z</time>
      </trkpt>
      <trkpt lat="36.02819103298681" lon="119.4017174351916">
        <ele>62.531494140625</ele>
        <time>2023-05-04T12:20:04Z</time>
      </trkpt>
      <trkpt lat="36.028352065106304" lon="119.40201459687412">
        <ele>61.96075439453125</ele>
        <time>2023-05-04T12:20:28Z</time>
      </trkpt>
      <trkpt lat="36.02854709033499" lon="119.4022997521709">
        <ele>60.78778076171875</ele>
        <time>2023-05-04T12:20:52Z</time>
      </trkpt>
      <trkpt lat="36.028589098442026" lon="119.40236979167952">
        <ele>61.59613037109375</ele>
        <time>2023-05-04T12:20:58Z</time>
      </trkpt>
      <trkpt lat="36.02870809841202" lon="119.40247584581525">
        <ele>62.764892578125</ele>
        <time>2023-05-04T12:21:10Z</time>
      </trkpt>
      <trkpt lat="36.028774177801935" lon="119.40282906777303">
        <ele>64.72808837890625</ele>
        <time>2023-05-04T12:21:34Z</time>
      </trkpt>
      <trkpt lat="36.028812221990556" lon="119.40301818921678">
        <ele>63.14105224609375</ele>
        <time>2023-05-04T12:21:46Z</time>
      </trkpt>
      <trkpt lat="36.028844238385375" lon="119.4031012414704">
        <ele>65.31689453125</ele>
        <time>2023-05-04T12:21:52Z</time>
      </trkpt>
      <trkpt lat="36.02894125980314" lon="119.4032513324987">
        <ele>63.3040771484375</ele>
        <time>2023-05-04T12:22:04Z</time>
      </trkpt>
      <trkpt lat="36.02898236590532" lon="119.4036325925111">
        <ele>65.0015869140625</ele>
        <time>2023-05-04T12:22:28Z</time>
      </trkpt>
      <trkpt lat="36.02898842841416" lon="119.40383473547617">
        <ele>66.7041015625</ele>
        <time>2023-05-04T12:22:40Z</time>
      </trkpt>
      <trkpt lat="36.02905743028153" lon="119.40388976724076">
        <ele>64.0966796875</ele>
        <time>2023-05-04T12:22:46Z</time>
      </trkpt>
      <trkpt lat="36.02914341927873" lon="119.403916777045">
        <ele>62.61004638671875</ele>
        <time>2023-05-04T12:22:53Z</time>
      </trkpt>
      <trkpt lat="36.0301983111799" lon="119.40431895323091">
        <ele>35.201904296875</ele>
        <time>2023-05-04T12:24:38Z</time>
      </trkpt>
      <trkpt lat="36.030377289013806" lon="119.4043739741594">
        <ele>54.28448486328125</ele>
        <time>2023-05-04T12:24:41Z</time>
      </trkpt>
      <trkpt lat="36.030572325167896" lon="119.40460512644977">
        <ele>58.18914794921875</ele>
        <time>2023-05-04T12:24:59Z</time>
      </trkpt>
      <trkpt lat="36.03068634667753" lon="119.4047382153154">
        <ele>57.8680419921875</ele>
        <time>2023-05-04T12:25:11Z</time>
      </trkpt>
      <trkpt lat="36.0307193707152" lon="119.40482527865728">
        <ele>57.28582763671875</ele>
        <time>2023-05-04T12:25:17Z</time>
      </trkpt>
      <trkpt lat="36.03077338474331" lon="119.40489732840754">
        <ele>57.7281494140625</ele>
        <time>2023-05-04T12:25:23Z</time>
      </trkpt>
      <trkpt lat="36.030885493472205" lon="119.40525459693062">
        <ele>58.8946533203125</ele>
        <time>2023-05-04T12:25:47Z</time>
      </trkpt>
      <trkpt lat="36.03095549128901" lon="119.40529061782075">
        <ele>62.64849853515625</ele>
        <time>2023-05-04T12:25:53Z</time>
      </trkpt>
      <trkpt lat="36.03103056925472" lon="119.40553380538496">
        <ele>61.2855224609375</ele>
        <time>2023-05-04T12:26:11Z</time>
      </trkpt>
      <trkpt lat="36.031049728999214" lon="119.40593813653024">
        <ele>60.5921630859375</ele>
        <time>2023-05-04T12:26:35Z</time>
      </trkpt>
      <trkpt lat="36.03105184530144" lon="119.40621537019025">
        <ele>63.04522705078125</ele>
        <time>2023-05-04T12:26:53Z</time>
      </trkpt>
      <trkpt lat="36.03102096427106" lon="119.40647359544589">
        <ele>61.20281982421875</ele>
        <time>2023-05-04T12:27:11Z</time>
      </trkpt>
      <trkpt lat="36.03103809104141" lon="119.40676685000149">
        <ele>64.669189453125</ele>
        <time>2023-05-04T12:27:29Z</time>
      </trkpt>
      <trkpt lat="36.03106712484711" lon="119.40685592561762">
        <ele>66.0411376953125</ele>
        <time>2023-05-04T12:27:35Z</time>
      </trkpt>
      <trkpt lat="36.03079426527198" lon="119.40702510727168">
        <ele>0.0</ele>
        <time>2023-05-04T12:28:08Z</time>
      </trkpt>
      <trkpt lat="36.03166955795169" lon="119.4080389483835">
        <ele>62.5135498046875</ele>
        <time>2023-05-04T12:31:35Z</time>
      </trkpt>
      <trkpt lat="36.03164259122752" lon="119.40809200217151">
        <ele>61.87750244140625</ele>
        <time>2023-05-04T12:31:44Z</time>
      </trkpt>
      <trkpt lat="36.03165151131943" lon="119.40793885507148">
        <ele>62.81817626953125</ele>
        <time>2023-05-04T12:32:02Z</time>
      </trkpt>
      <trkpt lat="36.031606495923576" lon="119.40788781172262">
        <ele>59.19085693359375</ele>
        <time>2023-05-04T12:32:08Z</time>
      </trkpt>
      <trkpt lat="36.03160053262257" lon="119.407957878865">
        <ele>58.529541015625</ele>
        <time>2023-05-04T12:32:20Z</time>
      </trkpt>
      <trkpt lat="36.03162156029639" lon="119.40802193752428">
        <ele>56.48309326171875</ele>
        <time>2023-05-04T12:32:23Z</time>
      </trkpt>
      <trkpt lat="36.031627615192306" lon="119.40813204226883">
        <ele>59.66583251953125</ele>
        <time>2023-05-04T12:32:29Z</time>
      </trkpt>
      <trkpt lat="36.03164865112715" lon="119.40821111604718">
        <ele>60.49664306640625</ele>
        <time>2023-05-04T12:32:32Z</time>
      </trkpt>
      <trkpt lat="36.03163379596202" lon="119.40848138062934">
        <ele>62.0440673828125</ele>
        <time>2023-05-04T12:32:44Z</time>
      </trkpt>
      <trkpt lat="36.03157492281532" lon="119.40869359659136">
        <ele>65.41961669921875</ele>
        <time>2023-05-04T12:32:56Z</time>
      </trkpt>
      <trkpt lat="36.03158300566544" lon="119.4088497513747">
        <ele>66.7655029296875</ele>
        <time>2023-05-04T12:33:05Z</time>
      </trkpt>
      <trkpt lat="36.03162811107847" lon="119.4090599580889">
        <ele>64.08837890625</ele>
        <time>2023-05-04T12:33:17Z</time>
      </trkpt>
      <trkpt lat="36.03160117307814" lon="119.40916006284411">
        <ele>66.05572509765625</ele>
        <time>2023-05-04T12:33:23Z</time>
      </trkpt>
      <trkpt lat="36.031613403278314" lon="119.40956948349454">
        <ele>65.12664794921875</ele>
        <time>2023-05-04T12:33:47Z</time>
      </trkpt>
      <trkpt lat="36.031574596181656" lon="119.40988381832867">
        <ele>65.92987060546875</ele>
        <time>2023-05-04T12:34:05Z</time>
      </trkpt>
      <trkpt lat="36.03152372134846" lon="119.41007402674293">
        <ele>65.7666015625</ele>
        <time>2023-05-04T12:34:17Z</time>
      </trkpt>
      <trkpt lat="36.03155287629454" lon="119.41034031071776">
        <ele>65.9365234375</ele>
        <time>2023-05-04T12:34:32Z</time>
      </trkpt>
      <trkpt lat="36.03152406087465" lon="119.41062762840568">
        <ele>66.7047119140625</ele>
        <time>2023-05-04T12:34:50Z</time>
      </trkpt>
      <trkpt lat="36.03147016139969" lon="119.4107677895528">
        <ele>67.25653076171875</ele>
        <time>2023-05-04T12:34:59Z</time>
      </trkpt>
      <trkpt lat="36.03146141756371" lon="119.41116423529489">
        <ele>67.86260986328125</ele>
        <time>2023-05-04T12:35:23Z</time>
      </trkpt>
      <trkpt lat="36.03147567150944" lon="119.41155468046128">
        <ele>67.61749267578125</ele>
        <time>2023-05-04T12:35:47Z</time>
      </trkpt>
      <trkpt lat="36.031473782827405" lon="119.41171987230122">
        <ele>65.92840576171875</ele>
        <time>2023-05-04T12:35:56Z</time>
      </trkpt>
      <trkpt lat="36.03149191129623" lon="119.41191509873795">
        <ele>67.6754150390625</ele>
        <time>2023-05-04T12:36:08Z</time>
      </trkpt>
      <trkpt lat="36.031478052281464" lon="119.41211533687462">
        <ele>67.1265869140625</ele>
        <time>2023-05-04T12:36:20Z</time>
      </trkpt>
      <trkpt lat="36.03134038481566" lon="119.41254386626692">
        <ele>67.68658447265625</ele>
        <time>2023-05-04T12:36:56Z</time>
      </trkpt>
      <trkpt lat="36.031331434011946" lon="119.41260994745333">
        <ele>68.84454345703125</ele>
        <time>2023-05-04T12:36:59Z</time>
      </trkpt>
      <trkpt lat="36.03128348444656" lon="119.41266501984153">
        <ele>70.4044189453125</ele>
        <time>2023-05-04T12:37:05Z</time>
      </trkpt>
      <trkpt lat="36.03126052856356" lon="119.41271908837457">
        <ele>70.83636474609375</ele>
        <time>2023-05-04T12:37:08Z</time>
      </trkpt>
      <trkpt lat="36.0312675702701" lon="119.41277916106515">
        <ele>70.68487548828125</ele>
        <time>2023-05-04T12:37:11Z</time>
      </trkpt>
      <trkpt lat="36.03133660300247" lon="119.41284623561522">
        <ele>68.09954833984375</ele>
        <time>2023-05-04T12:37:17Z</time>
      </trkpt>
      <trkpt lat="36.03139869162971" lon="119.41298740267379">
        <ele>69.85906982421875</ele>
        <time>2023-05-04T12:37:26Z</time>
      </trkpt>
      <trkpt lat="36.03139976709372" lon="119.41309053039353">
        <ele>66.56597900390625</ele>
        <time>2023-05-04T12:37:32Z</time>
      </trkpt>
      <trkpt lat="36.03136182974361" lon="119.41316362562122">
        <ele>65.43206787109375</ele>
        <time>2023-05-04T12:37:38Z</time>
      </trkpt>
      <trkpt lat="36.03134113055828" lon="119.41355912544641">
        <ele>66.578369140625</ele>
        <time>2023-05-04T12:38:02Z</time>
      </trkpt>
      <trkpt lat="36.03132726638307" lon="119.41373334897229">
        <ele>67.52740478515625</ele>
        <time>2023-05-04T12:38:14Z</time>
      </trkpt>
      <trkpt lat="36.031213564181506" lon="119.41408481473724">
        <ele>69.2965087890625</ele>
        <time>2023-05-04T12:38:38Z</time>
      </trkpt>
      <trkpt lat="36.03119688200223" lon="119.41448233742823">
        <ele>64.9656982421875</ele>
        <time>2023-05-04T12:38:59Z</time>
      </trkpt>
      <trkpt lat="36.031148913817034" lon="119.41450837723082">
        <ele>64.5528564453125</ele>
        <time>2023-05-04T12:39:05Z</time>
      </trkpt>
      <trkpt lat="36.031080908607585" lon="119.4144823504379">
        <ele>64.27679443359375</ele>
        <time>2023-05-04T12:39:11Z</time>
      </trkpt>
      <trkpt lat="36.030835931260306" lon="119.41444032239602">
        <ele>66.31524658203125</ele>
        <time>2023-05-04T12:39:29Z</time>
      </trkpt>
      <trkpt lat="36.03074607207527" lon="119.41459053123181">
        <ele>63.8687744140625</ele>
        <time>2023-05-04T12:39:44Z</time>
      </trkpt>
      <trkpt lat="36.03076617974452" lon="119.41472971429761">
        <ele>64.56500244140625</ele>
        <time>2023-05-04T12:39:50Z</time>
      </trkpt>
      <trkpt lat="36.03086444872256" lon="119.41508618291476">
        <ele>63.1019287109375</ele>
        <time>2023-05-04T12:40:11Z</time>
      </trkpt>
      <trkpt lat="36.030854518125004" lon="119.41516729416499">
        <ele>62.76422119140625</ele>
        <time>2023-05-04T12:40:17Z</time>
      </trkpt>
      <trkpt lat="36.030889758675734" lon="119.41546469723065">
        <ele>63.42822265625</ele>
        <time>2023-05-04T12:40:56Z</time>
      </trkpt>
    </trkseg>
  </trk>
</gpx>