<?xml version="1.0" encoding="UTF-8"?>
<gpx xmlns="http://www.topografix.com/GPX/1/1" xmlns:gpxtpx="http://www.garmin.com/xmlschemas/TrackPointExtension/v1" xmlns:xsi="http://www.w3.org/2001/XMLSchema-instance" xsi:schemaLocation="http://www.topografix.com/GPX/1/1 http://www.topografix.com/GPX/1/1/gpx.xsd" version="1.1" creator="gpx.py -- https://github.com/tkrajina/gpxpy">
  <trk>
    <name>gpx from keep</name>
    <type>Run</type>
    <trkseg>
      <trkpt lat="30.522136535023844" lon="114.3925559580638">
        <ele>20.4560546875</ele>
        <time>2021-06-14T14:22:30Z</time>
      </trkpt>
      <trkpt lat="30.522094468951924" lon="114.39273694689507">
        <ele>19.72650146484375</ele>
        <time>2021-06-14T14:22:36Z</time>
      </trkpt>
      <trkpt lat="30.522139447360185" lon="114.39295510408485">
        <ele>23.72705078125</ele>
        <time>2021-06-14T14:22:42Z</time>
      </trkpt>
      <trkpt lat="30.522192583680916" lon="114.39304708597645">
        <ele>25.89385986328125</ele>
        <time>2021-06-14T14:22:45Z</time>
      </trkpt>
      <trkpt lat="30.52234876865186" lon="114.39314394354552">
        <ele>24.7738037109375</ele>
        <time>2021-06-14T14:22:51Z</time>
      </trkpt>
      <trkpt lat="30.522436632145862" lon="114.39314013698669">
        <ele>25.13726806640625</ele>
        <time>2021-06-14T14:22:54Z</time>
      </trkpt>
      <trkpt lat="30.52263052099958" lon="114.39317810887181">
        <ele>25.16546630859375</ele>
        <time>2021-06-14T14:23:00Z</time>
      </trkpt>
      <trkpt lat="30.522933001715455" lon="114.3931723479634">
        <ele>25.44256591796875</ele>
        <time>2021-06-14T14:23:12Z</time>
      </trkpt>
      <trkpt lat="30.52299288355364" lon="114.39320340573647">
        <ele>24.8447265625</ele>
        <time>2021-06-14T14:23:15Z</time>
      </trkpt>
      <trkpt lat="30.523060763718554" lon="114.39314383990349">
        <ele>24.98748779296875</ele>
        <time>2021-06-14T14:23:18Z</time>
      </trkpt>
      <trkpt lat="30.523147974453483" lon="114.39316663118086">
        <ele>25.8564453125</ele>
        <time>2021-06-14T14:23:21Z</time>
      </trkpt>
      <trkpt lat="30.523328473736754" lon="114.3931330638317">
        <ele>27.3927001953125</ele>
        <time>2021-06-14T14:23:27Z</time>
      </trkpt>
      <trkpt lat="30.523480697865022" lon="114.39303801893821">
        <ele>25.10076904296875</ele>
        <time>2021-06-14T14:23:33Z</time>
      </trkpt>
      <trkpt lat="30.523623647661903" lon="114.39281875906981">
        <ele>22.955810546875</ele>
        <time>2021-06-14T14:23:42Z</time>
      </trkpt>
      <trkpt lat="30.52361745133769" lon="114.39259083163564">
        <ele>20.174072265625</ele>
        <time>2021-06-14T14:23:51Z</time>
      </trkpt>
      <trkpt lat="30.523589533967446" lon="114.39251377327982">
        <ele>21.55145263671875</ele>
        <time>2021-06-14T14:23:54Z</time>
      </trkpt>
      <trkpt lat="30.52353937956021" lon="114.39243888786869">
        <ele>23.53253173828125</ele>
        <time>2021-06-14T14:23:57Z</time>
      </trkpt>
      <trkpt lat="30.523422517123233" lon="114.39235179833557">
        <ele>21.56024169921875</ele>
        <time>2021-06-14T14:24:03Z</time>
      </trkpt>
      <trkpt lat="30.52321154965451" lon="114.39229185111742">
        <ele>19.28179931640625</ele>
        <time>2021-06-14T14:24:12Z</time>
      </trkpt>
      <trkpt lat="30.523117448326914" lon="114.39229864277858">
        <ele>20.305908203125</ele>
        <time>2021-06-14T14:24:15Z</time>
      </trkpt>
      <trkpt lat="30.52297047541903" lon="114.39226066840732">
        <ele>20.02252197265625</ele>
        <time>2021-06-14T14:24:21Z</time>
      </trkpt>
      <trkpt lat="30.522628514196526" lon="114.39226666770968">
        <ele>20.62957763671875</ele>
        <time>2021-06-14T14:24:36Z</time>
      </trkpt>
      <trkpt lat="30.52242268331306" lon="114.39228676465346">
        <ele>22.17706298828125</ele>
        <time>2021-06-14T14:24:45Z</time>
      </trkpt>
      <trkpt lat="30.5222903375682" lon="114.39233290362168">
        <ele>21.37591552734375</ele>
        <time>2021-06-14T14:24:51Z</time>
      </trkpt>
      <trkpt lat="30.52217451907094" lon="114.39245691556103">
        <ele>20.98614501953125</ele>
        <time>2021-06-14T14:24:57Z</time>
      </trkpt>
      <trkpt lat="30.522082555517095" lon="114.39263383775915">
        <ele>22.7886962890625</ele>
        <time>2021-06-14T14:25:03Z</time>
      </trkpt>
      <trkpt lat="30.52209743558674" lon="114.39283001757879">
        <ele>24.9483642578125</ele>
        <time>2021-06-14T14:25:09Z</time>
      </trkpt>
      <trkpt lat="30.52216140405352" lon="114.39300910011205">
        <ele>28.4619140625</ele>
        <time>2021-06-14T14:25:15Z</time>
      </trkpt>
      <trkpt lat="30.522215629065812" lon="114.39307801757958">
        <ele>28.0142822265625</ele>
        <time>2021-06-14T14:25:18Z</time>
      </trkpt>
      <trkpt lat="30.52229968571084" lon="114.39313797816709">
        <ele>26.62457275390625</ele>
        <time>2021-06-14T14:25:21Z</time>
      </trkpt>
      <trkpt lat="30.522523676534213" lon="114.3931710631359">
        <ele>26.17333984375</ele>
        <time>2021-06-14T14:25:30Z</time>
      </trkpt>
      <trkpt lat="30.52261669362876" lon="114.39315992970273">
        <ele>26.31719970703125</ele>
        <time>2021-06-14T14:25:33Z</time>
      </trkpt>
      <trkpt lat="30.52291282078576" lon="114.39317998364285">
        <ele>25.21905517578125</ele>
        <time>2021-06-14T14:25:45Z</time>
      </trkpt>
      <trkpt lat="30.523187896498694" lon="114.39317294439113">
        <ele>23.015380859375</ele>
        <time>2021-06-14T14:25:57Z</time>
      </trkpt>
      <trkpt lat="30.52333613671912" lon="114.39316304885615">
        <ele>24.0032958984375</ele>
        <time>2021-06-14T14:26:03Z</time>
      </trkpt>
      <trkpt lat="30.523537639912686" lon="114.39307491721351">
        <ele>20.62713623046875</ele>
        <time>2021-06-14T14:26:09Z</time>
      </trkpt>
      <trkpt lat="30.523626606809863" lon="114.39295795891687">
        <ele>18.7708740234375</ele>
        <time>2021-06-14T14:26:15Z</time>
      </trkpt>
      <trkpt lat="30.52365672225701" lon="114.39287383914981">
        <ele>19.520263671875</ele>
        <time>2021-06-14T14:26:18Z</time>
      </trkpt>
      <trkpt lat="30.523652678839053" lon="114.39273491130675">
        <ele>22.40777587890625</ele>
        <time>2021-06-14T14:26:24Z</time>
      </trkpt>
      <trkpt lat="30.52362773820738" lon="114.3926898705606">
        <ele>22.47747802734375</ele>
        <time>2021-06-14T14:26:27Z</time>
      </trkpt>
      <trkpt lat="30.523612302797186" lon="114.39256966747232">
        <ele>20.17962646484375</ele>
        <time>2021-06-14T14:26:30Z</time>
      </trkpt>
      <trkpt lat="30.52348840686405" lon="114.39238977996037">
        <ele>19.41119384765625</ele>
        <time>2021-06-14T14:26:39Z</time>
      </trkpt>
      <trkpt lat="30.52343743405735" lon="114.3923417575206">
        <ele>19.10980224609375</ele>
        <time>2021-06-14T14:26:42Z</time>
      </trkpt>
      <trkpt lat="30.52330646003524" lon="114.39230785173625">
        <ele>19.62115478515625</ele>
        <time>2021-06-14T14:26:48Z</time>
      </trkpt>
      <trkpt lat="30.52303148510772" lon="114.39229186685515">
        <ele>19.366455078125</ele>
        <time>2021-06-14T14:27:00Z</time>
      </trkpt>
      <trkpt lat="30.52295040518785" lon="114.39227477969098">
        <ele>20.15618896484375</ele>
        <time>2021-06-14T14:27:03Z</time>
      </trkpt>
      <trkpt lat="30.52264450951989" lon="114.39228891596517">
        <ele>21.601318359375</ele>
        <time>2021-06-14T14:27:18Z</time>
      </trkpt>
      <trkpt lat="30.522364647855703" lon="114.39229979392275">
        <ele>21.0245361328125</ele>
        <time>2021-06-14T14:27:30Z</time>
      </trkpt>
      <trkpt lat="30.522281390743895" lon="114.39232177955033">
        <ele>21.608642578125</ele>
        <time>2021-06-14T14:27:33Z</time>
      </trkpt>
      <trkpt lat="30.522160422940438" lon="114.39242896883513">
        <ele>21.09869384765625</ele>
        <time>2021-06-14T14:27:39Z</time>
      </trkpt>
      <trkpt lat="30.52213058345534" lon="114.39247889791844">
        <ele>20.1929931640625</ele>
        <time>2021-06-14T14:27:42Z</time>
      </trkpt>
      <trkpt lat="30.522088510810654" lon="114.39269298985644">
        <ele>21.52606201171875</ele>
        <time>2021-06-14T14:27:48Z</time>
      </trkpt>
      <trkpt lat="30.52210067872497" lon="114.39289405468877">
        <ele>23.0201416015625</ele>
        <time>2021-06-14T14:27:54Z</time>
      </trkpt>
      <trkpt lat="30.522181463934153" lon="114.39305495602193">
        <ele>24.9942626953125</ele>
        <time>2021-06-14T14:28:00Z</time>
      </trkpt>
      <trkpt lat="30.52224382791208" lon="114.39310297912066">
        <ele>24.5517578125</ele>
        <time>2021-06-14T14:28:03Z</time>
      </trkpt>
      <trkpt lat="30.52234362245155" lon="114.39310514118354">
        <ele>24.9010009765625</ele>
        <time>2021-06-14T14:28:06Z</time>
      </trkpt>
      <trkpt lat="30.522441784119934" lon="114.39314312137056">
        <ele>25.064697265625</ele>
        <time>2021-06-14T14:28:09Z</time>
      </trkpt>
      <trkpt lat="30.52277262195895" lon="114.39316697114499">
        <ele>21.93133544921875</ele>
        <time>2021-06-14T14:28:21Z</time>
      </trkpt>
      <trkpt lat="30.523086206360603" lon="114.39318133171464">
        <ele>20.166259765625</ele>
        <time>2021-06-14T14:28:33Z</time>
      </trkpt>
      <trkpt lat="30.52329172250037" lon="114.3931312211564">
        <ele>17.9410400390625</ele>
        <time>2021-06-14T14:28:42Z</time>
      </trkpt>
      <trkpt lat="30.523389020758614" lon="114.39313221507008">
        <ele>17.47406005859375</ele>
        <time>2021-06-14T14:28:45Z</time>
      </trkpt>
      <trkpt lat="30.523470310986614" lon="114.39310937255722">
        <ele>18.1680908203125</ele>
        <time>2021-06-14T14:28:48Z</time>
      </trkpt>
      <trkpt lat="30.523523622536477" lon="114.39311847321545">
        <ele>14.64501953125</ele>
        <time>2021-06-14T14:28:51Z</time>
      </trkpt>
      <trkpt lat="30.523624275661458" lon="114.39291286325215">
        <ele>18.4171142578125</ele>
        <time>2021-06-14T14:29:00Z</time>
      </trkpt>
      <trkpt lat="30.523640471354778" lon="114.39262536079785">
        <ele>19.04437255859375</ele>
        <time>2021-06-14T14:29:12Z</time>
      </trkpt>
      <trkpt lat="30.523591426258367" lon="114.39254579129762">
        <ele>18.8853759765625</ele>
        <time>2021-06-14T14:29:15Z</time>
      </trkpt>
      <trkpt lat="30.523575441790264" lon="114.39246466197068">
        <ele>20.02496337890625</ele>
        <time>2021-06-14T14:29:18Z</time>
      </trkpt>
      <trkpt lat="30.5234623792696" lon="114.39235966366103">
        <ele>20.4423828125</ele>
        <time>2021-06-14T14:29:24Z</time>
      </trkpt>
      <trkpt lat="30.523343614459424" lon="114.39229482428668">
        <ele>21.69091796875</ele>
        <time>2021-06-14T14:29:30Z</time>
      </trkpt>
      <trkpt lat="30.52310524750818" lon="114.39228670499791">
        <ele>24.05450439453125</ele>
        <time>2021-06-14T14:29:39Z</time>
      </trkpt>
      <trkpt lat="30.523044225153814" lon="114.39231981351494">
        <ele>24.209716796875</ele>
        <time>2021-06-14T14:29:42Z</time>
      </trkpt>
      <trkpt lat="30.522978335123106" lon="114.3922837313794">
        <ele>23.2320556640625</ele>
        <time>2021-06-14T14:29:45Z</time>
      </trkpt>
      <trkpt lat="30.522845452984566" lon="114.39229975190105">
        <ele>22.82537841796875</ele>
        <time>2021-06-14T14:29:51Z</time>
      </trkpt>
      <trkpt lat="30.522776575628924" lon="114.39228564837438">
        <ele>22.27410888671875</ele>
        <time>2021-06-14T14:29:54Z</time>
      </trkpt>
      <trkpt lat="30.52272152297618" lon="114.39229976273243">
        <ele>22.4796142578125</ele>
        <time>2021-06-14T14:29:57Z</time>
      </trkpt>
      <trkpt lat="30.52257644489788" lon="114.39227888243319">
        <ele>22.986572265625</ele>
        <time>2021-06-14T14:30:03Z</time>
      </trkpt>
      <trkpt lat="30.522327224773413" lon="114.39229979719343">
        <ele>21.10089111328125</ele>
        <time>2021-06-14T14:30:15Z</time>
      </trkpt>
      <trkpt lat="30.52215363750545" lon="114.39245990212159">
        <ele>21.27459716796875</ele>
        <time>2021-06-14T14:30:24Z</time>
      </trkpt>
      <trkpt lat="30.52206953096554" lon="114.39267698230381">
        <ele>24.3677978515625</ele>
        <time>2021-06-14T14:30:33Z</time>
      </trkpt>
      <trkpt lat="30.5220686842547" lon="114.39286502355745">
        <ele>25.09136962890625</ele>
        <time>2021-06-14T14:30:39Z</time>
      </trkpt>
      <trkpt lat="30.52215245591094" lon="114.3930039453052">
        <ele>26.76995849609375</ele>
        <time>2021-06-14T14:30:45Z</time>
      </trkpt>
      <trkpt lat="30.52220451354117" lon="114.3930601096091">
        <ele>26.47705078125</ele>
        <time>2021-06-14T14:30:48Z</time>
      </trkpt>
      <trkpt lat="30.522327620972174" lon="114.39311599650802">
        <ele>23.99810791015625</ele>
        <time>2021-06-14T14:30:54Z</time>
      </trkpt>
      <trkpt lat="30.522547540524187" lon="114.39317106105027">
        <ele>24.43670654296875</ele>
        <time>2021-06-14T14:31:03Z</time>
      </trkpt>
      <trkpt lat="30.52259961109149" lon="114.39314799185199">
        <ele>24.74224853515625</ele>
        <time>2021-06-14T14:31:06Z</time>
      </trkpt>
      <trkpt lat="30.52278265615532" lon="114.39316398543043">
        <ele>23.2559814453125</ele>
        <time>2021-06-14T14:31:12Z</time>
      </trkpt>
      <trkpt lat="30.522877572282205" lon="114.39314796755886">
        <ele>24.19158935546875</ele>
        <time>2021-06-14T14:31:15Z</time>
      </trkpt>
      <trkpt lat="30.523021838807313" lon="114.39316097968916">
        <ele>22.57464599609375</ele>
        <time>2021-06-14T14:31:21Z</time>
      </trkpt>
      <trkpt lat="30.523368686378884" lon="114.39312106113786">
        <ele>25.9376220703125</ele>
        <time>2021-06-14T14:31:36Z</time>
      </trkpt>
      <trkpt lat="30.523433501821874" lon="114.39310206110144">
        <ele>26.60931396484375</ele>
        <time>2021-06-14T14:31:39Z</time>
      </trkpt>
      <trkpt lat="30.523483677603526" lon="114.39305782703282">
        <ele>26.13690185546875</ele>
        <time>2021-06-14T14:31:42Z</time>
      </trkpt>
      <trkpt lat="30.52357713274633" lon="114.39291954594073">
        <ele>23.240478515625</ele>
        <time>2021-06-14T14:31:48Z</time>
      </trkpt>
      <trkpt lat="30.523614731274115" lon="114.39263587458396">
        <ele>21.71893310546875</ele>
        <time>2021-06-14T14:31:57Z</time>
      </trkpt>
      <trkpt lat="30.523548317754155" lon="114.3924958684284">
        <ele>23.92559814453125</ele>
        <time>2021-06-14T14:32:03Z</time>
      </trkpt>
      <trkpt lat="30.523446371649342" lon="114.39240063718529">
        <ele>23.2852783203125</ele>
        <time>2021-06-14T14:32:09Z</time>
      </trkpt>
      <trkpt lat="30.52324653132239" lon="114.39229564678426">
        <ele>23.79229736328125</ele>
        <time>2021-06-14T14:32:18Z</time>
      </trkpt>
      <trkpt lat="30.52297535073481" lon="114.39229078641164">
        <ele>22.74737548828125</ele>
        <time>2021-06-14T14:32:30Z</time>
      </trkpt>
      <trkpt lat="30.52269657266462" lon="114.3923079050404">
        <ele>22.99969482421875</ele>
        <time>2021-06-14T14:32:42Z</time>
      </trkpt>
      <trkpt lat="30.52240667554798" lon="114.39232773803346">
        <ele>23.86920166015625</ele>
        <time>2021-06-14T14:32:57Z</time>
      </trkpt>
      <trkpt lat="30.522350539337083" lon="114.39233588307793">
        <ele>24.4390869140625</ele>
        <time>2021-06-14T14:33:00Z</time>
      </trkpt>
      <trkpt lat="30.522228491128153" lon="114.39242082271134">
        <ele>23.94732666015625</ele>
        <time>2021-06-14T14:33:06Z</time>
      </trkpt>
      <trkpt lat="30.522165563656166" lon="114.39249083381887">
        <ele>23.27484130859375</ele>
        <time>2021-06-14T14:33:09Z</time>
      </trkpt>
      <trkpt lat="30.522110491609396" lon="114.39260995724456">
        <ele>21.012451171875</ele>
        <time>2021-06-14T14:33:15Z</time>
      </trkpt>
      <trkpt lat="30.52208660025294" lon="114.39276191117654">
        <ele>22.21258544921875</ele>
        <time>2021-06-14T14:33:21Z</time>
      </trkpt>
      <trkpt lat="30.522151646849665" lon="114.39297708206514">
        <ele>22.03680419921875</ele>
        <time>2021-06-14T14:33:30Z</time>
      </trkpt>
      <trkpt lat="30.52218662099291" lon="114.39302700680591">
        <ele>21.6246337890625</ele>
        <time>2021-06-14T14:33:33Z</time>
      </trkpt>
      <trkpt lat="30.52230674063417" lon="114.39311192810996">
        <ele>20.79840087890625</ele>
        <time>2021-06-14T14:33:39Z</time>
      </trkpt>
      <trkpt lat="30.522458596778197" lon="114.39314691878164">
        <ele>22.03753662109375</ele>
        <time>2021-06-14T14:33:45Z</time>
      </trkpt>
      <trkpt lat="30.522799472148765" lon="114.39314688899012">
        <ele>20.1246337890625</ele>
        <time>2021-06-14T14:33:57Z</time>
      </trkpt>
      <trkpt lat="30.522927468742367" lon="114.39315393286901">
        <ele>19.79168701171875</ele>
        <time>2021-06-14T14:34:03Z</time>
      </trkpt>
      <trkpt lat="30.522988757998437" lon="114.3931400887323">
        <ele>21.89599609375</ele>
        <time>2021-06-14T14:34:06Z</time>
      </trkpt>
      <trkpt lat="30.523168819209143" lon="114.39316096684325">
        <ele>21.85870361328125</ele>
        <time>2021-06-14T14:34:15Z</time>
      </trkpt>
      <trkpt lat="30.523277566515926" lon="114.3931389780966">
        <ele>19.93572998046875</ele>
        <time>2021-06-14T14:34:18Z</time>
      </trkpt>
      <trkpt lat="30.52334861445799" lon="114.39314901178491">
        <ele>19.31036376953125</ele>
        <time>2021-06-14T14:34:21Z</time>
      </trkpt>
      <trkpt lat="30.523442720409967" lon="114.39311182882749">
        <ele>18.17431640625</ele>
        <time>2021-06-14T14:34:27Z</time>
      </trkpt>
      <trkpt lat="30.523562616498946" lon="114.39290776553315">
        <ele>15.91302490234375</ele>
        <time>2021-06-14T14:34:36Z</time>
      </trkpt>
      <trkpt lat="30.5236046829713" lon="114.3927167355137">
        <ele>17.802734375</ele>
        <time>2021-06-14T14:34:42Z</time>
      </trkpt>
      <trkpt lat="30.52357683897056" lon="114.39252712401245">
        <ele>18.22705078125</ele>
        <time>2021-06-14T14:34:48Z</time>
      </trkpt>
      <trkpt lat="30.52333059130897" lon="114.3923276572837">
        <ele>20.9853515625</ele>
        <time>2021-06-14T14:35:00Z</time>
      </trkpt>
      <trkpt lat="30.523178198880615" lon="114.39226879036424">
        <ele>20.33135986328125</ele>
        <time>2021-06-14T14:35:06Z</time>
      </trkpt>
      <trkpt lat="30.522894545756206" lon="114.3922547056301">
        <ele>20.030029296875</ele>
        <time>2021-06-14T14:35:18Z</time>
      </trkpt>
      <trkpt lat="30.52257943505219" lon="114.39224279434876">
        <ele>22.62158203125</ele>
        <time>2021-06-14T14:35:33Z</time>
      </trkpt>
      <trkpt lat="30.522466624056015" lon="114.3922398195039">
        <ele>22.0457763671875</ele>
        <time>2021-06-14T14:35:39Z</time>
      </trkpt>
      <trkpt lat="30.52233835013384" lon="114.39226479370993">
        <ele>22.0084228515625</ele>
        <time>2021-06-14T14:35:45Z</time>
      </trkpt>
      <trkpt lat="30.522191349410985" lon="114.392367914899">
        <ele>23.2099609375</ele>
        <time>2021-06-14T14:35:54Z</time>
      </trkpt>
      <trkpt lat="30.52206954849375" lon="114.39258092729379">
        <ele>23.9793701171875</ele>
        <time>2021-06-14T14:36:03Z</time>
      </trkpt>
      <trkpt lat="30.522046470492203" lon="114.39273288094164">
        <ele>22.68682861328125</ele>
        <time>2021-06-14T14:36:09Z</time>
      </trkpt>
      <trkpt lat="30.522061624284543" lon="114.3929190218853">
        <ele>23.733154296875</ele>
        <time>2021-06-14T14:36:15Z</time>
      </trkpt>
      <trkpt lat="30.522223759493148" lon="114.39310895053254">
        <ele>20.97845458984375</ele>
        <time>2021-06-14T14:36:27Z</time>
      </trkpt>
      <trkpt lat="30.522354728075005" lon="114.39318518805138">
        <ele>19.19622802734375</ele>
        <time>2021-06-14T14:36:33Z</time>
      </trkpt>
      <trkpt lat="30.522494654846348" lon="114.39320417027018">
        <ele>17.48858642578125</ele>
        <time>2021-06-14T14:36:39Z</time>
      </trkpt>
      <trkpt lat="30.522661704354718" lon="114.39319411574594">
        <ele>18.361083984375</ele>
        <time>2021-06-14T14:36:45Z</time>
      </trkpt>
      <trkpt lat="30.522752548496126" lon="114.39320496177922">
        <ele>17.9569091796875</ele>
        <time>2021-06-14T14:36:48Z</time>
      </trkpt>
      <trkpt lat="30.52278455507613" lon="114.39315991503209">
        <ele>21.30230712890625</ele>
        <time>2021-06-14T14:36:51Z</time>
      </trkpt>
      <trkpt lat="30.523002850537615" lon="114.39319598537536">
        <ele>20.38385009765625</ele>
        <time>2021-06-14T14:37:00Z</time>
      </trkpt>
      <trkpt lat="30.523272641703116" lon="114.39316620288628">
        <ele>18.0128173828125</ele>
        <time>2021-06-14T14:37:12Z</time>
      </trkpt>
      <trkpt lat="30.523418578491604" lon="114.39313303154039">
        <ele>19.4324951171875</ele>
        <time>2021-06-14T14:37:18Z</time>
      </trkpt>
      <trkpt lat="30.523494500600663" lon="114.39309405503417">
        <ele>18.7529296875</ele>
        <time>2021-06-14T14:37:21Z</time>
      </trkpt>
      <trkpt lat="30.523646702256137" lon="114.39279487876824">
        <ele>22.21771240234375</ele>
        <time>2021-06-14T14:37:33Z</time>
      </trkpt>
      <trkpt lat="30.52364862840662" lon="114.39263885638269">
        <ele>22.11529541015625</ele>
        <time>2021-06-14T14:37:39Z</time>
      </trkpt>
      <trkpt lat="30.5235903508751" lon="114.39249586475464">
        <ele>21.67486572265625</ele>
        <time>2021-06-14T14:37:45Z</time>
      </trkpt>
      <trkpt lat="30.52346942956628" lon="114.39236183375142">
        <ele>21.849609375</ele>
        <time>2021-06-14T14:37:51Z</time>
      </trkpt>
      <trkpt lat="30.52316924951416" lon="114.39227069050635">
        <ele>20.7928466796875</ele>
        <time>2021-06-14T14:38:06Z</time>
      </trkpt>
      <trkpt lat="30.522850338585368" lon="114.39227777314616">
        <ele>19.16131591796875</ele>
        <time>2021-06-14T14:38:21Z</time>
      </trkpt>
      <trkpt lat="30.52255149639616" lon="114.39227779926466">
        <ele>22.37713623046875</ele>
        <time>2021-06-14T14:38:36Z</time>
      </trkpt>
      <trkpt lat="30.522359494815777" lon="114.39230277908608">
        <ele>22.396484375</ele>
        <time>2021-06-14T14:38:45Z</time>
      </trkpt>
      <trkpt lat="30.522231214291416" lon="114.39236194197065">
        <ele>21.80364990234375</ele>
        <time>2021-06-14T14:38:51Z</time>
      </trkpt>
      <trkpt lat="30.522098568814297" lon="114.39256003149544">
        <ele>23.36761474609375</ele>
        <time>2021-06-14T14:39:00Z</time>
      </trkpt>
      <trkpt lat="30.52206355833669" lon="114.39271388543338">
        <ele>24.4127197265625</ele>
        <time>2021-06-14T14:39:06Z</time>
      </trkpt>
      <trkpt lat="30.522084676634" lon="114.3929078947026">
        <ele>25.58843994140625</ele>
        <time>2021-06-14T14:39:12Z</time>
      </trkpt>
      <trkpt lat="30.52217848504557" lon="114.39302999233476">
        <ele>23.443359375</ele>
        <time>2021-06-14T14:39:18Z</time>
      </trkpt>
      <trkpt lat="30.522368564919756" lon="114.39314394181541">
        <ele>22.82122802734375</ele>
        <time>2021-06-14T14:39:27Z</time>
      </trkpt>
      <trkpt lat="30.52243961180133" lon="114.39316103057433">
        <ele>22.99420166015625</ele>
        <time>2021-06-14T14:39:30Z</time>
      </trkpt>
      <trkpt lat="30.522587681972013" lon="114.39313008389192">
        <ele>24.650146484375</ele>
        <time>2021-06-14T14:39:36Z</time>
      </trkpt>
      <trkpt lat="30.52269452419966" lon="114.39315096839213">
        <ele>25.0635986328125</ele>
        <time>2021-06-14T14:39:39Z</time>
      </trkpt>
      <trkpt lat="30.522860490890007" lon="114.3931289746555">
        <ele>23.082763671875</ele>
        <time>2021-06-14T14:39:45Z</time>
      </trkpt>
      <trkpt lat="30.52294075581689" lon="114.39315908733408">
        <ele>21.4039306640625</ele>
        <time>2021-06-14T14:39:48Z</time>
      </trkpt>
      <trkpt lat="30.523296544578486" lon="114.39316801075051">
        <ele>19.48614501953125</ele>
        <time>2021-06-14T14:40:03Z</time>
      </trkpt>
      <trkpt lat="30.523411523801233" lon="114.39317885466049">
        <ele>19.42578125</ele>
        <time>2021-06-14T14:40:09Z</time>
      </trkpt>
      <trkpt lat="30.523533572678737" lon="114.39307193274469">
        <ele>18.28497314453125</ele>
        <time>2021-06-14T14:40:15Z</time>
      </trkpt>
      <trkpt lat="30.52363555748844" lon="114.39294791832951">
        <ele>18.13067626953125</ele>
        <time>2021-06-14T14:40:21Z</time>
      </trkpt>
      <trkpt lat="30.523657531336838" lon="114.39289988821979">
        <ele>19.473876953125</ele>
        <time>2021-06-14T14:40:24Z</time>
      </trkpt>
      <trkpt lat="30.523679531175905" lon="114.39270478988398">
        <ele>13.62255859375</ele>
        <time>2021-06-14T14:40:33Z</time>
      </trkpt>
      <trkpt lat="30.523665715011504" lon="114.3926269158463">
        <ele>15.4208984375</ele>
        <time>2021-06-14T14:40:36Z</time>
      </trkpt>
      <trkpt lat="30.523624509835876" lon="114.39254877315446">
        <ele>15.90570068359375</ele>
        <time>2021-06-14T14:40:39Z</time>
      </trkpt>
      <trkpt lat="30.52356730198752" lon="114.39248772656799">
        <ele>17.3702392578125</ele>
        <time>2021-06-14T14:40:42Z</time>
      </trkpt>
      <trkpt lat="30.523535313962228" lon="114.39242776331385">
        <ele>18.39410400390625</ele>
        <time>2021-06-14T14:40:45Z</time>
      </trkpt>
      <trkpt lat="30.52341844613726" lon="114.39236862166699">
        <ele>18.64202880859375</ele>
        <time>2021-06-14T14:40:51Z</time>
      </trkpt>
      <trkpt lat="30.523374522709382" lon="114.39232765344404">
        <ele>17.77484130859375</ele>
        <time>2021-06-14T14:40:54Z</time>
      </trkpt>
      <trkpt lat="30.52308246804368" lon="114.3922877923383">
        <ele>20.9517822265625</ele>
        <time>2021-06-14T14:41:06Z</time>
      </trkpt>
      <trkpt lat="30.523029318652785" lon="114.39227667215442">
        <ele>22.6112060546875</ele>
        <time>2021-06-14T14:41:09Z</time>
      </trkpt>
      <trkpt lat="30.52284247153518" lon="114.3922918833749">
        <ele>22.0191650390625</ele>
        <time>2021-06-14T14:41:18Z</time>
      </trkpt>
      <trkpt lat="30.52265535486377" lon="114.39229868316538">
        <ele>22.01068115234375</ele>
        <time>2021-06-14T14:41:27Z</time>
      </trkpt>
      <trkpt lat="30.522457667148345" lon="114.39227970682593">
        <ele>23.2945556640625</ele>
        <time>2021-06-14T14:41:36Z</time>
      </trkpt>
      <trkpt lat="30.522263214320805" lon="114.39235895445245">
        <ele>27.09747314453125</ele>
        <time>2021-06-14T14:41:45Z</time>
      </trkpt>
      <trkpt lat="30.522191340938342" lon="114.39241187176957">
        <ele>25.93743896484375</ele>
        <time>2021-06-14T14:41:48Z</time>
      </trkpt>
      <trkpt lat="30.522078490862153" lon="114.39261701492366">
        <ele>25.1300048828125</ele>
        <time>2021-06-14T14:41:57Z</time>
      </trkpt>
      <trkpt lat="30.522087667169718" lon="114.39286393651875">
        <ele>25.8887939453125</ele>
        <time>2021-06-14T14:42:06Z</time>
      </trkpt>
      <trkpt lat="30.522118568741607" lon="114.39294099591672">
        <ele>24.89886474609375</ele>
        <time>2021-06-14T14:42:09Z</time>
      </trkpt>
      <trkpt lat="30.522157610354395" lon="114.39299200560117">
        <ele>24.06414794921875</ele>
        <time>2021-06-14T14:42:12Z</time>
      </trkpt>
      <trkpt lat="30.522221602457982" lon="114.39303297338469">
        <ele>24.66961669921875</ele>
        <time>2021-06-14T14:42:15Z</time>
      </trkpt>
      <trkpt lat="30.5222796224572" lon="114.39311193047998">
        <ele>24.0074462890625</ele>
        <time>2021-06-14T14:42:18Z</time>
      </trkpt>
      <trkpt lat="30.52248571109445" lon="114.39317106645396">
        <ele>23.73138427734375</ele>
        <time>2021-06-14T14:42:27Z</time>
      </trkpt>
      <trkpt lat="30.52253072950841" lon="114.39315695237916">
        <ele>23.6488037109375</ele>
        <time>2021-06-14T14:42:30Z</time>
      </trkpt>
      <trkpt lat="30.52258252266081" lon="114.39317295743565">
        <ele>23.70953369140625</ele>
        <time>2021-06-14T14:42:33Z</time>
      </trkpt>
      <trkpt lat="30.52265547321529" lon="114.39315612743067">
        <ele>22.43524169921875</ele>
        <time>2021-06-14T14:42:36Z</time>
      </trkpt>
      <trkpt lat="30.522937772040045" lon="114.39316397187362">
        <ele>21.933349609375</ele>
        <time>2021-06-14T14:42:48Z</time>
      </trkpt>
      <trkpt lat="30.523208679052544" lon="114.3931851134181">
        <ele>22.16278076171875</ele>
        <time>2021-06-14T14:43:00Z</time>
      </trkpt>
      <trkpt lat="30.52341749134686" lon="114.39316908557548">
        <ele>19.3944091796875</ele>
        <time>2021-06-14T14:43:09Z</time>
      </trkpt>
      <trkpt lat="30.523586459475254" lon="114.39303285409845">
        <ele>19.0977783203125</ele>
        <time>2021-06-14T14:43:18Z</time>
      </trkpt>
      <trkpt lat="30.523642619798352" lon="114.39287980997422">
        <ele>21.2154541015625</ele>
        <time>2021-06-14T14:43:24Z</time>
      </trkpt>
      <trkpt lat="30.523633693153542" lon="114.39275173625279">
        <ele>21.43634033203125</ele>
        <time>2021-06-14T14:43:30Z</time>
      </trkpt>
      <trkpt lat="30.523590340775797" lon="114.39254986150407">
        <ele>22.45330810546875</ele>
        <time>2021-06-14T14:43:39Z</time>
      </trkpt>
      <trkpt lat="30.52349545988594" lon="114.39237784044441">
        <ele>15.51116943359375</ele>
        <time>2021-06-14T14:43:48Z</time>
      </trkpt>
      <trkpt lat="30.523448552708658" lon="114.39234067119655">
        <ele>15.9754638671875</ele>
        <time>2021-06-14T14:43:51Z</time>
      </trkpt>
      <trkpt lat="30.523271481196726" lon="114.3922896751801">
        <ele>20.0889892578125</ele>
        <time>2021-06-14T14:44:00Z</time>
      </trkpt>
      <trkpt lat="30.522987284918756" lon="114.39227966053785">
        <ele>22.70684814453125</ele>
        <time>2021-06-14T14:44:12Z</time>
      </trkpt>
      <trkpt lat="30.522800436834494" lon="114.39229975583542">
        <ele>24.4547119140625</ele>
        <time>2021-06-14T14:44:21Z</time>
      </trkpt>
      <trkpt lat="30.522581590303382" lon="114.39231469853159">
        <ele>23.72515869140625</ele>
        <time>2021-06-14T14:44:33Z</time>
      </trkpt>
      <trkpt lat="30.522534409005413" lon="114.3922927243115">
        <ele>26.01751708984375</ele>
        <time>2021-06-14T14:44:36Z</time>
      </trkpt>
      <trkpt lat="30.522465526875234" lon="114.3923027698191">
        <ele>24.09356689453125</ele>
        <time>2021-06-14T14:44:39Z</time>
      </trkpt>
      <trkpt lat="30.52240559827529" lon="114.39228975085778">
        <ele>25.865966796875</ele>
        <time>2021-06-14T14:44:42Z</time>
      </trkpt>
      <trkpt lat="30.522285452016618" lon="114.39235488243486">
        <ele>25.0479736328125</ele>
        <time>2021-06-14T14:44:48Z</time>
      </trkpt>
      <trkpt lat="30.52217072062164" lon="114.39246695545987">
        <ele>27.7037353515625</ele>
        <time>2021-06-14T14:44:54Z</time>
      </trkpt>
      <trkpt lat="30.522091508881875" lon="114.39260995890358">
        <ele>27.45538330078125</ele>
        <time>2021-06-14T14:45:00Z</time>
      </trkpt>
      <trkpt lat="30.522062464878342" lon="114.39276299866022">
        <ele>28.20611572265625</ele>
        <time>2021-06-14T14:45:06Z</time>
      </trkpt>
      <trkpt lat="30.522071669502974" lon="114.39285199874418">
        <ele>28.29266357421875</ele>
        <time>2021-06-14T14:45:09Z</time>
      </trkpt>
      <trkpt lat="30.522252778540306" lon="114.393092938463">
        <ele>27.07244873046875</ele>
        <time>2021-06-14T14:45:21Z</time>
      </trkpt>
      <trkpt lat="30.522391613110443" lon="114.39315804993252">
        <ele>24.14605712890625</ele>
        <time>2021-06-14T14:45:27Z</time>
      </trkpt>
      <trkpt lat="30.522493576964187" lon="114.39316102585796">
        <ele>21.81732177734375</ele>
        <time>2021-06-14T14:45:30Z</time>
      </trkpt>
      <trkpt lat="30.52258058028086" lon="114.39319117094252">
        <ele>21.12823486328125</ele>
        <time>2021-06-14T14:45:33Z</time>
      </trkpt>
      <trkpt lat="30.52273048938632" lon="114.39319022188295">
        <ele>20.0245361328125</ele>
        <time>2021-06-14T14:45:39Z</time>
      </trkpt>
      <trkpt lat="30.522790512515577" lon="114.3932139129931">
        <ele>18.34271240234375</ele>
        <time>2021-06-14T14:45:42Z</time>
      </trkpt>
      <trkpt lat="30.52310264441057" lon="114.39320194633841">
        <ele>20.9814453125</ele>
        <time>2021-06-14T14:45:54Z</time>
      </trkpt>
      <trkpt lat="30.52335674055061" lon="114.39320789381723">
        <ele>18.828125</ele>
        <time>2021-06-14T14:46:06Z</time>
      </trkpt>
      <trkpt lat="30.52355472173429" lon="114.39309092524012">
        <ele>19.96319580078125</ele>
        <time>2021-06-14T14:46:18Z</time>
      </trkpt>
      <trkpt lat="30.523633665336803" lon="114.39291182950616">
        <ele>21.0767822265625</ele>
        <time>2021-06-14T14:46:27Z</time>
      </trkpt>
      <trkpt lat="30.523643740452464" lon="114.3926757593499">
        <ele>20.00372314453125</ele>
        <time>2021-06-14T14:46:36Z</time>
      </trkpt>
      <trkpt lat="30.523588460403534" lon="114.39245462126698">
        <ele>17.01287841796875</ele>
        <time>2021-06-14T14:46:45Z</time>
      </trkpt>
      <trkpt lat="30.523525566655056" lon="114.39234880460882">
        <ele>18.1439208984375</ele>
        <time>2021-06-14T14:46:51Z</time>
      </trkpt>
      <trkpt lat="30.523331418638723" lon="114.39225765215372">
        <ele>19.778076171875</ele>
        <time>2021-06-14T14:47:00Z</time>
      </trkpt>
      <trkpt lat="30.523054263611535" lon="114.39229566358856">
        <ele>21.48193359375</ele>
        <time>2021-06-14T14:47:12Z</time>
      </trkpt>
      <trkpt lat="30.52278254398262" lon="114.39227370901321">
        <ele>23.74761962890625</ele>
        <time>2021-06-14T14:47:24Z</time>
      </trkpt>
      <trkpt lat="30.522647493534915" lon="114.39228376029473">
        <ele>24.3541259765625</ele>
        <time>2021-06-14T14:47:30Z</time>
      </trkpt>
      <trkpt lat="30.522480446413034" lon="114.39227970483506">
        <ele>25.90081787109375</ele>
        <time>2021-06-14T14:47:39Z</time>
      </trkpt>
      <trkpt lat="30.52229034266727" lon="114.39230685519367">
        <ele>27.163818359375</ele>
        <time>2021-06-14T14:47:48Z</time>
      </trkpt>
      <trkpt lat="30.52212923609959" lon="114.39243385566716">
        <ele>27.42681884765625</ele>
        <time>2021-06-14T14:47:57Z</time>
      </trkpt>
      <trkpt lat="30.52206548076629" lon="114.3925809276493">
        <ele>28.87518310546875</ele>
        <time>2021-06-14T14:48:03Z</time>
      </trkpt>
      <trkpt lat="30.52202667012367" lon="114.39275594685643">
        <ele>30.7210693359375</ele>
        <time>2021-06-14T14:48:09Z</time>
      </trkpt>
      <trkpt lat="30.522068689983026" lon="114.3928319195024">
        <ele>30.5555419921875</ele>
        <time>2021-06-14T14:48:12Z</time>
      </trkpt>
      <trkpt lat="30.522068677924615" lon="114.39290192650091">
        <ele>29.40765380859375</ele>
        <time>2021-06-14T14:48:15Z</time>
      </trkpt>
      <trkpt lat="30.522100667857828" lon="114.39295809228142">
        <ele>25.74267578125</ele>
        <time>2021-06-14T14:48:18Z</time>
      </trkpt>
      <trkpt lat="30.522163573192497" lon="114.3930109993503">
        <ele>25.47491455078125</ele>
        <time>2021-06-14T14:48:21Z</time>
      </trkpt>
      <trkpt lat="30.52218444559914" lon="114.39306309618553">
        <ele>23.04901123046875</ele>
        <time>2021-06-14T14:48:24Z</time>
      </trkpt>
      <trkpt lat="30.522292634505767" lon="114.39314096361717">
        <ele>20.21282958984375</ele>
        <time>2021-06-14T14:48:30Z</time>
      </trkpt>
      <trkpt lat="30.522512551428854" lon="114.39321312323759">
        <ele>21.24615478515625</ele>
        <time>2021-06-14T14:48:39Z</time>
      </trkpt>
      <trkpt lat="30.52276068236453" lon="114.39321500099825">
        <ele>20.3836669921875</ele>
        <time>2021-06-14T14:48:48Z</time>
      </trkpt>
      <trkpt lat="30.52283254328298" lon="114.39322910489781">
        <ele>21.1075439453125</ele>
        <time>2021-06-14T14:48:51Z</time>
      </trkpt>
      <trkpt lat="30.52303674430173" lon="114.39322094656137">
        <ele>23.5908203125</ele>
        <time>2021-06-14T14:49:00Z</time>
      </trkpt>
      <trkpt lat="30.52309070722163" lon="114.39323505202921">
        <ele>23.39453125</ele>
        <time>2021-06-14T14:49:03Z</time>
      </trkpt>
      <trkpt lat="30.52321464191413" lon="114.39320492139304">
        <ele>23.127685546875</ele>
        <time>2021-06-14T14:49:09Z</time>
      </trkpt>
      <trkpt lat="30.523312862736415" lon="114.3932149458541">
        <ele>20.6181640625</ele>
        <time>2021-06-14T14:49:15Z</time>
      </trkpt>
      <trkpt lat="30.523523530204404" lon="114.3931259318743">
        <ele>22.97412109375</ele>
        <time>2021-06-14T14:49:24Z</time>
      </trkpt>
      <trkpt lat="30.523623628535542" lon="114.39293001054277">
        <ele>21.74493408203125</ele>
        <time>2021-06-14T14:49:33Z</time>
      </trkpt>
      <trkpt lat="30.52363774975766" lon="114.39281495901712">
        <ele>22.66595458984375</ele>
        <time>2021-06-14T14:49:39Z</time>
      </trkpt>
      <trkpt lat="30.523617453388624" lon="114.39257970664372">
        <ele>17.72509765625</ele>
        <time>2021-06-14T14:49:48Z</time>
      </trkpt>
      <trkpt lat="30.523580314155193" lon="114.39251187470344">
        <ele>15.46844482421875</ele>
        <time>2021-06-14T14:49:51Z</time>
      </trkpt>
      <trkpt lat="30.52355456877786" lon="114.39242287752592">
        <ele>14.14044189453125</ele>
        <time>2021-06-14T14:49:54Z</time>
      </trkpt>
      <trkpt lat="30.523401646548464" lon="114.3922986179394">
        <ele>16.18658447265625</ele>
        <time>2021-06-14T14:50:03Z</time>
      </trkpt>
      <trkpt lat="30.52332165669746" lon="114.39225466830041">
        <ele>17.88677978515625</ele>
        <time>2021-06-14T14:50:06Z</time>
      </trkpt>
      <trkpt lat="30.522989452979328" lon="114.39228671511837">
        <ele>20.7303466796875</ele>
        <time>2021-06-14T14:50:21Z</time>
      </trkpt>
      <trkpt lat="30.522711493586556" lon="114.39227778528112">
        <ele>20.98468017578125</ele>
        <time>2021-06-14T14:50:33Z</time>
      </trkpt>
      <trkpt lat="30.522401526814317" lon="114.39230874483984">
        <ele>24.333984375</ele>
        <time>2021-06-14T14:50:48Z</time>
      </trkpt>
      <trkpt lat="30.522329662267165" lon="114.39231580590051">
        <ele>25.3525390625</ele>
        <time>2021-06-14T14:50:51Z</time>
      </trkpt>
      <trkpt lat="30.522195410019513" lon="114.3924048166014">
        <ele>26.1568603515625</ele>
        <time>2021-06-14T14:50:57Z</time>
      </trkpt>
      <trkpt lat="30.522097481725538" lon="114.39257278461805">
        <ele>24.08111572265625</ele>
        <time>2021-06-14T14:51:06Z</time>
      </trkpt>
      <trkpt lat="30.522085521207412" lon="114.39272989275385">
        <ele>24.946533203125</ele>
        <time>2021-06-14T14:51:12Z</time>
      </trkpt>
      <trkpt lat="30.522113423250016" lon="114.39290002317257">
        <ele>28.35198974609375</ele>
        <time>2021-06-14T14:51:18Z</time>
      </trkpt>
      <trkpt lat="30.522206679579885" lon="114.3930810031869">
        <ele>26.7227783203125</ele>
        <time>2021-06-14T14:51:27Z</time>
      </trkpt>
      <trkpt lat="30.52225684169806" lon="114.39312115831069">
        <ele>26.35882568359375</ele>
        <time>2021-06-14T14:51:30Z</time>
      </trkpt>
      <trkpt lat="30.52249655819039" lon="114.39317215090178">
        <ele>20.64239501953125</ele>
        <time>2021-06-14T14:51:39Z</time>
      </trkpt>
      <trkpt lat="30.52278265248918" lon="114.39318705009613">
        <ele>17.18487548828125</ele>
        <time>2021-06-14T14:51:51Z</time>
      </trkpt>
      <trkpt lat="30.52292882015565" lon="114.39318215303716">
        <ele>16.85174560546875</ele>
        <time>2021-06-14T14:51:57Z</time>
      </trkpt>
      <trkpt lat="30.523247722901615" lon="114.39322499836652">
        <ele>13.9017333984375</ele>
        <time>2021-06-14T14:52:12Z</time>
      </trkpt>
      <trkpt lat="30.52341152362889" lon="114.39317994005674">
        <ele>16.46014404296875</ele>
        <time>2021-06-14T14:52:21Z</time>
      </trkpt>
      <trkpt lat="30.523527602136777" lon="114.39309988209283">
        <ele>18.82025146484375</ele>
        <time>2021-06-14T14:52:27Z</time>
      </trkpt>
      <trkpt lat="30.52353249253702" lon="114.39304398405059">
        <ele>19.0882568359375</ele>
        <time>2021-06-14T14:52:30Z</time>
      </trkpt>
      <trkpt lat="30.523579689235476" lon="114.39297695725664">
        <ele>21.7880859375</ele>
        <time>2021-06-14T14:52:33Z</time>
      </trkpt>
      <trkpt lat="30.52361957890092" lon="114.39282472900139">
        <ele>21.80938720703125</ele>
        <time>2021-06-14T14:52:39Z</time>
      </trkpt>
      <trkpt lat="30.523611487748227" lon="114.39257780777687">
        <ele>21.67694091796875</ele>
        <time>2021-06-14T14:52:48Z</time>
      </trkpt>
      <trkpt lat="30.523546428985227" lon="114.39244567073733">
        <ele>22.275390625</ele>
        <time>2021-06-14T14:52:54Z</time>
      </trkpt>
      <trkpt lat="30.52335066678165" lon="114.39228668354806">
        <ele>21.25616455078125</ele>
        <time>2021-06-14T14:53:06Z</time>
      </trkpt>
      <trkpt lat="30.52310145332355" lon="114.39227476648935">
        <ele>21.89996337890625</ele>
        <time>2021-06-14T14:53:18Z</time>
      </trkpt>
      <trkpt lat="30.523041243751457" lon="114.39231167364349">
        <ele>23.1180419921875</ele>
        <time>2021-06-14T14:53:21Z</time>
      </trkpt>
      <trkpt lat="30.522957456284786" lon="114.39227287971441">
        <ele>23.36175537109375</ele>
        <time>2021-06-14T14:53:24Z</time>
      </trkpt>
      <trkpt lat="30.52265536096752" lon="114.3922677507117">
        <ele>22.46319580078125</ele>
        <time>2021-06-14T14:53:39Z</time>
      </trkpt>
      <trkpt lat="30.522367632403405" lon="114.39229192487517">
        <ele>22.523193359375</ele>
        <time>2021-06-14T14:53:54Z</time>
      </trkpt>
      <trkpt lat="30.522198400347943" lon="114.39236682892913">
        <ele>24.39874267578125</ele>
        <time>2021-06-14T14:54:03Z</time>
      </trkpt>
      <trkpt lat="30.52208364789842" lon="114.39259205105387">
        <ele>25.26678466796875</ele>
        <time>2021-06-14T14:54:12Z</time>
      </trkpt>
      <trkpt lat="30.522056502242357" lon="114.39274400513884">
        <ele>27.6524658203125</ele>
        <time>2021-06-14T14:54:18Z</time>
      </trkpt>
      <trkpt lat="30.522097423012934" lon="114.39290300937039">
        <ele>30.0965576171875</ele>
        <time>2021-06-14T14:54:24Z</time>
      </trkpt>
      <trkpt lat="30.522186620006583" lon="114.39303297644202">
        <ele>26.95977783203125</ele>
        <time>2021-06-14T14:54:30Z</time>
      </trkpt>
      <trkpt lat="30.522257657523582" lon="114.39310704813316">
        <ele>23.0172119140625</ele>
        <time>2021-06-14T14:54:33Z</time>
      </trkpt>
      <trkpt lat="30.52242361047917" lon="114.39317107188133">
        <ele>21.01763916015625</ele>
        <time>2021-06-14T14:54:39Z</time>
      </trkpt>
      <trkpt lat="30.522527741889533" lon="114.393185986978">
        <ele>19.998779296875</ele>
        <time>2021-06-14T14:54:42Z</time>
      </trkpt>
      <trkpt lat="30.522878654926558" lon="114.39316099220318">
        <ele>20.39996337890625</ele>
        <time>2021-06-14T14:54:54Z</time>
      </trkpt>
      <trkpt lat="30.522966789422984" lon="114.39315799966367">
        <ele>19.90460205078125</ele>
        <time>2021-06-14T14:54:57Z</time>
      </trkpt>
      <trkpt lat="30.523153628900896" lon="114.39318701767344">
        <ele>20.04864501953125</ele>
        <time>2021-06-14T14:55:03Z</time>
      </trkpt>
      <trkpt lat="30.523227664778013" lon="114.39316611732832">
        <ele>19.75714111328125</ele>
        <time>2021-06-14T14:55:06Z</time>
      </trkpt>
      <trkpt lat="30.523318774202554" lon="114.39321386682381">
        <ele>19.49346923828125</ele>
        <time>2021-06-14T14:55:09Z</time>
      </trkpt>
      <trkpt lat="30.52361465362303" lon="114.39308603574051">
        <ele>19.0355224609375</ele>
        <time>2021-06-14T14:55:18Z</time>
      </trkpt>
      <trkpt lat="30.523686536576456" lon="114.39296582271875">
        <ele>20.29766845703125</ele>
        <time>2021-06-14T14:55:21Z</time>
      </trkpt>
      <trkpt lat="30.523691704144206" lon="114.39287682088803">
        <ele>20.27862548828125</ele>
        <time>2021-06-14T14:55:24Z</time>
      </trkpt>
      <trkpt lat="30.52366351184897" lon="114.39281577079831">
        <ele>21.58624267578125</ele>
        <time>2021-06-14T14:55:27Z</time>
      </trkpt>
      <trkpt lat="30.52366270850676" lon="114.3927577032734">
        <ele>21.25396728515625</ele>
        <time>2021-06-14T14:55:30Z</time>
      </trkpt>
      <trkpt lat="30.52362476607464" lon="114.39262990418541">
        <ele>18.80242919921875</ele>
        <time>2021-06-14T14:55:33Z</time>
      </trkpt>
      <trkpt lat="30.52355835300042" lon="114.39248772735016">
        <ele>17.45892333984375</ele>
        <time>2021-06-14T14:55:39Z</time>
      </trkpt>
      <trkpt lat="30.523463460684653" lon="114.39237675788704">
        <ele>18.3658447265625</ele>
        <time>2021-06-14T14:55:45Z</time>
      </trkpt>
      <trkpt lat="30.52324843135678" lon="114.39228669248355">
        <ele>21.93218994140625</ele>
        <time>2021-06-14T14:55:54Z</time>
      </trkpt>
      <trkpt lat="30.523121242310843" lon="114.3923116666516">
        <ele>22.6180419921875</ele>
        <time>2021-06-14T14:56:00Z</time>
      </trkpt>
      <trkpt lat="30.522846542042686" lon="114.39227777347799">
        <ele>24.0006103515625</ele>
        <time>2021-06-14T14:56:12Z</time>
      </trkpt>
      <trkpt lat="30.522506481198313" lon="114.39227291912923">
        <ele>26.32586669921875</ele>
        <time>2021-06-14T14:56:27Z</time>
      </trkpt>
      <trkpt lat="30.52238635027194" lon="114.3922599054482">
        <ele>22.74346923828125</ele>
        <time>2021-06-14T14:56:36Z</time>
      </trkpt>
      <trkpt lat="30.52238635027194" lon="114.3922599054482">
        <ele>22.74346923828125</ele>
        <time>2021-06-14T14:56:38Z</time>
      </trkpt>
    </trkseg>
  </trk>
</gpx>