<?xml version="1.0" encoding="UTF-8"?>
<gpx xmlns="http://www.topografix.com/GPX/1/1" xmlns:gpxtpx="http://www.garmin.com/xmlschemas/TrackPointExtension/v1" xmlns:xsi="http://www.w3.org/2001/XMLSchema-instance" xsi:schemaLocation="http://www.topografix.com/GPX/1/1 http://www.topografix.com/GPX/1/1/gpx.xsd" version="1.1" creator="gpx.py -- https://github.com/tkrajina/gpxpy">
  <trk>
    <name>gpx from keep</name>
    <type>Run</type>
    <trkseg>
      <trkpt lat="35.975074059552405" lon="119.50775914801027">
        <ele>104.14</ele>
        <time>2020-02-12T09:36:17Z</time>
      </trkpt>
      <trkpt lat="35.975090373643795" lon="119.50768515425318">
        <ele>109.65</ele>
        <time>2020-02-12T09:36:20Z</time>
      </trkpt>
      <trkpt lat="35.97521907499641" lon="119.50764722590229">
        <ele>108.97</ele>
        <time>2020-02-12T09:36:29Z</time>
      </trkpt>
      <trkpt lat="35.97538636993784" lon="119.50754087296089">
        <ele>106.84</ele>
        <time>2020-02-12T09:36:47Z</time>
      </trkpt>
      <trkpt lat="35.97544837365347" lon="119.50746732849262">
        <ele>108.19</ele>
        <time>2020-02-12T09:36:53Z</time>
      </trkpt>
      <trkpt lat="35.97547653306882" lon="119.50710931849991">
        <ele>107.33</ele>
        <time>2020-02-12T09:37:14Z</time>
      </trkpt>
      <trkpt lat="35.975484558484965" lon="119.50681898250957">
        <ele>105.14</ele>
        <time>2020-02-12T09:37:29Z</time>
      </trkpt>
      <trkpt lat="35.975431804580836" lon="119.50651528791191">
        <ele>104.5</ele>
        <time>2020-02-12T09:37:47Z</time>
      </trkpt>
      <trkpt lat="35.97541894339301" lon="119.50614379763516">
        <ele>101.69</ele>
        <time>2020-02-12T09:38:08Z</time>
      </trkpt>
      <trkpt lat="35.97541895361056" lon="119.50593582385154">
        <ele>100.77</ele>
        <time>2020-02-12T09:38:20Z</time>
      </trkpt>
      <trkpt lat="35.97538689275986" lon="119.5055390645373">
        <ele>101.83</ele>
        <time>2020-02-12T09:38:44Z</time>
      </trkpt>
      <trkpt lat="35.97536877042708" lon="119.50515756306054">
        <ele>101.21</ele>
        <time>2020-02-12T09:39:05Z</time>
      </trkpt>
      <trkpt lat="35.97536459791061" lon="119.50476321151139">
        <ele>99.88</ele>
        <time>2020-02-12T09:39:26Z</time>
      </trkpt>
      <trkpt lat="35.97534847395192" lon="119.50438836791069">
        <ele>100.01</ele>
        <time>2020-02-12T09:39:47Z</time>
      </trkpt>
      <trkpt lat="35.975326026135235" lon="119.50409468817384">
        <ele>100.05</ele>
        <time>2020-02-12T09:40:02Z</time>
      </trkpt>
      <trkpt lat="35.97530030985889" lon="119.50400585445078">
        <ele>98.83</ele>
        <time>2020-02-12T09:40:08Z</time>
      </trkpt>
      <trkpt lat="35.97523185333644" lon="119.50392892044242">
        <ele>97.27</ele>
        <time>2020-02-12T09:40:14Z</time>
      </trkpt>
      <trkpt lat="35.97505029717825" lon="119.50385958734769">
        <ele>98.62</ele>
        <time>2020-02-12T09:40:26Z</time>
      </trkpt>
      <trkpt lat="35.974756278962595" lon="119.50385980109581">
        <ele>98.31</ele>
        <time>2020-02-12T09:40:44Z</time>
      </trkpt>
      <trkpt lat="35.97447036013528" lon="119.5038743137972">
        <ele>97.21</ele>
        <time>2020-02-12T09:40:56Z</time>
      </trkpt>
      <trkpt lat="35.97414466026493" lon="119.50392135485433">
        <ele>99.9</ele>
        <time>2020-02-12T09:41:11Z</time>
      </trkpt>
      <trkpt lat="35.974019999834056" lon="119.50395140445612">
        <ele>98.05</ele>
        <time>2020-02-12T09:41:20Z</time>
      </trkpt>
      <trkpt lat="35.973842391494294" lon="119.50393684769419">
        <ele>99.05</ele>
        <time>2020-02-12T09:41:29Z</time>
      </trkpt>
      <trkpt lat="35.97352148200224" lon="119.5039733193763">
        <ele>101.38</ele>
        <time>2020-02-12T09:41:47Z</time>
      </trkpt>
      <trkpt lat="35.973238991366095" lon="119.50403237905046">
        <ele>99.66</ele>
        <time>2020-02-12T09:42:02Z</time>
      </trkpt>
      <trkpt lat="35.97293455352818" lon="119.50402473345491">
        <ele>102.79</ele>
        <time>2020-02-12T09:42:17Z</time>
      </trkpt>
      <trkpt lat="35.97265383376406" lon="119.50406151458337">
        <ele>107.51</ele>
        <time>2020-02-12T09:42:32Z</time>
      </trkpt>
      <trkpt lat="35.97250550386624" lon="119.50408144514316">
        <ele>109.14</ele>
        <time>2020-02-12T09:42:41Z</time>
      </trkpt>
      <trkpt lat="35.972398125284464" lon="119.50406246778918">
        <ele>109.12</ele>
        <time>2020-02-12T09:42:47Z</time>
      </trkpt>
      <trkpt lat="35.97211795553568" lon="119.50409862894394">
        <ele>108.1</ele>
        <time>2020-02-12T09:43:05Z</time>
      </trkpt>
      <trkpt lat="35.97186533522664" lon="119.50414431909613">
        <ele>108.97</ele>
        <time>2020-02-12T09:43:20Z</time>
      </trkpt>
      <trkpt lat="35.971761986993" lon="119.50411626230851">
        <ele>112.9</ele>
        <time>2020-02-12T09:43:26Z</time>
      </trkpt>
      <trkpt lat="35.9717128666067" lon="119.50413320179517">
        <ele>112.07</ele>
        <time>2020-02-12T09:43:29Z</time>
      </trkpt>
      <trkpt lat="35.97148238669553" lon="119.50416562255265">
        <ele>104.17</ele>
        <time>2020-02-12T09:43:44Z</time>
      </trkpt>
      <trkpt lat="35.97138165771661" lon="119.50415560451721">
        <ele>106.77</ele>
        <time>2020-02-12T09:43:50Z</time>
      </trkpt>
      <trkpt lat="35.97110621627331" lon="119.50423214285159">
        <ele>105.58</ele>
        <time>2020-02-12T09:44:05Z</time>
      </trkpt>
      <trkpt lat="35.97098836739396" lon="119.50422231502561">
        <ele>106.77</ele>
        <time>2020-02-12T09:44:11Z</time>
      </trkpt>
      <trkpt lat="35.97092670682582" lon="119.5042453542474">
        <ele>106.78</ele>
        <time>2020-02-12T09:44:14Z</time>
      </trkpt>
      <trkpt lat="35.97083713784597" lon="119.50423378617896">
        <ele>110.72</ele>
        <time>2020-02-12T09:44:17Z</time>
      </trkpt>
      <trkpt lat="35.970562738407516" lon="119.50426085784328">
        <ele>110.7</ele>
        <time>2020-02-12T09:44:29Z</time>
      </trkpt>
      <trkpt lat="35.97050410971645" lon="119.5042376701709">
        <ele>110.21</ele>
        <time>2020-02-12T09:44:32Z</time>
      </trkpt>
      <trkpt lat="35.970211200746064" lon="119.50425608266076">
        <ele>114.4</ele>
        <time>2020-02-12T09:44:44Z</time>
      </trkpt>
      <trkpt lat="35.969936370943536" lon="119.50429198372366">
        <ele>102.21</ele>
        <time>2020-02-12T09:44:56Z</time>
      </trkpt>
      <trkpt lat="35.969865011055816" lon="119.50429980410105">
        <ele>103.78</ele>
        <time>2020-02-12T09:44:59Z</time>
      </trkpt>
      <trkpt lat="35.96971435260052" lon="119.50428460706404">
        <ele>108.03</ele>
        <time>2020-02-12T09:45:05Z</time>
      </trkpt>
      <trkpt lat="35.969394582054186" lon="119.5043449670185">
        <ele>111.86</ele>
        <time>2020-02-12T09:45:17Z</time>
      </trkpt>
      <trkpt lat="35.96910187296254" lon="119.50436604931012">
        <ele>112.32</ele>
        <time>2020-02-12T09:45:29Z</time>
      </trkpt>
      <trkpt lat="35.96887568368635" lon="119.50438178111752">
        <ele>114.59</ele>
        <time>2020-02-12T09:45:38Z</time>
      </trkpt>
      <trkpt lat="35.96854031606002" lon="119.50437384594682">
        <ele>114.93</ele>
        <time>2020-02-12T09:45:53Z</time>
      </trkpt>
      <trkpt lat="35.96841209502417" lon="119.5044174245824">
        <ele>112.08</ele>
        <time>2020-02-12T09:45:59Z</time>
      </trkpt>
      <trkpt lat="35.96825071742108" lon="119.50438353897853">
        <ele>113.48</ele>
        <time>2020-02-12T09:46:08Z</time>
      </trkpt>
      <trkpt lat="35.96805581680544" lon="119.50442673848927">
        <ele>113.08</ele>
        <time>2020-02-12T09:46:20Z</time>
      </trkpt>
      <trkpt lat="35.96780411816348" lon="119.50443093141372">
        <ele>115.71</ele>
        <time>2020-02-12T09:46:35Z</time>
      </trkpt>
      <trkpt lat="35.96769854934276" lon="119.50441811364675">
        <ele>118.9</ele>
        <time>2020-02-12T09:46:41Z</time>
      </trkpt>
      <trkpt lat="35.96759473877549" lon="119.5044467729921">
        <ele>120.66</ele>
        <time>2020-02-12T09:46:47Z</time>
      </trkpt>
      <trkpt lat="35.96728715988668" lon="119.50446494566118">
        <ele>122.65</ele>
        <time>2020-02-12T09:47:05Z</time>
      </trkpt>
      <trkpt lat="35.967238740282845" lon="119.50446253644623">
        <ele>123.94</ele>
        <time>2020-02-12T09:47:08Z</time>
      </trkpt>
      <trkpt lat="35.96719108927168" lon="119.50449347490911">
        <ele>122.53</ele>
        <time>2020-02-12T09:47:11Z</time>
      </trkpt>
      <trkpt lat="35.96713843955616" lon="119.50449433552151">
        <ele>122.37</ele>
        <time>2020-02-12T09:47:14Z</time>
      </trkpt>
      <trkpt lat="35.96697076765849" lon="119.50456335285644">
        <ele>117.5</ele>
        <time>2020-02-12T09:47:26Z</time>
      </trkpt>
      <trkpt lat="35.96672416921412" lon="119.50456209609207">
        <ele>118.14</ele>
        <time>2020-02-12T09:47:41Z</time>
      </trkpt>
      <trkpt lat="35.96659887674766" lon="119.5046378823845">
        <ele>114.29</ele>
        <time>2020-02-12T09:47:50Z</time>
      </trkpt>
      <trkpt lat="35.96644713765956" lon="119.50463817430078">
        <ele>112.08</ele>
        <time>2020-02-12T09:47:59Z</time>
      </trkpt>
      <trkpt lat="35.96633478956142" lon="119.50460967773398">
        <ele>112.13</ele>
        <time>2020-02-12T09:48:05Z</time>
      </trkpt>
      <trkpt lat="35.96605221955432" lon="119.5046501085025">
        <ele>112.02</ele>
        <time>2020-02-12T09:48:17Z</time>
      </trkpt>
      <trkpt lat="35.96596822957382" lon="119.50466158876691">
        <ele>113.97</ele>
        <time>2020-02-12T09:48:20Z</time>
      </trkpt>
      <trkpt lat="35.96586758110665" lon="119.50464012156067">
        <ele>116.19</ele>
        <time>2020-02-12T09:48:23Z</time>
      </trkpt>
      <trkpt lat="35.965744530675906" lon="119.50466766119423">
        <ele>117.34</ele>
        <time>2020-02-12T09:48:29Z</time>
      </trkpt>
      <trkpt lat="35.96562802316827" lon="119.50485722923543">
        <ele>117.55</ele>
        <time>2020-02-12T09:48:38Z</time>
      </trkpt>
      <trkpt lat="35.965631527986616" lon="119.50519757455125">
        <ele>118.31</ele>
        <time>2020-02-12T09:48:50Z</time>
      </trkpt>
      <trkpt lat="35.96564056984444" lon="119.50558912529672">
        <ele>119.15</ele>
        <time>2020-02-12T09:49:02Z</time>
      </trkpt>
      <trkpt lat="35.965661675412775" lon="119.50568013813297">
        <ele>119.11</ele>
        <time>2020-02-12T09:49:05Z</time>
      </trkpt>
      <trkpt lat="35.965663435676355" lon="119.50608769667674">
        <ele>118.83</ele>
        <time>2020-02-12T09:49:17Z</time>
      </trkpt>
      <trkpt lat="35.965673815386715" lon="119.50649047458108">
        <ele>119.7</ele>
        <time>2020-02-12T09:49:29Z</time>
      </trkpt>
      <trkpt lat="35.965671964522016" lon="119.50670128751997">
        <ele>119.98</ele>
        <time>2020-02-12T09:49:35Z</time>
      </trkpt>
      <trkpt lat="35.96568462927182" lon="119.5068002292559">
        <ele>119.71</ele>
        <time>2020-02-12T09:49:38Z</time>
      </trkpt>
      <trkpt lat="35.96568945943561" lon="119.50717160830318">
        <ele>119.67</ele>
        <time>2020-02-12T09:49:50Z</time>
      </trkpt>
      <trkpt lat="35.96571158842868" lon="119.50755105567988">
        <ele>118.11</ele>
        <time>2020-02-12T09:50:02Z</time>
      </trkpt>
      <trkpt lat="35.96572802591537" lon="119.50794615096103">
        <ele>119.34</ele>
        <time>2020-02-12T09:50:14Z</time>
      </trkpt>
      <trkpt lat="35.96570987573193" lon="119.50829380012522">
        <ele>119.37</ele>
        <time>2020-02-12T09:50:29Z</time>
      </trkpt>
      <trkpt lat="35.965717740375716" lon="119.50855016669465">
        <ele>121.55</ele>
        <time>2020-02-12T09:50:41Z</time>
      </trkpt>
      <trkpt lat="35.9657022061915" lon="119.50862097038666">
        <ele>122.43</ele>
        <time>2020-02-12T09:50:44Z</time>
      </trkpt>
      <trkpt lat="35.96568324284346" lon="119.50900290506475">
        <ele>121.44</ele>
        <time>2020-02-12T09:51:05Z</time>
      </trkpt>
      <trkpt lat="35.96571519567599" lon="119.50942958399547">
        <ele>119.76</ele>
        <time>2020-02-12T09:51:29Z</time>
      </trkpt>
      <trkpt lat="35.9657133651996" lon="119.50959215826775">
        <ele>120.37</ele>
        <time>2020-02-12T09:51:38Z</time>
      </trkpt>
      <trkpt lat="35.96574081589324" lon="119.51003475431682">
        <ele>117.51</ele>
        <time>2020-02-12T09:52:02Z</time>
      </trkpt>
      <trkpt lat="35.9657732758323" lon="119.51047541944907">
        <ele>120.22</ele>
        <time>2020-02-12T09:52:26Z</time>
      </trkpt>
      <trkpt lat="35.96577434213222" lon="119.51081647431796">
        <ele>120.99</ele>
        <time>2020-02-12T09:52:44Z</time>
      </trkpt>
      <trkpt lat="35.96580467129866" lon="119.51110792343016">
        <ele>119.56</ele>
        <time>2020-02-12T09:52:59Z</time>
      </trkpt>
      <trkpt lat="35.96583121762193" lon="119.5111570179092">
        <ele>119.05</ele>
        <time>2020-02-12T09:53:02Z</time>
      </trkpt>
      <trkpt lat="35.96611577939593" lon="119.51110793945996">
        <ele>115.91</ele>
        <time>2020-02-12T09:53:17Z</time>
      </trkpt>
      <trkpt lat="35.96630633812553" lon="119.51110941687324">
        <ele>116.85</ele>
        <time>2020-02-12T09:53:23Z</time>
      </trkpt>
      <trkpt lat="35.96661990834296" lon="119.51107953602089">
        <ele>116.96</ele>
        <time>2020-02-12T09:53:32Z</time>
      </trkpt>
      <trkpt lat="35.966916927282256" lon="119.51106895334505">
        <ele>115.73</ele>
        <time>2020-02-12T09:53:41Z</time>
      </trkpt>
      <trkpt lat="35.96711124866377" lon="119.51103288465721">
        <ele>117.49</ele>
        <time>2020-02-12T09:53:47Z</time>
      </trkpt>
      <trkpt lat="35.967371397142706" lon="119.51103191143974">
        <ele>115.76</ele>
        <time>2020-02-12T09:53:56Z</time>
      </trkpt>
      <trkpt lat="35.96772770750344" lon="119.51099619064068">
        <ele>113.72</ele>
        <time>2020-02-12T09:54:08Z</time>
      </trkpt>
      <trkpt lat="35.96792159848866" lon="119.51096559137137">
        <ele>112.45</ele>
        <time>2020-02-12T09:54:14Z</time>
      </trkpt>
      <trkpt lat="35.96821560664967" lon="119.51096617755736">
        <ele>114.56</ele>
        <time>2020-02-12T09:54:23Z</time>
      </trkpt>
      <trkpt lat="35.968486027308074" lon="119.51093352752024">
        <ele>115.0</ele>
        <time>2020-02-12T09:54:35Z</time>
      </trkpt>
      <trkpt lat="35.96878256587364" lon="119.51092817429402">
        <ele>116.38</ele>
        <time>2020-02-12T09:54:53Z</time>
      </trkpt>
      <trkpt lat="35.9690268479537" lon="119.51087755645653">
        <ele>115.69</ele>
        <time>2020-02-12T09:55:08Z</time>
      </trkpt>
      <trkpt lat="35.96923697568546" lon="119.51089150232002">
        <ele>115.61</ele>
        <time>2020-02-12T09:55:20Z</time>
      </trkpt>
      <trkpt lat="35.96956320628698" lon="119.51085466199238">
        <ele>113.47</ele>
        <time>2020-02-12T09:55:41Z</time>
      </trkpt>
      <trkpt lat="35.9698373460825" lon="119.51083374066798">
        <ele>112.3</ele>
        <time>2020-02-12T09:55:59Z</time>
      </trkpt>
      <trkpt lat="35.970119987631854" lon="119.5107870519067">
        <ele>112.08</ele>
        <time>2020-02-12T09:56:17Z</time>
      </trkpt>
      <trkpt lat="35.97039784850956" lon="119.5107502521711">
        <ele>111.27</ele>
        <time>2020-02-12T09:56:35Z</time>
      </trkpt>
      <trkpt lat="35.97072738766763" lon="119.51073346969851">
        <ele>108.69</ele>
        <time>2020-02-12T09:56:47Z</time>
      </trkpt>
      <trkpt lat="35.971008426492695" lon="119.51072568691332">
        <ele>110.77</ele>
        <time>2020-02-12T09:56:56Z</time>
      </trkpt>
      <trkpt lat="35.971287615600225" lon="119.51071401455309">
        <ele>110.22</ele>
        <time>2020-02-12T09:57:05Z</time>
      </trkpt>
      <trkpt lat="35.971631345249925" lon="119.51068889275562">
        <ele>109.76</ele>
        <time>2020-02-12T09:57:17Z</time>
      </trkpt>
      <trkpt lat="35.97200088394294" lon="119.51067520944535">
        <ele>113.2</ele>
        <time>2020-02-12T09:57:29Z</time>
      </trkpt>
      <trkpt lat="35.97231664461877" lon="119.51063771927257">
        <ele>110.87</ele>
        <time>2020-02-12T09:57:44Z</time>
      </trkpt>
      <trkpt lat="35.9724247836845" lon="119.51064164748625">
        <ele>109.84</ele>
        <time>2020-02-12T09:57:50Z</time>
      </trkpt>
      <trkpt lat="35.972517436066376" lon="119.51059915067204">
        <ele>109.5</ele>
        <time>2020-02-12T09:57:56Z</time>
      </trkpt>
      <trkpt lat="35.97282207532731" lon="119.5105829184451">
        <ele>109.54</ele>
        <time>2020-02-12T09:58:14Z</time>
      </trkpt>
      <trkpt lat="35.973118734713296" lon="119.51056556643324">
        <ele>107.25</ele>
        <time>2020-02-12T09:58:32Z</time>
      </trkpt>
      <trkpt lat="35.97337793678225" lon="119.51051262854041">
        <ele>105.46</ele>
        <time>2020-02-12T09:58:50Z</time>
      </trkpt>
      <trkpt lat="35.97366490504443" lon="119.51051237489777">
        <ele>103.47</ele>
        <time>2020-02-12T09:59:08Z</time>
      </trkpt>
      <trkpt lat="35.97394208487034" lon="119.5104902836116">
        <ele>107.46</ele>
        <time>2020-02-12T09:59:26Z</time>
      </trkpt>
      <trkpt lat="35.97422723407072" lon="119.51047655136769">
        <ele>105.31</ele>
        <time>2020-02-12T09:59:44Z</time>
      </trkpt>
      <trkpt lat="35.9745090063134" lon="119.51041876365352">
        <ele>102.85</ele>
        <time>2020-02-12T10:00:02Z</time>
      </trkpt>
      <trkpt lat="35.97478276497731" lon="119.51041382065556">
        <ele>100.57</ele>
        <time>2020-02-12T10:00:17Z</time>
      </trkpt>
      <trkpt lat="35.975097293972084" lon="119.51040039799793">
        <ele>100.03</ele>
        <time>2020-02-12T10:00:35Z</time>
      </trkpt>
      <trkpt lat="35.97529453407583" lon="119.51038123742194">
        <ele>102.49</ele>
        <time>2020-02-12T10:00:47Z</time>
      </trkpt>
      <trkpt lat="35.97538047549614" lon="119.5103527392145">
        <ele>102.56</ele>
        <time>2020-02-12T10:00:53Z</time>
      </trkpt>
      <trkpt lat="35.97545690549413" lon="119.51019858380413">
        <ele>101.55</ele>
        <time>2020-02-12T10:01:02Z</time>
      </trkpt>
      <trkpt lat="35.975577412072894" lon="119.5100899031612">
        <ele>102.13</ele>
        <time>2020-02-12T10:01:11Z</time>
      </trkpt>
      <trkpt lat="35.97559543546254" lon="119.51003763814926">
        <ele>102.82</ele>
        <time>2020-02-12T10:01:14Z</time>
      </trkpt>
      <trkpt lat="35.975563729296816" lon="119.50967981388953">
        <ele>103.21</ele>
        <time>2020-02-12T10:01:32Z</time>
      </trkpt>
      <trkpt lat="35.97553535914366" lon="119.50937534377654">
        <ele>101.97</ele>
        <time>2020-02-12T10:01:47Z</time>
      </trkpt>
      <trkpt lat="35.97551610112162" lon="119.50902937696463">
        <ele>102.46</ele>
        <time>2020-02-12T10:02:05Z</time>
      </trkpt>
      <trkpt lat="35.975514423929376" lon="119.50865934150403">
        <ele>101.52</ele>
        <time>2020-02-12T10:02:23Z</time>
      </trkpt>
      <trkpt lat="35.97547858852586" lon="119.50842077382373">
        <ele>104.08</ele>
        <time>2020-02-12T10:02:35Z</time>
      </trkpt>
      <trkpt lat="35.97550725919855" lon="119.5080671552929">
        <ele>98.34</ele>
        <time>2020-02-12T10:02:53Z</time>
      </trkpt>
      <trkpt lat="35.97547998634589" lon="119.5077719316999">
        <ele>101.02</ele>
        <time>2020-02-12T10:03:08Z</time>
      </trkpt>
      <trkpt lat="35.97545782972171" lon="119.50771481696982">
        <ele>101.88</ele>
        <time>2020-02-12T10:03:11Z</time>
      </trkpt>
      <trkpt lat="35.97537371347335" lon="119.50765749303278">
        <ele>103.9</ele>
        <time>2020-02-12T10:03:17Z</time>
      </trkpt>
      <trkpt lat="35.97531804861835" lon="119.50757194115413">
        <ele>105.18</ele>
        <time>2020-02-12T10:03:23Z</time>
      </trkpt>
      <trkpt lat="35.97527214908785" lon="119.50756856203311">
        <ele>105.31</ele>
        <time>2020-02-12T10:03:26Z</time>
      </trkpt>
      <trkpt lat="35.97518073708842" lon="119.50761418925673">
        <ele>104.87</ele>
        <time>2020-02-12T10:03:32Z</time>
      </trkpt>
      <trkpt lat="35.975140725188346" lon="119.5076523164627">
        <ele>103.45</ele>
        <time>2020-02-12T10:03:35Z</time>
      </trkpt>
      <trkpt lat="35.97510110194333" lon="119.50788952622395">
        <ele>102.7</ele>
        <time>2020-02-12T10:03:47Z</time>
      </trkpt>
      <trkpt lat="35.9750516664159" lon="119.50799071791317">
        <ele>103.34</ele>
        <time>2020-02-12T10:03:53Z</time>
      </trkpt>
      <trkpt lat="35.975000355569044" lon="119.50801076679102">
        <ele>104.77</ele>
        <time>2020-02-12T10:03:56Z</time>
      </trkpt>
      <trkpt lat="35.974683678737954" lon="119.50798944273298">
        <ele>113.02</ele>
        <time>2020-02-12T10:04:14Z</time>
      </trkpt>
      <trkpt lat="35.97458252902447" lon="119.50799517351855">
        <ele>114.02</ele>
        <time>2020-02-12T10:04:20Z</time>
      </trkpt>
      <trkpt lat="35.97454062048559" lon="119.50797432590207">
        <ele>115.03</ele>
        <time>2020-02-12T10:04:23Z</time>
      </trkpt>
      <trkpt lat="35.974484569203504" lon="119.50782849947615">
        <ele>112.09</ele>
        <time>2020-02-12T10:04:32Z</time>
      </trkpt>
      <trkpt lat="35.974427569070684" lon="119.50783691946592">
        <ele>112.41</ele>
        <time>2020-02-12T10:04:35Z</time>
      </trkpt>
      <trkpt lat="35.97429414166387" lon="119.5079271363787">
        <ele>102.43</ele>
        <time>2020-02-12T10:04:43Z</time>
      </trkpt>
      <trkpt lat="35.97415136265814" lon="119.50797819628123">
        <ele>101.81</ele>
        <time>2020-02-12T10:04:59Z</time>
      </trkpt>
      <trkpt lat="35.974186577146824" lon="119.50815738538077">
        <ele>104.57</ele>
        <time>2020-02-12T10:05:06Z</time>
      </trkpt>
      <trkpt lat="35.974181090835145" lon="119.50810620128902">
        <ele>107.5</ele>
        <time>2020-02-12T10:05:08Z</time>
      </trkpt>
      <trkpt lat="35.974183271463424" lon="119.50807645311437">
        <ele>107.29</ele>
        <time>2020-02-12T10:05:11Z</time>
      </trkpt>
      <trkpt lat="35.974409517087494" lon="119.50783041952776">
        <ele>110.35</ele>
        <time>2020-02-12T10:05:20Z</time>
      </trkpt>
      <trkpt lat="35.97444251048702" lon="119.50781051159198">
        <ele>111.16</ele>
        <time>2020-02-12T10:05:53Z</time>
      </trkpt>
    </trkseg>
  </trk>
</gpx>