<?xml version="1.0" encoding="UTF-8"?>
<gpx xmlns="http://www.topografix.com/GPX/1/1" xmlns:gpxtpx="http://www.garmin.com/xmlschemas/TrackPointExtension/v1" xmlns:xsi="http://www.w3.org/2001/XMLSchema-instance" xsi:schemaLocation="http://www.topografix.com/GPX/1/1 http://www.topografix.com/GPX/1/1/gpx.xsd" version="1.1" creator="gpx.py -- https://github.com/tkrajina/gpxpy">
  <trk>
    <name>gpx from keep</name>
    <type>Run</type>
    <trkseg>
      <trkpt lat="35.975158894158675" lon="119.50766861481468">
        <ele>115.03</ele>
        <time>2020-05-27T13:04:18Z</time>
      </trkpt>
      <trkpt lat="35.97530408445463" lon="119.50764762478019">
        <ele>104.56</ele>
        <time>2020-05-27T13:04:24Z</time>
      </trkpt>
      <trkpt lat="35.975352689942156" lon="119.50772226766536">
        <ele>104.62</ele>
        <time>2020-05-27T13:04:27Z</time>
      </trkpt>
      <trkpt lat="35.975378878652066" lon="119.50809001489775">
        <ele>105.79</ele>
        <time>2020-05-27T13:04:36Z</time>
      </trkpt>
      <trkpt lat="35.975390975979145" lon="119.50847227025169">
        <ele>104.53</ele>
        <time>2020-05-27T13:04:45Z</time>
      </trkpt>
      <trkpt lat="35.97543102470282" lon="119.50881857780763">
        <ele>103.81</ele>
        <time>2020-05-27T13:04:54Z</time>
      </trkpt>
      <trkpt lat="35.975411023412654" lon="119.5091625357063">
        <ele>104.61</ele>
        <time>2020-05-27T13:05:03Z</time>
      </trkpt>
      <trkpt lat="35.97545356929697" lon="119.50953625928116">
        <ele>102.73</ele>
        <time>2020-05-27T13:05:15Z</time>
      </trkpt>
      <trkpt lat="35.97546074318426" lon="119.50962983008799">
        <ele>103.5</ele>
        <time>2020-05-27T13:05:18Z</time>
      </trkpt>
      <trkpt lat="35.97553985206776" lon="119.50994362821018">
        <ele>104.97</ele>
        <time>2020-05-27T13:05:27Z</time>
      </trkpt>
      <trkpt lat="35.97554327531622" lon="119.51004459812238">
        <ele>107.88</ele>
        <time>2020-05-27T13:05:30Z</time>
      </trkpt>
      <trkpt lat="35.97549243244709" lon="119.51009207403115">
        <ele>107.03</ele>
        <time>2020-05-27T13:05:33Z</time>
      </trkpt>
      <trkpt lat="35.975219800420525" lon="119.51014704201337">
        <ele>103.92</ele>
        <time>2020-05-27T13:05:45Z</time>
      </trkpt>
      <trkpt lat="35.975168772714646" lon="119.51011757561903">
        <ele>103.83</ele>
        <time>2020-05-27T13:05:48Z</time>
      </trkpt>
      <trkpt lat="35.97488152811117" lon="119.5102119398195">
        <ele>104.21</ele>
        <time>2020-05-27T13:05:57Z</time>
      </trkpt>
      <trkpt lat="35.974558586215004" lon="119.51026909818806">
        <ele>103.92</ele>
        <time>2020-05-27T13:06:09Z</time>
      </trkpt>
      <trkpt lat="35.9743995765366" lon="119.51027868925294">
        <ele>104.61</ele>
        <time>2020-05-27T13:06:15Z</time>
      </trkpt>
      <trkpt lat="35.974320418913216" lon="119.51025079308059">
        <ele>104.41</ele>
        <time>2020-05-27T13:06:18Z</time>
      </trkpt>
      <trkpt lat="35.97407410837565" lon="119.51028092318893">
        <ele>102.13</ele>
        <time>2020-05-27T13:06:27Z</time>
      </trkpt>
      <trkpt lat="35.97385722941607" lon="119.51028513553632">
        <ele>103.09</ele>
        <time>2020-05-27T13:06:36Z</time>
      </trkpt>
      <trkpt lat="35.97378941815455" lon="119.51030979391028">
        <ele>104.41</ele>
        <time>2020-05-27T13:06:39Z</time>
      </trkpt>
      <trkpt lat="35.97363488971161" lon="119.51030079679587">
        <ele>108.06</ele>
        <time>2020-05-27T13:06:45Z</time>
      </trkpt>
      <trkpt lat="35.97338460912904" lon="119.51033184685309">
        <ele>107.86</ele>
        <time>2020-05-27T13:06:54Z</time>
      </trkpt>
      <trkpt lat="35.97330427119547" lon="119.51030871022206">
        <ele>107.48</ele>
        <time>2020-05-27T13:06:57Z</time>
      </trkpt>
      <trkpt lat="35.972966460976615" lon="119.51034226114305">
        <ele>107.84</ele>
        <time>2020-05-27T13:07:09Z</time>
      </trkpt>
      <trkpt lat="35.97292498922154" lon="119.51037169868756">
        <ele>108.04</ele>
        <time>2020-05-27T13:07:12Z</time>
      </trkpt>
      <trkpt lat="35.9728562184907" lon="119.51038854785563">
        <ele>107.56</ele>
        <time>2020-05-27T13:07:15Z</time>
      </trkpt>
      <trkpt lat="35.97254403956177" lon="119.51040080060042">
        <ele>107.21</ele>
        <time>2020-05-27T13:07:27Z</time>
      </trkpt>
      <trkpt lat="35.97229197163041" lon="119.51039309460502">
        <ele>108.49</ele>
        <time>2020-05-27T13:07:36Z</time>
      </trkpt>
      <trkpt lat="35.97205356085855" lon="119.51042566433931">
        <ele>107.18</ele>
        <time>2020-05-27T13:07:45Z</time>
      </trkpt>
      <trkpt lat="35.971962551678786" lon="119.51042181589393">
        <ele>108.57</ele>
        <time>2020-05-27T13:07:48Z</time>
      </trkpt>
      <trkpt lat="35.97188514928319" lon="119.51046363262273">
        <ele>109.96</ele>
        <time>2020-05-27T13:07:51Z</time>
      </trkpt>
      <trkpt lat="35.971711508481754" lon="119.51049073207557">
        <ele>112.59</ele>
        <time>2020-05-27T13:07:57Z</time>
      </trkpt>
      <trkpt lat="35.9716414315204" lon="119.51045275684574">
        <ele>111.12</ele>
        <time>2020-05-27T13:08:00Z</time>
      </trkpt>
      <trkpt lat="35.97159122774054" lon="119.51007064604642">
        <ele>109.9</ele>
        <time>2020-05-27T13:08:12Z</time>
      </trkpt>
      <trkpt lat="35.971595121260805" lon="119.50986708621878">
        <ele>110.94</ele>
        <time>2020-05-27T13:08:18Z</time>
      </trkpt>
      <trkpt lat="35.9715483951202" lon="119.50966028713192">
        <ele>110.69</ele>
        <time>2020-05-27T13:08:24Z</time>
      </trkpt>
      <trkpt lat="35.97153783504252" lon="119.50935245708244">
        <ele>113.08</ele>
        <time>2020-05-27T13:08:33Z</time>
      </trkpt>
      <trkpt lat="35.97149698788268" lon="119.50915385656937">
        <ele>115.97</ele>
        <time>2020-05-27T13:08:39Z</time>
      </trkpt>
      <trkpt lat="35.97146567431302" lon="119.5087308366553">
        <ele>117.01</ele>
        <time>2020-05-27T13:08:51Z</time>
      </trkpt>
      <trkpt lat="35.9714782806346" lon="119.50862570620697">
        <ele>118.35</ele>
        <time>2020-05-27T13:08:54Z</time>
      </trkpt>
      <trkpt lat="35.97145817551121" lon="119.50821117417772">
        <ele>122.15</ele>
        <time>2020-05-27T13:09:09Z</time>
      </trkpt>
      <trkpt lat="35.9714004650939" lon="119.50787998437605">
        <ele>121.87</ele>
        <time>2020-05-27T13:09:18Z</time>
      </trkpt>
      <trkpt lat="35.97141822803545" lon="119.50747145966676">
        <ele>126.0</ele>
        <time>2020-05-27T13:09:27Z</time>
      </trkpt>
      <trkpt lat="35.97142608490136" lon="119.50734629026658">
        <ele>126.21</ele>
        <time>2020-05-27T13:09:30Z</time>
      </trkpt>
      <trkpt lat="35.971406513449416" lon="119.50700627915069">
        <ele>122.68</ele>
        <time>2020-05-27T13:09:39Z</time>
      </trkpt>
      <trkpt lat="35.971388092740646" lon="119.50664185937303">
        <ele>128.78</ele>
        <time>2020-05-27T13:09:51Z</time>
      </trkpt>
      <trkpt lat="35.97138825567804" lon="119.50638939971796">
        <ele>122.59</ele>
        <time>2020-05-27T13:10:00Z</time>
      </trkpt>
      <trkpt lat="35.97137096457901" lon="119.50621451382858">
        <ele>119.73</ele>
        <time>2020-05-27T13:10:09Z</time>
      </trkpt>
      <trkpt lat="35.97132253758731" lon="119.50595676461148">
        <ele>116.41</ele>
        <time>2020-05-27T13:10:24Z</time>
      </trkpt>
      <trkpt lat="35.97133498229057" lon="119.505858272061">
        <ele>116.11</ele>
        <time>2020-05-27T13:10:30Z</time>
      </trkpt>
      <trkpt lat="35.97130951732645" lon="119.50575675017306">
        <ele>118.26</ele>
        <time>2020-05-27T13:10:36Z</time>
      </trkpt>
      <trkpt lat="35.97131368179828" lon="119.5056623373102">
        <ele>119.08</ele>
        <time>2020-05-27T13:10:42Z</time>
      </trkpt>
      <trkpt lat="35.9712813167605" lon="119.50556137535852">
        <ele>120.26</ele>
        <time>2020-05-27T13:10:48Z</time>
      </trkpt>
      <trkpt lat="35.971218491220796" lon="119.50547420270811">
        <ele>121.81</ele>
        <time>2020-05-27T13:10:54Z</time>
      </trkpt>
      <trkpt lat="35.97120772378097" lon="119.50512543270997">
        <ele>115.98</ele>
        <time>2020-05-27T13:11:12Z</time>
      </trkpt>
      <trkpt lat="35.971224177051255" lon="119.50505690512485">
        <ele>118.71</ele>
        <time>2020-05-27T13:11:15Z</time>
      </trkpt>
      <trkpt lat="35.971284963810454" lon="119.50471462900391">
        <ele>119.49</ele>
        <time>2020-05-27T13:11:30Z</time>
      </trkpt>
      <trkpt lat="35.97130933313379" lon="119.5045801998311">
        <ele>121.38</ele>
        <time>2020-05-27T13:11:36Z</time>
      </trkpt>
      <trkpt lat="35.971296604323214" lon="119.50435430181611">
        <ele>123.73</ele>
        <time>2020-05-27T13:11:48Z</time>
      </trkpt>
      <trkpt lat="35.9712895330043" lon="119.50428451694084">
        <ele>118.46</ele>
        <time>2020-05-27T13:11:54Z</time>
      </trkpt>
      <trkpt lat="35.971310520690224" lon="119.50409284965448">
        <ele>115.69</ele>
        <time>2020-05-27T13:12:06Z</time>
      </trkpt>
      <trkpt lat="35.971290737979444" lon="119.5039133018829">
        <ele>115.24</ele>
        <time>2020-05-27T13:12:18Z</time>
      </trkpt>
      <trkpt lat="35.97129472389908" lon="119.50376157181205">
        <ele>118.47</ele>
        <time>2020-05-27T13:12:24Z</time>
      </trkpt>
      <trkpt lat="35.9712245505856" lon="119.50333205026463">
        <ele>116.32</ele>
        <time>2020-05-27T13:12:33Z</time>
      </trkpt>
      <trkpt lat="35.97121214448731" lon="119.50294801418774">
        <ele>115.77</ele>
        <time>2020-05-27T13:12:42Z</time>
      </trkpt>
      <trkpt lat="35.9712197993635" lon="119.50280657263441">
        <ele>115.51</ele>
        <time>2020-05-27T13:12:45Z</time>
      </trkpt>
      <trkpt lat="35.971189416705116" lon="119.50259609553032">
        <ele>113.23</ele>
        <time>2020-05-27T13:12:51Z</time>
      </trkpt>
      <trkpt lat="35.97117894022895" lon="119.50218291949417">
        <ele>111.94</ele>
        <time>2020-05-27T13:13:03Z</time>
      </trkpt>
      <trkpt lat="35.97114884388877" lon="119.50207212610593">
        <ele>112.94</ele>
        <time>2020-05-27T13:13:06Z</time>
      </trkpt>
      <trkpt lat="35.97116010789655" lon="119.50193987330462">
        <ele>113.86</ele>
        <time>2020-05-27T13:13:09Z</time>
      </trkpt>
      <trkpt lat="35.97112593514803" lon="119.50170494654208">
        <ele>110.79</ele>
        <time>2020-05-27T13:13:15Z</time>
      </trkpt>
      <trkpt lat="35.97111145531595" lon="119.50135294532501">
        <ele>113.25</ele>
        <time>2020-05-27T13:13:24Z</time>
      </trkpt>
      <trkpt lat="35.97111131127951" lon="119.50113474650448">
        <ele>110.49</ele>
        <time>2020-05-27T13:13:30Z</time>
      </trkpt>
      <trkpt lat="35.971073510344105" lon="119.50079555382983">
        <ele>110.91</ele>
        <time>2020-05-27T13:13:39Z</time>
      </trkpt>
      <trkpt lat="35.97109595852973" lon="119.50045563976808">
        <ele>112.81</ele>
        <time>2020-05-27T13:13:48Z</time>
      </trkpt>
      <trkpt lat="35.971068761729796" lon="119.50032596613336">
        <ele>112.88</ele>
        <time>2020-05-27T13:13:51Z</time>
      </trkpt>
      <trkpt lat="35.971036079387396" lon="119.49999198161117">
        <ele>111.83</ele>
        <time>2020-05-27T13:14:00Z</time>
      </trkpt>
      <trkpt lat="35.971020652452054" lon="119.49985210792768">
        <ele>113.36</ele>
        <time>2020-05-27T13:14:06Z</time>
      </trkpt>
      <trkpt lat="35.970989283721735" lon="119.49980023057019">
        <ele>111.94</ele>
        <time>2020-05-27T13:14:12Z</time>
      </trkpt>
      <trkpt lat="35.97095522240013" lon="119.49987356783286">
        <ele>109.92</ele>
        <time>2020-05-27T13:14:18Z</time>
      </trkpt>
      <trkpt lat="35.97095922912411" lon="119.50002575110001">
        <ele>109.16</ele>
        <time>2020-05-27T13:14:30Z</time>
      </trkpt>
      <trkpt lat="35.97099427629594" lon="119.50014465533995">
        <ele>110.48</ele>
        <time>2020-05-27T13:14:36Z</time>
      </trkpt>
      <trkpt lat="35.97103023704826" lon="119.5005344169064">
        <ele>106.62</ele>
        <time>2020-05-27T13:14:48Z</time>
      </trkpt>
      <trkpt lat="35.97103629218432" lon="119.50073130742256">
        <ele>108.44</ele>
        <time>2020-05-27T13:14:54Z</time>
      </trkpt>
      <trkpt lat="35.97106411996704" lon="119.5008127131135">
        <ele>108.61</ele>
        <time>2020-05-27T13:14:57Z</time>
      </trkpt>
      <trkpt lat="35.97106833314862" lon="119.5010745100924">
        <ele>110.71</ele>
        <time>2020-05-27T13:15:03Z</time>
      </trkpt>
      <trkpt lat="35.971084149915136" lon="119.50119149397064">
        <ele>111.2</ele>
        <time>2020-05-27T13:15:06Z</time>
      </trkpt>
      <trkpt lat="35.97107466669071" lon="119.50131144794186">
        <ele>111.09</ele>
        <time>2020-05-27T13:15:09Z</time>
      </trkpt>
      <trkpt lat="35.97111074589355" lon="119.50168272793083">
        <ele>107.28</ele>
        <time>2020-05-27T13:15:18Z</time>
      </trkpt>
      <trkpt lat="35.971122004088905" lon="119.50207094651502">
        <ele>109.51</ele>
        <time>2020-05-27T13:15:27Z</time>
      </trkpt>
      <trkpt lat="35.97110148652611" lon="119.50231365304802">
        <ele>109.1</ele>
        <time>2020-05-27T13:15:33Z</time>
      </trkpt>
      <trkpt lat="35.97111405299822" lon="119.50241993677095">
        <ele>106.15</ele>
        <time>2020-05-27T13:15:36Z</time>
      </trkpt>
      <trkpt lat="35.97110744900432" lon="119.502542199741">
        <ele>105.72</ele>
        <time>2020-05-27T13:15:39Z</time>
      </trkpt>
      <trkpt lat="35.971152037296804" lon="119.50287813919132">
        <ele>108.22</ele>
        <time>2020-05-27T13:15:48Z</time>
      </trkpt>
      <trkpt lat="35.97115808966015" lon="119.50309343597698">
        <ele>108.72</ele>
        <time>2020-05-27T13:15:54Z</time>
      </trkpt>
      <trkpt lat="35.971184555628696" lon="119.50320083898815">
        <ele>109.7</ele>
        <time>2020-05-27T13:15:57Z</time>
      </trkpt>
      <trkpt lat="35.971183372196585" lon="119.50329508311445">
        <ele>110.52</ele>
        <time>2020-05-27T13:16:00Z</time>
      </trkpt>
      <trkpt lat="35.97121881865199" lon="119.50338525698038">
        <ele>108.88</ele>
        <time>2020-05-27T13:16:03Z</time>
      </trkpt>
      <trkpt lat="35.97122475084747" lon="119.50359192371316">
        <ele>109.82</ele>
        <time>2020-05-27T13:16:09Z</time>
      </trkpt>
      <trkpt lat="35.97119299284557" lon="119.50380456029788">
        <ele>105.95</ele>
        <time>2020-05-27T13:16:15Z</time>
      </trkpt>
      <trkpt lat="35.971197178766424" lon="119.50390781344204">
        <ele>108.47</ele>
        <time>2020-05-27T13:16:18Z</time>
      </trkpt>
      <trkpt lat="35.97117299594359" lon="119.50398269878052">
        <ele>108.73</ele>
        <time>2020-05-27T13:16:21Z</time>
      </trkpt>
      <trkpt lat="35.971171791861785" lon="119.50408476197103">
        <ele>111.22</ele>
        <time>2020-05-27T13:16:27Z</time>
      </trkpt>
      <trkpt lat="35.97114826981942" lon="119.50413883863212">
        <ele>111.16</ele>
        <time>2020-05-27T13:16:30Z</time>
      </trkpt>
      <trkpt lat="35.97108149797885" lon="119.50419410574904">
        <ele>109.8</ele>
        <time>2020-05-27T13:16:36Z</time>
      </trkpt>
      <trkpt lat="35.970929270291556" lon="119.50416008999643">
        <ele>105.02</ele>
        <time>2020-05-27T13:16:48Z</time>
      </trkpt>
      <trkpt lat="35.97064355251063" lon="119.50414832444265">
        <ele>101.48</ele>
        <time>2020-05-27T13:17:12Z</time>
      </trkpt>
      <trkpt lat="35.97035449268599" lon="119.5041873254995">
        <ele>99.95</ele>
        <time>2020-05-27T13:17:36Z</time>
      </trkpt>
      <trkpt lat="35.970052182834074" lon="119.504228796549">
        <ele>103.31</ele>
        <time>2020-05-27T13:18:00Z</time>
      </trkpt>
      <trkpt lat="35.96988754269527" lon="119.50425664675787">
        <ele>97.73</ele>
        <time>2020-05-27T13:18:06Z</time>
      </trkpt>
      <trkpt lat="35.969809250980234" lon="119.50430986412557">
        <ele>99.97</ele>
        <time>2020-05-27T13:18:09Z</time>
      </trkpt>
      <trkpt lat="35.9694966610339" lon="119.50435456505572">
        <ele>100.72</ele>
        <time>2020-05-27T13:18:18Z</time>
      </trkpt>
      <trkpt lat="35.96914473204873" lon="119.50438173768384">
        <ele>107.24</ele>
        <time>2020-05-27T13:18:30Z</time>
      </trkpt>
      <trkpt lat="35.968831243631826" lon="119.50438959114759">
        <ele>110.01</ele>
        <time>2020-05-27T13:18:42Z</time>
      </trkpt>
      <trkpt lat="35.96859093522633" lon="119.50438646443214">
        <ele>110.3</ele>
        <time>2020-05-27T13:18:51Z</time>
      </trkpt>
      <trkpt lat="35.9683032251446" lon="119.50443040507653">
        <ele>109.76</ele>
        <time>2020-05-27T13:19:03Z</time>
      </trkpt>
      <trkpt lat="35.96796742582281" lon="119.50446302710826">
        <ele>110.26</ele>
        <time>2020-05-27T13:19:18Z</time>
      </trkpt>
      <trkpt lat="35.96768203721437" lon="119.50447129017988">
        <ele>111.42</ele>
        <time>2020-05-27T13:19:30Z</time>
      </trkpt>
      <trkpt lat="35.96762180774181" lon="119.50446747121354">
        <ele>110.49</ele>
        <time>2020-05-27T13:19:33Z</time>
      </trkpt>
      <trkpt lat="35.967553106850154" lon="119.50449859993122">
        <ele>110.98</ele>
        <time>2020-05-27T13:19:36Z</time>
      </trkpt>
      <trkpt lat="35.967277457370024" lon="119.50452606154097">
        <ele>111.6</ele>
        <time>2020-05-27T13:19:48Z</time>
      </trkpt>
      <trkpt lat="35.967215327877014" lon="119.5045230225457">
        <ele>111.82</ele>
        <time>2020-05-27T13:19:51Z</time>
      </trkpt>
      <trkpt lat="35.96714550686223" lon="119.50455703106698">
        <ele>115.65</ele>
        <time>2020-05-27T13:19:54Z</time>
      </trkpt>
      <trkpt lat="35.96682887924462" lon="119.50454633585504">
        <ele>114.24</ele>
        <time>2020-05-27T13:20:09Z</time>
      </trkpt>
      <trkpt lat="35.96665229077507" lon="119.50453559885752">
        <ele>112.84</ele>
        <time>2020-05-27T13:20:18Z</time>
      </trkpt>
      <trkpt lat="35.96635801958285" lon="119.50460585770516">
        <ele>112.27</ele>
        <time>2020-05-27T13:20:30Z</time>
      </trkpt>
      <trkpt lat="35.966278490904664" lon="119.50458620009628">
        <ele>113.07</ele>
        <time>2020-05-27T13:20:33Z</time>
      </trkpt>
      <trkpt lat="35.96611972144814" lon="119.50459615142628">
        <ele>114.61</ele>
        <time>2020-05-27T13:20:39Z</time>
      </trkpt>
      <trkpt lat="35.96596186029056" lon="119.50464576996062">
        <ele>113.78</ele>
        <time>2020-05-27T13:20:45Z</time>
      </trkpt>
      <trkpt lat="35.9657005813541" lon="119.50465809242847">
        <ele>117.17</ele>
        <time>2020-05-27T13:21:03Z</time>
      </trkpt>
      <trkpt lat="35.965642224783295" lon="119.5048182818329">
        <ele>121.35</ele>
        <time>2020-05-27T13:21:15Z</time>
      </trkpt>
      <trkpt lat="35.965614752434675" lon="119.50510120180735">
        <ele>115.82</ele>
        <time>2020-05-27T13:21:33Z</time>
      </trkpt>
      <trkpt lat="35.96564687974716" lon="119.50537577119904">
        <ele>119.6</ele>
        <time>2020-05-27T13:21:39Z</time>
      </trkpt>
      <trkpt lat="35.96563488318176" lon="119.5055187306705">
        <ele>117.24</ele>
        <time>2020-05-27T13:21:42Z</time>
      </trkpt>
      <trkpt lat="35.96566848661324" lon="119.50565395003456">
        <ele>118.67</ele>
        <time>2020-05-27T13:21:45Z</time>
      </trkpt>
      <trkpt lat="35.96568680791577" lon="119.50603929015989">
        <ele>120.94</ele>
        <time>2020-05-27T13:21:54Z</time>
      </trkpt>
      <trkpt lat="35.96570734865488" lon="119.50642233962287">
        <ele>121.58</ele>
        <time>2020-05-27T13:22:03Z</time>
      </trkpt>
      <trkpt lat="35.965702349605664" lon="119.5067918097214">
        <ele>122.62</ele>
        <time>2020-05-27T13:22:12Z</time>
      </trkpt>
      <trkpt lat="35.96568734761384" lon="119.50701990104025">
        <ele>123.33</ele>
        <time>2020-05-27T13:22:18Z</time>
      </trkpt>
      <trkpt lat="35.96571474873364" lon="119.50718171712914">
        <ele>119.46</ele>
        <time>2020-05-27T13:22:24Z</time>
      </trkpt>
      <trkpt lat="35.96568411735929" lon="119.50757318412003">
        <ele>121.14</ele>
        <time>2020-05-27T13:22:36Z</time>
      </trkpt>
      <trkpt lat="35.96569565584472" lon="119.50777609633144">
        <ele>120.4</ele>
        <time>2020-05-27T13:22:42Z</time>
      </trkpt>
      <trkpt lat="35.9656782177863" lon="119.50809172866694">
        <ele>121.69</ele>
        <time>2020-05-27T13:22:51Z</time>
      </trkpt>
      <trkpt lat="35.965693892197216" lon="119.50818570005973">
        <ele>123.23</ele>
        <time>2020-05-27T13:22:54Z</time>
      </trkpt>
      <trkpt lat="35.965689441568216" lon="119.50853323860714">
        <ele>122.4</ele>
        <time>2020-05-27T13:23:03Z</time>
      </trkpt>
      <trkpt lat="35.965713681986536" lon="119.5086890439594">
        <ele>122.51</ele>
        <time>2020-05-27T13:23:09Z</time>
      </trkpt>
      <trkpt lat="35.96571250259573" lon="119.50900401458703">
        <ele>124.41</ele>
        <time>2020-05-27T13:23:18Z</time>
      </trkpt>
      <trkpt lat="35.96569633109636" lon="119.50918902728141">
        <ele>124.16</ele>
        <time>2020-05-27T13:23:24Z</time>
      </trkpt>
      <trkpt lat="35.96572947045831" lon="119.50935348113775">
        <ele>122.64</ele>
        <time>2020-05-27T13:23:30Z</time>
      </trkpt>
      <trkpt lat="35.965711998110564" lon="119.50954734264137">
        <ele>123.82</ele>
        <time>2020-05-27T13:23:36Z</time>
      </trkpt>
      <trkpt lat="35.96572444348431" lon="119.50992220571268">
        <ele>123.55</ele>
        <time>2020-05-27T13:23:48Z</time>
      </trkpt>
      <trkpt lat="35.96571556774136" lon="119.51000937716724">
        <ele>124.72</ele>
        <time>2020-05-27T13:23:51Z</time>
      </trkpt>
      <trkpt lat="35.965741990607036" lon="119.51040858665695">
        <ele>121.54</ele>
        <time>2020-05-27T13:24:06Z</time>
      </trkpt>
      <trkpt lat="35.965739363785815" lon="119.51050817653568">
        <ele>124.13</ele>
        <time>2020-05-27T13:24:09Z</time>
      </trkpt>
      <trkpt lat="35.96578022862827" lon="119.51072317391143">
        <ele>122.35</ele>
        <time>2020-05-27T13:24:15Z</time>
      </trkpt>
      <trkpt lat="35.96576521469275" lon="119.51092287335183">
        <ele>122.85</ele>
        <time>2020-05-27T13:24:21Z</time>
      </trkpt>
      <trkpt lat="35.96580121059151" lon="119.5109776971587">
        <ele>123.99</ele>
        <time>2020-05-27T13:24:24Z</time>
      </trkpt>
      <trkpt lat="35.96602872358559" lon="119.51091575073431">
        <ele>121.2</ele>
        <time>2020-05-27T13:24:42Z</time>
      </trkpt>
      <trkpt lat="35.96630217004465" lon="119.51094219448328">
        <ele>121.91</ele>
        <time>2020-05-27T13:25:06Z</time>
      </trkpt>
      <trkpt lat="35.96637275965925" lon="119.51094154365077">
        <ele>121.89</ele>
        <time>2020-05-27T13:25:12Z</time>
      </trkpt>
      <trkpt lat="35.96651665158251" lon="119.51090188595676">
        <ele>122.3</ele>
        <time>2020-05-27T13:25:24Z</time>
      </trkpt>
      <trkpt lat="35.96658578000619" lon="119.51091822336959">
        <ele>120.39</ele>
        <time>2020-05-27T13:25:30Z</time>
      </trkpt>
      <trkpt lat="35.96664256175561" lon="119.51088852574377">
        <ele>120.64</ele>
        <time>2020-05-27T13:25:36Z</time>
      </trkpt>
      <trkpt lat="35.966714101917695" lon="119.51088002571701">
        <ele>119.07</ele>
        <time>2020-05-27T13:25:42Z</time>
      </trkpt>
      <trkpt lat="35.9667611896744" lon="119.51090774222571">
        <ele>118.32</ele>
        <time>2020-05-27T13:25:45Z</time>
      </trkpt>
      <trkpt lat="35.96708201861283" lon="119.51089499946148">
        <ele>120.83</ele>
        <time>2020-05-27T13:26:12Z</time>
      </trkpt>
      <trkpt lat="35.96736535747645" lon="119.5108865567262">
        <ele>117.57</ele>
        <time>2020-05-27T13:26:36Z</time>
      </trkpt>
      <trkpt lat="35.967686598471644" lon="119.51084454700137">
        <ele>118.07</ele>
        <time>2020-05-27T13:26:57Z</time>
      </trkpt>
      <trkpt lat="35.96788160061441" lon="119.51079706944549">
        <ele>116.91</ele>
        <time>2020-05-27T13:27:03Z</time>
      </trkpt>
      <trkpt lat="35.96819619911296" lon="119.51079105605396">
        <ele>116.74</ele>
        <time>2020-05-27T13:27:12Z</time>
      </trkpt>
      <trkpt lat="35.96831661094828" lon="119.51075433832247">
        <ele>116.65</ele>
        <time>2020-05-27T13:27:15Z</time>
      </trkpt>
      <trkpt lat="35.96868132994239" lon="119.51073683547817">
        <ele>120.19</ele>
        <time>2020-05-27T13:27:27Z</time>
      </trkpt>
      <trkpt lat="35.968782730825176" lon="119.5107153164086">
        <ele>119.33</ele>
        <time>2020-05-27T13:27:30Z</time>
      </trkpt>
      <trkpt lat="35.96897818835908" lon="119.51073352203105">
        <ele>119.39</ele>
        <time>2020-05-27T13:27:36Z</time>
      </trkpt>
      <trkpt lat="35.96928863002058" lon="119.5106824933385">
        <ele>114.13</ele>
        <time>2020-05-27T13:27:48Z</time>
      </trkpt>
      <trkpt lat="35.96962661826573" lon="119.51067801948422">
        <ele>116.39</ele>
        <time>2020-05-27T13:28:00Z</time>
      </trkpt>
      <trkpt lat="35.969863921184036" lon="119.51061514292819">
        <ele>110.53</ele>
        <time>2020-05-27T13:28:09Z</time>
      </trkpt>
      <trkpt lat="35.970150870592185" lon="119.51059837098698">
        <ele>112.1</ele>
        <time>2020-05-27T13:28:18Z</time>
      </trkpt>
      <trkpt lat="35.97023392839706" lon="119.51062270742499">
        <ele>113.14</ele>
        <time>2020-05-27T13:28:21Z</time>
      </trkpt>
      <trkpt lat="35.97031231972019" lon="119.51059670909568">
        <ele>113.94</ele>
        <time>2020-05-27T13:28:24Z</time>
      </trkpt>
      <trkpt lat="35.97038602891489" lon="119.51060182762849">
        <ele>114.14</ele>
        <time>2020-05-27T13:28:27Z</time>
      </trkpt>
      <trkpt lat="35.970659441638574" lon="119.51053827065464">
        <ele>116.11</ele>
        <time>2020-05-27T13:28:36Z</time>
      </trkpt>
      <trkpt lat="35.970973788547774" lon="119.51055519490552">
        <ele>114.76</ele>
        <time>2020-05-27T13:28:48Z</time>
      </trkpt>
      <trkpt lat="35.97128238993365" lon="119.5105077558187">
        <ele>113.36</ele>
        <time>2020-05-27T13:29:00Z</time>
      </trkpt>
      <trkpt lat="35.971497202631454" lon="119.51044941902873">
        <ele>108.23</ele>
        <time>2020-05-27T13:29:09Z</time>
      </trkpt>
      <trkpt lat="35.97158679750193" lon="119.51037027593316">
        <ele>111.66</ele>
        <time>2020-05-27T13:29:15Z</time>
      </trkpt>
      <trkpt lat="35.97161783262975" lon="119.51029221344307">
        <ele>111.67</ele>
        <time>2020-05-27T13:29:18Z</time>
      </trkpt>
      <trkpt lat="35.97164212046654" lon="119.50987475486046">
        <ele>111.85</ele>
        <time>2020-05-27T13:29:33Z</time>
      </trkpt>
      <trkpt lat="35.9715946970486" lon="119.50947175486156">
        <ele>112.41</ele>
        <time>2020-05-27T13:29:42Z</time>
      </trkpt>
      <trkpt lat="35.97154540210909" lon="119.50924059769375">
        <ele>111.75</ele>
        <time>2020-05-27T13:29:48Z</time>
      </trkpt>
      <trkpt lat="35.97151225514756" lon="119.50887544260264">
        <ele>111.54</ele>
        <time>2020-05-27T13:30:00Z</time>
      </trkpt>
      <trkpt lat="35.97149564764443" lon="119.50867319160541">
        <ele>113.86</ele>
        <time>2020-05-27T13:30:06Z</time>
      </trkpt>
      <trkpt lat="35.97147497152615" lon="119.508611327573">
        <ele>112.83</ele>
        <time>2020-05-27T13:30:09Z</time>
      </trkpt>
      <trkpt lat="35.97153284405345" lon="119.50856368121202">
        <ele>116.35</ele>
        <time>2020-05-27T13:30:15Z</time>
      </trkpt>
      <trkpt lat="35.97152882468333" lon="119.50838682740796">
        <ele>116.14</ele>
        <time>2020-05-27T13:30:27Z</time>
      </trkpt>
      <trkpt lat="35.971506940160396" lon="119.50829683583758">
        <ele>113.14</ele>
        <time>2020-05-27T13:30:33Z</time>
      </trkpt>
      <trkpt lat="35.97150410394502" lon="119.50788898225922">
        <ele>117.07</ele>
        <time>2020-05-27T13:30:57Z</time>
      </trkpt>
      <trkpt lat="35.971511063816045" lon="119.50753708283644">
        <ele>114.81</ele>
        <time>2020-05-27T13:31:18Z</time>
      </trkpt>
      <trkpt lat="35.971467362127335" lon="119.50739209583332">
        <ele>114.64</ele>
        <time>2020-05-27T13:31:30Z</time>
      </trkpt>
      <trkpt lat="35.97149462625003" lon="119.50713028765458">
        <ele>118.91</ele>
        <time>2020-05-27T13:31:48Z</time>
      </trkpt>
      <trkpt lat="35.97147343748979" lon="119.50673279086809">
        <ele>118.83</ele>
        <time>2020-05-27T13:32:12Z</time>
      </trkpt>
      <trkpt lat="35.971474693380436" lon="119.50661929009955">
        <ele>123.44</ele>
        <time>2020-05-27T13:32:18Z</time>
      </trkpt>
      <trkpt lat="35.97144354226027" lon="119.50645001415813">
        <ele>120.43</ele>
        <time>2020-05-27T13:32:24Z</time>
      </trkpt>
      <trkpt lat="35.97144146685917" lon="119.50635965141247">
        <ele>120.67</ele>
        <time>2020-05-27T13:32:27Z</time>
      </trkpt>
      <trkpt lat="35.97139268250865" lon="119.50625328048665">
        <ele>118.7</ele>
        <time>2020-05-27T13:32:30Z</time>
      </trkpt>
      <trkpt lat="35.9713748780994" lon="119.50614325938945">
        <ele>117.07</ele>
        <time>2020-05-27T13:32:33Z</time>
      </trkpt>
      <trkpt lat="35.97140010844166" lon="119.505929495732">
        <ele>117.97</ele>
        <time>2020-05-27T13:32:39Z</time>
      </trkpt>
      <trkpt lat="35.97133854542174" lon="119.50561068717344">
        <ele>119.98</ele>
        <time>2020-05-27T13:32:48Z</time>
      </trkpt>
      <trkpt lat="35.971311859537096" lon="119.50528162582854">
        <ele>120.65</ele>
        <time>2020-05-27T13:32:57Z</time>
      </trkpt>
      <trkpt lat="35.97130741977863" lon="119.50505563242113">
        <ele>120.27</ele>
        <time>2020-05-27T13:33:03Z</time>
      </trkpt>
      <trkpt lat="35.97131885426457" lon="119.5049531596797">
        <ele>120.74</ele>
        <time>2020-05-27T13:33:06Z</time>
      </trkpt>
      <trkpt lat="35.971309828129726" lon="119.5048666260027">
        <ele>117.84</ele>
        <time>2020-05-27T13:33:09Z</time>
      </trkpt>
      <trkpt lat="35.971342672616096" lon="119.50452558964332">
        <ele>118.11</ele>
        <time>2020-05-27T13:33:21Z</time>
      </trkpt>
      <trkpt lat="35.97134179324445" lon="119.50427094719865">
        <ele>118.72</ele>
        <time>2020-05-27T13:33:30Z</time>
      </trkpt>
      <trkpt lat="35.9712853990418" lon="119.5038872036769">
        <ele>114.95</ele>
        <time>2020-05-27T13:33:42Z</time>
      </trkpt>
      <trkpt lat="35.97130798815108" lon="119.50364924894788">
        <ele>118.21</ele>
        <time>2020-05-27T13:33:51Z</time>
      </trkpt>
      <trkpt lat="35.97129504160019" lon="119.50356083481425">
        <ele>117.49</ele>
        <time>2020-05-27T13:33:54Z</time>
      </trkpt>
      <trkpt lat="35.97130113736409" lon="119.50340641458855">
        <ele>114.95</ele>
        <time>2020-05-27T13:34:00Z</time>
      </trkpt>
      <trkpt lat="35.9712698704705" lon="119.50305165711755">
        <ele>111.49</ele>
        <time>2020-05-27T13:34:12Z</time>
      </trkpt>
      <trkpt lat="35.97123718796243" lon="119.5028440401596">
        <ele>111.26</ele>
        <time>2020-05-27T13:34:18Z</time>
      </trkpt>
      <trkpt lat="35.97124399091665" lon="119.50275709528763">
        <ele>108.97</ele>
        <time>2020-05-27T13:34:21Z</time>
      </trkpt>
      <trkpt lat="35.97119542469469" lon="119.50235261961195">
        <ele>105.51</ele>
        <time>2020-05-27T13:34:36Z</time>
      </trkpt>
      <trkpt lat="35.9711874253396" lon="119.50201774864362">
        <ele>106.58</ele>
        <time>2020-05-27T13:34:48Z</time>
      </trkpt>
      <trkpt lat="35.9711718220651" lon="119.50179947084236">
        <ele>105.31</ele>
        <time>2020-05-27T13:34:57Z</time>
      </trkpt>
      <trkpt lat="35.97117925474894" lon="119.50170747572419">
        <ele>104.33</ele>
        <time>2020-05-27T13:35:00Z</time>
      </trkpt>
      <trkpt lat="35.97115706008814" lon="119.50152829556465">
        <ele>103.77</ele>
        <time>2020-05-27T13:35:06Z</time>
      </trkpt>
      <trkpt lat="35.971160565432264" lon="119.50133800547094">
        <ele>102.79</ele>
        <time>2020-05-27T13:35:12Z</time>
      </trkpt>
      <trkpt lat="35.97111518254939" lon="119.50108632889881">
        <ele>106.96</ele>
        <time>2020-05-27T13:35:21Z</time>
      </trkpt>
      <trkpt lat="35.97112688764852" lon="119.500888598592">
        <ele>108.06</ele>
        <time>2020-05-27T13:35:27Z</time>
      </trkpt>
      <trkpt lat="35.971109601980224" lon="119.50072160695368">
        <ele>108.26</ele>
        <time>2020-05-27T13:35:33Z</time>
      </trkpt>
      <trkpt lat="35.97111637863327" lon="119.50044601995663">
        <ele>105.1</ele>
        <time>2020-05-27T13:35:45Z</time>
      </trkpt>
      <trkpt lat="35.9710649071079" lon="119.50008856695231">
        <ele>104.95</ele>
        <time>2020-05-27T13:35:57Z</time>
      </trkpt>
      <trkpt lat="35.97103870286413" lon="119.49982708877968">
        <ele>105.41</ele>
        <time>2020-05-27T13:36:06Z</time>
      </trkpt>
      <trkpt lat="35.97100710438791" lon="119.499762611958">
        <ele>105.42</ele>
        <time>2020-05-27T13:36:12Z</time>
      </trkpt>
      <trkpt lat="35.970959263867314" lon="119.49980202087703">
        <ele>104.68</ele>
        <time>2020-05-27T13:36:18Z</time>
      </trkpt>
      <trkpt lat="35.97095234197723" lon="119.49989447695947">
        <ele>105.61</ele>
        <time>2020-05-27T13:36:24Z</time>
      </trkpt>
      <trkpt lat="35.970995288184945" lon="119.50005877917143">
        <ele>106.37</ele>
        <time>2020-05-27T13:36:36Z</time>
      </trkpt>
      <trkpt lat="35.97099941040752" lon="119.50040090355441">
        <ele>104.56</ele>
        <time>2020-05-27T13:36:48Z</time>
      </trkpt>
      <trkpt lat="35.97102630603786" lon="119.50057722493018">
        <ele>105.3</ele>
        <time>2020-05-27T13:36:54Z</time>
      </trkpt>
      <trkpt lat="35.97102663506363" lon="119.50101159377729">
        <ele>107.89</ele>
        <time>2020-05-27T13:37:06Z</time>
      </trkpt>
      <trkpt lat="35.971043234904386" lon="119.50138258465824">
        <ele>104.36</ele>
        <time>2020-05-27T13:37:21Z</time>
      </trkpt>
      <trkpt lat="35.97105641718033" lon="119.50165006037675">
        <ele>102.29</ele>
        <time>2020-05-27T13:37:30Z</time>
      </trkpt>
      <trkpt lat="35.97107551502847" lon="119.5017194164073">
        <ele>101.84</ele>
        <time>2020-05-27T13:37:33Z</time>
      </trkpt>
      <trkpt lat="35.97106381230065" lon="119.50181358145575">
        <ele>102.15</ele>
        <time>2020-05-27T13:37:36Z</time>
      </trkpt>
      <trkpt lat="35.97110025137256" lon="119.50216188168791">
        <ele>106.44</ele>
        <time>2020-05-27T13:37:48Z</time>
      </trkpt>
      <trkpt lat="35.971106360495995" lon="119.50249743236962">
        <ele>109.44</ele>
        <time>2020-05-27T13:38:00Z</time>
      </trkpt>
      <trkpt lat="35.97111554218489" lon="119.5027428977773">
        <ele>109.06</ele>
        <time>2020-05-27T13:38:09Z</time>
      </trkpt>
      <trkpt lat="35.97115257589413" lon="119.50291823675741">
        <ele>110.29</ele>
        <time>2020-05-27T13:38:15Z</time>
      </trkpt>
      <trkpt lat="35.97115884092394" lon="119.50333373099878">
        <ele>110.79</ele>
        <time>2020-05-27T13:38:30Z</time>
      </trkpt>
      <trkpt lat="35.97118652666612" lon="119.50370711674562">
        <ele>109.88</ele>
        <time>2020-05-27T13:38:45Z</time>
      </trkpt>
      <trkpt lat="35.97121694759786" lon="119.50393431143408">
        <ele>108.62</ele>
        <time>2020-05-27T13:38:54Z</time>
      </trkpt>
      <trkpt lat="35.97120536415269" lon="119.50402261570449">
        <ele>108.12</ele>
        <time>2020-05-27T13:38:57Z</time>
      </trkpt>
      <trkpt lat="35.971238168119655" lon="119.50416720556734">
        <ele>109.86</ele>
        <time>2020-05-27T13:39:03Z</time>
      </trkpt>
      <trkpt lat="35.971280705132884" lon="119.50423402049371">
        <ele>109.9</ele>
        <time>2020-05-27T13:39:06Z</time>
      </trkpt>
      <trkpt lat="35.971413911652085" lon="119.5042989243669">
        <ele>111.45</ele>
        <time>2020-05-27T13:39:15Z</time>
      </trkpt>
      <trkpt lat="35.97169595040031" lon="119.50428759153581">
        <ele>107.49</ele>
        <time>2020-05-27T13:39:39Z</time>
      </trkpt>
      <trkpt lat="35.9719867699036" lon="119.5042565799328">
        <ele>108.14</ele>
        <time>2020-05-27T13:40:03Z</time>
      </trkpt>
      <trkpt lat="35.972046050189874" lon="119.50424080024895">
        <ele>107.55</ele>
        <time>2020-05-27T13:40:09Z</time>
      </trkpt>
      <trkpt lat="35.97238382815804" lon="119.50424013597548">
        <ele>109.14</ele>
        <time>2020-05-27T13:40:30Z</time>
      </trkpt>
      <trkpt lat="35.97271544568446" lon="119.50425115098568">
        <ele>109.69</ele>
        <time>2020-05-27T13:40:42Z</time>
      </trkpt>
      <trkpt lat="35.97302015530639" lon="119.50421503954382">
        <ele>107.79</ele>
        <time>2020-05-27T13:40:54Z</time>
      </trkpt>
      <trkpt lat="35.973328924479965" lon="119.50418917734852">
        <ele>107.84</ele>
        <time>2020-05-27T13:41:06Z</time>
      </trkpt>
      <trkpt lat="35.9733992850112" lon="119.50416559804414">
        <ele>105.07</ele>
        <time>2020-05-27T13:41:09Z</time>
      </trkpt>
      <trkpt lat="35.973577703678174" lon="119.50417162535459">
        <ele>105.32</ele>
        <time>2020-05-27T13:41:15Z</time>
      </trkpt>
      <trkpt lat="35.97365864392665" lon="119.50415337555268">
        <ele>106.58</ele>
        <time>2020-05-27T13:41:18Z</time>
      </trkpt>
      <trkpt lat="35.97392974322953" lon="119.5041392627523">
        <ele>109.8</ele>
        <time>2020-05-27T13:41:27Z</time>
      </trkpt>
      <trkpt lat="35.9742727625155" lon="119.50409574157968">
        <ele>107.65</ele>
        <time>2020-05-27T13:41:39Z</time>
      </trkpt>
      <trkpt lat="35.974587301248434" lon="119.50407959863978">
        <ele>102.51</ele>
        <time>2020-05-27T13:41:51Z</time>
      </trkpt>
      <trkpt lat="35.974857430379544" lon="119.5040602564807">
        <ele>104.0</ele>
        <time>2020-05-27T13:42:03Z</time>
      </trkpt>
      <trkpt lat="35.9749217403012" lon="119.50405244618103">
        <ele>103.04</ele>
        <time>2020-05-27T13:42:06Z</time>
      </trkpt>
      <trkpt lat="35.9749723522403" lon="119.50399629928465">
        <ele>104.51</ele>
        <time>2020-05-27T13:42:12Z</time>
      </trkpt>
      <trkpt lat="35.97515500754186" lon="119.50408567096808">
        <ele>104.26</ele>
        <time>2020-05-27T13:42:24Z</time>
      </trkpt>
      <trkpt lat="35.97519503578744" lon="119.50412305794134">
        <ele>105.53</ele>
        <time>2020-05-27T13:42:27Z</time>
      </trkpt>
      <trkpt lat="35.975194282673975" lon="119.50419975276843">
        <ele>105.87</ele>
        <time>2020-05-27T13:42:30Z</time>
      </trkpt>
      <trkpt lat="35.97523729307297" lon="119.50442564676342">
        <ele>106.48</ele>
        <time>2020-05-27T13:42:36Z</time>
      </trkpt>
      <trkpt lat="35.975242809282854" lon="119.50474869409874">
        <ele>107.65</ele>
        <time>2020-05-27T13:42:45Z</time>
      </trkpt>
      <trkpt lat="35.97527234427559" lon="119.50508510957637">
        <ele>106.0</ele>
        <time>2020-05-27T13:42:54Z</time>
      </trkpt>
      <trkpt lat="35.975290879251524" lon="119.5051940513861">
        <ele>105.97</ele>
        <time>2020-05-27T13:42:57Z</time>
      </trkpt>
      <trkpt lat="35.97527289867956" lon="119.50542702438798">
        <ele>104.38</ele>
        <time>2020-05-27T13:43:03Z</time>
      </trkpt>
      <trkpt lat="35.97528754975042" lon="119.50561591001235">
        <ele>106.3</ele>
        <time>2020-05-27T13:43:09Z</time>
      </trkpt>
      <trkpt lat="35.975273595916136" lon="119.505906637968">
        <ele>107.57</ele>
        <time>2020-05-27T13:43:18Z</time>
      </trkpt>
      <trkpt lat="35.975307277132536" lon="119.50628289808478">
        <ele>105.09</ele>
        <time>2020-05-27T13:43:30Z</time>
      </trkpt>
      <trkpt lat="35.97531498958532" lon="119.50662612044086">
        <ele>105.48</ele>
        <time>2020-05-27T13:43:39Z</time>
      </trkpt>
      <trkpt lat="35.97533269129254" lon="119.50697230177688">
        <ele>105.36</ele>
        <time>2020-05-27T13:43:51Z</time>
      </trkpt>
      <trkpt lat="35.97535000110531" lon="119.50715996586514">
        <ele>105.11</ele>
        <time>2020-05-27T13:43:57Z</time>
      </trkpt>
      <trkpt lat="35.975343246417765" lon="119.5072469986095">
        <ele>104.82</ele>
        <time>2020-05-27T13:44:00Z</time>
      </trkpt>
      <trkpt lat="35.9752272105213" lon="119.50754783439673">
        <ele>106.15</ele>
        <time>2020-05-27T13:44:12Z</time>
      </trkpt>
      <trkpt lat="35.97516080649605" lon="119.5076268984106">
        <ele>106.96</ele>
        <time>2020-05-27T13:44:15Z</time>
      </trkpt>
      <trkpt lat="35.97512698219765" lon="119.50770678190223">
        <ele>108.33</ele>
        <time>2020-05-27T13:44:18Z</time>
      </trkpt>
      <trkpt lat="35.97513509833501" lon="119.50777400593039">
        <ele>108.16</ele>
        <time>2020-05-27T13:44:21Z</time>
      </trkpt>
      <trkpt lat="35.975106490128965" lon="119.5079205334206">
        <ele>105.68</ele>
        <time>2020-05-27T13:44:33Z</time>
      </trkpt>
      <trkpt lat="35.9749950258975" lon="119.50800565731264">
        <ele>105.49</ele>
        <time>2020-05-27T13:44:45Z</time>
      </trkpt>
    </trkseg>
  </trk>
</gpx>