<?xml version="1.0" encoding="UTF-8"?>
<gpx xmlns="http://www.topografix.com/GPX/1/1" xmlns:gpxtpx="http://www.garmin.com/xmlschemas/TrackPointExtension/v1" xmlns:xsi="http://www.w3.org/2001/XMLSchema-instance" xsi:schemaLocation="http://www.topografix.com/GPX/1/1 http://www.topografix.com/GPX/1/1/gpx.xsd" version="1.1" creator="gpx.py -- https://github.com/tkrajina/gpxpy">
  <trk>
    <name>gpx from keep</name>
    <type>Run</type>
    <trkseg>
      <trkpt lat="36.02977571370718" lon="119.40191137407825">
        <ele>63.96282958984375</ele>
        <time>2023-05-15T13:06:03Z</time>
      </trkpt>
      <trkpt lat="36.02951674005175" lon="119.40176831681846">
        <ele>63.8895263671875</ele>
        <time>2023-05-15T13:06:18Z</time>
      </trkpt>
      <trkpt lat="36.02927074868934" lon="119.40155421739111">
        <ele>62.35662841796875</ele>
        <time>2023-05-15T13:06:33Z</time>
      </trkpt>
      <trkpt lat="36.0291567514977" lon="119.40144616705649">
        <ele>63.93841552734375</ele>
        <time>2023-05-15T13:06:39Z</time>
      </trkpt>
      <trkpt lat="36.028835822006" lon="119.40143119438332">
        <ele>63.59979248046875</ele>
        <time>2023-05-15T13:06:54Z</time>
      </trkpt>
      <trkpt lat="36.028575881508125" lon="119.40143022299637">
        <ele>64.7486572265625</ele>
        <time>2023-05-15T13:07:06Z</time>
      </trkpt>
      <trkpt lat="36.02851490086439" lon="119.40145524437888">
        <ele>65.3985595703125</ele>
        <time>2023-05-15T13:07:09Z</time>
      </trkpt>
      <trkpt lat="36.028338975718285" lon="119.40161335680773">
        <ele>65.66937255859375</ele>
        <time>2023-05-15T13:07:21Z</time>
      </trkpt>
      <trkpt lat="36.028284986574995" lon="119.40160635873549">
        <ele>65.18988037109375</ele>
        <time>2023-05-15T13:07:24Z</time>
      </trkpt>
      <trkpt lat="36.028036991777725" lon="119.40136624647222">
        <ele>64.6248779296875</ele>
        <time>2023-05-15T13:07:39Z</time>
      </trkpt>
      <trkpt lat="36.027915995067275" lon="119.40124819236524">
        <ele>62.31256103515625</ele>
        <time>2023-05-15T13:07:48Z</time>
      </trkpt>
      <trkpt lat="36.0276740186313" lon="119.401089129568">
        <ele>63.3583984375</ele>
        <time>2023-05-15T13:08:03Z</time>
      </trkpt>
      <trkpt lat="36.027403047518824" lon="119.40091706427859">
        <ele>63.54266357421875</ele>
        <time>2023-05-15T13:08:18Z</time>
      </trkpt>
      <trkpt lat="36.02719307772468" lon="119.40082103516002">
        <ele>66.69384765625</ele>
        <time>2023-05-15T13:08:33Z</time>
      </trkpt>
      <trkpt lat="36.02716108210986" lon="119.40080503002065">
        <ele>65.51763916015625</ele>
        <time>2023-05-15T13:08:36Z</time>
      </trkpt>
      <trkpt lat="36.02686713266002" lon="119.40071201256028">
        <ele>64.927978515625</ele>
        <time>2023-05-15T13:08:51Z</time>
      </trkpt>
      <trkpt lat="36.02680014247005" lon="119.4006810033679">
        <ele>66.7156982421875</ele>
        <time>2023-05-15T13:08:54Z</time>
      </trkpt>
      <trkpt lat="36.02650820603354" lon="119.4006610253981">
        <ele>64.51885986328125</ele>
        <time>2023-05-15T13:09:09Z</time>
      </trkpt>
      <trkpt lat="36.026339246695876" lon="119.40067104974773">
        <ele>63.331298828125</ele>
        <time>2023-05-15T13:09:18Z</time>
      </trkpt>
      <trkpt lat="36.026033326839816" lon="119.4007251132252">
        <ele>65.6800537109375</ele>
        <time>2023-05-15T13:09:33Z</time>
      </trkpt>
      <trkpt lat="36.02587436578873" lon="119.40073813811208">
        <ele>64.01727294921875</ele>
        <time>2023-05-15T13:09:42Z</time>
      </trkpt>
      <trkpt lat="36.02555043888712" lon="119.40073017015834">
        <ele>63.6751708984375</ele>
        <time>2023-05-15T13:09:57Z</time>
      </trkpt>
      <trkpt lat="36.025363484295085" lon="119.4007431981921">
        <ele>66.233154296875</ele>
        <time>2023-05-15T13:10:06Z</time>
      </trkpt>
      <trkpt lat="36.02504453915417" lon="119.40064017849957">
        <ele>64.9246826171875</ele>
        <time>2023-05-15T13:10:21Z</time>
      </trkpt>
      <trkpt lat="36.02477358050731" lon="119.40052014501121">
        <ele>62.94281005859375</ele>
        <time>2023-05-15T13:10:36Z</time>
      </trkpt>
      <trkpt lat="36.02465959783904" lon="119.40046813036629">
        <ele>62.895751953125</ele>
        <time>2023-05-15T13:10:42Z</time>
      </trkpt>
      <trkpt lat="36.024494618857965" lon="119.40036709602224">
        <ele>64.13751220703125</ele>
        <time>2023-05-15T13:10:51Z</time>
      </trkpt>
      <trkpt lat="36.02425764478412" lon="119.4001900313658">
        <ele>64.0213623046875</ele>
        <time>2023-05-15T13:11:06Z</time>
      </trkpt>
      <trkpt lat="36.02401866438483" lon="119.39995794124727">
        <ele>62.99212646484375</ele>
        <time>2023-05-15T13:11:24Z</time>
      </trkpt>
      <trkpt lat="36.023924673074774" lon="119.39986890774">
        <ele>64.1968994140625</ele>
        <time>2023-05-15T13:11:30Z</time>
      </trkpt>
      <trkpt lat="36.02385667292522" lon="119.39975686056064">
        <ele>65.642578125</ele>
        <time>2023-05-15T13:11:36Z</time>
      </trkpt>
      <trkpt lat="36.02375170032027" lon="119.39977988354781">
        <ele>59.20672607421875</ele>
        <time>2023-05-15T13:11:45Z</time>
      </trkpt>
      <trkpt lat="36.023842655973375" lon="119.39960779030433">
        <ele>60.665283203125</ele>
        <time>2023-05-15T13:11:48Z</time>
      </trkpt>
      <trkpt lat="36.0239306270763" lon="119.39954174900687">
        <ele>62.19622802734375</ele>
        <time>2023-05-15T13:11:54Z</time>
      </trkpt>
      <trkpt lat="36.024103590986904" lon="119.39957074335832">
        <ele>64.64288330078125</ele>
        <time>2023-05-15T13:12:03Z</time>
      </trkpt>
      <trkpt lat="36.02439953905526" lon="119.3996927685916">
        <ele>64.37823486328125</ele>
        <time>2023-05-15T13:12:21Z</time>
      </trkpt>
      <trkpt lat="36.02468550212725" lon="119.39989883710322">
        <ele>64.296875</ele>
        <time>2023-05-15T13:12:36Z</time>
      </trkpt>
      <trkpt lat="36.0247704963849" lon="119.39999287426826">
        <ele>65.1197509765625</ele>
        <time>2023-05-15T13:12:42Z</time>
      </trkpt>
      <trkpt lat="36.024865484456456" lon="119.4000588966947">
        <ele>64.55828857421875</ele>
        <time>2023-05-15T13:12:48Z</time>
      </trkpt>
      <trkpt lat="36.024999480433266" lon="119.40023096904353">
        <ele>64.24176025390625</ele>
        <time>2023-05-15T13:12:57Z</time>
      </trkpt>
      <trkpt lat="36.02510546944749" lon="119.40031399991112">
        <ele>64.82659912109375</ele>
        <time>2023-05-15T13:13:03Z</time>
      </trkpt>
      <trkpt lat="36.02527044085744" lon="119.40037101098201">
        <ele>64.01910400390625</ele>
        <time>2023-05-15T13:13:12Z</time>
      </trkpt>
      <trkpt lat="36.025445430315365" lon="119.40054608334343">
        <ele>66.1439208984375</ele>
        <time>2023-05-15T13:13:24Z</time>
      </trkpt>
      <trkpt lat="36.02573838657924" lon="119.40068012206746">
        <ele>65.89776611328125</ele>
        <time>2023-05-15T13:13:39Z</time>
      </trkpt>
      <trkpt lat="36.025769388309094" lon="119.40072914502937">
        <ele>67.03143310546875</ele>
        <time>2023-05-15T13:13:42Z</time>
      </trkpt>
      <trkpt lat="36.02581038307214" lon="119.40075215288459">
        <ele>66.6817626953125</ele>
        <time>2023-05-15T13:13:45Z</time>
      </trkpt>
      <trkpt lat="36.026114307660066" lon="119.40072210250875">
        <ele>65.49932861328125</ele>
        <time>2023-05-15T13:14:00Z</time>
      </trkpt>
      <trkpt lat="36.02643522929406" lon="119.4006970529698">
        <ele>62.73089599609375</ele>
        <time>2023-05-15T13:14:19Z</time>
      </trkpt>
      <trkpt lat="36.0265502033866" lon="119.4007000416758">
        <ele>62.16632080078125</ele>
        <time>2023-05-15T13:14:25Z</time>
      </trkpt>
      <trkpt lat="36.0267561547491" lon="119.4006930147721">
        <ele>62.50909423828125</ele>
        <time>2023-05-15T13:14:37Z</time>
      </trkpt>
      <trkpt lat="36.02703910424962" lon="119.4007730262975">
        <ele>64.3387451171875</ele>
        <time>2023-05-15T13:14:52Z</time>
      </trkpt>
      <trkpt lat="36.02709309312311" lon="119.40078002404036">
        <ele>64.54705810546875</ele>
        <time>2023-05-15T13:14:55Z</time>
      </trkpt>
      <trkpt lat="36.02797803284418" lon="119.40149532800044">
        <ele>68.95257568359375</ele>
        <time>2023-05-15T13:15:55Z</time>
      </trkpt>
      <trkpt lat="36.02804710491217" lon="119.40188655303486">
        <ele>68.67401123046875</ele>
        <time>2023-05-15T13:16:19Z</time>
      </trkpt>
      <trkpt lat="36.02807113566166" lon="119.4020396437831">
        <ele>69.09661865234375</ele>
        <time>2023-05-15T13:16:25Z</time>
      </trkpt>
      <trkpt lat="36.02816718091099" lon="119.40231280302791">
        <ele>70.24395751953125</ele>
        <time>2023-05-15T13:16:37Z</time>
      </trkpt>
      <trkpt lat="36.02828521783395" lon="119.40256094789223">
        <ele>66.95489501953125</ele>
        <time>2023-05-15T13:16:49Z</time>
      </trkpt>
      <trkpt lat="36.028483235017134" lon="119.40279407738741">
        <ele>65.709228515625</ele>
        <time>2023-05-15T13:17:01Z</time>
      </trkpt>
      <trkpt lat="36.028725244246736" lon="119.4030262043503">
        <ele>64.33099365234375</ele>
        <time>2023-05-15T13:17:16Z</time>
      </trkpt>
      <trkpt lat="36.028756280899245" lon="119.40317830350911">
        <ele>66.8466796875</ele>
        <time>2023-05-15T13:17:22Z</time>
      </trkpt>
      <trkpt lat="36.0287443736969" lon="119.40348051267483">
        <ele>68.54071044921875</ele>
        <time>2023-05-15T13:17:34Z</time>
      </trkpt>
      <trkpt lat="36.02875838916517" lon="119.40354155370815">
        <ele>67.87255859375</ele>
        <time>2023-05-15T13:17:37Z</time>
      </trkpt>
      <trkpt lat="36.02874548101436" lon="119.40382475559177">
        <ele>65.58221435546875</ele>
        <time>2023-05-15T13:17:49Z</time>
      </trkpt>
      <trkpt lat="36.028703537583816" lon="119.40396986476048">
        <ele>66.58441162109375</ele>
        <time>2023-05-15T13:17:55Z</time>
      </trkpt>
      <trkpt lat="36.02843165293382" lon="119.40413001194182">
        <ele>62.92938232421875</ele>
        <time>2023-05-15T13:18:16Z</time>
      </trkpt>
      <trkpt lat="36.02837567785285" lon="119.40416604467423">
        <ele>63.14898681640625</ele>
        <time>2023-05-15T13:18:22Z</time>
      </trkpt>
      <trkpt lat="36.02834071119419" lon="119.40424110393523">
        <ele>62.66973876953125</ele>
        <time>2023-05-15T13:18:28Z</time>
      </trkpt>
      <trkpt lat="36.02822276728294" lon="119.40432618027798">
        <ele>62.64202880859375</ele>
        <time>2023-05-15T13:18:40Z</time>
      </trkpt>
      <trkpt lat="36.02800292520147" lon="119.40463343628397">
        <ele>64.51226806640625</ele>
        <time>2023-05-15T13:18:55Z</time>
      </trkpt>
      <trkpt lat="36.02783605524441" lon="119.40488664968282">
        <ele>67.33953857421875</ele>
        <time>2023-05-15T13:19:07Z</time>
      </trkpt>
      <trkpt lat="36.027703225050686" lon="119.40525695584039">
        <ele>65.10394287109375</ele>
        <time>2023-05-15T13:19:22Z</time>
      </trkpt>
      <trkpt lat="36.027645375361864" lon="119.4056062441929">
        <ele>67.4010009765625</ele>
        <time>2023-05-15T13:19:37Z</time>
      </trkpt>
      <trkpt lat="36.02760344679463" lon="119.40575937465272">
        <ele>71.9306640625</ele>
        <time>2023-05-15T13:19:43Z</time>
      </trkpt>
      <trkpt lat="36.027521477878885" lon="119.40578940866911">
        <ele>67.254638671875</ele>
        <time>2023-05-15T13:19:49Z</time>
      </trkpt>
      <trkpt lat="36.02726546511057" lon="119.40561229175223">
        <ele>62.5391845703125</ele>
        <time>2023-05-15T13:20:04Z</time>
      </trkpt>
      <trkpt lat="36.02719344024177" lon="119.40550821508585">
        <ele>63.24432373046875</ele>
        <time>2023-05-15T13:20:10Z</time>
      </trkpt>
      <trkpt lat="36.02713939649713" lon="119.40536510562453">
        <ele>64.65972900390625</ele>
        <time>2023-05-15T13:20:16Z</time>
      </trkpt>
      <trkpt lat="36.026965310789244" lon="119.40503586379414">
        <ele>61.91912841796875</ele>
        <time>2023-05-15T13:20:34Z</time>
      </trkpt>
      <trkpt lat="36.0267912414929" lon="119.40473865267705">
        <ele>61.55023193359375</ele>
        <time>2023-05-15T13:20:49Z</time>
      </trkpt>
      <trkpt lat="36.0266251837382" lon="119.40446846598579">
        <ele>64.1513671875</ele>
        <time>2023-05-15T13:21:10Z</time>
      </trkpt>
      <trkpt lat="36.026562079749425" lon="119.4041212152654">
        <ele>60.019775390625</ele>
        <time>2023-05-15T13:21:28Z</time>
      </trkpt>
      <trkpt lat="36.02653197103451" lon="119.40376596198013">
        <ele>60.92047119140625</ele>
        <time>2023-05-15T13:21:43Z</time>
      </trkpt>
      <trkpt lat="36.02653292427503" lon="119.40361785698359">
        <ele>60.27239990234375</ele>
        <time>2023-05-15T13:21:49Z</time>
      </trkpt>
      <trkpt lat="36.02657388151172" lon="119.40350977662888">
        <ele>59.83233642578125</ele>
        <time>2023-05-15T13:21:55Z</time>
      </trkpt>
      <trkpt lat="36.02657885842989" lon="119.4034377259341">
        <ele>59.69354248046875</ele>
        <time>2023-05-15T13:21:58Z</time>
      </trkpt>
      <trkpt lat="36.02655984349975" lon="119.40337368375103">
        <ele>59.29583740234375</ele>
        <time>2023-05-15T13:22:01Z</time>
      </trkpt>
      <trkpt lat="36.02650485404945" lon="119.40336668509237">
        <ele>61.478271484375</ele>
        <time>2023-05-15T13:22:04Z</time>
      </trkpt>
      <trkpt lat="36.02646087559458" lon="119.40340471630125">
        <ele>59.7296142578125</ele>
        <time>2023-05-15T13:22:07Z</time>
      </trkpt>
      <trkpt lat="36.02645188733606" lon="119.40343673949683">
        <ele>61.419921875</ele>
        <time>2023-05-15T13:22:13Z</time>
      </trkpt>
      <trkpt lat="36.02642290494148" lon="119.4034727677802">
        <ele>57.41693115234375</ele>
        <time>2023-05-15T13:24:55Z</time>
      </trkpt>
      <trkpt lat="36.02643293208633" lon="119.40356883375833">
        <ele>60.37042236328125</ele>
        <time>2023-05-15T13:25:01Z</time>
      </trkpt>
      <trkpt lat="36.02639303178022" lon="119.40385604197304">
        <ele>58.8577880859375</ele>
        <time>2023-05-15T13:25:19Z</time>
      </trkpt>
      <trkpt lat="36.02643312884578" lon="119.40417927235882">
        <ele>57.5032958984375</ele>
        <time>2023-05-15T13:25:40Z</time>
      </trkpt>
      <trkpt lat="36.02644327102078" lon="119.40459758399757">
        <ele>62.86627197265625</ele>
        <time>2023-05-15T13:25:55Z</time>
      </trkpt>
      <trkpt lat="36.02646537375301" lon="119.40489581056964">
        <ele>64.484375</ele>
        <time>2023-05-15T13:26:07Z</time>
      </trkpt>
      <trkpt lat="36.02649142091618" lon="119.40503891935471">
        <ele>64.16778564453125</ele>
        <time>2023-05-15T13:26:13Z</time>
      </trkpt>
      <trkpt lat="36.026675512158526" lon="119.40538817620813">
        <ele>62.88482666015625</ele>
        <time>2023-05-15T13:26:28Z</time>
      </trkpt>
      <trkpt lat="36.02686758557749" lon="119.40568439545754">
        <ele>61.42816162109375</ele>
        <time>2023-05-15T13:26:43Z</time>
      </trkpt>
      <trkpt lat="36.02691159733405" lon="119.40573843498697">
        <ele>61.772705078125</ele>
        <time>2023-05-15T13:26:46Z</time>
      </trkpt>
      <trkpt lat="36.026962643341356" lon="119.40587954615701">
        <ele>60.64666748046875</ele>
        <time>2023-05-15T13:26:52Z</time>
      </trkpt>
      <trkpt lat="36.02714475167515" lon="119.4062368267617">
        <ele>63.4019775390625</ele>
        <time>2023-05-15T13:27:07Z</time>
      </trkpt>
      <trkpt lat="36.027321829257815" lon="119.40650904112987">
        <ele>65.79571533203125</ele>
        <time>2023-05-15T13:27:19Z</time>
      </trkpt>
      <trkpt lat="36.0275368869632" lon="119.40674922717973">
        <ele>63.6094970703125</ele>
        <time>2023-05-15T13:27:34Z</time>
      </trkpt>
      <trkpt lat="36.02776394451205" lon="119.40698941516824">
        <ele>62.21209716796875</ele>
        <time>2023-05-15T13:27:49Z</time>
      </trkpt>
      <trkpt lat="36.02789397937048" lon="119.40712852571271">
        <ele>61.17047119140625</ele>
        <time>2023-05-15T13:27:58Z</time>
      </trkpt>
      <trkpt lat="36.02799103791089" lon="119.40729967028103">
        <ele>63.46319580078125</ele>
        <time>2023-05-15T13:28:07Z</time>
      </trkpt>
      <trkpt lat="36.02818608834485" lon="119.40749783048071">
        <ele>65.51824951171875</ele>
        <time>2023-05-15T13:28:19Z</time>
      </trkpt>
      <trkpt lat="36.028242084710804" lon="119.40751684178622">
        <ele>64.2525634765625</ele>
        <time>2023-05-15T13:28:22Z</time>
      </trkpt>
      <trkpt lat="36.028338116423846" lon="119.40762693325625">
        <ele>64.33184814453125</ele>
        <time>2023-05-15T13:28:28Z</time>
      </trkpt>
      <trkpt lat="36.028433122676" lon="119.40768397584712">
        <ele>65.47760009765625</ele>
        <time>2023-05-15T13:28:34Z</time>
      </trkpt>
      <trkpt lat="36.029230079678584" lon="119.4079641506856">
        <ele>69.60638427734375</ele>
        <time>2023-05-15T13:29:16Z</time>
      </trkpt>
      <trkpt lat="36.02952600767043" lon="119.40795610985218">
        <ele>62.71087646484375</ele>
        <time>2023-05-15T13:29:34Z</time>
      </trkpt>
      <trkpt lat="36.029579988698416" lon="119.40794309142807">
        <ele>65.02215576171875</ele>
        <time>2023-05-15T13:29:37Z</time>
      </trkpt>
      <trkpt lat="36.0296829736549" lon="119.40796009603793">
        <ele>65.90093994140625</ele>
        <time>2023-05-15T13:29:43Z</time>
      </trkpt>
      <trkpt lat="36.02988184954571" lon="119.40780392594075">
        <ele>61.26995849609375</ele>
        <time>2023-05-15T13:30:01Z</time>
      </trkpt>
      <trkpt lat="36.02991781737081" lon="119.40775587671416">
        <ele>60.88616943359375</ele>
        <time>2023-05-15T13:30:10Z</time>
      </trkpt>
      <trkpt lat="36.029724824020526" lon="119.40767982709986">
        <ele>60.6741943359375</ele>
        <time>2023-05-15T13:30:25Z</time>
      </trkpt>
      <trkpt lat="36.02955186817771" lon="119.40768885493982">
        <ele>64.671875</ele>
        <time>2023-05-15T13:30:34Z</time>
      </trkpt>
      <trkpt lat="36.029492869877416" lon="119.40766483910974">
        <ele>64.52716064453125</ele>
        <time>2023-05-15T13:30:37Z</time>
      </trkpt>
      <trkpt lat="36.0293868981581" lon="119.40767285848688">
        <ele>64.99871826171875</ele>
        <time>2023-05-15T13:30:43Z</time>
      </trkpt>
      <trkpt lat="36.02923691929347" lon="119.40764585009055">
        <ele>64.917724609375</ele>
        <time>2023-05-15T13:30:52Z</time>
      </trkpt>
      <trkpt lat="36.02891993724932" lon="119.40753378144944">
        <ele>64.710693359375</ele>
        <time>2023-05-15T13:31:10Z</time>
      </trkpt>
      <trkpt lat="36.02877294186537" lon="119.40747374241063">
        <ele>63.12603759765625</ele>
        <time>2023-05-15T13:31:19Z</time>
      </trkpt>
      <trkpt lat="36.02872393571084" lon="119.40743771468645">
        <ele>63.82025146484375</ele>
        <time>2023-05-15T13:31:22Z</time>
      </trkpt>
      <trkpt lat="36.02865594168308" lon="119.40741770389269">
        <ele>63.93304443359375</ele>
        <time>2023-05-15T13:31:25Z</time>
      </trkpt>
      <trkpt lat="36.02841792268072" lon="119.4072635894917">
        <ele>64.63848876953125</ele>
        <time>2023-05-15T13:31:40Z</time>
      </trkpt>
      <trkpt lat="36.02820388102398" lon="119.40707043857165">
        <ele>63.7437744140625</ele>
        <time>2023-05-15T13:31:55Z</time>
      </trkpt>
      <trkpt lat="36.028083800276704" lon="119.40683524190116">
        <ele>63.58087158203125</ele>
        <time>2023-05-15T13:32:07Z</time>
      </trkpt>
      <trkpt lat="36.02799665344833" lon="119.40646192459327">
        <ele>61.38153076171875</ele>
        <time>2023-05-15T13:32:25Z</time>
      </trkpt>
      <trkpt lat="36.02799755690679" lon="119.4062397335814">
        <ele>64.2093505859375</ele>
        <time>2023-05-15T13:32:34Z</time>
      </trkpt>
      <trkpt lat="36.02803949315677" lon="119.40611262092209">
        <ele>66.803466796875</ele>
        <time>2023-05-15T13:32:40Z</time>
      </trkpt>
      <trkpt lat="36.02804146150955" lon="119.40603855822428">
        <ele>64.738525390625</ele>
        <time>2023-05-15T13:32:43Z</time>
      </trkpt>
      <trkpt lat="36.02818630265792" lon="119.40573428857532">
        <ele>62.97662353515625</ele>
        <time>2023-05-15T13:32:58Z</time>
      </trkpt>
      <trkpt lat="36.0282812388404" lon="119.40563019244001">
        <ele>62.8914794921875</ele>
        <time>2023-05-15T13:33:04Z</time>
      </trkpt>
      <trkpt lat="36.02834217499983" lon="119.40550508367755">
        <ele>60.7640380859375</ele>
        <time>2023-05-15T13:33:10Z</time>
      </trkpt>
      <trkpt lat="36.02847809229381" lon="119.40537396255911">
        <ele>59.94781494140625</ele>
        <time>2023-05-15T13:33:19Z</time>
      </trkpt>
      <trkpt lat="36.02883543802968" lon="119.40375469548937">
        <ele>62.4371337890625</ele>
        <time>2023-05-15T13:34:56Z</time>
      </trkpt>
      <trkpt lat="36.02883543802968" lon="119.40375469548937">
        <ele>62.4371337890625</ele>
        <time>2023-05-15T13:34:59Z</time>
      </trkpt>
      <trkpt lat="36.02876341682295" lon="119.40363461850878">
        <ele>60.55072021484375</ele>
        <time>2023-05-15T13:37:38Z</time>
      </trkpt>
      <trkpt lat="36.02878339236442" lon="119.40357057123043">
        <ele>59.926025390625</ele>
        <time>2023-05-15T13:37:41Z</time>
      </trkpt>
      <trkpt lat="36.028769371922934" lon="119.40349351893015">
        <ele>60.05328369140625</ele>
        <time>2023-05-15T13:37:44Z</time>
      </trkpt>
      <trkpt lat="36.02876827116297" lon="119.4031542858685">
        <ele>57.62310791015625</ele>
        <time>2023-05-15T13:37:59Z</time>
      </trkpt>
      <trkpt lat="36.02873924046227" lon="119.40302420143668">
        <ele>55.84405517578125</ele>
        <time>2023-05-15T13:38:05Z</time>
      </trkpt>
      <trkpt lat="36.02854323832005" lon="119.40285611154282">
        <ele>60.6253662109375</ele>
        <time>2023-05-15T13:38:32Z</time>
      </trkpt>
      <trkpt lat="36.02832121273175" lon="119.40257295158938">
        <ele>61.77716064453125</ele>
        <time>2023-05-15T13:38:50Z</time>
      </trkpt>
      <trkpt lat="36.02815216827944" lon="119.40224876447438">
        <ele>61.21051025390625</ele>
        <time>2023-05-15T13:39:05Z</time>
      </trkpt>
      <trkpt lat="36.028053109387514" lon="119.4019115675391">
        <ele>62.1231689453125</ele>
        <time>2023-05-15T13:39:17Z</time>
      </trkpt>
      <trkpt lat="36.02800504187899" lon="119.40156536600799">
        <ele>62.5506591796875</ele>
        <time>2023-05-15T13:39:29Z</time>
      </trkpt>
      <trkpt lat="36.02797202561322" lon="119.40145530534757">
        <ele>62.392822265625</ele>
        <time>2023-05-15T13:39:35Z</time>
      </trkpt>
      <trkpt lat="36.02799096621492" lon="119.40119115152677">
        <ele>62.676025390625</ele>
        <time>2023-05-15T13:39:53Z</time>
      </trkpt>
      <trkpt lat="36.027932982585675" lon="119.4012061665522">
        <ele>58.69281005859375</ele>
        <time>2023-05-15T13:40:05Z</time>
      </trkpt>
      <trkpt lat="36.02785599784386" lon="119.40119416838637">
        <ele>58.1619873046875</ele>
        <time>2023-05-15T13:40:11Z</time>
      </trkpt>
      <trkpt lat="36.02756902589878" lon="119.40100309328993">
        <ele>59.99755859375</ele>
        <time>2023-05-15T13:40:29Z</time>
      </trkpt>
      <trkpt lat="36.02743303512174" lon="119.4008880449363">
        <ele>61.5946044921875</ele>
        <time>2023-05-15T13:40:38Z</time>
      </trkpt>
      <trkpt lat="36.027151079788844" lon="119.4007800175281">
        <ele>62.28546142578125</ele>
        <time>2023-05-15T13:40:53Z</time>
      </trkpt>
      <trkpt lat="36.02687112974962" lon="119.40070100617379">
        <ele>62.71630859375</ele>
        <time>2023-05-15T13:41:08Z</time>
      </trkpt>
      <trkpt lat="36.026588189067645" lon="119.40066902071518">
        <ele>61.951171875</ele>
        <time>2023-05-15T13:41:23Z</time>
      </trkpt>
      <trkpt lat="36.02640823388108" lon="119.4006880511506">
        <ele>63.14544677734375</ele>
        <time>2023-05-15T13:41:32Z</time>
      </trkpt>
      <trkpt lat="36.026247268396396" lon="119.40067406169071">
        <ele>61.8907470703125</ele>
        <time>2023-05-15T13:41:41Z</time>
      </trkpt>
      <trkpt lat="36.02603832170085" lon="119.4007031007799">
        <ele>65.16851806640625</ele>
        <time>2023-05-15T13:41:56Z</time>
      </trkpt>
      <trkpt lat="36.024654599331186" lon="119.40047013198034">
        <ele>67.0401611328125</ele>
        <time>2023-05-15T13:43:11Z</time>
      </trkpt>
      <trkpt lat="36.02458160314986" lon="119.40039309980949">
        <ele>68.6903076171875</ele>
        <time>2023-05-15T13:43:14Z</time>
      </trkpt>
      <trkpt lat="36.024332629884135" lon="119.40020503061135">
        <ele>63.20135498046875</ele>
        <time>2023-05-15T13:43:29Z</time>
      </trkpt>
      <trkpt lat="36.02407965822087" lon="119.40001096084896">
        <ele>62.21063232421875</ele>
        <time>2023-05-15T13:43:44Z</time>
      </trkpt>
      <trkpt lat="36.02395266676774" lon="119.399869905089">
        <ele>61.978515625</ele>
        <time>2023-05-15T13:43:56Z</time>
      </trkpt>
      <trkpt lat="36.023870667623754" lon="119.39974185170132">
        <ele>64.67431640625</ele>
        <time>2023-05-15T13:44:08Z</time>
      </trkpt>
      <trkpt lat="36.023817673123204" lon="119.3996928339339">
        <ele>64.4644775390625</ele>
        <time>2023-05-15T13:44:14Z</time>
      </trkpt>
      <trkpt lat="36.02367367824022" lon="119.3994787480996">
        <ele>62.70404052734375</ele>
        <time>2023-05-15T13:44:38Z</time>
      </trkpt>
      <trkpt lat="36.02364667658767" lon="119.39941572159297">
        <ele>62.42340087890625</ele>
        <time>2023-05-15T13:44:44Z</time>
      </trkpt>
      <trkpt lat="36.023698660063154" lon="119.39937869851113">
        <ele>62.10693359375</ele>
        <time>2023-05-15T13:44:53Z</time>
      </trkpt>
      <trkpt lat="36.023737656361526" lon="119.39942171417981">
        <ele>63.1385498046875</ele>
        <time>2023-05-15T13:44:59Z</time>
      </trkpt>
      <trkpt lat="36.02380865842783" lon="119.39956677457577">
        <ele>62.306640625</ele>
        <time>2023-05-15T13:45:12Z</time>
      </trkpt>
      <trkpt lat="36.02381967744559" lon="119.39972785063682">
        <ele>61.69891357421875</ele>
        <time>2023-05-15T13:45:24Z</time>
      </trkpt>
      <trkpt lat="36.02406965753307" lon="119.3999909519719">
        <ele>59.42242431640625</ele>
        <time>2023-05-15T13:45:54Z</time>
      </trkpt>
      <trkpt lat="36.02415665308792" lon="119.40009399394391">
        <ele>60.5701904296875</ele>
        <time>2023-05-15T13:46:06Z</time>
      </trkpt>
      <trkpt lat="36.02442462250296" lon="119.40029106447788">
        <ele>60.37628173828125</ele>
        <time>2023-05-15T13:46:30Z</time>
      </trkpt>
      <trkpt lat="36.02448161165458" lon="119.40030506531251">
        <ele>59.84332275390625</ele>
        <time>2023-05-15T13:46:33Z</time>
      </trkpt>
      <trkpt lat="36.0247275830332" lon="119.40047312536407">
        <ele>59.4150390625</ele>
        <time>2023-05-15T13:46:48Z</time>
      </trkpt>
      <trkpt lat="36.02484256669528" lon="119.40053214361936">
        <ele>59.83648681640625</ele>
        <time>2023-05-15T13:46:54Z</time>
      </trkpt>
      <trkpt lat="36.02511051970114" lon="119.40061615824192">
        <ele>58.99481201171875</ele>
        <time>2023-05-15T13:47:09Z</time>
      </trkpt>
      <trkpt lat="36.02539346795553" lon="119.40069116672603">
        <ele>58.966064453125</ele>
        <time>2023-05-15T13:47:27Z</time>
      </trkpt>
      <trkpt lat="36.02553444165979" lon="119.40072516925002">
        <ele>59.23150634765625</ele>
        <time>2023-05-15T13:47:36Z</time>
      </trkpt>
      <trkpt lat="36.025767388951294" lon="119.40073014579498">
        <ele>59.0960693359375</ele>
        <time>2023-05-15T13:47:48Z</time>
      </trkpt>
      <trkpt lat="36.02587735765867" lon="119.40069711561986">
        <ele>61.25634765625</ele>
        <time>2023-05-15T13:47:54Z</time>
      </trkpt>
      <trkpt lat="36.02605931578551" lon="119.40069709518578">
        <ele>61.98748779296875</ele>
        <time>2023-05-15T13:48:03Z</time>
      </trkpt>
      <trkpt lat="36.02634724020675" lon="119.40064503488694">
        <ele>60.23486328125</ele>
        <time>2023-05-15T13:48:18Z</time>
      </trkpt>
      <trkpt lat="36.026478211860514" lon="119.4006550255443">
        <ele>63.33050537109375</ele>
        <time>2023-05-15T13:48:30Z</time>
      </trkpt>
      <trkpt lat="36.02665016767294" lon="119.40062899229329">
        <ele>59.59893798828125</ele>
        <time>2023-05-15T13:48:42Z</time>
      </trkpt>
      <trkpt lat="36.02689311946881" lon="119.4006719880833">
        <ele>60.3262939453125</ele>
        <time>2023-05-15T13:48:54Z</time>
      </trkpt>
      <trkpt lat="36.02719006898278" lon="119.40077000771291">
        <ele>61.0560302734375</ele>
        <time>2023-05-15T13:49:09Z</time>
      </trkpt>
      <trkpt lat="36.02745903445655" lon="119.40091605743926">
        <ele>59.33367919921875</ele>
        <time>2023-05-15T13:49:24Z</time>
      </trkpt>
      <trkpt lat="36.02771801547722" lon="119.4011241443096">
        <ele>61.31884765625</ele>
        <time>2023-05-15T13:49:48Z</time>
      </trkpt>
      <trkpt lat="36.02793799804521" lon="119.4012872121811">
        <ele>61.86346435546875</ele>
        <time>2023-05-15T13:50:12Z</time>
      </trkpt>
      <trkpt lat="36.027967026762106" lon="119.40145530590897">
        <ele>61.279296875</ele>
        <time>2023-05-15T13:50:27Z</time>
      </trkpt>
      <trkpt lat="36.02799603521231" lon="119.40152534353366">
        <ele>61.4368896484375</ele>
        <time>2023-05-15T13:50:33Z</time>
      </trkpt>
      <trkpt lat="36.028071089625996" lon="119.40184452492095">
        <ele>61.294677734375</ele>
        <time>2023-05-15T13:50:54Z</time>
      </trkpt>
      <trkpt lat="36.02808211285846" lon="119.40195459047177">
        <ele>62.57806396484375</ele>
        <time>2023-05-15T13:51:00Z</time>
      </trkpt>
      <trkpt lat="36.02819914158654" lon="119.40218471919168">
        <ele>62.4146728515625</ele>
        <time>2023-05-15T13:51:12Z</time>
      </trkpt>
      <trkpt lat="36.028362173734756" lon="119.40245987443375">
        <ele>62.01800537109375</ele>
        <time>2023-05-15T13:51:27Z</time>
      </trkpt>
      <trkpt lat="36.028509191902685" lon="119.4026569848835">
        <ele>60.310546875</ele>
        <time>2023-05-15T13:51:39Z</time>
      </trkpt>
      <trkpt lat="36.02858422668831" lon="119.40284810165099">
        <ele>62.01080322265625</ele>
        <time>2023-05-15T13:51:48Z</time>
      </trkpt>
      <trkpt lat="36.028713236504395" lon="119.40298918091138">
        <ele>60.68389892578125</ele>
        <time>2023-05-15T13:51:57Z</time>
      </trkpt>
      <trkpt lat="36.02874724546534" lon="119.40304821665484">
        <ele>59.37030029296875</ele>
        <time>2023-05-15T13:52:00Z</time>
      </trkpt>
      <trkpt lat="36.02875735582386" lon="119.40343147714458">
        <ele>62.75946044921875</ele>
        <time>2023-05-15T13:52:18Z</time>
      </trkpt>
      <trkpt lat="36.028745398313006" lon="119.40356156918253">
        <ele>63.5506591796875</ele>
        <time>2023-05-15T13:52:24Z</time>
      </trkpt>
      <trkpt lat="36.0287554161671" lon="119.40362661376507">
        <ele>61.43292236328125</ele>
        <time>2023-05-15T13:52:27Z</time>
      </trkpt>
      <trkpt lat="36.028719514702274" lon="119.4039108203183">
        <ele>64.39337158203125</ele>
        <time>2023-05-15T13:52:39Z</time>
      </trkpt>
      <trkpt lat="36.028696535925185" lon="119.4039598583043">
        <ele>63.64984130859375</ele>
        <time>2023-05-15T13:52:42Z</time>
      </trkpt>
      <trkpt lat="36.0284626331514" lon="119.40409198062665">
        <ele>62.873779296875</ele>
        <time>2023-05-15T13:52:57Z</time>
      </trkpt>
      <trkpt lat="36.02827472771309" lon="119.40424511430449">
        <ele>61.36578369140625</ele>
        <time>2023-05-15T13:53:15Z</time>
      </trkpt>
      <trkpt lat="36.02807685171119" lon="119.40447330675619">
        <ele>60.6585693359375</ele>
        <time>2023-05-15T13:53:39Z</time>
      </trkpt>
      <trkpt lat="36.027899000194964" lon="119.40477555676165">
        <ele>61.8431396484375</ele>
        <time>2023-05-15T13:54:00Z</time>
      </trkpt>
      <trkpt lat="36.02788502381172" lon="119.40483160155688">
        <ele>62.5738525390625</ele>
        <time>2023-05-15T13:54:03Z</time>
      </trkpt>
      <trkpt lat="36.02783806141626" lon="119.40490466344586">
        <ele>64.02716064453125</ele>
        <time>2023-05-15T13:54:09Z</time>
      </trkpt>
      <trkpt lat="36.02768822350141" lon="119.40524394715972">
        <ele>66.012451171875</ele>
        <time>2023-05-15T13:54:27Z</time>
      </trkpt>
      <trkpt lat="36.02762737829798" lon="119.40560324376105">
        <ele>63.85107421875</ele>
        <time>2023-05-15T13:54:42Z</time>
      </trkpt>
      <trkpt lat="36.027618411316205" lon="119.40568030787512">
        <ele>65.48492431640625</ele>
        <time>2023-05-15T13:54:45Z</time>
      </trkpt>
      <trkpt lat="36.02758344488143" lon="119.40574336368532">
        <ele>65.032958984375</ele>
        <time>2023-05-15T13:54:51Z</time>
      </trkpt>
      <trkpt lat="36.02751744909169" lon="119.40571634883082">
        <ele>63.33038330078125</ele>
        <time>2023-05-15T13:54:57Z</time>
      </trkpt>
      <trkpt lat="36.02748144078697" lon="119.40567531914482">
        <ele>63.27801513671875</ele>
        <time>2023-05-15T13:55:00Z</time>
      </trkpt>
      <trkpt lat="36.02726042563107" lon="119.40551020918939">
        <ele>58.00177001953125</ele>
        <time>2023-05-15T13:55:12Z</time>
      </trkpt>
      <trkpt lat="36.02721141439511" lon="119.40545316849584">
        <ele>56.98046875</ele>
        <time>2023-05-15T13:55:15Z</time>
      </trkpt>
      <trkpt lat="36.02712131793128" lon="119.40514993614865">
        <ele>57.062255859375</ele>
        <time>2023-05-15T13:55:27Z</time>
      </trkpt>
      <trkpt lat="36.02715117320941" lon="119.40477864303807">
        <ele>57.78009033203125</ele>
        <time>2023-05-15T13:55:42Z</time>
      </trkpt>
      <trkpt lat="36.027103099791375" lon="119.40454246819094">
        <ele>59.804443359375</ele>
        <time>2023-05-15T13:55:51Z</time>
      </trkpt>
      <trkpt lat="36.0270020747885" lon="119.40440437560473">
        <ele>60.08782958984375</ele>
        <time>2023-05-15T13:56:00Z</time>
      </trkpt>
      <trkpt lat="36.02686807016343" lon="119.40430131378636">
        <ele>62.08648681640625</ele>
        <time>2023-05-15T13:56:09Z</time>
      </trkpt>
      <trkpt lat="36.02670209674311" lon="119.40426730718158">
        <ele>62.18341064453125</ele>
        <time>2023-05-15T13:56:18Z</time>
      </trkpt>
      <trkpt lat="36.02659912587935" lon="119.40428333061263">
        <ele>62.195068359375</ele>
        <time>2023-05-15T13:56:24Z</time>
      </trkpt>
      <trkpt lat="36.026565116031826" lon="119.40423129590843">
        <ele>62.70123291015625</ele>
        <time>2023-05-15T13:56:30Z</time>
      </trkpt>
      <trkpt lat="36.026534998798326" lon="119.40385502531474">
        <ele>62.735595703125</ele>
        <time>2023-05-15T13:56:51Z</time>
      </trkpt>
      <trkpt lat="36.026527929784336" lon="119.40363186741308">
        <ele>61.9691162109375</ele>
        <time>2023-05-15T13:57:03Z</time>
      </trkpt>
      <trkpt lat="36.026599890282604" lon="119.40355780729598">
        <ele>61.44281005859375</ele>
        <time>2023-05-15T13:57:09Z</time>
      </trkpt>
      <trkpt lat="36.02661984990987" lon="119.40344072341446">
        <ele>59.4371337890625</ele>
        <time>2023-05-15T13:57:15Z</time>
      </trkpt>
      <trkpt lat="36.02655181614263" lon="119.40327561724081">
        <ele>58.52325439453125</ele>
        <time>2023-05-15T13:57:24Z</time>
      </trkpt>
      <trkpt lat="36.02649982160693" lon="119.4032536080208">
        <ele>59.43914794921875</ele>
        <time>2023-05-15T13:57:27Z</time>
      </trkpt>
      <trkpt lat="36.026379868758305" lon="119.40331966674707">
        <ele>59.8519287109375</ele>
        <time>2023-05-15T13:57:36Z</time>
      </trkpt>
      <trkpt lat="36.02634691209314" lon="119.40343875267251">
        <ele>59.77752685546875</ele>
        <time>2023-05-15T13:57:42Z</time>
      </trkpt>
      <trkpt lat="36.026359926449075" lon="119.40349579088102">
        <ele>59.74176025390625</ele>
        <time>2023-05-15T13:57:45Z</time>
      </trkpt>
      <trkpt lat="36.02641693978554" lon="119.40358184468123">
        <ele>60.92401123046875</ele>
        <time>2023-05-15T13:57:51Z</time>
      </trkpt>
      <trkpt lat="36.02642695956976" lon="119.40365289357429">
        <ele>61.88946533203125</ele>
        <time>2023-05-15T13:57:57Z</time>
      </trkpt>
      <trkpt lat="36.02642007039847" lon="119.4039941385662">
        <ele>63.2608642578125</ele>
        <time>2023-05-15T13:58:15Z</time>
      </trkpt>
      <trkpt lat="36.026433197683936" lon="119.40438142226125">
        <ele>66.32373046875</ele>
        <time>2023-05-15T13:58:33Z</time>
      </trkpt>
      <trkpt lat="36.026442219896275" lon="119.4044514737387">
        <ele>66.43096923828125</ele>
        <time>2023-05-15T13:58:36Z</time>
      </trkpt>
      <trkpt lat="36.02642326322262" lon="119.40456255967327">
        <ele>66.0467529296875</ele>
        <time>2023-05-15T13:58:42Z</time>
      </trkpt>
      <trkpt lat="36.02635736416157" lon="119.40480174989887">
        <ele>64.32476806640625</ele>
        <time>2023-05-15T13:58:54Z</time>
      </trkpt>
      <trkpt lat="36.02637339860025" lon="119.40490582866995">
        <ele>63.4727783203125</ele>
        <time>2023-05-15T13:59:00Z</time>
      </trkpt>
      <trkpt lat="36.026444444873384" lon="119.40507395214757">
        <ele>62.53900146484375</ele>
        <time>2023-05-15T13:59:09Z</time>
      </trkpt>
      <trkpt lat="36.0265444696593" lon="119.40520004056276">
        <ele>62.753173828125</ele>
        <time>2023-05-15T13:59:18Z</time>
      </trkpt>
      <trkpt lat="36.02669544641518" lon="119.40523004747072">
        <ele>59.2711181640625</ele>
        <time>2023-05-15T13:59:27Z</time>
      </trkpt>
      <trkpt lat="36.02672645581547" lon="119.40527307827554">
        <ele>58.91253662109375</ele>
        <time>2023-05-15T13:59:30Z</time>
      </trkpt>
      <trkpt lat="36.026713487056696" lon="119.40534613817957">
        <ele>59.494140625</ele>
        <time>2023-05-15T13:59:33Z</time>
      </trkpt>
      <trkpt lat="36.02674953363002" lon="119.40548624707384">
        <ele>58.44354248046875</ele>
        <time>2023-05-15T13:59:39Z</time>
      </trkpt>
      <trkpt lat="36.02687461479103" lon="119.40576045730415">
        <ele>61.30029296875</ele>
        <time>2023-05-15T13:59:51Z</time>
      </trkpt>
      <trkpt lat="36.02688364298332" lon="119.40583451759426">
        <ele>63.90765380859375</ele>
        <time>2023-05-15T13:59:57Z</time>
      </trkpt>
      <trkpt lat="36.027046706611486" lon="119.40607770279077">
        <ele>61.621337890625</ele>
        <time>2023-05-15T14:00:18Z</time>
      </trkpt>
      <trkpt lat="36.02715872665115" lon="119.406185781741">
        <ele>61.127197265625</ele>
        <time>2023-05-15T14:00:30Z</time>
      </trkpt>
      <trkpt lat="36.027206746434146" lon="119.40625783773694">
        <ele>61.13336181640625</ele>
        <time>2023-05-15T14:00:36Z</time>
      </trkpt>
      <trkpt lat="36.02725780883818" lon="119.40642897898275">
        <ele>61.39697265625</ele>
        <time>2023-05-15T14:00:48Z</time>
      </trkpt>
      <trkpt lat="36.02731082517725" lon="119.40649402933724">
        <ele>60.99578857421875</ele>
        <time>2023-05-15T14:00:54Z</time>
      </trkpt>
      <trkpt lat="36.02746984490666" lon="119.40662112219442">
        <ele>61.1248779296875</ele>
        <time>2023-05-15T14:01:09Z</time>
      </trkpt>
      <trkpt lat="36.02753683486182" lon="119.40663312518227">
        <ele>64.5377197265625</ele>
        <time>2023-05-15T14:01:15Z</time>
      </trkpt>
      <trkpt lat="36.02760379186368" lon="119.40657106346117">
        <ele>61.09521484375</ele>
        <time>2023-05-15T14:01:21Z</time>
      </trkpt>
      <trkpt lat="36.027670622628925" lon="119.40621775151938">
        <ele>57.9515380859375</ele>
        <time>2023-05-15T14:01:36Z</time>
      </trkpt>
      <trkpt lat="36.027709554208236" lon="119.40607762837519">
        <ele>57.30426025390625</ele>
        <time>2023-05-15T14:01:42Z</time>
      </trkpt>
      <trkpt lat="36.02772250054315" lon="119.40595652516747">
        <ele>55.2679443359375</ele>
        <time>2023-05-15T14:01:48Z</time>
      </trkpt>
      <trkpt lat="36.02771147446753" lon="119.40588746875379">
        <ele>54.70257568359375</ele>
        <time>2023-05-15T14:01:51Z</time>
      </trkpt>
      <trkpt lat="36.027729443171296" lon="119.40582141184531">
        <ele>55.65228271484375</ele>
        <time>2023-05-15T14:01:54Z</time>
      </trkpt>
      <trkpt lat="36.02798134367362" lon="119.40571929922035">
        <ele>57.26568603515625</ele>
        <time>2023-05-15T14:02:09Z</time>
      </trkpt>
      <trkpt lat="36.028202184282556" lon="119.40544705240625">
        <ele>58.14483642578125</ele>
        <time>2023-05-15T14:02:27Z</time>
      </trkpt>
      <trkpt lat="36.02837903757271" lon="119.40517281315758">
        <ele>58.3839111328125</ele>
        <time>2023-05-15T14:02:42Z</time>
      </trkpt>
      <trkpt lat="36.028443984026254" lon="119.4050707252857">
        <ele>58.88336181640625</ele>
        <time>2023-05-15T14:02:48Z</time>
      </trkpt>
      <trkpt lat="36.028607816688805" lon="119.40471843335911">
        <ele>59.53997802734375</ele>
        <time>2023-05-15T14:03:06Z</time>
      </trkpt>
      <trkpt lat="36.02873165413475" lon="119.40433713133234">
        <ele>60.73614501953125</ele>
        <time>2023-05-15T14:03:27Z</time>
      </trkpt>
      <trkpt lat="36.028779515883336" lon="119.40395684681474">
        <ele>59.56103515625</ele>
        <time>2023-05-15T14:03:48Z</time>
      </trkpt>
      <trkpt lat="36.02887439914035" lon="119.40365962370117">
        <ele>64.453857421875</ele>
        <time>2023-05-15T14:04:09Z</time>
      </trkpt>
      <trkpt lat="36.02887627325754" lon="119.40324633637852">
        <ele>63.4237060546875</ele>
        <time>2023-05-15T14:04:39Z</time>
      </trkpt>
      <trkpt lat="36.02888025038278" lon="119.40317128483177">
        <ele>62.73455810546875</ele>
        <time>2023-05-15T14:04:45Z</time>
      </trkpt>
      <trkpt lat="36.02881717677318" lon="119.40286108408704">
        <ele>63.07562255859375</ele>
        <time>2023-05-15T14:05:09Z</time>
      </trkpt>
      <trkpt lat="36.02879713948235" lon="119.40270798577315">
        <ele>63.38458251953125</ele>
        <time>2023-05-15T14:05:21Z</time>
      </trkpt>
      <trkpt lat="36.02876412904995" lon="119.40264094586027">
        <ele>62.04010009765625</ele>
        <time>2023-05-15T14:05:27Z</time>
      </trkpt>
      <trkpt lat="36.02873909207218" lon="119.40247884425422">
        <ele>63.80908203125</ele>
        <time>2023-05-15T14:05:39Z</time>
      </trkpt>
      <trkpt lat="36.02878507424291" lon="119.40245082119353">
        <ele>63.2816162109375</ele>
        <time>2023-05-15T14:05:48Z</time>
      </trkpt>
      <trkpt lat="36.02883706437256" lon="119.4024588204637">
        <ele>62.357421875</ele>
        <time>2023-05-15T14:05:54Z</time>
      </trkpt>
      <trkpt lat="36.028935018466754" lon="119.40236775156407">
        <ele>61.51373291015625</ele>
        <time>2023-05-15T14:06:06Z</time>
      </trkpt>
      <trkpt lat="36.028992000538345" lon="119.40234873313513">
        <ele>62.27874755859375</ele>
        <time>2023-05-15T14:06:12Z</time>
      </trkpt>
      <trkpt lat="36.02915599111906" lon="119.402458784647">
        <ele>60.4439697265625</ele>
        <time>2023-05-15T14:06:30Z</time>
      </trkpt>
      <trkpt lat="36.029288969680515" lon="119.40249379210675">
        <ele>61.29827880859375</ele>
        <time>2023-05-15T14:06:42Z</time>
      </trkpt>
      <trkpt lat="36.029337944932294" lon="119.40244175336068">
        <ele>60.205322265625</ele>
        <time>2023-05-15T14:06:48Z</time>
      </trkpt>
      <trkpt lat="36.029482843501384" lon="119.40217156692721">
        <ele>61.65740966796875</ele>
        <time>2023-05-15T14:07:12Z</time>
      </trkpt>
      <trkpt lat="36.02956579762098" lon="119.40206148946974">
        <ele>62.158447265625</ele>
        <time>2023-05-15T14:07:24Z</time>
      </trkpt>
      <trkpt lat="36.02961977704272" lon="119.40202746248417">
        <ele>62.256103515625</ele>
        <time>2023-05-15T14:07:30Z</time>
      </trkpt>
      <trkpt lat="36.02965475516957" lon="119.4019694230143">
        <ele>61.46612548828125</ele>
        <time>2023-05-15T14:07:36Z</time>
      </trkpt>
      <trkpt lat="36.029771720743" lon="119.40193739035023">
        <ele>60.83868408203125</ele>
        <time>2023-05-15T14:07:48Z</time>
      </trkpt>
      <trkpt lat="36.02982269987207" lon="119.40189836090377">
        <ele>59.3333740234375</ele>
        <time>2023-05-15T14:07:54Z</time>
      </trkpt>
      <trkpt lat="36.02995062523729" lon="119.40170122803035">
        <ele>63.4630126953125</ele>
        <time>2023-05-15T14:09:09Z</time>
      </trkpt>
      <trkpt lat="36.02998458435566" lon="119.40155213604301">
        <ele>64.9774169921875</ele>
        <time>2023-05-15T14:09:21Z</time>
      </trkpt>
      <trkpt lat="36.02995252319143" lon="119.40122795224364">
        <ele>65.2794189453125</ele>
        <time>2023-05-15T14:09:45Z</time>
      </trkpt>
      <trkpt lat="36.02999150287487" lon="119.40117191607666">
        <ele>65.59716796875</ele>
        <time>2023-05-15T14:09:51Z</time>
      </trkpt>
      <trkpt lat="36.03004648362041" lon="119.40113889125158">
        <ele>64.65325927734375</ele>
        <time>2023-05-15T14:09:57Z</time>
      </trkpt>
      <trkpt lat="36.03011246887502" lon="119.40114088496883">
        <ele>64.81494140625</ele>
        <time>2023-05-15T14:10:03Z</time>
      </trkpt>
      <trkpt lat="36.030175463275924" lon="119.40118490277852">
        <ele>65.18133544921875</ele>
        <time>2023-05-15T14:10:09Z</time>
      </trkpt>
      <trkpt lat="36.03023944596395" lon="119.40117188822835">
        <ele>64.97015380859375</ele>
        <time>2023-05-15T14:10:15Z</time>
      </trkpt>
      <trkpt lat="36.0304174199659" lon="119.40124490971297">
        <ele>65.96478271484375</ele>
        <time>2023-05-15T14:10:33Z</time>
      </trkpt>
      <trkpt lat="36.03045049617331" lon="119.40163713386049">
        <ele>66.0390625</ele>
        <time>2023-05-15T14:11:06Z</time>
      </trkpt>
      <trkpt lat="36.03048553840053" lon="119.40185826221848">
        <ele>63.26806640625</ele>
        <time>2023-05-15T14:11:24Z</time>
      </trkpt>
      <trkpt lat="36.030535536727136" lon="119.40190028205723">
        <ele>64.36309814453125</ele>
        <time>2023-05-15T14:11:30Z</time>
      </trkpt>
      <trkpt lat="36.030535536727136" lon="119.40190028205723">
        <ele>64.36309814453125</ele>
        <time>2023-05-15T14:11:35Z</time>
      </trkpt>
    </trkseg>
  </trk>
</gpx>