<?xml version="1.0" encoding="UTF-8"?>
<gpx xmlns="http://www.topografix.com/GPX/1/1" xmlns:gpxtpx="http://www.garmin.com/xmlschemas/TrackPointExtension/v1" xmlns:xsi="http://www.w3.org/2001/XMLSchema-instance" xsi:schemaLocation="http://www.topografix.com/GPX/1/1 http://www.topografix.com/GPX/1/1/gpx.xsd" version="1.1" creator="gpx.py -- https://github.com/tkrajina/gpxpy">
  <trk>
    <name>gpx from keep</name>
    <type>Run</type>
    <trkseg>
      <trkpt lat="31.11184059242121" lon="121.36590518988908">
        <ele>10.543536284007132</ele>
        <time>2024-07-02T12:30:31Z</time>
      </trkpt>
      <trkpt lat="31.112013253595933" lon="121.36622067384064">
        <ele>9.463343374431133</ele>
        <time>2024-07-02T12:30:51Z</time>
      </trkpt>
      <trkpt lat="31.112092046312807" lon="121.3662921883796">
        <ele>9.88267441559583</ele>
        <time>2024-07-02T12:30:55Z</time>
      </trkpt>
      <trkpt lat="31.11211460485267" lon="121.36640791362426">
        <ele>10.207083402201533</ele>
        <time>2024-07-02T12:30:59Z</time>
      </trkpt>
      <trkpt lat="31.11221710161169" lon="121.3665251670711">
        <ele>9.772851654328406</ele>
        <time>2024-07-02T12:31:03Z</time>
      </trkpt>
      <trkpt lat="31.112303306851736" lon="121.36679549643154">
        <ele>10.348358120769262</ele>
        <time>2024-07-02T12:31:11Z</time>
      </trkpt>
      <trkpt lat="31.11233892767257" lon="121.36684550754502">
        <ele>9.259687763638794</ele>
        <time>2024-07-02T12:31:15Z</time>
      </trkpt>
      <trkpt lat="31.11242290467647" lon="121.3669142409142">
        <ele>9.251394839957356</ele>
        <time>2024-07-02T12:31:19Z</time>
      </trkpt>
      <trkpt lat="31.11248911377935" lon="121.36699768935354">
        <ele>10.482028771191835</ele>
        <time>2024-07-02T12:31:23Z</time>
      </trkpt>
      <trkpt lat="31.112659397984807" lon="121.36732899542189">
        <ele>9.908231875859201</ele>
        <time>2024-07-02T12:31:39Z</time>
      </trkpt>
      <trkpt lat="31.112760386040947" lon="121.36753633008678">
        <ele>8.542475190013647</ele>
        <time>2024-07-02T12:31:50Z</time>
      </trkpt>
      <trkpt lat="31.112812728477035" lon="121.36760852786333">
        <ele>5.750578840263188</ele>
        <time>2024-07-02T12:31:53Z</time>
      </trkpt>
      <trkpt lat="31.112870845186208" lon="121.36773271877003">
        <ele>7.11734561342746</ele>
        <time>2024-07-02T12:31:56Z</time>
      </trkpt>
      <trkpt lat="31.112952013957646" lon="121.36784324575015">
        <ele>6.3060848182067275</ele>
        <time>2024-07-02T12:31:59Z</time>
      </trkpt>
      <trkpt lat="31.113038401668746" lon="121.36781960309548">
        <ele>5.475766163319349</ele>
        <time>2024-07-02T12:32:02Z</time>
      </trkpt>
      <trkpt lat="31.113105573661464" lon="121.36793064016449">
        <ele>6.917535590007901</ele>
        <time>2024-07-02T12:32:05Z</time>
      </trkpt>
      <trkpt lat="31.11309096249902" lon="121.367987327286">
        <ele>5.205649490468204</ele>
        <time>2024-07-02T12:32:08Z</time>
      </trkpt>
      <trkpt lat="31.112981841395253" lon="121.36801368433005">
        <ele>3.14691408816725</ele>
        <time>2024-07-02T12:32:11Z</time>
      </trkpt>
      <trkpt lat="31.11278535582445" lon="121.36812110469742">
        <ele>2.234068843536079</ele>
        <time>2024-07-02T12:32:17Z</time>
      </trkpt>
      <trkpt lat="31.112704780929302" lon="121.3680842443718">
        <ele>3.909975916147232</ele>
        <time>2024-07-02T12:32:20Z</time>
      </trkpt>
      <trkpt lat="31.11262005842366" lon="121.36815244906207">
        <ele>2.732122914865613</ele>
        <time>2024-07-02T12:32:23Z</time>
      </trkpt>
      <trkpt lat="31.112510714001978" lon="121.36816943687809">
        <ele>4.59491453692317</ele>
        <time>2024-07-02T12:32:30Z</time>
      </trkpt>
      <trkpt lat="31.112369182963782" lon="121.36827898783957">
        <ele>8.256166755221784</ele>
        <time>2024-07-02T12:32:36Z</time>
      </trkpt>
      <trkpt lat="31.11224471119067" lon="121.36829506110168">
        <ele>7.8656972935423255</ele>
        <time>2024-07-02T12:32:39Z</time>
      </trkpt>
      <trkpt lat="31.11216846004739" lon="121.36834170798261">
        <ele>7.769744703546166</ele>
        <time>2024-07-02T12:32:42Z</time>
      </trkpt>
      <trkpt lat="31.112096361091655" lon="121.36832984554447">
        <ele>8.509107084944844</ele>
        <time>2024-07-02T12:32:45Z</time>
      </trkpt>
      <trkpt lat="31.112036070415165" lon="121.36841221968712">
        <ele>9.725318024866283</ele>
        <time>2024-07-02T12:32:48Z</time>
      </trkpt>
      <trkpt lat="31.11189925643937" lon="121.36849390582779">
        <ele>11.805552393198013</ele>
        <time>2024-07-02T12:32:54Z</time>
      </trkpt>
      <trkpt lat="31.111855526270954" lon="121.36856824382211">
        <ele>11.141491370275617</ele>
        <time>2024-07-02T12:33:00Z</time>
      </trkpt>
      <trkpt lat="31.111607876793403" lon="121.36876109933152">
        <ele>11.29777052346617</ele>
        <time>2024-07-02T12:33:21Z</time>
      </trkpt>
      <trkpt lat="31.111541288146576" lon="121.36877229573477">
        <ele>10.266749028116465</ele>
        <time>2024-07-02T12:33:24Z</time>
      </trkpt>
      <trkpt lat="31.111471539694683" lon="121.36874302502366">
        <ele>10.8295161081478</ele>
        <time>2024-07-02T12:33:27Z</time>
      </trkpt>
      <trkpt lat="31.11139417098718" lon="121.36876719691811">
        <ele>11.344166805967689</ele>
        <time>2024-07-02T12:33:30Z</time>
      </trkpt>
      <trkpt lat="31.111337803191216" lon="121.36888934175914">
        <ele>11.39693757891655</ele>
        <time>2024-07-02T12:33:33Z</time>
      </trkpt>
      <trkpt lat="31.111111773602822" lon="121.36914183595715">
        <ele>13.767948169261217</ele>
        <time>2024-07-02T12:33:42Z</time>
      </trkpt>
      <trkpt lat="31.11101570793567" lon="121.36932123877584">
        <ele>14.491352183744311</ele>
        <time>2024-07-02T12:33:48Z</time>
      </trkpt>
      <trkpt lat="31.11105474863724" lon="121.36942800787807">
        <ele>14.199559923261404</ele>
        <time>2024-07-02T12:33:51Z</time>
      </trkpt>
      <trkpt lat="31.111236746818243" lon="121.36960065770377">
        <ele>11.985303143039346</ele>
        <time>2024-07-02T12:33:57Z</time>
      </trkpt>
      <trkpt lat="31.11132361076018" lon="121.36978874746744">
        <ele>12.154994801618159</ele>
        <time>2024-07-02T12:34:03Z</time>
      </trkpt>
      <trkpt lat="31.11143473657851" lon="121.37008666678781">
        <ele>10.881005566567183</ele>
        <time>2024-07-02T12:34:12Z</time>
      </trkpt>
      <trkpt lat="31.111452843684805" lon="121.3702133155112">
        <ele>10.789368841797113</ele>
        <time>2024-07-02T12:34:15Z</time>
      </trkpt>
      <trkpt lat="31.11158019742342" lon="121.37033416207737">
        <ele>9.965051689185202</ele>
        <time>2024-07-02T12:34:21Z</time>
      </trkpt>
      <trkpt lat="31.111594336746396" lon="121.37044238197721">
        <ele>9.183810038492084</ele>
        <time>2024-07-02T12:34:24Z</time>
      </trkpt>
      <trkpt lat="31.111643247055547" lon="121.37055487670246">
        <ele>9.390167930163443</ele>
        <time>2024-07-02T12:34:27Z</time>
      </trkpt>
      <trkpt lat="31.11162383378088" lon="121.3706234556627">
        <ele>9.77157698571682</ele>
        <time>2024-07-02T12:34:30Z</time>
      </trkpt>
      <trkpt lat="31.111797704895483" lon="121.37090056910662">
        <ele>6.580468308180571</ele>
        <time>2024-07-02T12:34:55Z</time>
      </trkpt>
      <trkpt lat="31.11179066465722" lon="121.37101090891258">
        <ele>7.4592297887429595</ele>
        <time>2024-07-02T12:35:01Z</time>
      </trkpt>
      <trkpt lat="31.11186750563707" lon="121.37103905873725">
        <ele>7.46491698268801</ele>
        <time>2024-07-02T12:35:04Z</time>
      </trkpt>
      <trkpt lat="31.111902673027" lon="121.37111069257871">
        <ele>7.68562591727823</ele>
        <time>2024-07-02T12:35:10Z</time>
      </trkpt>
      <trkpt lat="31.11191423720315" lon="121.37124343100162">
        <ele>7.527957500889897</ele>
        <time>2024-07-02T12:35:19Z</time>
      </trkpt>
      <trkpt lat="31.111865852097154" lon="121.37132867127035">
        <ele>7.669841998256743</ele>
        <time>2024-07-02T12:35:22Z</time>
      </trkpt>
      <trkpt lat="31.11182199808815" lon="121.37135804713184">
        <ele>7.156164441257715</ele>
        <time>2024-07-02T12:35:25Z</time>
      </trkpt>
      <trkpt lat="31.111790649355154" lon="121.3714621032204">
        <ele>5.257125141099095</ele>
        <time>2024-07-02T12:35:28Z</time>
      </trkpt>
      <trkpt lat="31.111712307232388" lon="121.37145860737913">
        <ele>7.360628073103726</ele>
        <time>2024-07-02T12:35:31Z</time>
      </trkpt>
      <trkpt lat="31.111635320480172" lon="121.37147859014806">
        <ele>6.677583364769816</ele>
        <time>2024-07-02T12:35:34Z</time>
      </trkpt>
      <trkpt lat="31.11148472745937" lon="121.37163154329224">
        <ele>7.338112981058657</ele>
        <time>2024-07-02T12:35:40Z</time>
      </trkpt>
      <trkpt lat="31.111398790428172" lon="121.37162554274285">
        <ele>8.597089763730764</ele>
        <time>2024-07-02T12:35:43Z</time>
      </trkpt>
      <trkpt lat="31.11118598878932" lon="121.37170781103416">
        <ele>10.347501403652132</ele>
        <time>2024-07-02T12:35:49Z</time>
      </trkpt>
      <trkpt lat="31.111117985329635" lon="121.37177563005719">
        <ele>9.10835853498429</ele>
        <time>2024-07-02T12:35:52Z</time>
      </trkpt>
      <trkpt lat="31.11102583923667" lon="121.37181933230046">
        <ele>11.68563738744706</ele>
        <time>2024-07-02T12:35:55Z</time>
      </trkpt>
      <trkpt lat="31.1109436464021" lon="121.37191308467628">
        <ele>8.898505702614784</ele>
        <time>2024-07-02T12:35:58Z</time>
      </trkpt>
      <trkpt lat="31.11089816866937" lon="121.37199798761907">
        <ele>10.222409726120532</ele>
        <time>2024-07-02T12:36:01Z</time>
      </trkpt>
      <trkpt lat="31.110780521990176" lon="121.37199102184537">
        <ele>9.649825930595398</ele>
        <time>2024-07-02T12:36:04Z</time>
      </trkpt>
      <trkpt lat="31.110695296006632" lon="121.37202939105558">
        <ele>8.315057925879955</ele>
        <time>2024-07-02T12:36:07Z</time>
      </trkpt>
      <trkpt lat="31.11056385278567" lon="121.37214436375375">
        <ele>6.937494209967554</ele>
        <time>2024-07-02T12:36:16Z</time>
      </trkpt>
      <trkpt lat="31.110522379362624" lon="121.37211240285926">
        <ele>6.636848330497742</ele>
        <time>2024-07-02T12:36:19Z</time>
      </trkpt>
      <trkpt lat="31.11041091118424" lon="121.37221757798453">
        <ele>6.420733300037682</ele>
        <time>2024-07-02T12:36:34Z</time>
      </trkpt>
      <trkpt lat="31.110368220468107" lon="121.37229851648681">
        <ele>5.834192752838135</ele>
        <time>2024-07-02T12:36:44Z</time>
      </trkpt>
      <trkpt lat="31.110568885258232" lon="121.37242379007333">
        <ele>7.6340810507535934</ele>
        <time>2024-07-02T12:36:53Z</time>
      </trkpt>
      <trkpt lat="31.110601100325077" lon="121.37249761232125">
        <ele>6.064833655953407</ele>
        <time>2024-07-02T12:36:59Z</time>
      </trkpt>
      <trkpt lat="31.11065635813592" lon="121.37256459509564">
        <ele>6.911187634803355</ele>
        <time>2024-07-02T12:37:02Z</time>
      </trkpt>
      <trkpt lat="31.11063987595219" lon="121.37262412083182">
        <ele>9.01714221201837</ele>
        <time>2024-07-02T12:37:05Z</time>
      </trkpt>
      <trkpt lat="31.110750558135248" lon="121.37273837637086">
        <ele>8.47905526123941</ele>
        <time>2024-07-02T12:37:23Z</time>
      </trkpt>
      <trkpt lat="31.110851178455544" lon="121.37281247715372">
        <ele>5.786217478103936</ele>
        <time>2024-07-02T12:37:32Z</time>
      </trkpt>
      <trkpt lat="31.111024481449103" lon="121.37301519055991">
        <ele>6.185516133904457</ele>
        <time>2024-07-02T12:37:53Z</time>
      </trkpt>
      <trkpt lat="31.11107913061693" lon="121.37310611846667">
        <ele>2.7950424514710903</ele>
        <time>2024-07-02T12:37:59Z</time>
      </trkpt>
      <trkpt lat="31.11113075803978" lon="121.3732693471219">
        <ele>4.9683409454301</ele>
        <time>2024-07-02T12:38:08Z</time>
      </trkpt>
      <trkpt lat="31.11120975129858" lon="121.37342280540152">
        <ele>8.7271782560274</ele>
        <time>2024-07-02T12:38:20Z</time>
      </trkpt>
      <trkpt lat="31.111249257746053" lon="121.37345306364598">
        <ele>8.95691095571965</ele>
        <time>2024-07-02T12:38:23Z</time>
      </trkpt>
      <trkpt lat="31.111348412913472" lon="121.37371819481466">
        <ele>7.769781259819865</ele>
        <time>2024-07-02T12:38:41Z</time>
      </trkpt>
      <trkpt lat="31.11141628408127" lon="121.37384034265564">
        <ele>7.768050696700811</ele>
        <time>2024-07-02T12:38:51Z</time>
      </trkpt>
      <trkpt lat="31.111438885186985" lon="121.37393425818308">
        <ele>7.626888481900096</ele>
        <time>2024-07-02T12:38:57Z</time>
      </trkpt>
      <trkpt lat="31.111378552980018" lon="121.37401580048099">
        <ele>10.297964768484235</ele>
        <time>2024-07-02T12:39:03Z</time>
      </trkpt>
      <trkpt lat="31.111267844188223" lon="121.37411742042471">
        <ele>11.301186743192375</ele>
        <time>2024-07-02T12:39:12Z</time>
      </trkpt>
      <trkpt lat="31.111186299841137" lon="121.3741246962556">
        <ele>12.157427681609988</ele>
        <time>2024-07-02T12:39:15Z</time>
      </trkpt>
      <trkpt lat="31.111151487753897" lon="121.37417671122884">
        <ele>7.111052640713751</ele>
        <time>2024-07-02T12:39:57Z</time>
      </trkpt>
      <trkpt lat="31.111151487753897" lon="121.37417671122884">
        <ele>7.111052640713751</ele>
        <time>2024-07-02T12:40:03Z</time>
      </trkpt>
      <trkpt lat="31.111158620325416" lon="121.37417436723186">
        <ele>5.898799624294043</ele>
        <time>2024-07-02T12:40:12Z</time>
      </trkpt>
      <trkpt lat="31.111162820327273" lon="121.37422769031585">
        <ele>7.470195998437703</ele>
        <time>2024-07-02T12:40:18Z</time>
      </trkpt>
      <trkpt lat="31.111251993743604" lon="121.37442019662738">
        <ele>8.508497125469148</ele>
        <time>2024-07-02T12:40:30Z</time>
      </trkpt>
      <trkpt lat="31.111371059905913" lon="121.37459826342027">
        <ele>7.183734776452184</ele>
        <time>2024-07-02T12:40:36Z</time>
      </trkpt>
      <trkpt lat="31.11142854649167" lon="121.37461057930179">
        <ele>5.8065778044983745</ele>
        <time>2024-07-02T12:40:39Z</time>
      </trkpt>
      <trkpt lat="31.111545075203995" lon="121.3746953252906">
        <ele>7.391367598436773</ele>
        <time>2024-07-02T12:40:42Z</time>
      </trkpt>
      <trkpt lat="31.111616776052568" lon="121.37480079633907">
        <ele>7.395495073869824</ele>
        <time>2024-07-02T12:40:45Z</time>
      </trkpt>
      <trkpt lat="31.111742714975115" lon="121.37481493076803">
        <ele>6.977700638584793</ele>
        <time>2024-07-02T12:40:48Z</time>
      </trkpt>
      <trkpt lat="31.11185043079803" lon="121.3749431901719">
        <ele>6.276731893420219</ele>
        <time>2024-07-02T12:40:52Z</time>
      </trkpt>
      <trkpt lat="31.11186459552815" lon="121.37508682843847">
        <ele>6.194059295579791</ele>
        <time>2024-07-02T12:40:56Z</time>
      </trkpt>
      <trkpt lat="31.11196180914714" lon="121.3752348688981">
        <ele>8.736694461666048</ele>
        <time>2024-07-02T12:41:00Z</time>
      </trkpt>
      <trkpt lat="31.11218666389839" lon="121.37541260755633">
        <ele>8.770209559239447</ele>
        <time>2024-07-02T12:41:13Z</time>
      </trkpt>
      <trkpt lat="31.11233447743187" lon="121.37542005869832">
        <ele>9.1808195207268</ele>
        <time>2024-07-02T12:41:22Z</time>
      </trkpt>
      <trkpt lat="31.112513513602355" lon="121.3756850225012">
        <ele>7.719810684211552</ele>
        <time>2024-07-02T12:41:43Z</time>
      </trkpt>
      <trkpt lat="31.112596479879144" lon="121.37571549177457">
        <ele>7.432363876141608</ele>
        <time>2024-07-02T12:41:49Z</time>
      </trkpt>
      <trkpt lat="31.11262191066521" lon="121.37576731103708">
        <ele>7.085561405867338</ele>
        <time>2024-07-02T12:41:52Z</time>
      </trkpt>
      <trkpt lat="31.112574009029" lon="121.3757565971208">
        <ele>6.489826139993966</ele>
        <time>2024-07-02T12:42:01Z</time>
      </trkpt>
      <trkpt lat="31.112492094409596" lon="121.37580777297545">
        <ele>4.692511158064008</ele>
        <time>2024-07-02T12:42:25Z</time>
      </trkpt>
      <trkpt lat="31.112324909511358" lon="121.37570106561532">
        <ele>6.0803934736177325</ele>
        <time>2024-07-02T12:42:37Z</time>
      </trkpt>
      <trkpt lat="31.112216043072884" lon="121.3758003171353">
        <ele>5.560610924847424</ele>
        <time>2024-07-02T12:42:43Z</time>
      </trkpt>
      <trkpt lat="31.112137346715723" lon="121.37579326963017">
        <ele>4.388877618126571</ele>
        <time>2024-07-02T12:42:46Z</time>
      </trkpt>
      <trkpt lat="31.11181228632162" lon="121.3756954195678">
        <ele>6.5687690963968635</ele>
        <time>2024-07-02T12:42:55Z</time>
      </trkpt>
      <trkpt lat="31.111781543620697" lon="121.37573654184719">
        <ele>5.5015887301415205</ele>
        <time>2024-07-02T12:42:59Z</time>
      </trkpt>
      <trkpt lat="31.111722966629287" lon="121.37572373832705">
        <ele>7.225376458838582</ele>
        <time>2024-07-02T12:43:14Z</time>
      </trkpt>
      <trkpt lat="31.111592285329337" lon="121.37570620131744">
        <ele>5.474623149260879</ele>
        <time>2024-07-02T12:43:26Z</time>
      </trkpt>
      <trkpt lat="31.111536206968808" lon="121.37574697288015">
        <ele>6.520336868241429</ele>
        <time>2024-07-02T12:43:32Z</time>
      </trkpt>
      <trkpt lat="31.111561690542835" lon="121.37580424330737">
        <ele>6.196292869746685</ele>
        <time>2024-07-02T12:43:38Z</time>
      </trkpt>
      <trkpt lat="31.111690271844086" lon="121.37591420399944">
        <ele>5.0851237969473</ele>
        <time>2024-07-02T12:43:50Z</time>
      </trkpt>
      <trkpt lat="31.111746808084565" lon="121.3760826857906">
        <ele>4.880739139392972</ele>
        <time>2024-07-02T12:44:02Z</time>
      </trkpt>
      <trkpt lat="31.111824404567543" lon="121.37618275223515">
        <ele>5.2607653345912695</ele>
        <time>2024-07-02T12:44:23Z</time>
      </trkpt>
      <trkpt lat="31.111809081879223" lon="121.3763305414497">
        <ele>6.894410625100136</ele>
        <time>2024-07-02T12:44:44Z</time>
      </trkpt>
      <trkpt lat="31.111821947532366" lon="121.37639539640948">
        <ele>5.491662696003914</ele>
        <time>2024-07-02T12:44:50Z</time>
      </trkpt>
      <trkpt lat="31.111875862219858" lon="121.37644051527691">
        <ele>5.6255149422213435</ele>
        <time>2024-07-02T12:44:56Z</time>
      </trkpt>
      <trkpt lat="31.11214016931476" lon="121.37640282147706">
        <ele>5.911543138325214</ele>
        <time>2024-07-02T12:45:18Z</time>
      </trkpt>
      <trkpt lat="31.11218948882169" lon="121.37637990340264">
        <ele>3.974879630841315</ele>
        <time>2024-07-02T12:45:30Z</time>
      </trkpt>
      <trkpt lat="31.112209902212577" lon="121.376420252789">
        <ele>3.429331903345883</ele>
        <time>2024-07-02T12:46:56Z</time>
      </trkpt>
      <trkpt lat="31.112376382132332" lon="121.37631069107067">
        <ele>10.543169001117349</ele>
        <time>2024-07-02T12:47:05Z</time>
      </trkpt>
      <trkpt lat="31.112482900618687" lon="121.37632384914771">
        <ele>9.84781244955957</ele>
        <time>2024-07-02T12:47:08Z</time>
      </trkpt>
      <trkpt lat="31.112583510298343" lon="121.37622576210241">
        <ele>7.465431267395616</ele>
        <time>2024-07-02T12:47:12Z</time>
      </trkpt>
      <trkpt lat="31.11265805581051" lon="121.37611846024163">
        <ele>9.258605604991317</ele>
        <time>2024-07-02T12:47:16Z</time>
      </trkpt>
      <trkpt lat="31.11287236071606" lon="121.37623560309632">
        <ele>5.38124009501189</ele>
        <time>2024-07-02T12:47:24Z</time>
      </trkpt>
      <trkpt lat="31.112928423841772" lon="121.37624964161789">
        <ele>6.794547602534294</ele>
        <time>2024-07-02T12:47:27Z</time>
      </trkpt>
      <trkpt lat="31.11290009709256" lon="121.37635850836534">
        <ele>7.941948316060007</ele>
        <time>2024-07-02T12:47:30Z</time>
      </trkpt>
      <trkpt lat="31.1129368999996" lon="121.37642230193136">
        <ele>7.839429841376841</ele>
        <time>2024-07-02T12:47:33Z</time>
      </trkpt>
      <trkpt lat="31.11306713683216" lon="121.37647694430099">
        <ele>11.333300076425076</ele>
        <time>2024-07-02T12:47:36Z</time>
      </trkpt>
      <trkpt lat="31.11314055163881" lon="121.3765716424376">
        <ele>10.372335300780833</ele>
        <time>2024-07-02T12:47:39Z</time>
      </trkpt>
      <trkpt lat="31.11311190334713" lon="121.37664600988359">
        <ele>5.648573523387313</ele>
        <time>2024-07-02T12:47:42Z</time>
      </trkpt>
      <trkpt lat="31.11320333851616" lon="121.37673028880002">
        <ele>9.041403701528907</ele>
        <time>2024-07-02T12:47:45Z</time>
      </trkpt>
      <trkpt lat="31.113332545637576" lon="121.37678280001319">
        <ele>9.179041365161538</ele>
        <time>2024-07-02T12:47:48Z</time>
      </trkpt>
      <trkpt lat="31.11338459664155" lon="121.37682743511306">
        <ele>11.52955169789493</ele>
        <time>2024-07-02T12:47:51Z</time>
      </trkpt>
      <trkpt lat="31.113542317716792" lon="121.3768644633143">
        <ele>10.895886647514999</ele>
        <time>2024-07-02T12:47:54Z</time>
      </trkpt>
      <trkpt lat="31.113727503571642" lon="121.37700156462857">
        <ele>10.23366896621883</ele>
        <time>2024-07-02T12:48:00Z</time>
      </trkpt>
      <trkpt lat="31.113811141955825" lon="121.3772157600086">
        <ele>11.87475833389908</ele>
        <time>2024-07-02T12:48:06Z</time>
      </trkpt>
      <trkpt lat="31.113892317161287" lon="121.37731803988301">
        <ele>12.193168975412846</ele>
        <time>2024-07-02T12:48:09Z</time>
      </trkpt>
      <trkpt lat="31.11391136834935" lon="121.37739409720614">
        <ele>11.407412025146186</ele>
        <time>2024-07-02T12:48:12Z</time>
      </trkpt>
      <trkpt lat="31.113945784061976" lon="121.37742621218219">
        <ele>11.554713550955057</ele>
        <time>2024-07-02T12:48:15Z</time>
      </trkpt>
      <trkpt lat="31.11384434132316" lon="121.37742662864761">
        <ele>11.694869766943157</ele>
        <time>2024-07-02T12:57:47Z</time>
      </trkpt>
      <trkpt lat="31.11382063666632" lon="121.37763936088949">
        <ele>12.909425547346473</ele>
        <time>2024-07-02T12:57:55Z</time>
      </trkpt>
      <trkpt lat="31.113872890171688" lon="121.37787312607054">
        <ele>13.439570484682918</ele>
        <time>2024-07-02T12:58:01Z</time>
      </trkpt>
      <trkpt lat="31.114010043687426" lon="121.3780529931671">
        <ele>13.593464436940849</ele>
        <time>2024-07-02T12:58:10Z</time>
      </trkpt>
      <trkpt lat="31.114111714452907" lon="121.37808021847079">
        <ele>13.539289535954595</ele>
        <time>2024-07-02T12:58:13Z</time>
      </trkpt>
      <trkpt lat="31.114129508232978" lon="121.37814913520317">
        <ele>11.395159774459898</ele>
        <time>2024-07-02T12:58:16Z</time>
      </trkpt>
      <trkpt lat="31.11418425695516" lon="121.378246058087">
        <ele>10.942789372988045</ele>
        <time>2024-07-02T12:58:19Z</time>
      </trkpt>
      <trkpt lat="31.11423051132622" lon="121.37813129561242">
        <ele>10.601084499619901</ele>
        <time>2024-07-02T12:58:22Z</time>
      </trkpt>
      <trkpt lat="31.11423493889678" lon="121.37805281136872">
        <ele>10.161481270566583</ele>
        <time>2024-07-02T12:58:25Z</time>
      </trkpt>
      <trkpt lat="31.114291905502245" lon="121.37802795621282">
        <ele>9.416436436586082</ele>
        <time>2024-07-02T12:58:28Z</time>
      </trkpt>
      <trkpt lat="31.11433891892748" lon="121.3779351586521">
        <ele>10.019043998792768</ele>
        <time>2024-07-02T12:58:31Z</time>
      </trkpt>
      <trkpt lat="31.11435770449306" lon="121.37782916993066">
        <ele>9.842000105418265</ele>
        <time>2024-07-02T12:58:34Z</time>
      </trkpt>
      <trkpt lat="31.11435113761024" lon="121.37773716344667">
        <ele>10.165554069913924</ele>
        <time>2024-07-02T12:58:37Z</time>
      </trkpt>
      <trkpt lat="31.11428384134776" lon="121.37768591363098">
        <ele>9.168335323221982</ele>
        <time>2024-07-02T12:58:40Z</time>
      </trkpt>
      <trkpt lat="31.114181495601848" lon="121.37768933655762">
        <ele>10.617562231607735</ele>
        <time>2024-07-02T12:58:43Z</time>
      </trkpt>
      <trkpt lat="31.114102877432458" lon="121.37749042145585">
        <ele>11.444255317561328</ele>
        <time>2024-07-02T12:58:49Z</time>
      </trkpt>
      <trkpt lat="31.11414359132434" lon="121.37741791680182">
        <ele>10.931448116898537</ele>
        <time>2024-07-02T12:58:52Z</time>
      </trkpt>
      <trkpt lat="31.11396915186449" lon="121.37733156589363">
        <ele>10.66650926694274</ele>
        <time>2024-07-02T12:58:58Z</time>
      </trkpt>
      <trkpt lat="31.113896594828017" lon="121.37725043544447">
        <ele>10.871771648526192</ele>
        <time>2024-07-02T12:59:01Z</time>
      </trkpt>
      <trkpt lat="31.11377902777225" lon="121.37723611705474">
        <ele>12.051965290680528</ele>
        <time>2024-07-02T12:59:04Z</time>
      </trkpt>
      <trkpt lat="31.113687514403246" lon="121.37713352081775">
        <ele>8.13154271710664</ele>
        <time>2024-07-02T12:59:13Z</time>
      </trkpt>
      <trkpt lat="31.113667121603598" lon="121.37705528258564">
        <ele>8.564552540890872</ele>
        <time>2024-07-02T12:59:16Z</time>
      </trkpt>
      <trkpt lat="31.113666517009662" lon="121.37686370017839">
        <ele>8.722804778255522</ele>
        <time>2024-07-02T12:59:25Z</time>
      </trkpt>
      <trkpt lat="31.11358383432812" lon="121.37677972279994">
        <ele>8.785116767510772</ele>
        <time>2024-07-02T12:59:31Z</time>
      </trkpt>
      <trkpt lat="31.11344537321752" lon="121.37669101201504">
        <ele>10.621212499216199</ele>
        <time>2024-07-02T12:59:35Z</time>
      </trkpt>
      <trkpt lat="31.113381173701605" lon="121.37669576724804">
        <ele>11.566539771854877</ele>
        <time>2024-07-02T12:59:38Z</time>
      </trkpt>
      <trkpt lat="31.113309517724183" lon="121.37659924514371">
        <ele>9.449362587183714</ele>
        <time>2024-07-02T12:59:41Z</time>
      </trkpt>
      <trkpt lat="31.11320922265122" lon="121.37658989185795">
        <ele>11.767370667308569</ele>
        <time>2024-07-02T12:59:44Z</time>
      </trkpt>
      <trkpt lat="31.113050714969283" lon="121.3764347246081">
        <ele>12.875654272735119</ele>
        <time>2024-07-02T12:59:52Z</time>
      </trkpt>
      <trkpt lat="31.11297923169576" lon="121.37634373258669">
        <ele>14.51791971642524</ele>
        <time>2024-07-02T12:59:56Z</time>
      </trkpt>
      <trkpt lat="31.11300481211094" lon="121.37628339992786">
        <ele>10.585600407794118</ele>
        <time>2024-07-02T13:00:04Z</time>
      </trkpt>
      <trkpt lat="31.11300481211094" lon="121.37628339992786">
        <ele>10.585600407794118</ele>
        <time>2024-07-02T13:00:04Z</time>
      </trkpt>
      <trkpt lat="31.112949846949633" lon="121.37628584466108">
        <ele>8.482256148010492</ele>
        <time>2024-07-02T13:10:56Z</time>
      </trkpt>
      <trkpt lat="31.11292197529939" lon="121.37624036477895">
        <ele>7.797225273214281</ele>
        <time>2024-07-02T13:11:02Z</time>
      </trkpt>
      <trkpt lat="31.11301990945952" lon="121.37613090422101">
        <ele>8.573540039360523</ele>
        <time>2024-07-02T13:11:11Z</time>
      </trkpt>
      <trkpt lat="31.112962038645755" lon="121.37606605766558">
        <ele>9.468493266962469</ele>
        <time>2024-07-02T13:11:14Z</time>
      </trkpt>
      <trkpt lat="31.112928877018817" lon="121.37594702239102">
        <ele>9.403631842695177</ele>
        <time>2024-07-02T13:11:17Z</time>
      </trkpt>
      <trkpt lat="31.112837935861194" lon="121.37587349747392">
        <ele>8.964382702484727</ele>
        <time>2024-07-02T13:11:20Z</time>
      </trkpt>
      <trkpt lat="31.11277907581461" lon="121.37579457977677">
        <ele>10.02134560327977</ele>
        <time>2024-07-02T13:11:23Z</time>
      </trkpt>
      <trkpt lat="31.112534396682374" lon="121.37564717629029">
        <ele>9.44761184323579</ele>
        <time>2024-07-02T13:11:32Z</time>
      </trkpt>
      <trkpt lat="31.11247915915868" lon="121.37553828397833">
        <ele>11.269177723675966</ele>
        <time>2024-07-02T13:11:35Z</time>
      </trkpt>
      <trkpt lat="31.112407781373193" lon="121.37546779690466">
        <ele>10.824198850430548</ele>
        <time>2024-07-02T13:11:38Z</time>
      </trkpt>
      <trkpt lat="31.11232686065445" lon="121.37543092597498">
        <ele>8.766138185746968</ele>
        <time>2024-07-02T13:11:41Z</time>
      </trkpt>
      <trkpt lat="31.11228297532491" lon="121.37536657910049">
        <ele>9.391560934484005</ele>
        <time>2024-07-02T13:11:44Z</time>
      </trkpt>
      <trkpt lat="31.11218692284232" lon="121.37528950075104">
        <ele>9.266027687117457</ele>
        <time>2024-07-02T13:11:47Z</time>
      </trkpt>
      <trkpt lat="31.11209091806299" lon="121.37526214448107">
        <ele>6.899542435072362</ele>
        <time>2024-07-02T13:11:50Z</time>
      </trkpt>
      <trkpt lat="31.11202735386708" lon="121.37518787066723">
        <ele>6.602528183721006</ele>
        <time>2024-07-02T13:11:53Z</time>
      </trkpt>
      <trkpt lat="31.11207353481746" lon="121.3752324310729">
        <ele>6.298226584680378</ele>
        <time>2024-07-02T13:11:56Z</time>
      </trkpt>
      <trkpt lat="31.112150858744226" lon="121.37520383454189">
        <ele>6.802757788449526</ele>
        <time>2024-07-02T13:11:59Z</time>
      </trkpt>
      <trkpt lat="31.112173291115656" lon="121.37513664484415">
        <ele>6.055743656121194</ele>
        <time>2024-07-02T13:12:02Z</time>
      </trkpt>
      <trkpt lat="31.112049254423574" lon="121.37510005116238">
        <ele>5.953423029743135</ele>
        <time>2024-07-02T13:12:05Z</time>
      </trkpt>
      <trkpt lat="31.111962034343144" lon="121.3751662928673">
        <ele>5.910511763766408</ele>
        <time>2024-07-02T13:12:08Z</time>
      </trkpt>
      <trkpt lat="31.111884125458857" lon="121.37495684331643">
        <ele>6.567366469651461</ele>
        <time>2024-07-02T13:12:17Z</time>
      </trkpt>
      <trkpt lat="31.111845348085776" lon="121.37499176000787">
        <ele>7.587697422131896</ele>
        <time>2024-07-02T13:12:24Z</time>
      </trkpt>
      <trkpt lat="31.111780211160273" lon="121.37489030022985">
        <ele>6.340741493739188</ele>
        <time>2024-07-02T13:12:28Z</time>
      </trkpt>
      <trkpt lat="31.111732957335" lon="121.37485508306662">
        <ele>6.424767071381211</ele>
        <time>2024-07-02T13:12:32Z</time>
      </trkpt>
      <trkpt lat="31.111697290360638" lon="121.37479230551885">
        <ele>6.705867677927017</ele>
        <time>2024-07-02T13:12:36Z</time>
      </trkpt>
      <trkpt lat="31.11159644618755" lon="121.37470224517533">
        <ele>6.712701297365129</ele>
        <time>2024-07-02T13:12:45Z</time>
      </trkpt>
      <trkpt lat="31.1114857954859" lon="121.37465893167443">
        <ele>7.767441501840949</ele>
        <time>2024-07-02T13:12:51Z</time>
      </trkpt>
      <trkpt lat="31.111441711455964" lon="121.37467697686712">
        <ele>7.3412387846037745</ele>
        <time>2024-07-02T13:12:54Z</time>
      </trkpt>
      <trkpt lat="31.111331086816655" lon="121.37453671917454">
        <ele>10.303616090677679</ele>
        <time>2024-07-02T13:12:57Z</time>
      </trkpt>
      <trkpt lat="31.111287435084627" lon="121.37436747015296">
        <ele>10.373105959035456</ele>
        <time>2024-07-02T13:13:00Z</time>
      </trkpt>
      <trkpt lat="31.111182047343185" lon="121.3742774179973">
        <ele>14.740640617907047</ele>
        <time>2024-07-02T13:13:03Z</time>
      </trkpt>
      <trkpt lat="31.111075082184353" lon="121.37424437177899">
        <ele>14.242119400762022</ele>
        <time>2024-07-02T13:13:06Z</time>
      </trkpt>
      <trkpt lat="31.111108217881725" lon="121.37413826588711">
        <ele>14.00944506842643</ele>
        <time>2024-07-02T13:13:12Z</time>
      </trkpt>
      <trkpt lat="31.111158090459917" lon="121.37414846575682">
        <ele>12.714697376824915</ele>
        <time>2024-07-02T13:13:18Z</time>
      </trkpt>
      <trkpt lat="31.111424142638388" lon="121.37397945321486">
        <ele>11.235153603367507</ele>
        <time>2024-07-02T13:13:33Z</time>
      </trkpt>
      <trkpt lat="31.111467182575" lon="121.37394207747658">
        <ele>10.60407616943121</ele>
        <time>2024-07-02T13:13:36Z</time>
      </trkpt>
      <trkpt lat="31.111346263207952" lon="121.3736702848633">
        <ele>8.22330728173256</ele>
        <time>2024-07-02T13:13:57Z</time>
      </trkpt>
      <trkpt lat="31.111253686873397" lon="121.3735860638657">
        <ele>2.6735593751072884</ele>
        <time>2024-07-02T13:14:12Z</time>
      </trkpt>
      <trkpt lat="31.111212182980555" lon="121.37340317495064">
        <ele>2.4625342870131135</ele>
        <time>2024-07-02T13:14:40Z</time>
      </trkpt>
      <trkpt lat="31.111140606157594" lon="121.37329203612106">
        <ele>3.5498065119609237</ele>
        <time>2024-07-02T13:14:51Z</time>
      </trkpt>
      <trkpt lat="31.111093256765077" lon="121.37317773302091">
        <ele>1.6869745943695307</ele>
        <time>2024-07-02T13:14:57Z</time>
      </trkpt>
      <trkpt lat="31.111020608093273" lon="121.37310423925359">
        <ele>1.6237268149852753</ele>
        <time>2024-07-02T13:15:06Z</time>
      </trkpt>
      <trkpt lat="31.11102685952831" lon="121.37303173102421">
        <ele>1.467963645234704</ele>
        <time>2024-07-02T13:15:09Z</time>
      </trkpt>
      <trkpt lat="31.11096204302895" lon="121.37279283472367">
        <ele>4.181943669915199</ele>
        <time>2024-07-02T13:15:33Z</time>
      </trkpt>
      <trkpt lat="31.110892083014665" lon="121.37268189732161">
        <ele>4.617338350974023</ele>
        <time>2024-07-02T13:15:39Z</time>
      </trkpt>
      <trkpt lat="31.11086856963252" lon="121.37259578549481">
        <ele>5.325344230979681</ele>
        <time>2024-07-02T13:15:48Z</time>
      </trkpt>
      <trkpt lat="31.110753265196582" lon="121.3724257005612">
        <ele>5.760716551914811</ele>
        <time>2024-07-02T13:16:03Z</time>
      </trkpt>
      <trkpt lat="31.110718543862674" lon="121.37234375449003">
        <ele>5.0637377901002765</ele>
        <time>2024-07-02T13:16:09Z</time>
      </trkpt>
      <trkpt lat="31.110728393275153" lon="121.37229178663205">
        <ele>4.704467833042145</ele>
        <time>2024-07-02T13:16:12Z</time>
      </trkpt>
      <trkpt lat="31.11078524614271" lon="121.37229153041518">
        <ele>5.483119026757777</ele>
        <time>2024-07-02T13:16:18Z</time>
      </trkpt>
      <trkpt lat="31.110847586855666" lon="121.37226890917299">
        <ele>3.6658288929611444</ele>
        <time>2024-07-02T13:16:24Z</time>
      </trkpt>
      <trkpt lat="31.110879753895535" lon="121.37220201898428">
        <ele>4.199560995213687</ele>
        <time>2024-07-02T13:16:27Z</time>
      </trkpt>
      <trkpt lat="31.110972187699087" lon="121.37223952426137">
        <ele>3.8058352125808597</ele>
        <time>2024-07-02T13:16:34Z</time>
      </trkpt>
      <trkpt lat="31.110974719869994" lon="121.3721844163868">
        <ele>5.25152413547039</ele>
        <time>2024-07-02T13:16:38Z</time>
      </trkpt>
      <trkpt lat="31.110953180621944" lon="121.37211686536853">
        <ele>5.719491372816265</ele>
        <time>2024-07-02T13:16:42Z</time>
      </trkpt>
      <trkpt lat="31.111049604861044" lon="121.37207804064472">
        <ele>5.487320396117866</ele>
        <time>2024-07-02T13:16:46Z</time>
      </trkpt>
      <trkpt lat="31.11112230217941" lon="121.37210558167882">
        <ele>6.423513933084905</ele>
        <time>2024-07-02T13:16:52Z</time>
      </trkpt>
      <trkpt lat="31.111216361165756" lon="121.3720698791548">
        <ele>6.30462630931288</ele>
        <time>2024-07-02T13:16:58Z</time>
      </trkpt>
      <trkpt lat="31.11126033696266" lon="121.37202611476332">
        <ele>6.779899635352194</ele>
        <time>2024-07-02T13:17:01Z</time>
      </trkpt>
      <trkpt lat="31.111356013749113" lon="121.3719889422165">
        <ele>8.204001177102327</ele>
        <time>2024-07-02T13:17:07Z</time>
      </trkpt>
      <trkpt lat="31.11163424738959" lon="121.37178833235713">
        <ele>7.98572572786361</ele>
        <time>2024-07-02T13:17:28Z</time>
      </trkpt>
      <trkpt lat="31.111795668068886" lon="121.37165596702305">
        <ele>8.543911132030189</ele>
        <time>2024-07-02T13:17:46Z</time>
      </trkpt>
      <trkpt lat="31.112011608063703" lon="121.37152364426764">
        <ele>9.43816563859582</ele>
        <time>2024-07-02T13:18:01Z</time>
      </trkpt>
      <trkpt lat="31.11202239930346" lon="121.37147250555998">
        <ele>5.500419680960476</ele>
        <time>2024-07-02T13:18:07Z</time>
      </trkpt>
      <trkpt lat="31.111985022347074" lon="121.37135418193753">
        <ele>8.968832025304437</ele>
        <time>2024-07-02T13:18:16Z</time>
      </trkpt>
      <trkpt lat="31.111973016140123" lon="121.37125066676501">
        <ele>8.777719468809664</ele>
        <time>2024-07-02T13:18:22Z</time>
      </trkpt>
      <trkpt lat="31.111882090218646" lon="121.37109655172596">
        <ele>7.625684170983732</ele>
        <time>2024-07-02T13:18:34Z</time>
      </trkpt>
      <trkpt lat="31.1118074457603" lon="121.37103230568916">
        <ele>5.1512740701437</ele>
        <time>2024-07-02T13:18:41Z</time>
      </trkpt>
      <trkpt lat="31.111853161703657" lon="121.37098628672005">
        <ele>5.083522470667958</ele>
        <time>2024-07-02T13:18:45Z</time>
      </trkpt>
      <trkpt lat="31.11184101520473" lon="121.37088876503358">
        <ele>6.473870228976011</ele>
        <time>2024-07-02T13:18:49Z</time>
      </trkpt>
      <trkpt lat="31.111786116327476" lon="121.37083508883869">
        <ele>6.473889280110598</ele>
        <time>2024-07-02T13:18:53Z</time>
      </trkpt>
      <trkpt lat="31.11174930469772" lon="121.37065327490483">
        <ele>6.416560225188732</ele>
        <time>2024-07-02T13:19:06Z</time>
      </trkpt>
      <trkpt lat="31.111684500307934" lon="121.37052663924473">
        <ele>7.462702461518347</ele>
        <time>2024-07-02T13:19:15Z</time>
      </trkpt>
      <trkpt lat="31.111669431774327" lon="121.37045522464472">
        <ele>7.687539726495743</ele>
        <time>2024-07-02T13:19:21Z</time>
      </trkpt>
      <trkpt lat="31.111617783187782" lon="121.37037407029081">
        <ele>6.936554401181638</ele>
        <time>2024-07-02T13:19:27Z</time>
      </trkpt>
      <trkpt lat="31.111652010862844" lon="121.37027670808979">
        <ele>7.256575588136911</ele>
        <time>2024-07-02T13:19:33Z</time>
      </trkpt>
      <trkpt lat="31.111630515347734" lon="121.37022833783983">
        <ele>7.184528136625886</ele>
        <time>2024-07-02T13:19:36Z</time>
      </trkpt>
      <trkpt lat="31.111698637169102" lon="121.37013813619244">
        <ele>9.247535455040634</ele>
        <time>2024-07-02T13:19:48Z</time>
      </trkpt>
      <trkpt lat="31.11168529243856" lon="121.37007400934813">
        <ele>8.038259567692876</ele>
        <time>2024-07-02T13:19:51Z</time>
      </trkpt>
      <trkpt lat="31.111644171246358" lon="121.37002520727056">
        <ele>7.817947546951473</ele>
        <time>2024-07-02T13:19:54Z</time>
      </trkpt>
      <trkpt lat="31.111594935420943" lon="121.37000825166827">
        <ele>8.415209894999862</ele>
        <time>2024-07-02T13:20:00Z</time>
      </trkpt>
      <trkpt lat="31.111551837156792" lon="121.36992801658258">
        <ele>7.978986953385174</ele>
        <time>2024-07-02T13:20:06Z</time>
      </trkpt>
      <trkpt lat="31.111534173180083" lon="121.36985637346262">
        <ele>7.752540680579841</ele>
        <time>2024-07-02T13:20:12Z</time>
      </trkpt>
      <trkpt lat="31.11138173399058" lon="121.36960247434897">
        <ele>9.58031823206693</ele>
        <time>2024-07-02T13:20:36Z</time>
      </trkpt>
      <trkpt lat="31.11140141480846" lon="121.36949734927467">
        <ele>10.61035422515124</ele>
        <time>2024-07-02T13:20:42Z</time>
      </trkpt>
      <trkpt lat="31.111279402704852" lon="121.36913618813098">
        <ele>11.223538387566805</ele>
        <time>2024-07-02T13:21:00Z</time>
      </trkpt>
      <trkpt lat="31.11128745506991" lon="121.36904343301079">
        <ele>9.255554345436394</ele>
        <time>2024-07-02T13:21:06Z</time>
      </trkpt>
      <trkpt lat="31.11121775916876" lon="121.3690322098959">
        <ele>11.16855638101697</ele>
        <time>2024-07-02T13:21:09Z</time>
      </trkpt>
      <trkpt lat="31.11118447357092" lon="121.36895035365455">
        <ele>11.705346580594778</ele>
        <time>2024-07-02T13:21:15Z</time>
      </trkpt>
      <trkpt lat="31.111227468768742" lon="121.36888181866624">
        <ele>11.85486884880811</ele>
        <time>2024-07-02T13:21:27Z</time>
      </trkpt>
      <trkpt lat="31.11144154790239" lon="121.36879019140027">
        <ele>10.063332411460578</ele>
        <time>2024-07-02T13:21:42Z</time>
      </trkpt>
      <trkpt lat="31.111722728608918" lon="121.36856878981362">
        <ele>9.862378490157425</ele>
        <time>2024-07-02T13:22:09Z</time>
      </trkpt>
      <trkpt lat="31.11199671355435" lon="121.36833545273448">
        <ele>9.196192093193531</ele>
        <time>2024-07-02T13:22:36Z</time>
      </trkpt>
      <trkpt lat="31.112228404089333" lon="121.36814249566751">
        <ele>7.697689615190029</ele>
        <time>2024-07-02T13:22:56Z</time>
      </trkpt>
      <trkpt lat="31.11225564544133" lon="121.36808608930338">
        <ele>7.810988022945821</ele>
        <time>2024-07-02T13:23:00Z</time>
      </trkpt>
      <trkpt lat="31.11242889673418" lon="121.36802875101162">
        <ele>9.613464224152267</ele>
        <time>2024-07-02T13:23:14Z</time>
      </trkpt>
      <trkpt lat="31.112625338769472" lon="121.367910174065">
        <ele>12.653303362429142</ele>
        <time>2024-07-02T13:23:32Z</time>
      </trkpt>
      <trkpt lat="31.11273335854878" lon="121.36779908257226">
        <ele>13.023047170601785</ele>
        <time>2024-07-02T13:23:47Z</time>
      </trkpt>
      <trkpt lat="31.11279376262426" lon="121.36779422110547">
        <ele>12.583851634524763</ele>
        <time>2024-07-02T13:23:54Z</time>
      </trkpt>
      <trkpt lat="31.1128524813367" lon="121.36772132562038">
        <ele>13.119524544104934</ele>
        <time>2024-07-02T13:23:56Z</time>
      </trkpt>
      <trkpt lat="31.11285256337221" lon="121.36760304595606">
        <ele>12.045900692231953</ele>
        <time>2024-07-02T13:24:02Z</time>
      </trkpt>
      <trkpt lat="31.112827744762043" lon="121.36750274077257">
        <ele>13.60704602021724</ele>
        <time>2024-07-02T13:24:08Z</time>
      </trkpt>
      <trkpt lat="31.112806819463113" lon="121.36755779916393">
        <ele>12.888154323212802</ele>
        <time>2024-07-02T13:24:20Z</time>
      </trkpt>
      <trkpt lat="31.112751956556604" lon="121.36757912579438">
        <ele>11.282426982186735</ele>
        <time>2024-07-02T13:24:35Z</time>
      </trkpt>
      <trkpt lat="31.112825589527347" lon="121.36756957052694">
        <ele>11.309478981420398</ele>
        <time>2024-07-02T13:24:41Z</time>
      </trkpt>
      <trkpt lat="31.11287709940903" lon="121.36758491549172">
        <ele>10.774420568719506</ele>
        <time>2024-07-02T13:24:56Z</time>
      </trkpt>
      <trkpt lat="31.113117966796743" lon="121.36764574934163">
        <ele>21.541889199987054</ele>
        <time>2024-07-02T13:25:04Z</time>
      </trkpt>
      <trkpt lat="31.11310810683816" lon="121.36756476669653">
        <ele>20.313047418370843</ele>
        <time>2024-07-02T13:25:08Z</time>
      </trkpt>
      <trkpt lat="31.11292152367259" lon="121.36769179101796">
        <ele>10.912969433702528</ele>
        <time>2024-07-02T13:25:24Z</time>
      </trkpt>
      <trkpt lat="31.11292152367259" lon="121.36769179101796">
        <ele>10.912969433702528</ele>
        <time>2024-07-02T13:25:26Z</time>
      </trkpt>
      <trkpt lat="31.11291616300371" lon="121.36753447973683">
        <ele>10.272715516388416</ele>
        <time>2024-07-02T13:27:48Z</time>
      </trkpt>
      <trkpt lat="31.112871991821624" lon="121.36755803184084">
        <ele>8.54441527929157</ele>
        <time>2024-07-02T13:27:51Z</time>
      </trkpt>
      <trkpt lat="31.112838926796947" lon="121.36760991871665">
        <ele>7.693627148866653</ele>
        <time>2024-07-02T13:27:54Z</time>
      </trkpt>
      <trkpt lat="31.11290290913764" lon="121.36761298044142">
        <ele>6.111593848094344</ele>
        <time>2024-07-02T13:28:03Z</time>
      </trkpt>
      <trkpt lat="31.112931996936553" lon="121.36755812186371">
        <ele>8.016038647852838</ele>
        <time>2024-07-02T13:28:09Z</time>
      </trkpt>
      <trkpt lat="31.112889718074065" lon="121.36741188255793">
        <ele>7.043792683631182</ele>
        <time>2024-07-02T13:28:18Z</time>
      </trkpt>
      <trkpt lat="31.112725989555496" lon="121.3671551829897">
        <ele>5.895585086196661</ele>
        <time>2024-07-02T13:28:39Z</time>
      </trkpt>
      <trkpt lat="31.112538974864187" lon="121.3669062319988">
        <ele>8.175505409948528</ele>
        <time>2024-07-02T13:29:03Z</time>
      </trkpt>
      <trkpt lat="31.112396320052476" lon="121.36664203173122">
        <ele>7.547125046141446</ele>
        <time>2024-07-02T13:29:34Z</time>
      </trkpt>
      <trkpt lat="31.112307099203196" lon="121.3664268199414">
        <ele>6.392842329107225</ele>
        <time>2024-07-02T13:29:52Z</time>
      </trkpt>
      <trkpt lat="31.112254607345537" lon="121.36637202920849">
        <ele>7.546069917269051</ele>
        <time>2024-07-02T13:29:58Z</time>
      </trkpt>
      <trkpt lat="31.11209995745745" lon="121.36612858913739">
        <ele>7.275719523429871</ele>
        <time>2024-07-02T13:30:22Z</time>
      </trkpt>
      <trkpt lat="31.112054979131912" lon="121.36609407714018">
        <ele>6.7168549206107855</ele>
        <time>2024-07-02T13:30:28Z</time>
      </trkpt>
      <trkpt lat="31.111987987250828" lon="121.36597624140694">
        <ele>6.712546180002391</ele>
        <time>2024-07-02T13:30:40Z</time>
      </trkpt>
      <trkpt lat="31.111942532067395" lon="121.36581102858833">
        <ele>3.9867139365524054</ele>
        <time>2024-07-02T13:30:52Z</time>
      </trkpt>
      <trkpt lat="31.111752030660547" lon="121.3655325032925">
        <ele>3.3323741452768445</ele>
        <time>2024-07-02T13:31:20Z</time>
      </trkpt>
      <trkpt lat="31.111598543384297" lon="121.36526868313261">
        <ele>4.391368175856769</ele>
        <time>2024-07-02T13:31:44Z</time>
      </trkpt>
      <trkpt lat="31.111478359531482" lon="121.36505907459824">
        <ele>4.980515169911087</ele>
        <time>2024-07-02T13:32:02Z</time>
      </trkpt>
      <trkpt lat="31.11146792108427" lon="121.36500389222708">
        <ele>5.24689722713083</ele>
        <time>2024-07-02T13:32:05Z</time>
      </trkpt>
      <trkpt lat="31.111561826808586" lon="121.36493367855941">
        <ele>7.873819934204221</ele>
        <time>2024-07-02T13:32:17Z</time>
      </trkpt>
      <trkpt lat="31.11162233608084" lon="121.36492457374052">
        <ele>6.025042166002095</ele>
        <time>2024-07-02T13:32:23Z</time>
      </trkpt>
      <trkpt lat="31.111682440375603" lon="121.36488631935478">
        <ele>7.790976088494062</ele>
        <time>2024-07-02T13:32:32Z</time>
      </trkpt>
    </trkseg>
  </trk>
</gpx>