<?xml version="1.0" encoding="UTF-8"?>
<gpx xmlns="http://www.topografix.com/GPX/1/1" xmlns:gpxtpx="http://www.garmin.com/xmlschemas/TrackPointExtension/v1" xmlns:xsi="http://www.w3.org/2001/XMLSchema-instance" xsi:schemaLocation="http://www.topografix.com/GPX/1/1 http://www.topografix.com/GPX/1/1/gpx.xsd" version="1.1" creator="gpx.py -- https://github.com/tkrajina/gpxpy">
  <trk>
    <name>gpx from keep</name>
    <type>Run</type>
    <trkseg>
      <trkpt lat="36.030508122853625" lon="119.41579019115595">
        <ele>0.0</ele>
        <time>2024-04-16T00:29:37Z</time>
      </trkpt>
      <trkpt lat="36.03044499376795" lon="119.4156219642938">
        <ele>103.72308349609375</ele>
        <time>2024-04-16T00:29:59Z</time>
      </trkpt>
      <trkpt lat="36.03042609921016" lon="119.41582790065874">
        <ele>86.43182373046875</ele>
        <time>2024-04-16T00:30:05Z</time>
      </trkpt>
      <trkpt lat="36.03046180430987" lon="119.41610237649357">
        <ele>58.65191650390625</ele>
        <time>2024-04-16T00:30:08Z</time>
      </trkpt>
      <trkpt lat="36.03039062515647" lon="119.41633697568997">
        <ele>60.7252197265625</ele>
        <time>2024-04-16T00:30:20Z</time>
      </trkpt>
      <trkpt lat="36.030385723658675" lon="119.41644713368406">
        <ele>60.139404296875</ele>
        <time>2024-04-16T00:30:26Z</time>
      </trkpt>
      <trkpt lat="36.030355808815706" lon="119.41653526348728">
        <ele>63.41302490234375</ele>
        <time>2024-04-16T00:30:32Z</time>
      </trkpt>
      <trkpt lat="36.030275979362344" lon="119.41670551795538">
        <ele>63.4248046875</ele>
        <time>2024-04-16T00:30:44Z</time>
      </trkpt>
      <trkpt lat="36.03030521524974" lon="119.41697390504473">
        <ele>63.826416015625</ele>
        <time>2024-04-16T00:30:59Z</time>
      </trkpt>
      <trkpt lat="36.03029540063433" lon="119.41717420010956">
        <ele>63.485107421875</ele>
        <time>2024-04-16T00:31:11Z</time>
      </trkpt>
      <trkpt lat="36.030330575618976" lon="119.41737248941581">
        <ele>64.937744140625</ele>
        <time>2024-04-16T00:31:23Z</time>
      </trkpt>
      <trkpt lat="36.030362645514764" lon="119.41745560940662">
        <ele>64.41741943359375</ele>
        <time>2024-04-16T00:31:29Z</time>
      </trkpt>
      <trkpt lat="36.03064457801428" lon="119.41745257332096">
        <ele>65.3480224609375</ele>
        <time>2024-04-16T00:31:50Z</time>
      </trkpt>
      <trkpt lat="36.030707546786516" lon="119.41743453942848">
        <ele>65.7174072265625</ele>
        <time>2024-04-16T00:31:53Z</time>
      </trkpt>
      <trkpt lat="36.03071243603274" lon="119.41731636343447">
        <ele>68.68505859375</ele>
        <time>2024-04-16T00:31:59Z</time>
      </trkpt>
      <trkpt lat="36.03067182609929" lon="119.41722276559425">
        <ele>67.08447265625</ele>
        <time>2024-04-16T00:32:05Z</time>
      </trkpt>
      <trkpt lat="36.030819783769985" lon="119.41707674571553">
        <ele>68.018798828125</ele>
        <time>2024-04-16T00:32:11Z</time>
      </trkpt>
      <trkpt lat="36.03087829026864" lon="119.41698355764349">
        <ele>68.8360595703125</ele>
        <time>2024-04-16T00:32:14Z</time>
      </trkpt>
      <trkpt lat="36.03083485830083" lon="119.41671346687731">
        <ele>67.32806396484375</ele>
        <time>2024-04-16T00:32:23Z</time>
      </trkpt>
      <trkpt lat="36.030857807214225" lon="119.4166623904538">
        <ele>66.43017578125</ele>
        <time>2024-04-16T00:32:26Z</time>
      </trkpt>
      <trkpt lat="36.03087551476751" lon="119.41633792273996">
        <ele>69.562255859375</ele>
        <time>2024-04-16T00:32:38Z</time>
      </trkpt>
      <trkpt lat="36.030892336761006" lon="119.41626789390168">
        <ele>70.0753173828125</ele>
        <time>2024-04-16T00:32:41Z</time>
      </trkpt>
      <trkpt lat="36.030876085974555" lon="119.41617630076838">
        <ele>69.00701904296875</ele>
        <time>2024-04-16T00:32:44Z</time>
      </trkpt>
      <trkpt lat="36.03086905462911" lon="119.41580717443762">
        <ele>65.5604248046875</ele>
        <time>2024-04-16T00:33:02Z</time>
      </trkpt>
      <trkpt lat="36.03082998901809" lon="119.41572005738624">
        <ele>64.3328857421875</ele>
        <time>2024-04-16T00:33:05Z</time>
      </trkpt>
      <trkpt lat="36.0308549218366" lon="119.41564795441815">
        <ele>65.47955322265625</ele>
        <time>2024-04-16T00:33:08Z</time>
      </trkpt>
      <trkpt lat="36.030849758574355" lon="119.41545368655314">
        <ele>64.079833984375</ele>
        <time>2024-04-16T00:33:14Z</time>
      </trkpt>
      <trkpt lat="36.03087161585719" lon="119.4152894588343">
        <ele>64.65496826171875</ele>
        <time>2024-04-16T00:33:20Z</time>
      </trkpt>
      <trkpt lat="36.030867478652404" lon="119.41512323283791">
        <ele>64.2950439453125</ele>
        <time>2024-04-16T00:33:26Z</time>
      </trkpt>
      <trkpt lat="36.030884402856486" lon="119.41503611287702">
        <ele>63.95208740234375</ele>
        <time>2024-04-16T00:33:29Z</time>
      </trkpt>
      <trkpt lat="36.03088134676472" lon="119.41496701988952">
        <ele>61.4512939453125</ele>
        <time>2024-04-16T00:33:32Z</time>
      </trkpt>
      <trkpt lat="36.030790273480925" lon="119.41485187515543">
        <ele>61.99041748046875</ele>
        <time>2024-04-16T00:33:38Z</time>
      </trkpt>
      <trkpt lat="36.03076823533245" lon="119.41479880646868">
        <ele>62.248291015625</ele>
        <time>2024-04-16T00:33:41Z</time>
      </trkpt>
      <trkpt lat="36.030714226576436" lon="119.41477277767719">
        <ele>61.7459716796875</ele>
        <time>2024-04-16T00:33:44Z</time>
      </trkpt>
      <trkpt lat="36.03069618202744" lon="119.41471269942534">
        <ele>67.556396484375</ele>
        <time>2024-04-16T00:33:50Z</time>
      </trkpt>
      <trkpt lat="36.030806055897706" lon="119.41458752051551">
        <ele>69.59490966796875</ele>
        <time>2024-04-16T00:33:59Z</time>
      </trkpt>
      <trkpt lat="36.03085502938258" lon="119.41456848977867">
        <ele>69.9093017578125</ele>
        <time>2024-04-16T00:34:02Z</time>
      </trkpt>
      <trkpt lat="36.030898042034416" lon="119.41459652216142">
        <ele>68.8798828125</ele>
        <time>2024-04-16T00:34:08Z</time>
      </trkpt>
      <trkpt lat="36.03099300254927" lon="119.41457448227078">
        <ele>66.98919677734375</ele>
        <time>2024-04-16T00:34:14Z</time>
      </trkpt>
      <trkpt lat="36.03123188437426" lon="119.41449535070774">
        <ele>69.0841064453125</ele>
        <time>2024-04-16T00:34:26Z</time>
      </trkpt>
      <trkpt lat="36.03137686152747" lon="119.41450835166003">
        <ele>70.3741455078125</ele>
        <time>2024-04-16T00:34:32Z</time>
      </trkpt>
      <trkpt lat="36.031459826486696" lon="119.41448831587144">
        <ele>68.6761474609375</ele>
        <time>2024-04-16T00:34:35Z</time>
      </trkpt>
      <trkpt lat="36.03154381762741" lon="119.41450132365986">
        <ele>67.486572265625</ele>
        <time>2024-04-16T00:34:38Z</time>
      </trkpt>
      <trkpt lat="36.03159078605257" lon="119.41447528397951">
        <ele>68.0928955078125</ele>
        <time>2024-04-16T00:34:41Z</time>
      </trkpt>
      <trkpt lat="36.03158446113303" lon="119.41406174322901">
        <ele>67.90087890625</ele>
        <time>2024-04-16T00:34:59Z</time>
      </trkpt>
      <trkpt lat="36.03158729361298" lon="119.41384646487575">
        <ele>64.09320068359375</ele>
        <time>2024-04-16T00:35:08Z</time>
      </trkpt>
      <trkpt lat="36.03161519421419" lon="119.41372530642599">
        <ele>65.339599609375</ele>
        <time>2024-04-16T00:35:17Z</time>
      </trkpt>
      <trkpt lat="36.03164989996483" lon="119.41334682268509">
        <ele>66.36346435546875</ele>
        <time>2024-04-16T00:35:35Z</time>
      </trkpt>
      <trkpt lat="36.03164080359005" lon="119.41321465805584">
        <ele>66.31573486328125</ele>
        <time>2024-04-16T00:35:41Z</time>
      </trkpt>
      <trkpt lat="36.03172753515207" lon="119.41287622868282">
        <ele>67.94940185546875</ele>
        <time>2024-04-16T00:36:05Z</time>
      </trkpt>
      <trkpt lat="36.03176947904968" lon="119.4128121452503">
        <ele>68.36102294921875</ele>
        <time>2024-04-16T00:36:11Z</time>
      </trkpt>
      <trkpt lat="36.031736361916046" lon="119.41263893732739">
        <ele>67.30413818359375</ele>
        <time>2024-04-16T00:36:23Z</time>
      </trkpt>
      <trkpt lat="36.031747210541425" lon="119.41242968270514">
        <ele>66.32916259765625</ele>
        <time>2024-04-16T00:36:35Z</time>
      </trkpt>
      <trkpt lat="36.031699159460075" lon="119.41234158214493">
        <ele>66.219970703125</ele>
        <time>2024-04-16T00:36:41Z</time>
      </trkpt>
      <trkpt lat="36.03167009248463" lon="119.41223645956406">
        <ele>70.541015625</ele>
        <time>2024-04-16T00:36:47Z</time>
      </trkpt>
      <trkpt lat="36.03164385388329" lon="119.41188204287047">
        <ele>67.65362548828125</ele>
        <time>2024-04-16T00:37:05Z</time>
      </trkpt>
      <trkpt lat="36.03161266618779" lon="119.41159371024122">
        <ele>67.2662353515625</ele>
        <time>2024-04-16T00:37:23Z</time>
      </trkpt>
      <trkpt lat="36.0316594184682" lon="119.41123529376219">
        <ele>69.718017578125</ele>
        <time>2024-04-16T00:37:44Z</time>
      </trkpt>
      <trkpt lat="36.0316732500072" lon="119.41098000375153">
        <ele>69.53564453125</ele>
        <time>2024-04-16T00:37:59Z</time>
      </trkpt>
      <trkpt lat="36.03165203841863" lon="119.4106386261879">
        <ele>70.35174560546875</ele>
        <time>2024-04-16T00:38:17Z</time>
      </trkpt>
      <trkpt lat="36.03165497775315" lon="119.41054252009124">
        <ele>70.32568359375</ele>
        <time>2024-04-16T00:38:20Z</time>
      </trkpt>
      <trkpt lat="36.03171180799691" lon="119.41028823640818">
        <ele>68.963623046875</ele>
        <time>2024-04-16T00:38:29Z</time>
      </trkpt>
      <trkpt lat="36.03171657370971" lon="119.40990082044523">
        <ele>66.51470947265625</ele>
        <time>2024-04-16T00:38:41Z</time>
      </trkpt>
      <trkpt lat="36.03173639768365" lon="119.4096085104292">
        <ele>66.785400390625</ele>
        <time>2024-04-16T00:38:50Z</time>
      </trkpt>
      <trkpt lat="36.03173427208457" lon="119.40938928301883">
        <ele>68.66217041015625</ele>
        <time>2024-04-16T00:38:56Z</time>
      </trkpt>
      <trkpt lat="36.03176611957513" lon="119.40913201578593">
        <ele>69.05755615234375</ele>
        <time>2024-04-16T00:39:08Z</time>
      </trkpt>
      <trkpt lat="36.031738938284086" lon="119.40879167582281">
        <ele>73.461669921875</ele>
        <time>2024-04-16T00:39:26Z</time>
      </trkpt>
      <trkpt lat="36.03177072020926" lon="119.40839728301637">
        <ele>74.58642578125</ele>
        <time>2024-04-16T00:39:50Z</time>
      </trkpt>
      <trkpt lat="36.03179355711946" lon="119.4080929861825">
        <ele>74.00238037109375</ele>
        <time>2024-04-16T00:40:08Z</time>
      </trkpt>
      <trkpt lat="36.03188541939538" lon="119.40786275673577">
        <ele>69.1072998046875</ele>
        <time>2024-04-16T00:40:26Z</time>
      </trkpt>
      <trkpt lat="36.03192427952037" lon="119.407598504567">
        <ele>68.82476806640625</ele>
        <time>2024-04-16T00:40:44Z</time>
      </trkpt>
      <trkpt lat="36.031988182197814" lon="119.40742833992552">
        <ele>68.9278564453125</ele>
        <time>2024-04-16T00:40:56Z</time>
      </trkpt>
      <trkpt lat="36.03200014339733" lon="119.40735326963609">
        <ele>66.97027587890625</ele>
        <time>2024-04-16T00:41:02Z</time>
      </trkpt>
      <trkpt lat="36.031967170157124" lon="119.40739331006966">
        <ele>67.9906005859375</ele>
        <time>2024-04-16T00:41:08Z</time>
      </trkpt>
      <trkpt lat="36.031896081282845" lon="119.40717211625083">
        <ele>71.4764404296875</ele>
        <time>2024-04-16T00:41:26Z</time>
      </trkpt>
      <trkpt lat="36.03186506818623" lon="119.4071290807924">
        <ele>71.83831787109375</ele>
        <time>2024-04-16T00:41:32Z</time>
      </trkpt>
      <trkpt lat="36.03172008037546" lon="119.4070840564325">
        <ele>67.2425537109375</ele>
        <time>2024-04-16T00:41:44Z</time>
      </trkpt>
      <trkpt lat="36.03158006555274" lon="119.40698298136245">
        <ele>69.95538330078125</ele>
        <time>2024-04-16T00:41:53Z</time>
      </trkpt>
      <trkpt lat="36.03153408072549" lon="119.40699299548866">
        <ele>73.34442138671875</ele>
        <time>2024-04-16T00:41:56Z</time>
      </trkpt>
      <trkpt lat="36.031479159971035" lon="119.40713613045253">
        <ele>73.4537353515625</ele>
        <time>2024-04-16T00:42:05Z</time>
      </trkpt>
      <trkpt lat="36.031423209546446" lon="119.40721420747919">
        <ele>74.2833251953125</ele>
        <time>2024-04-16T00:42:11Z</time>
      </trkpt>
      <trkpt lat="36.03138725814476" lon="119.40729928900454">
        <ele>70.79132080078125</ele>
        <time>2024-04-16T00:42:17Z</time>
      </trkpt>
      <trkpt lat="36.03135735492504" lon="119.40748646428854">
        <ele>70.4896240234375</ele>
        <time>2024-04-16T00:42:29Z</time>
      </trkpt>
      <trkpt lat="36.03129940033177" lon="119.40755253195148">
        <ele>70.4766845703125</ele>
        <time>2024-04-16T00:42:35Z</time>
      </trkpt>
      <trkpt lat="36.03117245146044" lon="119.40759758804391">
        <ele>70.11944580078125</ele>
        <time>2024-04-16T00:42:47Z</time>
      </trkpt>
      <trkpt lat="36.031054519346725" lon="119.4076806787585">
        <ele>66.98468017578125</ele>
        <time>2024-04-16T00:42:59Z</time>
      </trkpt>
      <trkpt lat="36.030774538831736" lon="119.40758962527005">
        <ele>65.66229248046875</ele>
        <time>2024-04-16T00:43:23Z</time>
      </trkpt>
      <trkpt lat="36.030574575908204" lon="119.40757163097766">
        <ele>63.10028076171875</ele>
        <time>2024-04-16T00:43:41Z</time>
      </trkpt>
      <trkpt lat="36.030500598265455" lon="119.40758264951155">
        <ele>63.353759765625</ele>
        <time>2024-04-16T00:43:47Z</time>
      </trkpt>
      <trkpt lat="36.030389654648424" lon="119.40764572068232">
        <ele>64.3660888671875</ele>
        <time>2024-04-16T00:43:53Z</time>
      </trkpt>
      <trkpt lat="36.03028969040469" lon="119.40767175620259">
        <ele>66.95977783203125</ele>
        <time>2024-04-16T00:44:02Z</time>
      </trkpt>
      <trkpt lat="36.0300967952122" lon="119.40779389238554">
        <ele>64.87640380859375</ele>
        <time>2024-04-16T00:44:21Z</time>
      </trkpt>
      <trkpt lat="36.030050829763375" lon="119.40784194283867">
        <ele>63.6180419921875</ele>
        <time>2024-04-16T00:44:27Z</time>
      </trkpt>
      <trkpt lat="36.02987291891634" lon="119.40793805379127">
        <ele>60.1881103515625</ele>
        <time>2024-04-16T00:44:45Z</time>
      </trkpt>
      <trkpt lat="36.029899940071076" lon="119.40799210216544">
        <ele>59.2930908203125</ele>
        <time>2024-04-16T00:44:51Z</time>
      </trkpt>
      <trkpt lat="36.02984493950889" lon="119.40796608356717">
        <ele>61.26129150390625</ele>
        <time>2024-04-16T00:45:15Z</time>
      </trkpt>
      <trkpt lat="36.02951805217905" lon="119.40804019087038">
        <ele>64.965576171875</ele>
        <time>2024-04-16T00:45:42Z</time>
      </trkpt>
      <trkpt lat="36.02923011524183" lon="119.40803421745635">
        <ele>65.67620849609375</ele>
        <time>2024-04-16T00:46:06Z</time>
      </trkpt>
      <trkpt lat="36.02908415131476" lon="119.40803923862178">
        <ele>68.0645751953125</ele>
        <time>2024-04-16T00:46:18Z</time>
      </trkpt>
      <trkpt lat="36.02880615228197" lon="119.4079151516978">
        <ele>66.11981201171875</ele>
        <time>2024-04-16T00:46:42Z</time>
      </trkpt>
      <trkpt lat="36.028551133730026" lon="119.40776103483633">
        <ele>70.35321044921875</ele>
        <time>2024-04-16T00:47:06Z</time>
      </trkpt>
      <trkpt lat="36.0282940976252" lon="119.40756788326848">
        <ele>66.50506591796875</ele>
        <time>2024-04-16T00:47:30Z</time>
      </trkpt>
      <trkpt lat="36.02803204615286" lon="119.40733669953552">
        <ele>68.34716796875</ele>
        <time>2024-04-16T00:47:54Z</time>
      </trkpt>
      <trkpt lat="36.02789600005417" lon="119.40717356623567">
        <ele>72.17767333984375</ele>
        <time>2024-04-16T00:48:09Z</time>
      </trkpt>
      <trkpt lat="36.02782899102675" lon="119.40712152667972">
        <ele>71.7783203125</ele>
        <time>2024-04-16T00:48:15Z</time>
      </trkpt>
      <trkpt lat="36.02782899102675" lon="119.40712152667972">
        <ele>71.7783203125</ele>
        <time>2024-04-16T00:48:20Z</time>
      </trkpt>
      <trkpt lat="36.02776999569171" lon="119.40710251613923">
        <ele>62.99420166015625</ele>
        <time>2024-04-16T01:03:03Z</time>
      </trkpt>
      <trkpt lat="36.02776196258203" lon="119.40702744949273">
        <ele>60.64666748046875</ele>
        <time>2024-04-16T01:03:09Z</time>
      </trkpt>
      <trkpt lat="36.02757488320124" lon="119.40676023262681">
        <ele>59.42572021484375</ele>
        <time>2024-04-16T01:03:33Z</time>
      </trkpt>
      <trkpt lat="36.02736483483413" lon="119.40654406675044">
        <ele>56.7088623046875</ele>
        <time>2024-04-16T01:03:57Z</time>
      </trkpt>
      <trkpt lat="36.02727680009911" lon="119.40641896820962">
        <ele>57.17724609375</ele>
        <time>2024-04-16T01:04:09Z</time>
      </trkpt>
      <trkpt lat="36.02720574881285" lon="119.40626284212289">
        <ele>57.88092041015625</ele>
        <time>2024-04-16T01:04:21Z</time>
      </trkpt>
      <trkpt lat="36.027069699216256" lon="119.40607269598829">
        <ele>58.23297119140625</ele>
        <time>2024-04-16T01:04:36Z</time>
      </trkpt>
      <trkpt lat="36.0270556630298" lon="119.40597861847037">
        <ele>59.0140380859375</ele>
        <time>2024-04-16T01:04:42Z</time>
      </trkpt>
      <trkpt lat="36.02688456555017" lon="119.40564436071722">
        <ele>60.73590087890625</ele>
        <time>2024-04-16T01:05:06Z</time>
      </trkpt>
      <trkpt lat="36.026831519120904" lon="119.40549724679065">
        <ele>59.291015625</ele>
        <time>2024-04-16T01:05:15Z</time>
      </trkpt>
      <trkpt lat="36.02682649426935" lon="119.40543119393058">
        <ele>60.3072509765625</ele>
        <time>2024-04-16T01:05:18Z</time>
      </trkpt>
      <trkpt lat="36.02690345777674" lon="119.4053831465917">
        <ele>63.26708984375</ele>
        <time>2024-04-16T01:05:24Z</time>
      </trkpt>
      <trkpt lat="36.02717047415358" lon="119.40558027627353">
        <ele>63.59637451171875</ele>
        <time>2024-04-16T01:05:42Z</time>
      </trkpt>
      <trkpt lat="36.02720848302489" lon="119.40562430796841">
        <ele>61.428466796875</ele>
        <time>2024-04-16T01:05:45Z</time>
      </trkpt>
      <trkpt lat="36.027461484322835" lon="119.4057714005102">
        <ele>56.6776123046875</ele>
        <time>2024-04-16T01:06:00Z</time>
      </trkpt>
      <trkpt lat="36.02751747838972" lon="119.40578840829018">
        <ele>57.47027587890625</ele>
        <time>2024-04-16T01:06:03Z</time>
      </trkpt>
      <trkpt lat="36.027578461510565" lon="119.40578139564954">
        <ele>60.64215087890625</ele>
        <time>2024-04-16T01:06:09Z</time>
      </trkpt>
      <trkpt lat="36.027634423011094" lon="119.40571833734582">
        <ele>62.88616943359375</ele>
        <time>2024-04-16T01:06:15Z</time>
      </trkpt>
      <trkpt lat="36.02768227948026" lon="119.4053850607612">
        <ele>61.58294677734375</ele>
        <time>2024-04-16T01:06:30Z</time>
      </trkpt>
      <trkpt lat="36.027755147983044" lon="119.40508581444028">
        <ele>64.35003662109375</ele>
        <time>2024-04-16T01:06:42Z</time>
      </trkpt>
      <trkpt lat="36.02789500401973" lon="119.40478356337456">
        <ele>61.2960205078125</ele>
        <time>2024-04-16T01:06:57Z</time>
      </trkpt>
      <trkpt lat="36.027912978883016" lon="119.40472551674831">
        <ele>62.333984375</ele>
        <time>2024-04-16T01:07:00Z</time>
      </trkpt>
      <trkpt lat="36.02810884226284" lon="119.40446729864647">
        <ele>62.32769775390625</ele>
        <time>2024-04-16T01:07:24Z</time>
      </trkpt>
      <trkpt lat="36.02838068544661" lon="119.4041920632584">
        <ele>62.8599853515625</ele>
        <time>2024-04-16T01:07:48Z</time>
      </trkpt>
      <trkpt lat="36.02863457246538" lon="119.40402791462269">
        <ele>61.57012939453125</ele>
        <time>2024-04-16T01:08:03Z</time>
      </trkpt>
      <trkpt lat="36.02874252764612" lon="119.40396685820892">
        <ele>60.33148193359375</ele>
        <time>2024-04-16T01:08:09Z</time>
      </trkpt>
      <trkpt lat="36.02875440862404" lon="119.40360159627001">
        <ele>61.39776611328125</ele>
        <time>2024-04-16T01:08:24Z</time>
      </trkpt>
      <trkpt lat="36.028772303335046" lon="119.4032673624193">
        <ele>59.07403564453125</ele>
        <time>2024-04-16T01:08:42Z</time>
      </trkpt>
      <trkpt lat="36.02877225003267" lon="119.40308423808379">
        <ele>61.7962646484375</ele>
        <time>2024-04-16T01:08:54Z</time>
      </trkpt>
      <trkpt lat="36.028757238035894" lon="119.4030302034418">
        <ele>61.16485595703125</ele>
        <time>2024-04-16T01:08:57Z</time>
      </trkpt>
      <trkpt lat="36.02870223140853" lon="119.40296216410816">
        <ele>60.18072509765625</ele>
        <time>2024-04-16T01:09:03Z</time>
      </trkpt>
      <trkpt lat="36.02846224560862" lon="119.40281509357116">
        <ele>60.23004150390625</ele>
        <time>2024-04-16T01:09:15Z</time>
      </trkpt>
      <trkpt lat="36.0283022410634" lon="119.40266301202534">
        <ele>59.81890869140625</ele>
        <time>2024-04-16T01:09:24Z</time>
      </trkpt>
      <trkpt lat="36.0281322041918" lon="119.40237284489106">
        <ele>62.5465087890625</ele>
        <time>2024-04-16T01:09:36Z</time>
      </trkpt>
      <trkpt lat="36.02802116117075" lon="119.40209768516603">
        <ele>61.28875732421875</ele>
        <time>2024-04-16T01:09:48Z</time>
      </trkpt>
      <trkpt lat="36.02799211778326" lon="119.40188755981657">
        <ele>61.5133056640625</ele>
        <time>2024-04-16T01:09:57Z</time>
      </trkpt>
      <trkpt lat="36.02794711349243" lon="119.40182452677406">
        <ele>62.43377685546875</ele>
        <time>2024-04-16T01:10:03Z</time>
      </trkpt>
      <trkpt lat="36.027945096765485" lon="119.40174948194024">
        <ele>63.56683349609375</ele>
        <time>2024-04-16T01:10:09Z</time>
      </trkpt>
      <trkpt lat="36.02790506683226" lon="119.40157438253246">
        <ele>61.608642578125</ele>
        <time>2024-04-16T01:10:21Z</time>
      </trkpt>
      <trkpt lat="36.02795299936781" lon="119.40131022368024">
        <ele>61.3216552734375</ele>
        <time>2024-04-16T01:10:39Z</time>
      </trkpt>
      <trkpt lat="36.02790299928597" lon="119.40125419724792">
        <ele>60.2022705078125</ele>
        <time>2024-04-16T01:10:45Z</time>
      </trkpt>
      <trkpt lat="36.02786899283176" lon="119.40118416125668">
        <ele>63.4058837890625</ele>
        <time>2024-04-16T01:10:51Z</time>
      </trkpt>
      <trkpt lat="36.02776500168743" lon="119.4011091305888">
        <ele>60.0982666015625</ele>
        <time>2024-04-16T01:11:03Z</time>
      </trkpt>
      <trkpt lat="36.02769901248987" lon="119.4010871256384">
        <ele>58.94891357421875</ele>
        <time>2024-04-16T01:11:09Z</time>
      </trkpt>
      <trkpt lat="36.02750903041985" lon="119.40095507337998">
        <ele>59.24798583984375</ele>
        <time>2024-04-16T01:11:27Z</time>
      </trkpt>
      <trkpt lat="36.02724806993377" lon="119.40084704320547">
        <ele>59.05316162109375</ele>
        <time>2024-04-16T01:11:51Z</time>
      </trkpt>
      <trkpt lat="36.02698911097834" lon="119.4007470177992">
        <ele>60.052490234375</ele>
        <time>2024-04-16T01:12:15Z</time>
      </trkpt>
      <trkpt lat="36.026793146962696" lon="119.40069701277422">
        <ele>61.65374755859375</ele>
        <time>2024-04-16T01:12:33Z</time>
      </trkpt>
      <trkpt lat="36.02674714714389" lon="119.40063898675893">
        <ele>61.0126953125</ele>
        <time>2024-04-16T01:12:39Z</time>
      </trkpt>
      <trkpt lat="36.02667215977909" lon="119.40061298126416">
        <ele>59.82568359375</ele>
        <time>2024-04-16T01:12:46Z</time>
      </trkpt>
      <trkpt lat="36.02660118196587" lon="119.40064600690468">
        <ele>59.65155029296875</ele>
        <time>2024-04-16T01:12:52Z</time>
      </trkpt>
      <trkpt lat="36.026289258735254" lon="119.40067405697509">
        <ele>59.4163818359375</ele>
        <time>2024-04-16T01:13:16Z</time>
      </trkpt>
      <trkpt lat="36.02601432885149" lon="119.40071210833281">
        <ele>60.31494140625</ele>
        <time>2024-04-16T01:13:43Z</time>
      </trkpt>
      <trkpt lat="36.0258873615221" lon="119.40073113286316">
        <ele>63.095947265625</ele>
        <time>2024-04-16T01:13:52Z</time>
      </trkpt>
      <trkpt lat="36.02555243915527" lon="119.40073417209857">
        <ele>61.19769287109375</ele>
        <time>2024-04-16T01:14:22Z</time>
      </trkpt>
      <trkpt lat="36.02535748148817" lon="119.40072018641901">
        <ele>59.92523193359375</ele>
        <time>2024-04-16T01:14:40Z</time>
      </trkpt>
      <trkpt lat="36.02505253571222" lon="119.4006311727797">
        <ele>60.27056884765625</ele>
        <time>2024-04-16T01:15:04Z</time>
      </trkpt>
      <trkpt lat="36.02477457838046" lon="119.40050913908081">
        <ele>58.38201904296875</ele>
        <time>2024-04-16T01:15:28Z</time>
      </trkpt>
      <trkpt lat="36.024522606467876" lon="119.40033107417337">
        <ele>57.67578125</ele>
        <time>2024-04-16T01:15:52Z</time>
      </trkpt>
      <trkpt lat="36.02434762263468" lon="119.40018101666806">
        <ele>59.989013671875</ele>
        <time>2024-04-16T01:16:10Z</time>
      </trkpt>
      <trkpt lat="36.0243626068702" lon="119.4001019748598">
        <ele>61.15679931640625</ele>
        <time>2024-04-16T01:16:16Z</time>
      </trkpt>
      <trkpt lat="36.024541543184164" lon="119.39995288004216">
        <ele>59.6856689453125</ele>
        <time>2024-04-16T01:16:34Z</time>
      </trkpt>
      <trkpt lat="36.024675507193656" lon="119.3999178476269">
        <ele>61.26080322265625</ele>
        <time>2024-04-16T01:16:46Z</time>
      </trkpt>
      <trkpt lat="36.024990435104435" lon="119.39992081374675">
        <ele>59.5255126953125</ele>
        <time>2024-04-16T01:17:10Z</time>
      </trkpt>
      <trkpt lat="36.02531236156585" lon="119.39992477957641">
        <ele>62.7913818359375</ele>
        <time>2024-04-16T01:17:34Z</time>
      </trkpt>
      <trkpt lat="36.02558729885972" lon="119.39992875068357">
        <ele>58.9735107421875</ele>
        <time>2024-04-16T01:17:55Z</time>
      </trkpt>
      <trkpt lat="36.02574426156179" lon="119.39992072909016">
        <ele>57.39697265625</ele>
        <time>2024-04-16T01:18:07Z</time>
      </trkpt>
      <trkpt lat="36.02580725279378" lon="119.39995974138373">
        <ele>57.35418701171875</ele>
        <time>2024-04-16T01:18:13Z</time>
      </trkpt>
      <trkpt lat="36.02597621479702" lon="119.39996572539576">
        <ele>60.23699951171875</ele>
        <time>2024-04-16T01:18:25Z</time>
      </trkpt>
      <trkpt lat="36.02626613178419" lon="119.39985363740819">
        <ele>63.671630859375</ele>
        <time>2024-04-16T01:18:49Z</time>
      </trkpt>
      <trkpt lat="36.026470082863675" lon="119.39983960762407">
        <ele>61.1676025390625</ele>
        <time>2024-04-16T01:19:04Z</time>
      </trkpt>
      <trkpt lat="36.02673203575329" lon="119.39993062311467">
        <ele>59.79534912109375</ele>
        <time>2024-04-16T01:19:25Z</time>
      </trkpt>
      <trkpt lat="36.02687201452019" lon="119.40000464425783">
        <ele>60.1199951171875</ele>
        <time>2024-04-16T01:19:37Z</time>
      </trkpt>
      <trkpt lat="36.027143959221775" lon="119.40005263779256">
        <ele>61.3975830078125</ele>
        <time>2024-04-16T01:19:58Z</time>
      </trkpt>
      <trkpt lat="36.02734194000785" lon="119.40022170136014">
        <ele>59.1761474609375</ele>
        <time>2024-04-16T01:20:16Z</time>
      </trkpt>
      <trkpt lat="36.0276329000284" lon="119.4003867540069">
        <ele>58.69085693359375</ele>
        <time>2024-04-16T01:20:40Z</time>
      </trkpt>
      <trkpt lat="36.0277808981493" lon="119.40057483647401">
        <ele>61.6956787109375</ele>
        <time>2024-04-16T01:20:55Z</time>
      </trkpt>
      <trkpt lat="36.02781090701632" lon="119.4006638807079">
        <ele>62.1844482421875</ele>
        <time>2024-04-16T01:21:01Z</time>
      </trkpt>
      <trkpt lat="36.02787090078887" lon="119.4007058965901">
        <ele>61.53424072265625</ele>
        <time>2024-04-16T01:21:07Z</time>
      </trkpt>
      <trkpt lat="36.02793387607078" lon="119.40064885884274">
        <ele>62.954833984375</ele>
        <time>2024-04-16T01:21:13Z</time>
      </trkpt>
      <trkpt lat="36.02802682844187" lon="119.40049876855613">
        <ele>63.09820556640625</ele>
        <time>2024-04-16T01:21:25Z</time>
      </trkpt>
      <trkpt lat="36.02821176001919" lon="119.4003446671294">
        <ele>62.71734619140625</ele>
        <time>2024-04-16T01:21:43Z</time>
      </trkpt>
      <trkpt lat="36.02837870442791" lon="119.40023859363885">
        <ele>58.1590576171875</ele>
        <time>2024-04-16T01:22:01Z</time>
      </trkpt>
      <trkpt lat="36.02837271696266" lon="119.40030762987229">
        <ele>60.25982666015625</ele>
        <time>2024-04-16T01:47:44Z</time>
      </trkpt>
      <trkpt lat="36.028421709144" lon="119.40032863524593">
        <ele>61.2022705078125</ele>
        <time>2024-04-16T01:47:53Z</time>
      </trkpt>
      <trkpt lat="36.02848468993049" lon="119.40029961315933">
        <ele>58.59844970703125</ele>
        <time>2024-04-16T01:47:59Z</time>
      </trkpt>
      <trkpt lat="36.02855967156407" lon="119.40029260112105">
        <ele>58.862060546875</ele>
        <time>2024-04-16T01:48:05Z</time>
      </trkpt>
      <trkpt lat="36.02868063298082" lon="119.40022555305775">
        <ele>57.21185302734375</ele>
        <time>2024-04-16T01:48:14Z</time>
      </trkpt>
      <trkpt lat="36.028756612819464" lon="119.40020853581618">
        <ele>56.529052734375</ele>
        <time>2024-04-16T01:48:20Z</time>
      </trkpt>
      <trkpt lat="36.028807607173846" lon="119.40024654957561">
        <ele>61.37896728515625</ele>
        <time>2024-04-16T01:48:26Z</time>
      </trkpt>
      <trkpt lat="36.02884359315676" lon="119.40021052707041">
        <ele>60.34503173828125</ele>
        <time>2024-04-16T01:48:29Z</time>
      </trkpt>
      <trkpt lat="36.02911253954696" lon="119.40026152304107">
        <ele>57.5233154296875</ele>
        <time>2024-04-16T01:48:53Z</time>
      </trkpt>
      <trkpt lat="36.02924051306554" lon="119.40027951794163">
        <ele>55.42431640625</ele>
        <time>2024-04-16T01:49:05Z</time>
      </trkpt>
      <trkpt lat="36.029515473212044" lon="119.40042056033911">
        <ele>56.896484375</ele>
        <time>2024-04-16T01:49:29Z</time>
      </trkpt>
      <trkpt lat="36.029587464811335" lon="119.40046857745543">
        <ele>57.7208251953125</ele>
        <time>2024-04-16T01:49:35Z</time>
      </trkpt>
      <trkpt lat="36.02966745003565" lon="119.40048957953843">
        <ele>54.715576171875</ele>
        <time>2024-04-16T01:49:41Z</time>
      </trkpt>
      <trkpt lat="36.02984544109789" lon="119.40067165650137">
        <ele>56.56732177734375</ele>
        <time>2024-04-16T01:49:59Z</time>
      </trkpt>
      <trkpt lat="36.029950446838065" lon="119.4008347331266">
        <ele>57.34271240234375</ele>
        <time>2024-04-16T01:50:11Z</time>
      </trkpt>
      <trkpt lat="36.03001244313378" lon="119.40089075688653">
        <ele>58.84161376953125</ele>
        <time>2024-04-16T01:50:17Z</time>
      </trkpt>
      <trkpt lat="36.03013942907407" lon="119.40096978626644">
        <ele>61.52496337890625</ele>
        <time>2024-04-16T01:50:29Z</time>
      </trkpt>
      <trkpt lat="36.03020142707591" lon="119.40103281435923">
        <ele>60.4959716796875</ele>
        <time>2024-04-16T01:50:35Z</time>
      </trkpt>
      <trkpt lat="36.03037741168084" lon="119.401158865378">
        <ele>61.6282958984375</ele>
        <time>2024-04-16T01:50:50Z</time>
      </trkpt>
      <trkpt lat="36.030447400460204" lon="119.40118287110153">
        <ele>61.35498046875</ele>
        <time>2024-04-16T01:50:56Z</time>
      </trkpt>
      <trkpt lat="36.03051438427992" lon="119.4011788613116">
        <ele>60.91571044921875</ele>
        <time>2024-04-16T01:51:08Z</time>
      </trkpt>
      <trkpt lat="36.03060534480697" lon="119.40108579865691">
        <ele>59.97430419921875</ele>
        <time>2024-04-16T01:51:20Z</time>
      </trkpt>
      <trkpt lat="36.03056830149288" lon="119.4008156533453">
        <ele>63.0540771484375</ele>
        <time>2024-04-16T01:51:38Z</time>
      </trkpt>
      <trkpt lat="36.03061928313125" lon="119.40077962800022">
        <ele>60.872314453125</ele>
        <time>2024-04-16T01:51:44Z</time>
      </trkpt>
      <trkpt lat="36.03079723496427" lon="119.40073958629937">
        <ele>61.941162109375</ele>
        <time>2024-04-16T01:52:02Z</time>
      </trkpt>
      <trkpt lat="36.031100165830985" lon="119.40074155335653">
        <ele>66.08544921875</ele>
        <time>2024-04-16T01:52:26Z</time>
      </trkpt>
      <trkpt lat="36.03117014886483" lon="119.40073654278737">
        <ele>68.2474365234375</ele>
        <time>2024-04-16T01:52:32Z</time>
      </trkpt>
      <trkpt lat="36.03147908515012" lon="119.40077552924843">
        <ele>61.1610107421875</ele>
        <time>2024-04-16T01:52:56Z</time>
      </trkpt>
      <trkpt lat="36.03178103190215" lon="119.40086154230126">
        <ele>69.3189697265625</ele>
        <time>2024-04-16T01:53:20Z</time>
      </trkpt>
      <trkpt lat="36.03185502116211" lon="119.40089455212426">
        <ele>66.6759033203125</ele>
        <time>2024-04-16T01:53:26Z</time>
      </trkpt>
      <trkpt lat="36.031911000035564" lon="119.40085052167127">
        <ele>70.02899169921875</ele>
        <time>2024-04-16T01:53:32Z</time>
      </trkpt>
      <trkpt lat="36.031992955076454" lon="119.40070843522349">
        <ele>64.71405029296875</ele>
        <time>2024-04-16T01:53:44Z</time>
      </trkpt>
      <trkpt lat="36.03199994358015" lon="119.40065340482651">
        <ele>64.17645263671875</ele>
        <time>2024-04-16T01:53:47Z</time>
      </trkpt>
      <trkpt lat="36.03198493427314" lon="119.40058136800563">
        <ele>60.95989990234375</ele>
        <time>2024-04-16T01:53:53Z</time>
      </trkpt>
      <trkpt lat="36.03200991224994" lon="119.400487315367">
        <ele>60.810546875</ele>
        <time>2024-04-16T01:53:59Z</time>
      </trkpt>
      <trkpt lat="36.03205183402091" lon="119.4000630920697">
        <ele>61.913330078125</ele>
        <time>2024-04-16T01:54:23Z</time>
      </trkpt>
      <trkpt lat="36.03205279371237" lon="119.3997889560902">
        <ele>62.4542236328125</ele>
        <time>2024-04-16T01:54:41Z</time>
      </trkpt>
      <trkpt lat="36.03208776918715" lon="119.39966889398575">
        <ele>62.79510498046875</ele>
        <time>2024-04-16T01:54:50Z</time>
      </trkpt>
      <trkpt lat="36.03204976281248" lon="119.39955484373867">
        <ele>65.1156005859375</ele>
        <time>2024-04-16T01:54:56Z</time>
      </trkpt>
      <trkpt lat="36.032069706962254" lon="119.39912864424333">
        <ele>62.4598388671875</ele>
        <time>2024-04-16T01:55:23Z</time>
      </trkpt>
      <trkpt lat="36.03209068208369" lon="119.39894055807697">
        <ele>66.35955810546875</ele>
        <time>2024-04-16T01:55:35Z</time>
      </trkpt>
      <trkpt lat="36.032061650994" lon="119.3985373883621">
        <ele>62.9688720703125</ele>
        <time>2024-04-16T01:55:59Z</time>
      </trkpt>
      <trkpt lat="36.03196065801026" lon="119.39833631683634">
        <ele>63.67547607421875</ele>
        <time>2024-04-16T01:56:14Z</time>
      </trkpt>
      <trkpt lat="36.031731694894255" lon="119.39811625444625">
        <ele>64.8201904296875</ele>
        <time>2024-04-16T01:56:38Z</time>
      </trkpt>
      <trkpt lat="36.03143875409417" lon="119.39799023811088">
        <ele>63.3526611328125</ele>
        <time>2024-04-16T01:57:02Z</time>
      </trkpt>
      <trkpt lat="36.031172810390146" lon="119.39791023718136">
        <ele>63.7979736328125</ele>
        <time>2024-04-16T01:57:26Z</time>
      </trkpt>
      <trkpt lat="36.03098085173898" lon="119.39786224043422">
        <ele>64.10736083984375</ele>
        <time>2024-04-16T01:57:41Z</time>
      </trkpt>
      <trkpt lat="36.03091586725422" lon="119.39787325191938">
        <ele>62.455078125</ele>
        <time>2024-04-16T01:57:47Z</time>
      </trkpt>
      <trkpt lat="36.030788893036224" lon="119.39781124268362">
        <ele>63.84765625</ele>
        <time>2024-04-16T01:57:59Z</time>
      </trkpt>
      <trkpt lat="36.030575939220405" lon="119.39775924706237">
        <ele>64.09136962890625</ele>
        <time>2024-04-16T01:58:17Z</time>
      </trkpt>
      <trkpt lat="36.0303000026951" lon="119.39776227918321">
        <ele>67.5587158203125</ele>
        <time>2024-04-16T01:58:38Z</time>
      </trkpt>
      <trkpt lat="36.030224019083306" lon="119.39774127986547">
        <ele>64.40008544921875</ele>
        <time>2024-04-16T01:58:44Z</time>
      </trkpt>
      <trkpt lat="36.03017302874342" lon="119.39769926996074">
        <ele>67.6375732421875</ele>
        <time>2024-04-16T01:58:50Z</time>
      </trkpt>
      <trkpt lat="36.03020100697331" lon="119.39730612531292">
        <ele>64.6097412109375</ele>
        <time>2024-04-16T01:59:14Z</time>
      </trkpt>
      <trkpt lat="36.03022799832718" lon="119.39722009246461">
        <ele>62.66015625</ele>
        <time>2024-04-16T01:59:20Z</time>
      </trkpt>
      <trkpt lat="36.030363964748375" lon="119.3971230440555">
        <ele>64.299072265625</ele>
        <time>2024-04-16T01:59:32Z</time>
      </trkpt>
      <trkpt lat="36.03039395670335" lon="119.39706802213132">
        <ele>65.47540283203125</ele>
        <time>2024-04-16T01:59:38Z</time>
      </trkpt>
      <trkpt lat="36.03046094151232" lon="119.39707701763113">
        <ele>67.9365234375</ele>
        <time>2024-04-16T01:59:47Z</time>
      </trkpt>
      <trkpt lat="36.030513930765856" lon="119.39714203365777">
        <ele>75.11572265625</ele>
        <time>2024-04-16T01:59:53Z</time>
      </trkpt>
      <trkpt lat="36.03058591406387" lon="119.39713402285346">
        <ele>74.76025390625</ele>
        <time>2024-04-16T01:59:59Z</time>
      </trkpt>
      <trkpt lat="36.03061190624267" lon="119.39704498993792">
        <ele>72.02423095703125</ele>
        <time>2024-04-16T02:00:02Z</time>
      </trkpt>
      <trkpt lat="36.030854850059306" lon="119.39702095463267">
        <ele>78.97900390625</ele>
        <time>2024-04-16T02:00:29Z</time>
      </trkpt>
      <trkpt lat="36.03092783291636" lon="119.39699793878458">
        <ele>82.341064453125</ele>
        <time>2024-04-16T02:00:35Z</time>
      </trkpt>
      <trkpt lat="36.03121376786594" lon="119.39702891697911">
        <ele>91.8350830078125</ele>
        <time>2024-04-16T02:00:59Z</time>
      </trkpt>
      <trkpt lat="36.03135873395488" lon="119.39699088805448">
        <ele>89.72467041015625</ele>
        <time>2024-04-16T02:01:11Z</time>
      </trkpt>
      <trkpt lat="36.03142371914998" lon="119.39699688274416">
        <ele>92.50408935546875</ele>
        <time>2024-04-16T02:01:17Z</time>
      </trkpt>
      <trkpt lat="36.03156168593872" lon="119.39688783140069">
        <ele>82.5086669921875</ele>
        <time>2024-04-16T02:01:32Z</time>
      </trkpt>
      <trkpt lat="36.03162667141532" lon="119.3969178338993">
        <ele>82.00262451171875</ele>
        <time>2024-04-16T02:01:38Z</time>
      </trkpt>
      <trkpt lat="36.03180563102101" lon="119.39696282858719">
        <ele>68.40509033203125</ele>
        <time>2024-04-16T02:01:56Z</time>
      </trkpt>
      <trkpt lat="36.03186661805172" lon="119.3970238419684">
        <ele>67.04351806640625</ele>
        <time>2024-04-16T02:02:02Z</time>
      </trkpt>
      <trkpt lat="36.03192960974148" lon="119.39728292310734">
        <ele>66.5123291015625</ele>
        <time>2024-04-16T02:02:20Z</time>
      </trkpt>
      <trkpt lat="36.03204959181199" lon="119.3975540059363">
        <ele>62.36102294921875</ele>
        <time>2024-04-16T02:02:44Z</time>
      </trkpt>
      <trkpt lat="36.03203859720032" lon="119.397621031614">
        <ele>57.59698486328125</ele>
        <time>2024-04-16T02:02:50Z</time>
      </trkpt>
      <trkpt lat="36.03207559646898" lon="119.3977830875932">
        <ele>60.011962890625</ele>
        <time>2024-04-16T02:03:02Z</time>
      </trkpt>
      <trkpt lat="36.03205560514277" lon="119.39786011893626">
        <ele>59.2967529296875</ele>
        <time>2024-04-16T02:03:29Z</time>
      </trkpt>
      <trkpt lat="36.032065613556696" lon="119.39804218790461">
        <ele>61.703125</ele>
        <time>2024-04-16T02:03:38Z</time>
      </trkpt>
      <trkpt lat="36.032045625118066" lon="119.39814923222322">
        <ele>58.65240478515625</ele>
        <time>2024-04-16T02:03:44Z</time>
      </trkpt>
      <trkpt lat="36.03194765948248" lon="119.39831631017447">
        <ele>61.77996826171875</ele>
        <time>2024-04-16T02:03:56Z</time>
      </trkpt>
      <trkpt lat="36.031928668414444" lon="119.39837633674149">
        <ele>63.1900634765625</ele>
        <time>2024-04-16T02:03:59Z</time>
      </trkpt>
      <trkpt lat="36.03193067261139" lon="119.39843536073928">
        <ele>64.4537353515625</ele>
        <time>2024-04-16T02:04:02Z</time>
      </trkpt>
      <trkpt lat="36.03197067025181" lon="119.39851839065238">
        <ele>61.55755615234375</ele>
        <time>2024-04-16T02:04:08Z</time>
      </trkpt>
      <trkpt lat="36.031972691482906" lon="119.3987614933771">
        <ele>59.9747314453125</ele>
        <time>2024-04-16T02:04:23Z</time>
      </trkpt>
      <trkpt lat="36.03198569660851" lon="119.39884552827442">
        <ele>61.5699462890625</ele>
        <time>2024-04-16T02:04:29Z</time>
      </trkpt>
      <trkpt lat="36.031938743951784" lon="119.39919068702984">
        <ele>61.35650634765625</ele>
        <time>2024-04-16T02:04:53Z</time>
      </trkpt>
      <trkpt lat="36.03197275940631" lon="119.39938777384613">
        <ele>64.42254638671875</ele>
        <time>2024-04-16T02:05:05Z</time>
      </trkpt>
      <trkpt lat="36.03196477370026" lon="119.39948782158646">
        <ele>66.96661376953125</ele>
        <time>2024-04-16T02:05:11Z</time>
      </trkpt>
      <trkpt lat="36.032009812060195" lon="119.39984899031006">
        <ele>72.569091796875</ele>
        <time>2024-04-16T02:05:32Z</time>
      </trkpt>
      <trkpt lat="36.03198686390928" lon="119.40016014848156">
        <ele>64.0628662109375</ele>
        <time>2024-04-16T02:05:50Z</time>
      </trkpt>
      <trkpt lat="36.03201587074006" lon="119.40024518869659">
        <ele>62.41717529296875</ele>
        <time>2024-04-16T02:05:56Z</time>
      </trkpt>
      <trkpt lat="36.032002944143926" lon="119.40066040824878">
        <ele>69.142333984375</ele>
        <time>2024-04-16T02:06:20Z</time>
      </trkpt>
      <trkpt lat="36.03201895456878" lon="119.40073844852694">
        <ele>68.30633544921875</ele>
        <time>2024-04-16T02:06:26Z</time>
      </trkpt>
      <trkpt lat="36.03193303690516" lon="119.40106863999345">
        <ele>67.18634033203125</ele>
        <time>2024-04-16T02:06:50Z</time>
      </trkpt>
      <trkpt lat="36.03189112423222" lon="119.40144686051994">
        <ele>66.60394287109375</ele>
        <time>2024-04-16T02:07:14Z</time>
      </trkpt>
      <trkpt lat="36.03190718517929" lon="119.4017400315605">
        <ele>68.74212646484375</ele>
        <time>2024-04-16T02:07:32Z</time>
      </trkpt>
      <trkpt lat="36.03186928682581" lon="119.40213427590001">
        <ele>69.3756103515625</ele>
        <time>2024-04-16T02:07:56Z</time>
      </trkpt>
      <trkpt lat="36.031834386877485" lon="119.4024985094337">
        <ele>69.911865234375</ele>
        <time>2024-04-16T02:08:20Z</time>
      </trkpt>
      <trkpt lat="36.03185843554419" lon="119.40270263870022">
        <ele>68.3719482421875</ele>
        <time>2024-04-16T02:08:32Z</time>
      </trkpt>
      <trkpt lat="36.03184653757478" lon="119.40305987665796">
        <ele>70.503173828125</ele>
        <time>2024-04-16T02:08:53Z</time>
      </trkpt>
      <trkpt lat="36.031847654151804" lon="119.40345614746293">
        <ele>71.4827880859375</ele>
        <time>2024-04-16T02:09:17Z</time>
      </trkpt>
      <trkpt lat="36.031841783228515" lon="119.40386443657594">
        <ele>77.8604736328125</ele>
        <time>2024-04-16T02:09:41Z</time>
      </trkpt>
      <trkpt lat="36.031815910101194" lon="119.40423070628998">
        <ele>77.98626708984375</ele>
        <time>2024-04-16T02:10:05Z</time>
      </trkpt>
      <trkpt lat="36.03179603842062" lon="119.40458797610701">
        <ele>77.848876953125</ele>
        <time>2024-04-16T02:10:30Z</time>
      </trkpt>
      <trkpt lat="36.031792173992166" lon="119.40495926230278">
        <ele>79.01904296875</ele>
        <time>2024-04-16T02:10:54Z</time>
      </trkpt>
      <trkpt lat="36.03178331612209" lon="119.40532855529028">
        <ele>75.726806640625</ele>
        <time>2024-04-16T02:11:21Z</time>
      </trkpt>
      <trkpt lat="36.03174946929922" lon="119.40569585719248">
        <ele>72.79541015625</ele>
        <time>2024-04-16T02:11:48Z</time>
      </trkpt>
      <trkpt lat="36.03172661424761" lon="119.40603514193471">
        <ele>69.3883056640625</ele>
        <time>2024-04-16T02:12:12Z</time>
      </trkpt>
      <trkpt lat="36.03170078161646" lon="119.406412466334">
        <ele>70.474365234375</ele>
        <time>2024-04-16T02:12:36Z</time>
      </trkpt>
      <trkpt lat="36.03168694900715" lon="119.40678179041107">
        <ele>72.94891357421875</ele>
        <time>2024-04-16T02:13:00Z</time>
      </trkpt>
      <trkpt lat="36.031670031529366" lon="119.4069539453003">
        <ele>71.15728759765625</ele>
        <time>2024-04-16T02:13:15Z</time>
      </trkpt>
      <trkpt lat="36.03162606426052" lon="119.40700299412995">
        <ele>71.48779296875</ele>
        <time>2024-04-16T02:13:21Z</time>
      </trkpt>
      <trkpt lat="36.03162522362564" lon="119.40734130072829">
        <ele>67.4302978515625</ele>
        <time>2024-04-16T02:13:42Z</time>
      </trkpt>
      <trkpt lat="36.03160939898843" lon="119.40769462956982">
        <ele>68.311767578125</ele>
        <time>2024-04-16T02:14:03Z</time>
      </trkpt>
      <trkpt lat="36.031583582260694" lon="119.40804796664405">
        <ele>64.18878173828125</ele>
        <time>2024-04-16T02:14:27Z</time>
      </trkpt>
      <trkpt lat="36.03165573921645" lon="119.40838328225665">
        <ele>65.4354248046875</ele>
        <time>2024-04-16T02:14:48Z</time>
      </trkpt>
      <trkpt lat="36.03159989178422" lon="119.4086465471539">
        <ele>62.86480712890625</ele>
        <time>2024-04-16T02:15:03Z</time>
      </trkpt>
      <trkpt lat="36.031554926861894" lon="119.40869259784255">
        <ele>59.865234375</ele>
        <time>2024-04-16T02:15:09Z</time>
      </trkpt>
      <trkpt lat="36.03152398268857" lon="119.4087826909631">
        <ele>57.7537841796875</ele>
        <time>2024-04-16T02:15:15Z</time>
      </trkpt>
      <trkpt lat="36.031532173786616" lon="119.4091330430658">
        <ele>58.82586669921875</ele>
        <time>2024-04-16T02:15:33Z</time>
      </trkpt>
      <trkpt lat="36.031508235427886" lon="119.40923314790088">
        <ele>60.4127197265625</ele>
        <time>2024-04-16T02:15:39Z</time>
      </trkpt>
      <trkpt lat="36.03152236132448" lon="119.40946038030981">
        <ele>63.0738525390625</ele>
        <time>2024-04-16T02:15:51Z</time>
      </trkpt>
      <trkpt lat="36.03158448613537" lon="119.40970062393085">
        <ele>62.484130859375</ele>
        <time>2024-04-16T02:16:06Z</time>
      </trkpt>
      <trkpt lat="36.0315785786798" lon="119.4098557881837">
        <ele>61.38531494140625</ele>
        <time>2024-04-16T02:16:15Z</time>
      </trkpt>
      <trkpt lat="36.031504743770704" lon="119.41010406106723">
        <ele>60.2899169921875</ele>
        <time>2024-04-16T02:16:30Z</time>
      </trkpt>
      <trkpt lat="36.031510810197915" lon="119.41021618103203">
        <ele>60.927490234375</ele>
        <time>2024-04-16T02:16:36Z</time>
      </trkpt>
      <trkpt lat="36.03154992620654" lon="119.41042039822895">
        <ele>65.75341796875</ele>
        <time>2024-04-16T02:16:48Z</time>
      </trkpt>
      <trkpt lat="36.03153200284366" lon="119.41053752839919">
        <ele>65.33746337890625</ele>
        <time>2024-04-16T02:16:54Z</time>
      </trkpt>
      <trkpt lat="36.03154103757873" lon="119.41059659230847">
        <ele>66.44207763671875</ele>
        <time>2024-04-16T02:16:57Z</time>
      </trkpt>
      <trkpt lat="36.03151527596447" lon="119.4109640035054">
        <ele>64.9718017578125</ele>
        <time>2024-04-16T02:17:18Z</time>
      </trkpt>
      <trkpt lat="36.03153155035686" lon="119.41139148640968">
        <ele>63.559814453125</ele>
        <time>2024-04-16T02:17:42Z</time>
      </trkpt>
      <trkpt lat="36.03153581261899" lon="119.41178494125639">
        <ele>72.06298828125</ele>
        <time>2024-04-16T02:18:06Z</time>
      </trkpt>
      <trkpt lat="36.031531089471486" lon="119.412186415458">
        <ele>75.49078369140625</ele>
        <time>2024-04-16T02:18:30Z</time>
      </trkpt>
      <trkpt lat="36.031498155009174" lon="119.41226951834047">
        <ele>71.04998779296875</ele>
        <time>2024-04-16T02:18:36Z</time>
      </trkpt>
      <trkpt lat="36.03140727012222" lon="119.41240368950021">
        <ele>73.03436279296875</ele>
        <time>2024-04-16T02:18:45Z</time>
      </trkpt>
      <trkpt lat="36.03135040249398" lon="119.41257189912918">
        <ele>73.9844970703125</ele>
        <time>2024-04-16T02:18:54Z</time>
      </trkpt>
      <trkpt lat="36.031293477845516" lon="119.41265901140189">
        <ele>75.18109130859375</ele>
        <time>2024-04-16T02:19:00Z</time>
      </trkpt>
      <trkpt lat="36.03126156297078" lon="119.41276714702664">
        <ele>72.8944091796875</ele>
        <time>2024-04-16T02:19:06Z</time>
      </trkpt>
      <trkpt lat="36.03135269265898" lon="119.41297439174272">
        <ele>65.7225341796875</ele>
        <time>2024-04-16T02:19:21Z</time>
      </trkpt>
      <trkpt lat="36.03131500301619" lon="119.413381904348">
        <ele>66.4114990234375</ele>
        <time>2024-04-16T02:19:45Z</time>
      </trkpt>
      <trkpt lat="36.03130019771698" lon="119.41363522677946">
        <ele>68.0152587890625</ele>
        <time>2024-04-16T02:20:00Z</time>
      </trkpt>
      <trkpt lat="36.03126932649769" lon="119.41379443369753">
        <ele>65.7823486328125</ele>
        <time>2024-04-16T02:20:09Z</time>
      </trkpt>
      <trkpt lat="36.03125646626029" lon="119.41397166331902">
        <ele>66.949951171875</ele>
        <time>2024-04-16T02:20:21Z</time>
      </trkpt>
      <trkpt lat="36.03119360713175" lon="119.41413388077393">
        <ele>67.4208984375</ele>
        <time>2024-04-16T02:20:33Z</time>
      </trkpt>
      <trkpt lat="36.0312588805829" lon="119.41449835165132">
        <ele>68.92877197265625</ele>
        <time>2024-04-16T02:21:03Z</time>
      </trkpt>
      <trkpt lat="36.03122492283759" lon="119.41454141244859">
        <ele>65.4437255859375</ele>
        <time>2024-04-16T02:21:09Z</time>
      </trkpt>
      <trkpt lat="36.031138928929295" lon="119.4145243995525">
        <ele>65.7967529296875</ele>
        <time>2024-04-16T02:21:15Z</time>
      </trkpt>
      <trkpt lat="36.03106499166205" lon="119.41458148349547">
        <ele>63.0838623046875</ele>
        <time>2024-04-16T02:21:21Z</time>
      </trkpt>
      <trkpt lat="36.03088102582909" lon="119.41457149084692">
        <ele>57.88165283203125</ele>
        <time>2024-04-16T02:21:33Z</time>
      </trkpt>
      <trkpt lat="36.030808061070495" lon="119.41459452959587">
        <ele>56.158203125</ele>
        <time>2024-04-16T02:21:39Z</time>
      </trkpt>
      <trkpt lat="36.03079512291308" lon="119.41466762825404">
        <ele>61.43408203125</ele>
        <time>2024-04-16T02:21:45Z</time>
      </trkpt>
      <trkpt lat="36.030668208714204" lon="119.41473773598662">
        <ele>63.2935791015625</ele>
        <time>2024-04-16T02:21:54Z</time>
      </trkpt>
      <trkpt lat="36.03038921202228" lon="119.41466266711852">
        <ele>63.94586181640625</ele>
        <time>2024-04-16T02:22:15Z</time>
      </trkpt>
      <trkpt lat="36.03024126133812" lon="119.41468170905887">
        <ele>67.60491943359375</ele>
        <time>2024-04-16T02:22:27Z</time>
      </trkpt>
      <trkpt lat="36.02994930895827" lon="119.41465770979663">
        <ele>67.05126953125</ele>
        <time>2024-04-16T02:22:48Z</time>
      </trkpt>
      <trkpt lat="36.02978735745104" lon="119.41467174663148">
        <ele>68.625</ele>
        <time>2024-04-16T02:23:00Z</time>
      </trkpt>
      <trkpt lat="36.029536395687444" lon="119.41464774278467">
        <ele>70.92913818359375</ele>
        <time>2024-04-16T02:23:18Z</time>
      </trkpt>
      <trkpt lat="36.029408458200564" lon="119.41468881181602">
        <ele>66.8150634765625</ele>
        <time>2024-04-16T02:23:27Z</time>
      </trkpt>
      <trkpt lat="36.029110458836406" lon="119.41460473331531">
        <ele>64.986572265625</ele>
        <time>2024-04-16T02:23:45Z</time>
      </trkpt>
      <trkpt lat="36.02881156055017" lon="119.41464582142196">
        <ele>62.39666748046875</ele>
        <time>2024-04-16T02:24:06Z</time>
      </trkpt>
      <trkpt lat="36.028475623210454" lon="119.41462783512827">
        <ele>60.9039306640625</ele>
        <time>2024-04-16T02:24:30Z</time>
      </trkpt>
      <trkpt lat="36.02834866609722" lon="119.41464487200957">
        <ele>58.66845703125</ele>
        <time>2024-04-16T02:24:39Z</time>
      </trkpt>
      <trkpt lat="36.028272661787454" lon="119.41461784458227">
        <ele>58.62774658203125</ele>
        <time>2024-04-16T02:24:45Z</time>
      </trkpt>
      <trkpt lat="36.028159697421756" lon="119.41462987322623">
        <ele>57.50396728515625</ele>
        <time>2024-04-16T02:24:51Z</time>
      </trkpt>
      <trkpt lat="36.02815175095123" lon="119.41469395944817">
        <ele>58.51617431640625</ele>
        <time>2024-04-16T02:24:54Z</time>
      </trkpt>
      <trkpt lat="36.02822080403422" lon="119.41477906539264">
        <ele>57.6982421875</ele>
        <time>2024-04-16T02:25:00Z</time>
      </trkpt>
      <trkpt lat="36.028197850020966" lon="119.41482913503499">
        <ele>64.09881591796875</ele>
        <time>2024-04-16T02:25:03Z</time>
      </trkpt>
      <trkpt lat="36.0281859279632" lon="119.41492126014788">
        <ele>57.2864990234375</ele>
        <time>2024-04-16T02:25:09Z</time>
      </trkpt>
      <trkpt lat="36.02814201528437" lon="119.41501539203578">
        <ele>65.60760498046875</ele>
        <time>2024-04-16T02:25:15Z</time>
      </trkpt>
      <trkpt lat="36.02811617936549" lon="119.41520665445574">
        <ele>61.78643798828125</ele>
        <time>2024-04-16T02:25:27Z</time>
      </trkpt>
      <trkpt lat="36.02803618527182" lon="119.41519164297105">
        <ele>56.635986328125</ele>
        <time>2024-04-16T02:25:33Z</time>
      </trkpt>
      <trkpt lat="36.02802726819583" lon="119.41528877648037">
        <ele>58.556640625</ele>
        <time>2024-04-16T02:25:39Z</time>
      </trkpt>
      <trkpt lat="36.028042316650996" lon="119.41535085976895">
        <ele>60.11212158203125</ele>
        <time>2024-04-16T02:25:42Z</time>
      </trkpt>
      <trkpt lat="36.02799035461547" lon="119.41538190816638">
        <ele>55.67181396484375</ele>
        <time>2024-04-16T02:25:48Z</time>
      </trkpt>
      <trkpt lat="36.0279233515447" lon="119.41535988546424">
        <ele>55.77325439453125</ele>
        <time>2024-04-16T02:25:54Z</time>
      </trkpt>
      <trkpt lat="36.02777642060108" lon="119.41540195965213">
        <ele>60.599365234375</ele>
        <time>2024-04-16T02:26:06Z</time>
      </trkpt>
      <trkpt lat="36.027613432860036" lon="119.41537193669944">
        <ele>60.99554443359375</ele>
        <time>2024-04-16T02:26:18Z</time>
      </trkpt>
      <trkpt lat="36.02754249205" lon="119.41542301477892">
        <ele>53.62469482421875</ele>
        <time>2024-04-16T02:26:24Z</time>
      </trkpt>
      <trkpt lat="36.02752666412103" lon="119.41562229158433">
        <ele>54.6024169921875</ele>
        <time>2024-04-16T02:26:36Z</time>
      </trkpt>
      <trkpt lat="36.02745168731646" lon="119.41562930970777">
        <ele>52.66436767578125</ele>
        <time>2024-04-16T02:26:42Z</time>
      </trkpt>
      <trkpt lat="36.02719870553197" lon="119.41558227289983">
        <ele>61.0445556640625</ele>
        <time>2024-04-16T02:27:00Z</time>
      </trkpt>
      <trkpt lat="36.027069703813765" lon="119.41554523614431">
        <ele>61.74822998046875</ele>
        <time>2024-04-16T02:27:09Z</time>
      </trkpt>
      <trkpt lat="36.02703164491783" lon="119.41546512992737">
        <ele>63.3472900390625</ele>
        <time>2024-04-16T02:27:15Z</time>
      </trkpt>
      <trkpt lat="36.0270215983623" lon="119.4154070511794">
        <ele>63.83660888671875</ele>
        <time>2024-04-16T02:27:18Z</time>
      </trkpt>
      <trkpt lat="36.02703352762697" lon="119.41532593861187">
        <ele>64.25042724609375</ele>
        <time>2024-04-16T02:27:24Z</time>
      </trkpt>
      <trkpt lat="36.02700237480025" lon="119.4151336799368">
        <ele>67.6585693359375</ele>
        <time>2024-04-16T02:27:36Z</time>
      </trkpt>
      <trkpt lat="36.027020289654715" lon="119.41503554491871">
        <ele>70.834228515625</ele>
        <time>2024-04-16T02:27:42Z</time>
      </trkpt>
      <trkpt lat="36.0269762306801" lon="119.4149514362862">
        <ele>63.81488037109375</ele>
        <time>2024-04-16T02:27:48Z</time>
      </trkpt>
      <trkpt lat="36.02683824109144" lon="119.41492541668939">
        <ele>62.72198486328125</ele>
        <time>2024-04-16T02:27:57Z</time>
      </trkpt>
      <trkpt lat="36.02695227317273" lon="119.41499649976632">
        <ele>64.22674560546875</ele>
        <time>2024-04-16T02:29:06Z</time>
      </trkpt>
      <trkpt lat="36.02695343338132" lon="119.4151907630385">
        <ele>62.951416015625</ele>
        <time>2024-04-16T02:29:21Z</time>
      </trkpt>
      <trkpt lat="36.026919507850764" lon="119.41527087608456">
        <ele>62.212890625</ele>
        <time>2024-04-16T02:29:27Z</time>
      </trkpt>
      <trkpt lat="36.026955699555714" lon="119.41550919916588">
        <ele>65.26422119140625</ele>
        <time>2024-04-16T02:29:45Z</time>
      </trkpt>
      <trkpt lat="36.0269907584495" lon="119.41558830453299">
        <ele>70.6376953125</ele>
        <time>2024-04-16T02:29:51Z</time>
      </trkpt>
      <trkpt lat="36.02726575477142" lon="119.4156583708373">
        <ele>68.361572265625</ele>
        <time>2024-04-16T02:30:12Z</time>
      </trkpt>
      <trkpt lat="36.02755080472049" lon="119.41579352700336">
        <ele>60.5010986328125</ele>
        <time>2024-04-16T02:30:33Z</time>
      </trkpt>
      <trkpt lat="36.02766390021377" lon="119.41593471191732">
        <ele>59.022216796875</ele>
        <time>2024-04-16T02:30:45Z</time>
      </trkpt>
      <trkpt lat="36.02773592435206" lon="119.4159817699565">
        <ele>60.8419189453125</ele>
        <time>2024-04-16T02:30:51Z</time>
      </trkpt>
      <trkpt lat="36.02778690569871" lon="119.41597375297692">
        <ele>61.99017333984375</ele>
        <time>2024-04-16T02:30:54Z</time>
      </trkpt>
      <trkpt lat="36.027922966529744" lon="119.41607988724331">
        <ele>65.18890380859375</ele>
        <time>2024-04-16T02:31:06Z</time>
      </trkpt>
      <trkpt lat="36.02821383011874" lon="119.41599974171872">
        <ele>70.4168701171875</ele>
        <time>2024-04-16T02:31:27Z</time>
      </trkpt>
      <trkpt lat="36.02827778854273" lon="119.41596869089211">
        <ele>68.3984375</ele>
        <time>2024-04-16T02:31:33Z</time>
      </trkpt>
      <trkpt lat="36.028405780803176" lon="119.41599371173979">
        <ele>63.7379150390625</ele>
        <time>2024-04-16T02:31:45Z</time>
      </trkpt>
      <trkpt lat="36.02853581697955" lon="119.41606980438561">
        <ele>65.4302978515625</ele>
        <time>2024-04-16T02:31:57Z</time>
      </trkpt>
      <trkpt lat="36.02861276623949" lon="119.4160317421014">
        <ele>62.404052734375</ele>
        <time>2024-04-16T02:32:03Z</time>
      </trkpt>
      <trkpt lat="36.028720605558114" lon="119.41587450919478">
        <ele>67.007080078125</ele>
        <time>2024-04-16T02:32:12Z</time>
      </trkpt>
      <trkpt lat="36.02877255315329" lon="119.41582743753737">
        <ele>64.09747314453125</ele>
        <time>2024-04-16T02:32:18Z</time>
      </trkpt>
      <trkpt lat="36.02897840554872" lon="119.41571025111607">
        <ele>67.09088134765625</ele>
        <time>2024-04-16T02:32:36Z</time>
      </trkpt>
      <trkpt lat="36.02911834863459" lon="119.4156811950566">
        <ele>71.8856201171875</ele>
        <time>2024-04-16T02:32:48Z</time>
      </trkpt>
      <trkpt lat="36.02933419187793" lon="119.41555499602391">
        <ele>66.71051025390625</ele>
        <time>2024-04-16T02:33:06Z</time>
      </trkpt>
      <trkpt lat="36.02956112027774" lon="119.41553193875758">
        <ele>72.49786376953125</ele>
        <time>2024-04-16T02:33:24Z</time>
      </trkpt>
      <trkpt lat="36.029708096695046" lon="119.41554393886926">
        <ele>69.52044677734375</ele>
        <time>2024-04-16T02:33:36Z</time>
      </trkpt>
      <trkpt lat="36.02984612783069" lon="119.41561802590928">
        <ele>69.16949462890625</ele>
        <time>2024-04-16T02:33:48Z</time>
      </trkpt>
      <trkpt lat="36.02999514388771" lon="119.41567709115871">
        <ele>75.9364013671875</ele>
        <time>2024-04-16T02:34:00Z</time>
      </trkpt>
      <trkpt lat="36.03005516684247" lon="119.41572014428645">
        <ele>74.52142333984375</ele>
        <time>2024-04-16T02:34:06Z</time>
      </trkpt>
      <trkpt lat="36.03014723231571" lon="119.41582127497365">
        <ele>69.555419921875</ele>
        <time>2024-04-16T02:34:18Z</time>
      </trkpt>
      <trkpt lat="36.03021418859913" lon="119.41578822132728">
        <ele>69.0228271484375</ele>
        <time>2024-04-16T02:34:24Z</time>
      </trkpt>
      <trkpt lat="36.03019213454681" lon="119.41571912753176">
        <ele>67.058349609375</ele>
        <time>2024-04-16T02:34:33Z</time>
      </trkpt>
      <trkpt lat="36.03022904078061" lon="119.41561898435128">
        <ele>68.984130859375</ele>
        <time>2024-04-16T02:34:48Z</time>
      </trkpt>
      <trkpt lat="36.03029500353699" lon="119.41559294089527">
        <ele>70.8370361328125</ele>
        <time>2024-04-16T02:35:09Z</time>
      </trkpt>
      <trkpt lat="36.03030695244306" lon="119.41553586063922">
        <ele>69.82489013671875</ele>
        <time>2024-04-16T02:35:15Z</time>
      </trkpt>
      <trkpt lat="36.030301822874435" lon="119.41538064755046">
        <ele>67.22210693359375</ele>
        <time>2024-04-16T02:35:27Z</time>
      </trkpt>
      <trkpt lat="36.03034580018508" lon="119.4153656220131">
        <ele>65.12017822265625</ele>
        <time>2024-04-16T02:35:34Z</time>
      </trkpt>
    </trkseg>
  </trk>
</gpx>