<?xml version="1.0" encoding="UTF-8"?>
<gpx xmlns="http://www.topografix.com/GPX/1/1" xmlns:gpxtpx="http://www.garmin.com/xmlschemas/TrackPointExtension/v1" xmlns:xsi="http://www.w3.org/2001/XMLSchema-instance" xsi:schemaLocation="http://www.topografix.com/GPX/1/1 http://www.topografix.com/GPX/1/1/gpx.xsd" version="1.1" creator="gpx.py -- https://github.com/tkrajina/gpxpy">
  <trk>
    <name>gpx from keep</name>
    <type>Run</type>
    <trkseg>
      <trkpt lat="36.01816392306514" lon="119.38268718536328">
        <ele>72.65057373046875</ele>
        <time>2023-02-14T12:59:18Z</time>
      </trkpt>
      <trkpt lat="36.017851061458174" lon="119.38257526934835">
        <ele>63.13153076171875</ele>
        <time>2023-02-14T12:59:48Z</time>
      </trkpt>
      <trkpt lat="36.01761816280926" lon="119.38249533078387">
        <ele>63.36761474609375</ele>
        <time>2023-02-14T13:00:12Z</time>
      </trkpt>
      <trkpt lat="36.01733329500889" lon="119.38238441226402">
        <ele>0.0</ele>
        <time>2023-02-14T13:00:51Z</time>
      </trkpt>
      <trkpt lat="36.01686552636798" lon="119.3821805573714">
        <ele>0.0</ele>
        <time>2023-02-14T13:01:27Z</time>
      </trkpt>
      <trkpt lat="36.01701145077132" lon="119.38224950943591">
        <ele>0.0</ele>
        <time>2023-02-14T13:01:30Z</time>
      </trkpt>
      <trkpt lat="36.016516586583336" lon="119.38221458095886">
        <ele>0.0</ele>
        <time>2023-02-14T13:02:30Z</time>
      </trkpt>
      <trkpt lat="36.01646399989368" lon="119.38323714545892">
        <ele>0.0</ele>
        <time>2023-02-14T13:03:06Z</time>
      </trkpt>
      <trkpt lat="36.01645209184528" lon="119.38308021108918">
        <ele>0.0</ele>
        <time>2023-02-14T13:03:15Z</time>
      </trkpt>
      <trkpt lat="36.01657542153997" lon="119.38329985740464">
        <ele>0.0</ele>
        <time>2023-02-14T13:03:24Z</time>
      </trkpt>
      <trkpt lat="36.0165712515619" lon="119.38329126021434">
        <ele>0.0</ele>
        <time>2023-02-14T13:03:30Z</time>
      </trkpt>
      <trkpt lat="36.0166764007378" lon="119.38352203798114">
        <ele>0.0</ele>
        <time>2023-02-14T13:03:39Z</time>
      </trkpt>
      <trkpt lat="36.016665307273804" lon="119.3835808035735">
        <ele>0.0</ele>
        <time>2023-02-14T13:03:48Z</time>
      </trkpt>
      <trkpt lat="36.01650376461776" lon="119.38364298055593">
        <ele>54.670166015625</ele>
        <time>2023-02-14T13:03:57Z</time>
      </trkpt>
      <trkpt lat="36.01658171098197" lon="119.38370794690145">
        <ele>59.6673583984375</ele>
        <time>2023-02-14T13:04:00Z</time>
      </trkpt>
      <trkpt lat="36.01669251691529" lon="119.38401981792938">
        <ele>66.9925537109375</ele>
        <time>2023-02-14T13:04:27Z</time>
      </trkpt>
      <trkpt lat="36.016720472136726" lon="119.38409178860714">
        <ele>67.8045654296875</ele>
        <time>2023-02-14T13:04:30Z</time>
      </trkpt>
      <trkpt lat="36.01675336287979" lon="119.38428471603937">
        <ele>66.53387451171875</ele>
        <time>2023-02-14T13:04:42Z</time>
      </trkpt>
      <trkpt lat="36.01685322008316" lon="119.38451562490991">
        <ele>65.81195068359375</ele>
        <time>2023-02-14T13:04:54Z</time>
      </trkpt>
      <trkpt lat="36.01749770064727" lon="119.38525831415942">
        <ele>0.0</ele>
        <time>2023-02-14T13:05:24Z</time>
      </trkpt>
      <trkpt lat="36.017530566453274" lon="119.38552323235315">
        <ele>0.0</ele>
        <time>2023-02-14T13:05:33Z</time>
      </trkpt>
      <trkpt lat="36.0152983718154" lon="119.39004471835246">
        <ele>0.0</ele>
        <time>2023-02-14T13:11:28Z</time>
      </trkpt>
      <trkpt lat="36.01554521515215" lon="119.39040467649878">
        <ele>0.0</ele>
        <time>2023-02-14T13:11:52Z</time>
      </trkpt>
      <trkpt lat="36.01590396208946" lon="119.39107262847243">
        <ele>57.77215576171875</ele>
        <time>2023-02-14T13:12:43Z</time>
      </trkpt>
      <trkpt lat="36.01601190387233" lon="119.3912126177824">
        <ele>65.6566162109375</ele>
        <time>2023-02-14T13:12:52Z</time>
      </trkpt>
      <trkpt lat="36.01615080579862" lon="119.39150160849135">
        <ele>60.22747802734375</ele>
        <time>2023-02-14T13:13:16Z</time>
      </trkpt>
      <trkpt lat="36.016284714343556" lon="119.39178160388052">
        <ele>60.7100830078125</ele>
        <time>2023-02-14T13:13:40Z</time>
      </trkpt>
      <trkpt lat="36.01669545392471" lon="119.39264561678081">
        <ele>61.872314453125</ele>
        <time>2023-02-14T13:14:46Z</time>
      </trkpt>
      <trkpt lat="36.01684835677403" lon="119.39302063788723">
        <ele>59.17889404296875</ele>
        <time>2023-02-14T13:15:04Z</time>
      </trkpt>
      <trkpt lat="36.016975280924775" lon="119.39333066107851">
        <ele>60.460693359375</ele>
        <time>2023-02-14T13:15:19Z</time>
      </trkpt>
      <trkpt lat="36.017024253959356" lon="119.39344167026528">
        <ele>58.873291015625</ele>
        <time>2023-02-14T13:15:25Z</time>
      </trkpt>
      <trkpt lat="36.01706323793115" lon="119.39349267286177">
        <ele>59.82476806640625</ele>
        <time>2023-02-14T13:15:28Z</time>
      </trkpt>
      <trkpt lat="36.017201163907544" lon="119.39381870532077">
        <ele>57.69122314453125</ele>
        <time>2023-02-14T13:15:43Z</time>
      </trkpt>
      <trkpt lat="36.01723614844315" lon="119.39387971101159">
        <ele>57.1529541015625</ele>
        <time>2023-02-14T13:15:46Z</time>
      </trkpt>
      <trkpt lat="36.017621973400715" lon="119.39472882280499">
        <ele>56.3231201171875</ele>
        <time>2023-02-14T13:16:28Z</time>
      </trkpt>
      <trkpt lat="36.0177779145817" lon="119.39502786937817">
        <ele>57.4981689453125</ele>
        <time>2023-02-14T13:16:43Z</time>
      </trkpt>
      <trkpt lat="36.01786188667352" lon="119.39515488866186">
        <ele>60.2186279296875</ele>
        <time>2023-02-14T13:16:49Z</time>
      </trkpt>
      <trkpt lat="36.01795784984282" lon="119.3954049370114">
        <ele>60.5379638671875</ele>
        <time>2023-02-14T13:17:01Z</time>
      </trkpt>
      <trkpt lat="36.01804581315432" lon="119.39576701887543">
        <ele>64.69866943359375</ele>
        <time>2023-02-14T13:17:16Z</time>
      </trkpt>
      <trkpt lat="36.01813678191846" lon="119.39611010228563">
        <ele>65.08660888671875</ele>
        <time>2023-02-14T13:17:34Z</time>
      </trkpt>
      <trkpt lat="36.01818776471628" lon="119.39651921673506">
        <ele>67.92181396484375</ele>
        <time>2023-02-14T13:17:58Z</time>
      </trkpt>
      <trkpt lat="36.01822975549368" lon="119.39679429804873">
        <ele>69.27001953125</ele>
        <time>2023-02-14T13:18:13Z</time>
      </trkpt>
      <trkpt lat="36.018280745881206" lon="119.39697835223407">
        <ele>63.81597900390625</ele>
        <time>2023-02-14T13:18:25Z</time>
      </trkpt>
      <trkpt lat="36.01833574105319" lon="119.39731646102649">
        <ele>61.33740234375</ele>
        <time>2023-02-14T13:18:46Z</time>
      </trkpt>
      <trkpt lat="36.01870868844275" lon="119.39803768569432">
        <ele>50.625244140625</ele>
        <time>2023-02-14T13:19:28Z</time>
      </trkpt>
      <trkpt lat="36.01852374201698" lon="119.3982007707448">
        <ele>76.9798583984375</ele>
        <time>2023-02-14T13:19:34Z</time>
      </trkpt>
      <trkpt lat="36.018672723741915" lon="119.3984178419061">
        <ele>74.4212646484375</ele>
        <time>2023-02-14T13:19:49Z</time>
      </trkpt>
      <trkpt lat="36.01868972399812" lon="119.39846986144985">
        <ele>74.6990966796875</ele>
        <time>2023-02-14T13:19:52Z</time>
      </trkpt>
      <trkpt lat="36.018867705010976" lon="119.39872394843096">
        <ele>69.55010986328125</ele>
        <time>2023-02-14T13:20:13Z</time>
      </trkpt>
      <trkpt lat="36.01905269456026" lon="119.39904706890715">
        <ele>67.90570068359375</ele>
        <time>2023-02-14T13:20:37Z</time>
      </trkpt>
      <trkpt lat="36.01975265211859" lon="119.39998043122173">
        <ele>61.98046875</ele>
        <time>2023-02-14T13:22:01Z</time>
      </trkpt>
      <trkpt lat="36.019810657027634" lon="119.40010148547624">
        <ele>63.2296142578125</ele>
        <time>2023-02-14T13:22:04Z</time>
      </trkpt>
      <trkpt lat="36.019824669100444" lon="119.40019953372364">
        <ele>63.82293701171875</ele>
        <time>2023-02-14T13:22:10Z</time>
      </trkpt>
      <trkpt lat="36.01987467442271" lon="119.40030458208881">
        <ele>64.334228515625</ele>
        <time>2023-02-14T13:22:16Z</time>
      </trkpt>
      <trkpt lat="36.01985271870536" lon="119.40053770655602">
        <ele>67.0467529296875</ele>
        <time>2023-02-14T13:22:28Z</time>
      </trkpt>
      <trkpt lat="36.01993276308121" lon="119.40088488493787">
        <ele>69.1558837890625</ele>
        <time>2023-02-14T13:22:49Z</time>
      </trkpt>
      <trkpt lat="36.01996978630533" lon="119.4010499722594">
        <ele>71.05126953125</ele>
        <time>2023-02-14T13:22:58Z</time>
      </trkpt>
      <trkpt lat="36.02006689257379" lon="119.4016633146822">
        <ele>0.0</ele>
        <time>2023-02-14T13:23:28Z</time>
      </trkpt>
      <trkpt lat="36.020076942405325" lon="119.40189145039025">
        <ele>0.0</ele>
        <time>2023-02-14T13:23:40Z</time>
      </trkpt>
      <trkpt lat="36.02019512477065" lon="119.40180913500357">
        <ele>72.29559326171875</ele>
        <time>2023-02-14T13:23:49Z</time>
      </trkpt>
      <trkpt lat="36.020194932568494" lon="119.4019654821879">
        <ele>64.8651123046875</ele>
        <time>2023-02-14T13:23:55Z</time>
      </trkpt>
      <trkpt lat="36.0202479929647" lon="119.40226366076212">
        <ele>63.60638427734375</ele>
        <time>2023-02-14T13:24:13Z</time>
      </trkpt>
      <trkpt lat="36.02025708446904" lon="119.40262589066919">
        <ele>62.9605712890625</ele>
        <time>2023-02-14T13:24:37Z</time>
      </trkpt>
      <trkpt lat="36.0202481355393" lon="119.40280700992258">
        <ele>62.5345458984375</ele>
        <time>2023-02-14T13:24:49Z</time>
      </trkpt>
      <trkpt lat="36.020283184146315" lon="119.40301014081957">
        <ele>61.563232421875</ele>
        <time>2023-02-14T13:25:01Z</time>
      </trkpt>
      <trkpt lat="36.02024721876272" lon="119.40310220673265">
        <ele>63.5750732421875</ele>
        <time>2023-02-14T13:25:07Z</time>
      </trkpt>
      <trkpt lat="36.02022932917922" lon="119.40346145478404">
        <ele>65.0133056640625</ele>
        <time>2023-02-14T13:25:31Z</time>
      </trkpt>
      <trkpt lat="36.020188447169765" lon="119.4038097048616">
        <ele>64.1611328125</ele>
        <time>2023-02-14T13:25:55Z</time>
      </trkpt>
      <trkpt lat="36.020176496435894" lon="119.40395380979666">
        <ele>64.58203125</ele>
        <time>2023-02-14T13:26:07Z</time>
      </trkpt>
      <trkpt lat="36.019989697866464" lon="119.40442417708302">
        <ele>0.0</ele>
        <time>2023-02-14T13:26:52Z</time>
      </trkpt>
      <trkpt lat="36.020035777238576" lon="119.40467936506289">
        <ele>0.0</ele>
        <time>2023-02-14T13:27:16Z</time>
      </trkpt>
      <trkpt lat="36.01999377156082" lon="119.40463633694782">
        <ele>0.0</ele>
        <time>2023-02-14T13:27:25Z</time>
      </trkpt>
      <trkpt lat="36.019973894041314" lon="119.40464648067808">
        <ele>0.0</ele>
        <time>2023-02-14T13:27:31Z</time>
      </trkpt>
      <trkpt lat="36.02003884036732" lon="119.40485550018958">
        <ele>0.0</ele>
        <time>2023-02-14T13:27:55Z</time>
      </trkpt>
      <trkpt lat="36.021592828183266" lon="119.40977582315068">
        <ele>67.3546142578125</ele>
        <time>2023-02-14T13:34:07Z</time>
      </trkpt>
      <trkpt lat="36.02166589826577" lon="119.40992297066818">
        <ele>71.05712890625</ele>
        <time>2023-02-14T13:34:10Z</time>
      </trkpt>
      <trkpt lat="36.02179689066716" lon="119.40996099642481">
        <ele>65.43994140625</ele>
        <time>2023-02-14T13:34:16Z</time>
      </trkpt>
      <trkpt lat="36.02185290762119" lon="119.41001104349407">
        <ele>66.65631103515625</ele>
        <time>2023-02-14T13:34:19Z</time>
      </trkpt>
      <trkpt lat="36.02195195875231" lon="119.41013416423957">
        <ele>65.240234375</ele>
        <time>2023-02-14T13:34:25Z</time>
      </trkpt>
      <trkpt lat="36.02215298094168" lon="119.41024726358533">
        <ele>66.86968994140625</ele>
        <time>2023-02-14T13:34:34Z</time>
      </trkpt>
      <trkpt lat="36.0223130236207" lon="119.41037738676958">
        <ele>72.0213623046875</ele>
        <time>2023-02-14T13:34:40Z</time>
      </trkpt>
      <trkpt lat="36.022567044145255" lon="119.41050549818131">
        <ele>71.787841796875</ele>
        <time>2023-02-14T13:34:49Z</time>
      </trkpt>
      <trkpt lat="36.02263005698007" lon="119.41054953942225">
        <ele>71.8731689453125</ele>
        <time>2023-02-14T13:34:52Z</time>
      </trkpt>
      <trkpt lat="36.02295102730264" lon="119.41062058159993">
        <ele>68.03033447265625</ele>
        <time>2023-02-14T13:35:07Z</time>
      </trkpt>
      <trkpt lat="36.0232229972155" lon="119.41067260853393">
        <ele>68.896240234375</ele>
        <time>2023-02-14T13:35:19Z</time>
      </trkpt>
      <trkpt lat="36.02353897859392" lon="119.41075866843084">
        <ele>67.23388671875</ele>
        <time>2023-02-14T13:35:46Z</time>
      </trkpt>
      <trkpt lat="36.02385793548808" lon="119.41080668604658">
        <ele>66.21954345703125</ele>
        <time>2023-02-14T13:36:10Z</time>
      </trkpt>
      <trkpt lat="36.023936926808375" lon="119.410821693899">
        <ele>68.0028076171875</ele>
        <time>2023-02-14T13:36:16Z</time>
      </trkpt>
      <trkpt lat="36.02396805146134" lon="119.41102792125854">
        <ele>67.750244140625</ele>
        <time>2023-02-14T13:36:38Z</time>
      </trkpt>
      <trkpt lat="36.02393911243331" lon="119.41111201933387">
        <ele>65.0679931640625</ele>
        <time>2023-02-14T13:36:47Z</time>
      </trkpt>
      <trkpt lat="36.02395533837969" lon="119.41146241696482">
        <ele>73.5546875</ele>
        <time>2023-02-14T13:37:08Z</time>
      </trkpt>
      <trkpt lat="36.02396544893119" lon="119.41163161120981">
        <ele>72.12200927734375</ele>
        <time>2023-02-14T13:37:17Z</time>
      </trkpt>
      <trkpt lat="36.02395051301257" lon="119.41172171759818">
        <ele>66.3734130859375</ele>
        <time>2023-02-14T13:37:23Z</time>
      </trkpt>
      <trkpt lat="36.023978645329876" lon="119.41192595350104">
        <ele>63.6859130859375</ele>
        <time>2023-02-14T13:37:35Z</time>
      </trkpt>
      <trkpt lat="36.02395772025499" lon="119.41202807626765">
        <ele>64.1746826171875</ele>
        <time>2023-02-14T13:37:41Z</time>
      </trkpt>
      <trkpt lat="36.02396383602799" lon="119.41219727640495">
        <ele>65.9332275390625</ele>
        <time>2023-02-14T13:37:50Z</time>
      </trkpt>
      <trkpt lat="36.02392704290518" lon="119.41247961925826">
        <ele>68.019287109375</ele>
        <time>2023-02-14T13:38:05Z</time>
      </trkpt>
      <trkpt lat="36.02398026735319" lon="119.41281001542308">
        <ele>74.30133056640625</ele>
        <time>2023-02-14T13:38:23Z</time>
      </trkpt>
      <trkpt lat="36.02400241176699" lon="119.41301526587407">
        <ele>72.49169921875</ele>
        <time>2023-02-14T13:38:35Z</time>
      </trkpt>
      <trkpt lat="36.02406656177634" lon="119.41323853653999">
        <ele>71.253662109375</ele>
        <time>2023-02-14T13:38:47Z</time>
      </trkpt>
      <trkpt lat="36.02408263718779" lon="119.41334466780727">
        <ele>70.6334228515625</ele>
        <time>2023-02-14T13:38:53Z</time>
      </trkpt>
      <trkpt lat="36.02406572447408" lon="119.41345580973697">
        <ele>72.5035400390625</ele>
        <time>2023-02-14T13:38:59Z</time>
      </trkpt>
      <trkpt lat="36.0241029724566" lon="119.41379323499935">
        <ele>67.237060546875</ele>
        <time>2023-02-14T13:39:17Z</time>
      </trkpt>
      <trkpt lat="36.0241372136963" lon="119.41411464621766">
        <ele>67.56597900390625</ele>
        <time>2023-02-14T13:39:35Z</time>
      </trkpt>
      <trkpt lat="36.02417028305693" lon="119.41421277039203">
        <ele>70.26776123046875</ele>
        <time>2023-02-14T13:39:41Z</time>
      </trkpt>
      <trkpt lat="36.024244303863824" lon="119.41426082492647">
        <ele>67.327392578125</ele>
        <time>2023-02-14T13:39:47Z</time>
      </trkpt>
      <trkpt lat="36.02452621445223" lon="119.41422975271344">
        <ele>65.8125</ele>
        <time>2023-02-14T13:40:05Z</time>
      </trkpt>
      <trkpt lat="36.02482416239168" lon="119.41425074679299">
        <ele>64.90216064453125</ele>
        <time>2023-02-14T13:40:26Z</time>
      </trkpt>
      <trkpt lat="36.025078093654045" lon="119.41423770129002">
        <ele>63.29217529296875</ele>
        <time>2023-02-14T13:40:44Z</time>
      </trkpt>
      <trkpt lat="36.02538301083077" lon="119.41422164615291">
        <ele>63.944580078125</ele>
        <time>2023-02-14T13:41:05Z</time>
      </trkpt>
      <trkpt lat="36.02546700805315" lon="119.41424266421787">
        <ele>63.87469482421875</ele>
        <time>2023-02-14T13:41:11Z</time>
      </trkpt>
      <trkpt lat="36.025445139911874" lon="119.41440287690851">
        <ele>62.54833984375</ele>
        <time>2023-02-14T13:41:26Z</time>
      </trkpt>
      <trkpt lat="36.02547622141589" lon="119.41451402013003">
        <ele>61.17535400390625</ele>
        <time>2023-02-14T13:41:38Z</time>
      </trkpt>
      <trkpt lat="36.025510255305264" lon="119.41456608528168">
        <ele>62.24810791015625</ele>
        <time>2023-02-14T13:41:41Z</time>
      </trkpt>
      <trkpt lat="36.02559727309035" lon="119.41461313799178">
        <ele>60.9351806640625</ele>
        <time>2023-02-14T13:41:47Z</time>
      </trkpt>
      <trkpt lat="36.02589918105815" lon="119.41458506690147">
        <ele>61.0450439453125</ele>
        <time>2023-02-14T13:42:05Z</time>
      </trkpt>
      <trkpt lat="36.026217103874224" lon="119.4145800246017">
        <ele>66.52178955078125</ele>
        <time>2023-02-14T13:42:29Z</time>
      </trkpt>
      <trkpt lat="36.02651002683131" lon="119.41456797580986">
        <ele>60.06689453125</ele>
        <time>2023-02-14T13:42:50Z</time>
      </trkpt>
      <trkpt lat="36.02679896277637" lon="119.41457094738797">
        <ele>65.512451171875</ele>
        <time>2023-02-14T13:43:11Z</time>
      </trkpt>
      <trkpt lat="36.02706491608337" lon="119.41458894147445">
        <ele>67.0860595703125</ele>
        <time>2023-02-14T13:43:29Z</time>
      </trkpt>
      <trkpt lat="36.02712794510165" lon="119.41464300626102">
        <ele>64.682861328125</ele>
        <time>2023-02-14T13:43:35Z</time>
      </trkpt>
      <trkpt lat="36.027155999302195" lon="119.41471810318902">
        <ele>66.52471923828125</ele>
        <time>2023-02-14T13:43:41Z</time>
      </trkpt>
      <trkpt lat="36.02723899481077" lon="119.41473611794599">
        <ele>67.36669921875</ele>
        <time>2023-02-14T13:43:47Z</time>
      </trkpt>
      <trkpt lat="36.027513897571794" lon="119.41469403098954">
        <ele>68.014404296875</ele>
        <time>2023-02-14T13:44:05Z</time>
      </trkpt>
      <trkpt lat="36.02765487487573" lon="119.41470603120304">
        <ele>65.2991943359375</ele>
        <time>2023-02-14T13:44:14Z</time>
      </trkpt>
      <trkpt lat="36.02774288058231" lon="119.4147380641066">
        <ele>65.78314208984375</ele>
        <time>2023-02-14T13:44:20Z</time>
      </trkpt>
      <trkpt lat="36.027875825704356" lon="119.41470800909309">
        <ele>69.4317626953125</ele>
        <time>2023-02-14T13:44:29Z</time>
      </trkpt>
      <trkpt lat="36.02812675912299" lon="119.41469696625686">
        <ele>65.56756591796875</ele>
        <time>2023-02-14T13:44:47Z</time>
      </trkpt>
      <trkpt lat="36.02821175416671" lon="119.41471498076797">
        <ele>62.52862548828125</ele>
        <time>2023-02-14T13:44:53Z</time>
      </trkpt>
      <trkpt lat="36.02824980468945" lon="119.41478807420165">
        <ele>61.93939208984375</ele>
        <time>2023-02-14T13:44:59Z</time>
      </trkpt>
      <trkpt lat="36.02826687007856" lon="119.41487318643094">
        <ele>58.01983642578125</ele>
        <time>2023-02-14T13:45:05Z</time>
      </trkpt>
      <trkpt lat="36.02824401987378" lon="119.41504942664162">
        <ele>53.83746337890625</ele>
        <time>2023-02-14T13:45:14Z</time>
      </trkpt>
      <trkpt lat="36.02826009809528" lon="119.41514855928797">
        <ele>56.7696533203125</ele>
        <time>2023-02-14T13:45:20Z</time>
      </trkpt>
      <trkpt lat="36.0283311058566" lon="119.41517759081374">
        <ele>61.49267578125</ele>
        <time>2023-02-14T13:45:26Z</time>
      </trkpt>
      <trkpt lat="36.02836915288838" lon="119.41524467796371">
        <ele>61.7794189453125</ele>
        <time>2023-02-14T13:45:32Z</time>
      </trkpt>
      <trkpt lat="36.02834148108837" lon="119.41562720714589">
        <ele>59.15496826171875</ele>
        <time>2023-02-14T13:45:56Z</time>
      </trkpt>
      <trkpt lat="36.02833468474961" lon="119.41586353705478">
        <ele>60.94732666015625</ele>
        <time>2023-02-14T13:46:11Z</time>
      </trkpt>
      <trkpt lat="36.028356759136905" lon="119.4159556637458">
        <ele>62.31658935546875</ele>
        <time>2023-02-14T13:46:17Z</time>
      </trkpt>
      <trkpt lat="36.02842278644023" lon="119.41600472533236">
        <ele>63.623779296875</ele>
        <time>2023-02-14T13:46:23Z</time>
      </trkpt>
      <trkpt lat="36.02857872892442" lon="119.41597967262823">
        <ele>64.55633544921875</ele>
        <time>2023-02-14T13:46:35Z</time>
      </trkpt>
      <trkpt lat="36.02885952801346" lon="119.41582141938845">
        <ele>66.55511474609375</ele>
        <time>2023-02-14T13:46:56Z</time>
      </trkpt>
      <trkpt lat="36.02890449105375" lon="119.41579037100405">
        <ele>62.8017578125</ele>
        <time>2023-02-14T13:47:02Z</time>
      </trkpt>
      <trkpt lat="36.02944609849459" lon="119.4154748729398">
        <ele>0.0</ele>
        <time>2023-02-14T13:47:38Z</time>
      </trkpt>
      <trkpt lat="36.02930916290195" lon="119.41551394213732">
        <ele>0.0</ele>
        <time>2023-02-14T13:47:44Z</time>
      </trkpt>
      <trkpt lat="36.02972490750163" lon="119.41532363402648">
        <ele>55.0323486328125</ele>
        <time>2023-02-14T13:47:53Z</time>
      </trkpt>
      <trkpt lat="36.029693958218125" lon="119.41537570885802">
        <ele>61.1279296875</ele>
        <time>2023-02-14T13:47:59Z</time>
      </trkpt>
      <trkpt lat="36.029755951544686" lon="119.41538471427141">
        <ele>67.83636474609375</ele>
        <time>2023-02-14T13:48:05Z</time>
      </trkpt>
      <trkpt lat="36.02990199381755" lon="119.41547482180862">
        <ele>64.2896728515625</ele>
        <time>2023-02-14T13:48:17Z</time>
      </trkpt>
      <trkpt lat="36.029947024055986" lon="119.4155228830351">
        <ele>67.51153564453125</ele>
        <time>2023-02-14T13:48:23Z</time>
      </trkpt>
      <trkpt lat="36.03007506166975" lon="119.41560197804027">
        <ele>72.43695068359375</ele>
        <time>2023-02-14T13:48:35Z</time>
      </trkpt>
      <trkpt lat="36.03020313202248" lon="119.41571912629834">
        <ele>70.6868896484375</ele>
        <time>2023-02-14T13:48:47Z</time>
      </trkpt>
      <trkpt lat="36.03040615913498" lon="119.41580522355707">
        <ele>68.7237548828125</ele>
        <time>2023-02-14T13:49:02Z</time>
      </trkpt>
      <trkpt lat="36.03048214083791" lon="119.41580421363736">
        <ele>67.55767822265625</ele>
        <time>2023-02-14T13:49:08Z</time>
      </trkpt>
      <trkpt lat="36.03055509577287" lon="119.4157711593497">
        <ele>68.2667236328125</ele>
        <time>2023-02-14T13:49:14Z</time>
      </trkpt>
      <trkpt lat="36.03055509577287" lon="119.4157711593497">
        <ele>68.2667236328125</ele>
        <time>2023-02-14T13:49:14Z</time>
      </trkpt>
    </trkseg>
  </trk>
</gpx>