<?xml version="1.0" encoding="UTF-8"?>
<gpx xmlns="http://www.topografix.com/GPX/1/1" xmlns:gpxtpx="http://www.garmin.com/xmlschemas/TrackPointExtension/v1" xmlns:xsi="http://www.w3.org/2001/XMLSchema-instance" xsi:schemaLocation="http://www.topografix.com/GPX/1/1 http://www.topografix.com/GPX/1/1/gpx.xsd" version="1.1" creator="gpx.py -- https://github.com/tkrajina/gpxpy">
  <trk>
    <name>gpx from keep</name>
    <type>Run</type>
    <trkseg>
      <trkpt lat="31.113827996931246" lon="121.37854238157959">
        <ele>18.743896484375</ele>
        <time>2024-07-03T13:16:23Z</time>
      </trkpt>
      <trkpt lat="31.113847368179385" lon="121.37845599704359">
        <ele>16.873017421923578</ele>
        <time>2024-07-03T13:16:30Z</time>
      </trkpt>
      <trkpt lat="31.113894530049766" lon="121.37835058872774">
        <ele>11.27345385402441</ele>
        <time>2024-07-03T13:16:38Z</time>
      </trkpt>
      <trkpt lat="31.11390554635869" lon="121.37822462961716">
        <ele>8.108223066665232</ele>
        <time>2024-07-03T13:16:46Z</time>
      </trkpt>
      <trkpt lat="31.11389210903075" lon="121.37816615636879">
        <ele>9.037371892482042</ele>
        <time>2024-07-03T13:16:50Z</time>
      </trkpt>
      <trkpt lat="31.113956718885525" lon="121.37796617152706">
        <ele>12.648739213123918</ele>
        <time>2024-07-03T13:17:06Z</time>
      </trkpt>
      <trkpt lat="31.113954468894804" lon="121.37785436368802">
        <ele>6.97548365034163</ele>
        <time>2024-07-03T13:17:14Z</time>
      </trkpt>
      <trkpt lat="31.113890851606893" lon="121.3777490624259">
        <ele>7.42072229180485</ele>
        <time>2024-07-03T13:17:18Z</time>
      </trkpt>
      <trkpt lat="31.113853538435396" lon="121.37765331178953">
        <ele>7.591279705055058</ele>
        <time>2024-07-03T13:17:22Z</time>
      </trkpt>
      <trkpt lat="31.113848244650104" lon="121.37750716044663">
        <ele>8.272449801675975</ele>
        <time>2024-07-03T13:17:26Z</time>
      </trkpt>
      <trkpt lat="31.11378357324916" lon="121.3773419224238">
        <ele>8.467576710507274</ele>
        <time>2024-07-03T13:17:32Z</time>
      </trkpt>
      <trkpt lat="31.113765161039698" lon="121.37718918141493">
        <ele>10.026696561835706</ele>
        <time>2024-07-03T13:17:36Z</time>
      </trkpt>
      <trkpt lat="31.113713826367484" lon="121.37711018895125">
        <ele>9.786242838017642</ele>
        <time>2024-07-03T13:17:39Z</time>
      </trkpt>
      <trkpt lat="31.113611579876277" lon="121.37702519431942">
        <ele>11.373053959570825</ele>
        <time>2024-07-03T13:17:43Z</time>
      </trkpt>
      <trkpt lat="31.113599496633313" lon="121.37688549244099">
        <ele>11.5464678555727</ele>
        <time>2024-07-03T13:17:46Z</time>
      </trkpt>
      <trkpt lat="31.113564305246" lon="121.37684116546365">
        <ele>11.391840111464262</ele>
        <time>2024-07-03T13:17:49Z</time>
      </trkpt>
      <trkpt lat="31.11345696261506" lon="121.37682797872577">
        <ele>8.73094324953854</ele>
        <time>2024-07-03T13:17:52Z</time>
      </trkpt>
      <trkpt lat="31.113386504037205" lon="121.37669301831747">
        <ele>12.907531539909542</ele>
        <time>2024-07-03T13:17:56Z</time>
      </trkpt>
      <trkpt lat="31.113272400590194" lon="121.37666790926932">
        <ele>12.130442981608212</ele>
        <time>2024-07-03T13:18:00Z</time>
      </trkpt>
      <trkpt lat="31.113180139120296" lon="121.37658029725357">
        <ele>13.635188174434006</ele>
        <time>2024-07-03T13:18:04Z</time>
      </trkpt>
      <trkpt lat="31.11310055899537" lon="121.37643317520067">
        <ele>6.730390996672213</ele>
        <time>2024-07-03T13:18:11Z</time>
      </trkpt>
      <trkpt lat="31.11305606161206" lon="121.37641790237997">
        <ele>4.630806867964566</ele>
        <time>2024-07-03T13:18:15Z</time>
      </trkpt>
      <trkpt lat="31.112983323779964" lon="121.37635488563924">
        <ele>3.977161204442382</ele>
        <time>2024-07-03T13:18:19Z</time>
      </trkpt>
      <trkpt lat="31.113024826001777" lon="121.3762042354511">
        <ele>7.934181689284742</ele>
        <time>2024-07-03T13:18:30Z</time>
      </trkpt>
      <trkpt lat="31.11298699697222" lon="121.37613798895602">
        <ele>7.3827987145632505</ele>
        <time>2024-07-03T13:18:34Z</time>
      </trkpt>
      <trkpt lat="31.11307434299162" lon="121.37605023630867">
        <ele>9.001066624186933</ele>
        <time>2024-07-03T13:18:42Z</time>
      </trkpt>
      <trkpt lat="31.112994727271364" lon="121.37599545904233">
        <ele>7.729190026409924</ele>
        <time>2024-07-03T13:18:46Z</time>
      </trkpt>
      <trkpt lat="31.11289313304204" lon="121.37588171371176">
        <ele>7.431671970523894</ele>
        <time>2024-07-03T13:18:50Z</time>
      </trkpt>
      <trkpt lat="31.112789489952792" lon="121.37582343088214">
        <ele>9.363625678233802</ele>
        <time>2024-07-03T13:18:54Z</time>
      </trkpt>
      <trkpt lat="31.11271668526324" lon="121.37574207695754">
        <ele>10.330820994451642</ele>
        <time>2024-07-03T13:18:58Z</time>
      </trkpt>
      <trkpt lat="31.112616625171682" lon="121.3756822741654">
        <ele>15.008382541127503</ele>
        <time>2024-07-03T13:19:02Z</time>
      </trkpt>
      <trkpt lat="31.112525780150353" lon="121.37557985665065">
        <ele>16.03581542521715</ele>
        <time>2024-07-03T13:19:06Z</time>
      </trkpt>
      <trkpt lat="31.112420834721203" lon="121.37549263516816">
        <ele>16.713135935366154</ele>
        <time>2024-07-03T13:19:10Z</time>
      </trkpt>
      <trkpt lat="31.112373626495206" lon="121.37542810040758">
        <ele>14.278823206201196</ele>
        <time>2024-07-03T13:19:14Z</time>
      </trkpt>
      <trkpt lat="31.112392097717606" lon="121.37533435146564">
        <ele>14.35400746576488</ele>
        <time>2024-07-03T13:19:18Z</time>
      </trkpt>
      <trkpt lat="31.11215058188492" lon="121.37527491552554">
        <ele>11.058907743543386</ele>
        <time>2024-07-03T13:19:34Z</time>
      </trkpt>
      <trkpt lat="31.111997250844773" lon="121.37507106781437">
        <ele>8.683123044669628</ele>
        <time>2024-07-03T13:19:48Z</time>
      </trkpt>
      <trkpt lat="31.11191338323574" lon="121.37498743635993">
        <ele>8.893937824293971</ele>
        <time>2024-07-03T13:19:51Z</time>
      </trkpt>
      <trkpt lat="31.111803905000407" lon="121.37491783565532">
        <ele>8.030293770134449</ele>
        <time>2024-07-03T13:19:54Z</time>
      </trkpt>
      <trkpt lat="31.11170959363693" lon="121.37480700818061">
        <ele>9.174646007828414</ele>
        <time>2024-07-03T13:19:57Z</time>
      </trkpt>
      <trkpt lat="31.11150772430004" lon="121.37472872599032">
        <ele>9.720940053462982</ele>
        <time>2024-07-03T13:20:03Z</time>
      </trkpt>
      <trkpt lat="31.111461831848143" lon="121.37469409613335">
        <ele>10.193637299351394</ele>
        <time>2024-07-03T13:20:06Z</time>
      </trkpt>
      <trkpt lat="31.111458041313842" lon="121.37461639888603">
        <ele>11.045713420957327</ele>
        <time>2024-07-03T13:20:09Z</time>
      </trkpt>
      <trkpt lat="31.11148049153492" lon="121.37456473388211">
        <ele>10.538914002478123</ele>
        <time>2024-07-03T13:20:18Z</time>
      </trkpt>
      <trkpt lat="31.111578967594564" lon="121.37451263149642">
        <ele>12.873824826441705</ele>
        <time>2024-07-03T13:20:24Z</time>
      </trkpt>
      <trkpt lat="31.111671034525795" lon="121.37451457064834">
        <ele>13.59094210062176</ele>
        <time>2024-07-03T13:20:27Z</time>
      </trkpt>
      <trkpt lat="31.11177237933116" lon="121.37439767390214">
        <ele>13.599808084778488</ele>
        <time>2024-07-03T13:20:34Z</time>
      </trkpt>
      <trkpt lat="31.11179637253832" lon="121.3743336028218">
        <ele>13.002813373692334</ele>
        <time>2024-07-03T13:20:37Z</time>
      </trkpt>
      <trkpt lat="31.112048436028523" lon="121.37410124582198">
        <ele>14.54627578984946</ele>
        <time>2024-07-03T13:20:49Z</time>
      </trkpt>
      <trkpt lat="31.112138784370142" lon="121.37405598792029">
        <ele>15.049518568441272</ele>
        <time>2024-07-03T13:20:52Z</time>
      </trkpt>
      <trkpt lat="31.11222216777471" lon="121.37390477934186">
        <ele>10.175323218107224</ele>
        <time>2024-07-03T13:20:58Z</time>
      </trkpt>
      <trkpt lat="31.11232958251418" lon="121.37386130919472">
        <ele>9.389611933380365</ele>
        <time>2024-07-03T13:21:01Z</time>
      </trkpt>
      <trkpt lat="31.112407110957356" lon="121.37397109519563">
        <ele>7.859749793075025</ele>
        <time>2024-07-03T13:21:04Z</time>
      </trkpt>
      <trkpt lat="31.112651000038433" lon="121.3739058534657">
        <ele>6.29452811460942</ele>
        <time>2024-07-03T13:21:13Z</time>
      </trkpt>
      <trkpt lat="31.112671011868983" lon="121.37381627660164">
        <ele>7.922837985679507</ele>
        <time>2024-07-03T13:21:16Z</time>
      </trkpt>
      <trkpt lat="31.112898401981496" lon="121.37372778300268">
        <ele>8.545352736487985</ele>
        <time>2024-07-03T13:21:25Z</time>
      </trkpt>
      <trkpt lat="31.112967295034867" lon="121.37366832318168">
        <ele>10.629067602567375</ele>
        <time>2024-07-03T13:21:31Z</time>
      </trkpt>
      <trkpt lat="31.11298351496891" lon="121.3735503103343">
        <ele>8.978176491335034</ele>
        <time>2024-07-03T13:21:37Z</time>
      </trkpt>
      <trkpt lat="31.112941288174426" lon="121.37338490539383">
        <ele>8.330470979213715</ele>
        <time>2024-07-03T13:21:46Z</time>
      </trkpt>
      <trkpt lat="31.112957102330473" lon="121.37329657580996">
        <ele>8.997851273044944</ele>
        <time>2024-07-03T13:21:58Z</time>
      </trkpt>
      <trkpt lat="31.113004965704487" lon="121.3732604224981">
        <ele>8.87616471759975</ele>
        <time>2024-07-03T13:22:01Z</time>
      </trkpt>
      <trkpt lat="31.11303477492424" lon="121.373189685944">
        <ele>9.685523312538862</ele>
        <time>2024-07-03T13:22:07Z</time>
      </trkpt>
      <trkpt lat="31.113009868976462" lon="121.37311581976007">
        <ele>9.138903591781855</ele>
        <time>2024-07-03T13:22:13Z</time>
      </trkpt>
      <trkpt lat="31.113016773098774" lon="121.37304881201673">
        <ele>9.337204669602215</ele>
        <time>2024-07-03T13:22:16Z</time>
      </trkpt>
      <trkpt lat="31.112960238470126" lon="121.37296658036476">
        <ele>8.27777080051601</ele>
        <time>2024-07-03T13:22:19Z</time>
      </trkpt>
      <trkpt lat="31.112929676893557" lon="121.37280208944135">
        <ele>5.891023908741772</ele>
        <time>2024-07-03T13:22:25Z</time>
      </trkpt>
      <trkpt lat="31.112828898540727" lon="121.37270329392172">
        <ele>9.556401730515063</ele>
        <time>2024-07-03T13:22:28Z</time>
      </trkpt>
      <trkpt lat="31.112802585982408" lon="121.37259888788304">
        <ele>8.272768398746848</ele>
        <time>2024-07-03T13:22:31Z</time>
      </trkpt>
      <trkpt lat="31.112750654543678" lon="121.3725243536224">
        <ele>7.858252919279039</ele>
        <time>2024-07-03T13:22:34Z</time>
      </trkpt>
      <trkpt lat="31.11266472731484" lon="121.37226351658288">
        <ele>7.646415309980512</ele>
        <time>2024-07-03T13:22:41Z</time>
      </trkpt>
      <trkpt lat="31.112618580162174" lon="121.37221090646017">
        <ele>8.620601806789637</ele>
        <time>2024-07-03T13:22:45Z</time>
      </trkpt>
      <trkpt lat="31.112525887207823" lon="121.37196423105948">
        <ele>9.887847071513534</ele>
        <time>2024-07-03T13:22:51Z</time>
      </trkpt>
      <trkpt lat="31.112434564494325" lon="121.3717983596256">
        <ele>11.832593544386327</ele>
        <time>2024-07-03T13:22:57Z</time>
      </trkpt>
      <trkpt lat="31.112346425758414" lon="121.37172423426475">
        <ele>12.560884162783623</ele>
        <time>2024-07-03T13:23:00Z</time>
      </trkpt>
      <trkpt lat="31.112310376060602" lon="121.37165053714794">
        <ele>11.755363304167986</ele>
        <time>2024-07-03T13:23:03Z</time>
      </trkpt>
      <trkpt lat="31.11232661648017" lon="121.37147490630663">
        <ele>11.468913724645972</ele>
        <time>2024-07-03T13:23:09Z</time>
      </trkpt>
      <trkpt lat="31.112432142369904" lon="121.37138590602544">
        <ele>10.639712923206389</ele>
        <time>2024-07-03T13:23:21Z</time>
      </trkpt>
      <trkpt lat="31.11254043158353" lon="121.37135646318595">
        <ele>9.524107943288982</ele>
        <time>2024-07-03T13:23:33Z</time>
      </trkpt>
      <trkpt lat="31.11256071116004" lon="121.37126165690131">
        <ele>8.7873650835827</ele>
        <time>2024-07-03T13:23:36Z</time>
      </trkpt>
      <trkpt lat="31.112591024371543" lon="121.37120935211304">
        <ele>9.572990521788597</ele>
        <time>2024-07-03T13:23:39Z</time>
      </trkpt>
      <trkpt lat="31.112847532604324" lon="121.37107344486577">
        <ele>11.564885845407844</ele>
        <time>2024-07-03T13:23:57Z</time>
      </trkpt>
      <trkpt lat="31.11298586443581" lon="121.37101249451715">
        <ele>11.473140655085444</ele>
        <time>2024-07-03T13:24:03Z</time>
      </trkpt>
      <trkpt lat="31.113057112086313" lon="121.37101908262552">
        <ele>10.64667497575283</ele>
        <time>2024-07-03T13:24:09Z</time>
      </trkpt>
      <trkpt lat="31.113063931189238" lon="121.37092227010929">
        <ele>9.950534072704613</ele>
        <time>2024-07-03T13:24:18Z</time>
      </trkpt>
      <trkpt lat="31.11340090503755" lon="121.37079416043144">
        <ele>12.107961758971214</ele>
        <time>2024-07-03T13:24:27Z</time>
      </trkpt>
      <trkpt lat="31.113461965080514" lon="121.37080139310582">
        <ele>17.1558986492455</ele>
        <time>2024-07-03T13:24:30Z</time>
      </trkpt>
      <trkpt lat="31.113582393872445" lon="121.37072832461551">
        <ele>15.205224812962115</ele>
        <time>2024-07-03T13:24:36Z</time>
      </trkpt>
      <trkpt lat="31.1136454851113" lon="121.37066539302991">
        <ele>14.154952018521726</ele>
        <time>2024-07-03T13:24:39Z</time>
      </trkpt>
      <trkpt lat="31.113736495889427" lon="121.37063806641767">
        <ele>14.557942343875766</ele>
        <time>2024-07-03T13:24:42Z</time>
      </trkpt>
      <trkpt lat="31.113793428706398" lon="121.37059826174222">
        <ele>14.248606199398637</ele>
        <time>2024-07-03T13:24:46Z</time>
      </trkpt>
      <trkpt lat="31.113848152113388" lon="121.37058922229954">
        <ele>13.153934698551893</ele>
        <time>2024-07-03T13:24:49Z</time>
      </trkpt>
      <trkpt lat="31.114018201308525" lon="121.37048793638884">
        <ele>13.22659801505506</ele>
        <time>2024-07-03T13:25:01Z</time>
      </trkpt>
      <trkpt lat="31.114053149891863" lon="121.37044966483734">
        <ele>14.166813497431576</ele>
        <time>2024-07-03T13:25:04Z</time>
      </trkpt>
      <trkpt lat="31.114314042294833" lon="121.37041385052868">
        <ele>12.031255832873285</ele>
        <time>2024-07-03T13:25:22Z</time>
      </trkpt>
      <trkpt lat="31.11446187957338" lon="121.37031729368897">
        <ele>12.743411293253303</ele>
        <time>2024-07-03T13:25:34Z</time>
      </trkpt>
      <trkpt lat="31.1143750330839" lon="121.37017906226988">
        <ele>12.223514498211443</ele>
        <time>2024-07-03T13:25:46Z</time>
      </trkpt>
      <trkpt lat="31.11429849550127" lon="121.3701452202929">
        <ele>12.611035932786763</ele>
        <time>2024-07-03T13:25:52Z</time>
      </trkpt>
      <trkpt lat="31.114154244699165" lon="121.3698332247846">
        <ele>10.302597312256694</ele>
        <time>2024-07-03T13:26:16Z</time>
      </trkpt>
      <trkpt lat="31.114077602518712" lon="121.36965565453042">
        <ele>8.760638237930834</ele>
        <time>2024-07-03T13:26:28Z</time>
      </trkpt>
      <trkpt lat="31.11404077028345" lon="121.36949214792939">
        <ele>7.53494533803314</ele>
        <time>2024-07-03T13:26:37Z</time>
      </trkpt>
      <trkpt lat="31.113991497476704" lon="121.36945218121906">
        <ele>8.20986451394856</ele>
        <time>2024-07-03T13:26:40Z</time>
      </trkpt>
      <trkpt lat="31.113943663669083" lon="121.36932476972069">
        <ele>9.616794813424349</ele>
        <time>2024-07-03T13:26:49Z</time>
      </trkpt>
      <trkpt lat="31.113925694428204" lon="121.36922671201863">
        <ele>8.336366507224739</ele>
        <time>2024-07-03T13:26:56Z</time>
      </trkpt>
      <trkpt lat="31.11384898080939" lon="121.3690625071432">
        <ele>11.087902620434761</ele>
        <time>2024-07-03T13:27:05Z</time>
      </trkpt>
      <trkpt lat="31.11378731519561" lon="121.36902335963215">
        <ele>11.743997110053897</ele>
        <time>2024-07-03T13:27:11Z</time>
      </trkpt>
      <trkpt lat="31.11378731519561" lon="121.36902335963215">
        <ele>11.743997110053897</ele>
        <time>2024-07-03T13:27:12Z</time>
      </trkpt>
    </trkseg>
  </trk>
</gpx>