<?xml version="1.0" encoding="UTF-8"?>
<gpx xmlns="http://www.topografix.com/GPX/1/1" xmlns:gpxtpx="http://www.garmin.com/xmlschemas/TrackPointExtension/v1" xmlns:xsi="http://www.w3.org/2001/XMLSchema-instance" xsi:schemaLocation="http://www.topografix.com/GPX/1/1 http://www.topografix.com/GPX/1/1/gpx.xsd" version="1.1" creator="gpx.py -- https://github.com/tkrajina/gpxpy">
  <trk>
    <name>gpx from keep</name>
    <type>Run</type>
    <trkseg>
      <trkpt lat="35.974924159576446" lon="119.50794947319596">
        <ele>99.08</ele>
        <time>2020-02-13T10:11:16Z</time>
      </trkpt>
      <trkpt lat="35.97498094372205" lon="119.50787130936497">
        <ele>99.95</ele>
        <time>2020-02-13T10:11:22Z</time>
      </trkpt>
      <trkpt lat="35.97501685815654" lon="119.50778983605746">
        <ele>101.41</ele>
        <time>2020-02-13T10:11:28Z</time>
      </trkpt>
      <trkpt lat="35.97501592315147" lon="119.50770191374683">
        <ele>100.55</ele>
        <time>2020-02-13T10:11:34Z</time>
      </trkpt>
      <trkpt lat="35.97507060701552" lon="119.50762745951577">
        <ele>102.29</ele>
        <time>2020-02-13T10:11:40Z</time>
      </trkpt>
      <trkpt lat="35.97534855684754" lon="119.5074206837658">
        <ele>102.74</ele>
        <time>2020-02-13T10:12:07Z</time>
      </trkpt>
      <trkpt lat="35.97541258971174" lon="119.50736167798486">
        <ele>100.62</ele>
        <time>2020-02-13T10:12:13Z</time>
      </trkpt>
      <trkpt lat="35.97545928956302" lon="119.50717611310795">
        <ele>102.68</ele>
        <time>2020-02-13T10:12:25Z</time>
      </trkpt>
      <trkpt lat="35.97546132171388" lon="119.50676016763519">
        <ele>104.74</ele>
        <time>2020-02-13T10:12:49Z</time>
      </trkpt>
      <trkpt lat="35.97544938937091" lon="119.50641934539352">
        <ele>102.9</ele>
        <time>2020-02-13T10:13:10Z</time>
      </trkpt>
      <trkpt lat="35.97541073848895" lon="119.50604158573977">
        <ele>104.66</ele>
        <time>2020-02-13T10:13:34Z</time>
      </trkpt>
      <trkpt lat="35.975389936598084" lon="119.50566929465663">
        <ele>104.67</ele>
        <time>2020-02-13T10:13:55Z</time>
      </trkpt>
      <trkpt lat="35.97536785261694" lon="119.50532916044654">
        <ele>102.87</ele>
        <time>2020-02-13T10:14:13Z</time>
      </trkpt>
      <trkpt lat="35.97534010992705" lon="119.50494889856066">
        <ele>106.48</ele>
        <time>2020-02-13T10:14:34Z</time>
      </trkpt>
      <trkpt lat="35.97531624675522" lon="119.50456405614365">
        <ele>106.3</ele>
        <time>2020-02-13T10:14:55Z</time>
      </trkpt>
      <trkpt lat="35.9753250758375" lon="119.50434646108992">
        <ele>103.98</ele>
        <time>2020-02-13T10:15:07Z</time>
      </trkpt>
      <trkpt lat="35.97527804957732" lon="119.50401629403896">
        <ele>102.27</ele>
        <time>2020-02-13T10:15:25Z</time>
      </trkpt>
      <trkpt lat="35.975061745647125" lon="119.50389670475157">
        <ele>100.69</ele>
        <time>2020-02-13T10:15:40Z</time>
      </trkpt>
      <trkpt lat="35.97499934645537" lon="119.5038858562668">
        <ele>100.94</ele>
        <time>2020-02-13T10:15:43Z</time>
      </trkpt>
      <trkpt lat="35.974890875759" lon="119.50392024538046">
        <ele>100.48</ele>
        <time>2020-02-13T10:15:49Z</time>
      </trkpt>
      <trkpt lat="35.97467290688614" lon="119.50392534783143">
        <ele>104.28</ele>
        <time>2020-02-13T10:16:01Z</time>
      </trkpt>
      <trkpt lat="35.97461465797905" lon="119.50390668981203">
        <ele>105.69</ele>
        <time>2020-02-13T10:16:04Z</time>
      </trkpt>
      <trkpt lat="35.97432570941903" lon="119.50391483296998">
        <ele>106.76</ele>
        <time>2020-02-13T10:16:19Z</time>
      </trkpt>
      <trkpt lat="35.974262689865284" lon="119.50391326388011">
        <ele>108.21</ele>
        <time>2020-02-13T10:16:22Z</time>
      </trkpt>
      <trkpt lat="35.97407518846037" lon="119.50397749201585">
        <ele>108.59</ele>
        <time>2020-02-13T10:16:31Z</time>
      </trkpt>
      <trkpt lat="35.973950048945646" lon="119.50398446315259">
        <ele>108.74</ele>
        <time>2020-02-13T10:16:37Z</time>
      </trkpt>
      <trkpt lat="35.973897670037935" lon="119.50396504511465">
        <ele>109.86</ele>
        <time>2020-02-13T10:16:40Z</time>
      </trkpt>
      <trkpt lat="35.9736110400559" lon="119.50400843589108">
        <ele>109.26</ele>
        <time>2020-02-13T10:16:58Z</time>
      </trkpt>
      <trkpt lat="35.97333671106435" lon="119.5040250382913">
        <ele>108.71</ele>
        <time>2020-02-13T10:17:13Z</time>
      </trkpt>
      <trkpt lat="35.97304059231779" lon="119.50403881115766">
        <ele>107.85</ele>
        <time>2020-02-13T10:17:28Z</time>
      </trkpt>
      <trkpt lat="35.972746902473375" lon="119.50407949218746">
        <ele>107.88</ele>
        <time>2020-02-13T10:17:46Z</time>
      </trkpt>
      <trkpt lat="35.97246408322171" lon="119.50410368417846">
        <ele>103.45</ele>
        <time>2020-02-13T10:18:04Z</time>
      </trkpt>
      <trkpt lat="35.97216609438442" lon="119.50411985690009">
        <ele>107.26</ele>
        <time>2020-02-13T10:18:22Z</time>
      </trkpt>
      <trkpt lat="35.971813735701325" lon="119.50414037002223">
        <ele>110.51</ele>
        <time>2020-02-13T10:18:46Z</time>
      </trkpt>
      <trkpt lat="35.97172419518925" lon="119.50416641940767">
        <ele>108.06</ele>
        <time>2020-02-13T10:18:52Z</time>
      </trkpt>
      <trkpt lat="35.9714424964634" lon="119.50417730227261">
        <ele>109.95</ele>
        <time>2020-02-13T10:19:10Z</time>
      </trkpt>
      <trkpt lat="35.97118018719708" lon="119.50419852418817">
        <ele>107.72</ele>
        <time>2020-02-13T10:19:25Z</time>
      </trkpt>
      <trkpt lat="35.971114535981684" lon="119.50423802234552">
        <ele>106.55</ele>
        <time>2020-02-13T10:19:28Z</time>
      </trkpt>
      <trkpt lat="35.97096925864246" lon="119.5041946071496">
        <ele>105.22</ele>
        <time>2020-02-13T10:19:34Z</time>
      </trkpt>
      <trkpt lat="35.970828847209646" lon="119.50425053514547">
        <ele>105.81</ele>
        <time>2020-02-13T10:19:40Z</time>
      </trkpt>
      <trkpt lat="35.97062006876545" lon="119.50424362828373">
        <ele>110.67</ele>
        <time>2020-02-13T10:19:49Z</time>
      </trkpt>
      <trkpt lat="35.97032614905786" lon="119.50428009955458">
        <ele>113.93</ele>
        <time>2020-02-13T10:20:01Z</time>
      </trkpt>
      <trkpt lat="35.970174288443" lon="119.50431742894376">
        <ele>112.36</ele>
        <time>2020-02-13T10:20:07Z</time>
      </trkpt>
      <trkpt lat="35.97001162048459" lon="119.50429199276157">
        <ele>109.43</ele>
        <time>2020-02-13T10:20:16Z</time>
      </trkpt>
      <trkpt lat="35.96974409646047" lon="119.50434593989104">
        <ele>112.05</ele>
        <time>2020-02-13T10:20:28Z</time>
      </trkpt>
      <trkpt lat="35.96945008101457" lon="119.50436186514945">
        <ele>113.59</ele>
        <time>2020-02-13T10:20:40Z</time>
      </trkpt>
      <trkpt lat="35.96912420238151" lon="119.50437674828932">
        <ele>116.59</ele>
        <time>2020-02-13T10:20:55Z</time>
      </trkpt>
      <trkpt lat="35.96906314294948" lon="119.5043720393931">
        <ele>114.89</ele>
        <time>2020-02-13T10:20:58Z</time>
      </trkpt>
      <trkpt lat="35.96893673209428" lon="119.5044110383222">
        <ele>116.93</ele>
        <time>2020-02-13T10:21:04Z</time>
      </trkpt>
      <trkpt lat="35.9686482038898" lon="119.50441014206929">
        <ele>117.77</ele>
        <time>2020-02-13T10:21:16Z</time>
      </trkpt>
      <trkpt lat="35.968434965060325" lon="119.50441322458009">
        <ele>117.28</ele>
        <time>2020-02-13T10:21:28Z</time>
      </trkpt>
      <trkpt lat="35.96834054400633" lon="119.50445214309698">
        <ele>115.82</ele>
        <time>2020-02-13T10:21:34Z</time>
      </trkpt>
      <trkpt lat="35.96829485488494" lon="119.50443782467073">
        <ele>115.84</ele>
        <time>2020-02-13T10:21:37Z</time>
      </trkpt>
      <trkpt lat="35.96822118417436" lon="119.50446546369898">
        <ele>115.59</ele>
        <time>2020-02-13T10:21:43Z</time>
      </trkpt>
      <trkpt lat="35.968132395723465" lon="119.50444143649574">
        <ele>113.63</ele>
        <time>2020-02-13T10:21:49Z</time>
      </trkpt>
      <trkpt lat="35.96784353754672" lon="119.50448254841882">
        <ele>116.05</ele>
        <time>2020-02-13T10:22:07Z</time>
      </trkpt>
      <trkpt lat="35.96755444532522" lon="119.50453450741641">
        <ele>118.73</ele>
        <time>2020-02-13T10:22:25Z</time>
      </trkpt>
      <trkpt lat="35.967277686877864" lon="119.5045376607302">
        <ele>117.82</ele>
        <time>2020-02-13T10:22:43Z</time>
      </trkpt>
      <trkpt lat="35.96708235852256" lon="119.50452691397236">
        <ele>116.03</ele>
        <time>2020-02-13T10:22:55Z</time>
      </trkpt>
      <trkpt lat="35.96684870823559" lon="119.50456727414074">
        <ele>117.3</ele>
        <time>2020-02-13T10:23:10Z</time>
      </trkpt>
      <trkpt lat="35.96674356890024" lon="119.50456670552258">
        <ele>117.44</ele>
        <time>2020-02-13T10:23:16Z</time>
      </trkpt>
      <trkpt lat="35.96645871845149" lon="119.50461799556912">
        <ele>118.92</ele>
        <time>2020-02-13T10:23:34Z</time>
      </trkpt>
      <trkpt lat="35.96613463044392" lon="119.50461756973537">
        <ele>119.72</ele>
        <time>2020-02-13T10:23:46Z</time>
      </trkpt>
      <trkpt lat="35.96582027047588" lon="119.50466157065638">
        <ele>118.82</ele>
        <time>2020-02-13T10:23:58Z</time>
      </trkpt>
      <trkpt lat="35.965765381452165" lon="119.5046465924102">
        <ele>118.58</ele>
        <time>2020-02-13T10:24:01Z</time>
      </trkpt>
      <trkpt lat="35.96566397939885" lon="119.5047087593241">
        <ele>118.54</ele>
        <time>2020-02-13T10:24:07Z</time>
      </trkpt>
      <trkpt lat="35.965626087358395" lon="119.5047613060886">
        <ele>120.28</ele>
        <time>2020-02-13T10:24:10Z</time>
      </trkpt>
      <trkpt lat="35.96560781436943" lon="119.5048325712535">
        <ele>120.34</ele>
        <time>2020-02-13T10:24:13Z</time>
      </trkpt>
      <trkpt lat="35.96563516555588" lon="119.50525059060898">
        <ele>119.53</ele>
        <time>2020-02-13T10:24:28Z</time>
      </trkpt>
      <trkpt lat="35.96563963977996" lon="119.50559061519608">
        <ele>120.16</ele>
        <time>2020-02-13T10:24:40Z</time>
      </trkpt>
      <trkpt lat="35.965640088894745" lon="119.50602514185874">
        <ele>122.5</ele>
        <time>2020-02-13T10:24:52Z</time>
      </trkpt>
      <trkpt lat="35.965631863093364" lon="119.50634377686106">
        <ele>124.05</ele>
        <time>2020-02-13T10:25:01Z</time>
      </trkpt>
      <trkpt lat="35.96558572106313" lon="119.50658516806102">
        <ele>123.91</ele>
        <time>2020-02-13T10:25:07Z</time>
      </trkpt>
      <trkpt lat="35.96563071069792" lon="119.50696858603352">
        <ele>121.63</ele>
        <time>2020-02-13T10:25:19Z</time>
      </trkpt>
      <trkpt lat="35.965648279929056" lon="119.50735045368317">
        <ele>122.78</ele>
        <time>2020-02-13T10:25:31Z</time>
      </trkpt>
      <trkpt lat="35.96565872837311" lon="119.50773552034818">
        <ele>124.21</ele>
        <time>2020-02-13T10:25:43Z</time>
      </trkpt>
      <trkpt lat="35.965666777861" lon="119.5079188341557">
        <ele>123.27</ele>
        <time>2020-02-13T10:25:49Z</time>
      </trkpt>
      <trkpt lat="35.9656513143404" lon="119.50798156880462">
        <ele>122.63</ele>
        <time>2020-02-13T10:25:52Z</time>
      </trkpt>
      <trkpt lat="35.96567640116884" lon="119.50837416327727">
        <ele>121.92</ele>
        <time>2020-02-13T10:26:16Z</time>
      </trkpt>
      <trkpt lat="35.96570798077772" lon="119.50870945214423">
        <ele>119.51</ele>
        <time>2020-02-13T10:26:40Z</time>
      </trkpt>
      <trkpt lat="35.965723238487406" lon="119.50906877834105">
        <ele>119.66</ele>
        <time>2020-02-13T10:27:04Z</time>
      </trkpt>
      <trkpt lat="35.96574054515295" lon="119.50943532311848">
        <ele>119.02</ele>
        <time>2020-02-13T10:27:28Z</time>
      </trkpt>
      <trkpt lat="35.965756421594335" lon="119.50979643772536">
        <ele>118.73</ele>
        <time>2020-02-13T10:27:52Z</time>
      </trkpt>
      <trkpt lat="35.96575350878859" lon="119.51013958367409">
        <ele>117.44</ele>
        <time>2020-02-13T10:28:16Z</time>
      </trkpt>
      <trkpt lat="35.96572845276332" lon="119.51023116478926">
        <ele>118.61</ele>
        <time>2020-02-13T10:28:22Z</time>
      </trkpt>
      <trkpt lat="35.96576230824367" lon="119.51058641822786">
        <ele>118.1</ele>
        <time>2020-02-13T10:28:46Z</time>
      </trkpt>
      <trkpt lat="35.96578827998323" lon="119.51084584108735">
        <ele>114.31</ele>
        <time>2020-02-13T10:29:01Z</time>
      </trkpt>
      <trkpt lat="35.96578639171897" lon="119.51096306887925">
        <ele>115.03</ele>
        <time>2020-02-13T10:29:07Z</time>
      </trkpt>
      <trkpt lat="35.96585695210074" lon="119.51109222441774">
        <ele>112.81</ele>
        <time>2020-02-13T10:29:13Z</time>
      </trkpt>
      <trkpt lat="35.96594835057711" lon="119.51110573182845">
        <ele>111.01</ele>
        <time>2020-02-13T10:29:16Z</time>
      </trkpt>
      <trkpt lat="35.96624594004761" lon="119.51108767993435">
        <ele>111.04</ele>
        <time>2020-02-13T10:29:25Z</time>
      </trkpt>
      <trkpt lat="35.96654036931346" lon="119.51107274775019">
        <ele>114.49</ele>
        <time>2020-02-13T10:29:34Z</time>
      </trkpt>
      <trkpt lat="35.96681587907655" lon="119.51105244637048">
        <ele>114.64</ele>
        <time>2020-02-13T10:29:43Z</time>
      </trkpt>
      <trkpt lat="35.967131059589555" lon="119.51101816594974">
        <ele>116.1</ele>
        <time>2020-02-13T10:29:52Z</time>
      </trkpt>
      <trkpt lat="35.96740040123142" lon="119.51097184736815">
        <ele>116.17</ele>
        <time>2020-02-13T10:30:01Z</time>
      </trkpt>
      <trkpt lat="35.96768965968739" lon="119.51096868400785">
        <ele>112.33</ele>
        <time>2020-02-13T10:30:10Z</time>
      </trkpt>
      <trkpt lat="35.96801395019375" lon="119.51093353354543">
        <ele>111.59</ele>
        <time>2020-02-13T10:30:19Z</time>
      </trkpt>
      <trkpt lat="35.968285789405904" lon="119.51092117136707">
        <ele>112.69</ele>
        <time>2020-02-13T10:30:28Z</time>
      </trkpt>
      <trkpt lat="35.96860725744083" lon="119.5109211672639">
        <ele>111.48</ele>
        <time>2020-02-13T10:30:46Z</time>
      </trkpt>
      <trkpt lat="35.96890866474992" lon="119.510933162163">
        <ele>109.0</ele>
        <time>2020-02-13T10:31:04Z</time>
      </trkpt>
      <trkpt lat="35.96908811518021" lon="119.51091155212887">
        <ele>111.99</ele>
        <time>2020-02-13T10:31:19Z</time>
      </trkpt>
      <trkpt lat="35.96923475721542" lon="119.51086999458983">
        <ele>112.65</ele>
        <time>2020-02-13T10:31:31Z</time>
      </trkpt>
      <trkpt lat="35.969525487377354" lon="119.51084244374528">
        <ele>114.18</ele>
        <time>2020-02-13T10:31:52Z</time>
      </trkpt>
      <trkpt lat="35.96987866796553" lon="119.5108033332992">
        <ele>110.79</ele>
        <time>2020-02-13T10:32:16Z</time>
      </trkpt>
      <trkpt lat="35.97018490845601" lon="119.51076962288447">
        <ele>105.99</ele>
        <time>2020-02-13T10:32:34Z</time>
      </trkpt>
      <trkpt lat="35.970575187927324" lon="119.5107430706493">
        <ele>111.07</ele>
        <time>2020-02-13T10:32:46Z</time>
      </trkpt>
      <trkpt lat="35.970916438160685" lon="119.51070984972517">
        <ele>108.5</ele>
        <time>2020-02-13T10:32:58Z</time>
      </trkpt>
      <trkpt lat="35.97123704865185" lon="119.51069899360438">
        <ele>105.27</ele>
        <time>2020-02-13T10:33:10Z</time>
      </trkpt>
      <trkpt lat="35.97158383714728" lon="119.51066581574261">
        <ele>102.62</ele>
        <time>2020-02-13T10:33:22Z</time>
      </trkpt>
      <trkpt lat="35.97186954723331" lon="119.51063944480825">
        <ele>104.78</ele>
        <time>2020-02-13T10:33:31Z</time>
      </trkpt>
      <trkpt lat="35.97215810729748" lon="119.51061309383138">
        <ele>104.7</ele>
        <time>2020-02-13T10:33:43Z</time>
      </trkpt>
      <trkpt lat="35.97244027771817" lon="119.51058211340731">
        <ele>106.11</ele>
        <time>2020-02-13T10:34:01Z</time>
      </trkpt>
      <trkpt lat="35.97273880747152" lon="119.51055928193362">
        <ele>105.15</ele>
        <time>2020-02-13T10:34:19Z</time>
      </trkpt>
      <trkpt lat="35.97302689744168" lon="119.51053420082059">
        <ele>103.46</ele>
        <time>2020-02-13T10:34:37Z</time>
      </trkpt>
      <trkpt lat="35.97332531756427" lon="119.51050594989583">
        <ele>103.68</ele>
        <time>2020-02-13T10:34:55Z</time>
      </trkpt>
      <trkpt lat="35.97362812746465" lon="119.51048048862563">
        <ele>102.71</ele>
        <time>2020-02-13T10:35:13Z</time>
      </trkpt>
      <trkpt lat="35.97392264609726" lon="119.5104741755046">
        <ele>103.49</ele>
        <time>2020-02-13T10:35:31Z</time>
      </trkpt>
      <trkpt lat="35.97422792674187" lon="119.5104375953306">
        <ele>103.89</ele>
        <time>2020-02-13T10:35:49Z</time>
      </trkpt>
      <trkpt lat="35.9745453863176" lon="119.51041545352507">
        <ele>103.8</ele>
        <time>2020-02-13T10:36:07Z</time>
      </trkpt>
      <trkpt lat="35.97478419569287" lon="119.51040324171309">
        <ele>102.7</ele>
        <time>2020-02-13T10:36:22Z</time>
      </trkpt>
      <trkpt lat="35.975075615317884" lon="119.51038266007744">
        <ele>102.04</ele>
        <time>2020-02-13T10:36:40Z</time>
      </trkpt>
      <trkpt lat="35.975353446074806" lon="119.5103466801745">
        <ele>100.87</ele>
        <time>2020-02-13T10:36:55Z</time>
      </trkpt>
      <trkpt lat="35.97540656673957" lon="119.51033216096619">
        <ele>101.43</ele>
        <time>2020-02-13T10:36:58Z</time>
      </trkpt>
      <trkpt lat="35.97554673809298" lon="119.51015190734351">
        <ele>101.46</ele>
        <time>2020-02-13T10:37:10Z</time>
      </trkpt>
      <trkpt lat="35.97558154574533" lon="119.51003467862199">
        <ele>101.25</ele>
        <time>2020-02-13T10:37:16Z</time>
      </trkpt>
      <trkpt lat="35.97556808022343" lon="119.50966520526185">
        <ele>103.44</ele>
        <time>2020-02-13T10:37:34Z</time>
      </trkpt>
      <trkpt lat="35.975556374219366" lon="119.50929373133674">
        <ele>104.89</ele>
        <time>2020-02-13T10:37:52Z</time>
      </trkpt>
      <trkpt lat="35.97559377585336" lon="119.50894572383916">
        <ele>103.37</ele>
        <time>2020-02-13T10:38:10Z</time>
      </trkpt>
      <trkpt lat="35.97553805635714" lon="119.50861696510742">
        <ele>102.99</ele>
        <time>2020-02-13T10:38:28Z</time>
      </trkpt>
      <trkpt lat="35.97552108953912" lon="119.50823073047387">
        <ele>107.47</ele>
        <time>2020-02-13T10:38:49Z</time>
      </trkpt>
      <trkpt lat="35.975504164199265" lon="119.50806454469695">
        <ele>107.9</ele>
        <time>2020-02-13T10:38:58Z</time>
      </trkpt>
      <trkpt lat="35.97547211296712" lon="119.50796663865988">
        <ele>106.28</ele>
        <time>2020-02-13T10:39:04Z</time>
      </trkpt>
      <trkpt lat="35.97543942126587" lon="119.50792938684529">
        <ele>106.68</ele>
        <time>2020-02-13T10:39:07Z</time>
      </trkpt>
      <trkpt lat="35.97541389695813" lon="119.50788526947528">
        <ele>105.19</ele>
        <time>2020-02-13T10:39:10Z</time>
      </trkpt>
      <trkpt lat="35.97535469508147" lon="119.50780758018136">
        <ele>103.45</ele>
        <time>2020-02-13T10:39:16Z</time>
      </trkpt>
      <trkpt lat="35.97533730372506" lon="119.50765697354367">
        <ele>102.74</ele>
        <time>2020-02-13T10:39:46Z</time>
      </trkpt>
      <trkpt lat="35.97529253671096" lon="119.50760874829768">
        <ele>104.52</ele>
        <time>2020-02-13T10:39:52Z</time>
      </trkpt>
      <trkpt lat="35.97521363639536" lon="119.50762294807713">
        <ele>105.11</ele>
        <time>2020-02-13T10:39:58Z</time>
      </trkpt>
      <trkpt lat="35.97514839113462" lon="119.50772325019314">
        <ele>102.14</ele>
        <time>2020-02-13T10:40:13Z</time>
      </trkpt>
      <trkpt lat="35.97512901534404" lon="119.50782714135256">
        <ele>101.54</ele>
        <time>2020-02-13T10:40:19Z</time>
      </trkpt>
    </trkseg>
  </trk>
</gpx>