<?xml version="1.0" encoding="UTF-8"?>
<gpx xmlns="http://www.topografix.com/GPX/1/1" xmlns:gpxtpx="http://www.garmin.com/xmlschemas/TrackPointExtension/v1" xmlns:xsi="http://www.w3.org/2001/XMLSchema-instance" xsi:schemaLocation="http://www.topografix.com/GPX/1/1 http://www.topografix.com/GPX/1/1/gpx.xsd" version="1.1" creator="gpx.py -- https://github.com/tkrajina/gpxpy">
  <trk>
    <name>gpx from keep</name>
    <type>Run</type>
    <trkseg>
      <trkpt lat="31.472889450323194" lon="120.25376231901137">
        <ele>8.372467041015625</ele>
        <time>2024-10-14T13:33:29Z</time>
      </trkpt>
      <trkpt lat="31.472872870743576" lon="120.25382951647103">
        <ele>13.578826981596649</ele>
        <time>2024-10-14T13:33:48Z</time>
      </trkpt>
      <trkpt lat="31.472825275626473" lon="120.2538604626419">
        <ele>12.700653183273971</ele>
        <time>2024-10-14T13:33:54Z</time>
      </trkpt>
      <trkpt lat="31.47269133525808" lon="120.25379115194804">
        <ele>7.128036376088858</ele>
        <time>2024-10-14T13:33:57Z</time>
      </trkpt>
      <trkpt lat="31.472353825574896" lon="120.25372976065397">
        <ele>7.937996859662235</ele>
        <time>2024-10-14T13:34:09Z</time>
      </trkpt>
      <trkpt lat="31.47211258950394" lon="120.2536909709167">
        <ele>7.005019260570407</ele>
        <time>2024-10-14T13:34:18Z</time>
      </trkpt>
      <trkpt lat="31.471918572194248" lon="120.25370448229981">
        <ele>9.42943515162915</ele>
        <time>2024-10-14T13:34:24Z</time>
      </trkpt>
      <trkpt lat="31.471857657950014" lon="120.25379275518874">
        <ele>8.502040250226855</ele>
        <time>2024-10-14T13:34:27Z</time>
      </trkpt>
      <trkpt lat="31.47177245441574" lon="120.25384758288025">
        <ele>8.824408018030226</ele>
        <time>2024-10-14T13:34:30Z</time>
      </trkpt>
      <trkpt lat="31.471721204702437" lon="120.25394037311153">
        <ele>8.451848052442074</ele>
        <time>2024-10-14T13:34:33Z</time>
      </trkpt>
      <trkpt lat="31.47167734757491" lon="120.25414951726194">
        <ele>7.871220737695694</ele>
        <time>2024-10-14T13:34:39Z</time>
      </trkpt>
      <trkpt lat="31.471726702634218" lon="120.25438080242375">
        <ele>7.100049030035734</ele>
        <time>2024-10-14T13:34:45Z</time>
      </trkpt>
      <trkpt lat="31.471870844376774" lon="120.25455666134818">
        <ele>7.189523222856224</ele>
        <time>2024-10-14T13:34:51Z</time>
      </trkpt>
      <trkpt lat="31.47196012593284" lon="120.25458875500682">
        <ele>7.6964159067720175</ele>
        <time>2024-10-14T13:34:54Z</time>
      </trkpt>
      <trkpt lat="31.472037716159253" lon="120.25459150573657">
        <ele>10.037098737433553</ele>
        <time>2024-10-14T13:34:57Z</time>
      </trkpt>
      <trkpt lat="31.472357644743557" lon="120.25465558115324">
        <ele>9.430682898499072</ele>
        <time>2024-10-14T13:35:09Z</time>
      </trkpt>
      <trkpt lat="31.472514049650066" lon="120.25467552953486">
        <ele>8.376910309307277</ele>
        <time>2024-10-14T13:35:15Z</time>
      </trkpt>
      <trkpt lat="31.472578166898554" lon="120.25470042518782">
        <ele>7.945870473049581</ele>
        <time>2024-10-14T13:35:18Z</time>
      </trkpt>
      <trkpt lat="31.4726600326484" lon="120.25468047002896">
        <ele>8.143129982985556</ele>
        <time>2024-10-14T13:35:21Z</time>
      </trkpt>
      <trkpt lat="31.472809443291982" lon="120.25469844842216">
        <ele>6.4693023562431335</ele>
        <time>2024-10-14T13:35:27Z</time>
      </trkpt>
      <trkpt lat="31.472895581490157" lon="120.25466702982895">
        <ele>7.310273230075836</ele>
        <time>2024-10-14T13:35:30Z</time>
      </trkpt>
      <trkpt lat="31.473054214625538" lon="120.25449758162723">
        <ele>8.312718300148845</ele>
        <time>2024-10-14T13:35:37Z</time>
      </trkpt>
      <trkpt lat="31.473098022023294" lon="120.25440537415855">
        <ele>9.518374750390649</ele>
        <time>2024-10-14T13:35:40Z</time>
      </trkpt>
      <trkpt lat="31.47312059816774" lon="120.25421481833256">
        <ele>10.005753193050623</ele>
        <time>2024-10-14T13:35:46Z</time>
      </trkpt>
      <trkpt lat="31.473104220086903" lon="120.25411795577656">
        <ele>10.798651170916855</ele>
        <time>2024-10-14T13:35:49Z</time>
      </trkpt>
      <trkpt lat="31.473072867110243" lon="120.2540359843717">
        <ele>9.642241676338017</ele>
        <time>2024-10-14T13:35:52Z</time>
      </trkpt>
      <trkpt lat="31.472972529327357" lon="120.2539229617997">
        <ele>10.475175578147173</ele>
        <time>2024-10-14T13:35:58Z</time>
      </trkpt>
      <trkpt lat="31.472823403387952" lon="120.25384361959242">
        <ele>7.756487459875643</ele>
        <time>2024-10-14T13:36:04Z</time>
      </trkpt>
      <trkpt lat="31.47252888356645" lon="120.25377853349568">
        <ele>7.994846063666046</ele>
        <time>2024-10-14T13:36:16Z</time>
      </trkpt>
      <trkpt lat="31.47245043071779" lon="120.25378177799733">
        <ele>7.459427711553872</ele>
        <time>2024-10-14T13:36:19Z</time>
      </trkpt>
      <trkpt lat="31.472390343277628" lon="120.25374261606743">
        <ele>8.807720892131329</ele>
        <time>2024-10-14T13:36:22Z</time>
      </trkpt>
      <trkpt lat="31.472229960465846" lon="120.25371182459745">
        <ele>9.02899703104049</ele>
        <time>2024-10-14T13:36:28Z</time>
      </trkpt>
      <trkpt lat="31.472155794564717" lon="120.25371369261009">
        <ele>9.246711011044681</ele>
        <time>2024-10-14T13:36:31Z</time>
      </trkpt>
      <trkpt lat="31.472075629521463" lon="120.25367896358178">
        <ele>8.179555354639888</ele>
        <time>2024-10-14T13:36:34Z</time>
      </trkpt>
      <trkpt lat="31.471997330964125" lon="120.25368565152156">
        <ele>7.665516247972846</ele>
        <time>2024-10-14T13:36:37Z</time>
      </trkpt>
      <trkpt lat="31.471853312388596" lon="120.25376359030557">
        <ele>8.834361099638045</ele>
        <time>2024-10-14T13:36:43Z</time>
      </trkpt>
      <trkpt lat="31.471773339873362" lon="120.25383130492457">
        <ele>11.390962631441653</ele>
        <time>2024-10-14T13:36:46Z</time>
      </trkpt>
      <trkpt lat="31.471729829025033" lon="120.25392083822094">
        <ele>11.318620862439275</ele>
        <time>2024-10-14T13:36:49Z</time>
      </trkpt>
      <trkpt lat="31.4716675952361" lon="120.25411376312265">
        <ele>10.382185077294707</ele>
        <time>2024-10-14T13:36:55Z</time>
      </trkpt>
      <trkpt lat="31.471663681679285" lon="120.25421461050881">
        <ele>9.555282424204051</ele>
        <time>2024-10-14T13:36:58Z</time>
      </trkpt>
      <trkpt lat="31.47169983112962" lon="120.25429443814674">
        <ele>9.723873656243086</ele>
        <time>2024-10-14T13:37:01Z</time>
      </trkpt>
      <trkpt lat="31.47187047895754" lon="120.2544942027736">
        <ele>10.211109437979758</ele>
        <time>2024-10-14T13:37:10Z</time>
      </trkpt>
      <trkpt lat="31.472005202683047" lon="120.25454292518563">
        <ele>7.677414961159229</ele>
        <time>2024-10-14T13:37:16Z</time>
      </trkpt>
      <trkpt lat="31.472150709874054" lon="120.25454929937631">
        <ele>8.329367312602699</ele>
        <time>2024-10-14T13:37:22Z</time>
      </trkpt>
      <trkpt lat="31.472209893472133" lon="120.25458249361715">
        <ele>8.519660748541355</ele>
        <time>2024-10-14T13:37:25Z</time>
      </trkpt>
      <trkpt lat="31.47229120852828" lon="120.25457976175068">
        <ele>8.300361664034426</ele>
        <time>2024-10-14T13:37:28Z</time>
      </trkpt>
      <trkpt lat="31.47236104837002" lon="120.25461278536118">
        <ele>8.804110378958285</ele>
        <time>2024-10-14T13:37:31Z</time>
      </trkpt>
      <trkpt lat="31.47250450201403" lon="120.25462451781593">
        <ele>7.642932123504579</ele>
        <time>2024-10-14T13:37:37Z</time>
      </trkpt>
      <trkpt lat="31.47266729821781" lon="120.25466738642733">
        <ele>7.121663394384086</ele>
        <time>2024-10-14T13:37:44Z</time>
      </trkpt>
      <trkpt lat="31.472904164892345" lon="120.25462030999655">
        <ele>6.175219854339957</ele>
        <time>2024-10-14T13:37:53Z</time>
      </trkpt>
      <trkpt lat="31.47297414849282" lon="120.25458242058167">
        <ele>5.720609157346189</ele>
        <time>2024-10-14T13:37:56Z</time>
      </trkpt>
      <trkpt lat="31.473021776054377" lon="120.25450496276987">
        <ele>7.291069351136684</ele>
        <time>2024-10-14T13:37:59Z</time>
      </trkpt>
      <trkpt lat="31.47304330797756" lon="120.25443766400898">
        <ele>7.402699300087988</ele>
        <time>2024-10-14T13:38:02Z</time>
      </trkpt>
      <trkpt lat="31.473094595346534" lon="120.25438225720121">
        <ele>8.080518291331828</ele>
        <time>2024-10-14T13:38:05Z</time>
      </trkpt>
      <trkpt lat="31.47312825171336" lon="120.25430209932243">
        <ele>8.417769130319357</ele>
        <time>2024-10-14T13:38:08Z</time>
      </trkpt>
      <trkpt lat="31.47311244851824" lon="120.25412384169604">
        <ele>9.744823400862515</ele>
        <time>2024-10-14T13:38:14Z</time>
      </trkpt>
      <trkpt lat="31.473037862000254" lon="120.25398711409689">
        <ele>9.776506831869483</ele>
        <time>2024-10-14T13:38:20Z</time>
      </trkpt>
      <trkpt lat="31.472873731684796" lon="120.25384903508485">
        <ele>8.142512519843876</ele>
        <time>2024-10-14T13:38:29Z</time>
      </trkpt>
      <trkpt lat="31.472670561065357" lon="120.25380261132875">
        <ele>9.672065938822925</ele>
        <time>2024-10-14T13:38:38Z</time>
      </trkpt>
      <trkpt lat="31.472598903598442" lon="120.2538010550779">
        <ele>8.995379392057657</ele>
        <time>2024-10-14T13:38:41Z</time>
      </trkpt>
      <trkpt lat="31.472287975601894" lon="120.25372705280218">
        <ele>8.791611917316914</ele>
        <time>2024-10-14T13:38:53Z</time>
      </trkpt>
      <trkpt lat="31.471955091160478" lon="120.25368503655065">
        <ele>8.891137116588652</ele>
        <time>2024-10-14T13:39:05Z</time>
      </trkpt>
      <trkpt lat="31.4718827885389" lon="120.25371343656946">
        <ele>8.571628274396062</ele>
        <time>2024-10-14T13:39:08Z</time>
      </trkpt>
      <trkpt lat="31.47174828732411" lon="120.25384606763492">
        <ele>8.283938652835786</ele>
        <time>2024-10-14T13:39:14Z</time>
      </trkpt>
      <trkpt lat="31.47170173299501" lon="120.25393703939105">
        <ele>7.69814361911267</ele>
        <time>2024-10-14T13:39:17Z</time>
      </trkpt>
      <trkpt lat="31.471679826206643" lon="120.25403388446216">
        <ele>8.054615902714431</ele>
        <time>2024-10-14T13:39:20Z</time>
      </trkpt>
      <trkpt lat="31.471682662579695" lon="120.25422851248966">
        <ele>6.871431269682944</ele>
        <time>2024-10-14T13:39:26Z</time>
      </trkpt>
      <trkpt lat="31.471711206057172" lon="120.25434181622214">
        <ele>7.171927090734243</ele>
        <time>2024-10-14T13:39:29Z</time>
      </trkpt>
      <trkpt lat="31.471819233222398" lon="120.25447930602715">
        <ele>8.34923841431737</ele>
        <time>2024-10-14T13:39:35Z</time>
      </trkpt>
      <trkpt lat="31.472027163776595" lon="120.25457692920628">
        <ele>6.48903504665941</ele>
        <time>2024-10-14T13:39:44Z</time>
      </trkpt>
      <trkpt lat="31.47234485441934" lon="120.25461571642636">
        <ele>8.581165150739253</ele>
        <time>2024-10-14T13:39:55Z</time>
      </trkpt>
      <trkpt lat="31.472567387786402" lon="120.25465991726757">
        <ele>8.508262331597507</ele>
        <time>2024-10-14T13:40:03Z</time>
      </trkpt>
      <trkpt lat="31.472786931059435" lon="120.25468494187861">
        <ele>7.281909731216729</ele>
        <time>2024-10-14T13:40:11Z</time>
      </trkpt>
      <trkpt lat="31.472988627260303" lon="120.25459226680492">
        <ele>7.761876288801432</ele>
        <time>2024-10-14T13:40:19Z</time>
      </trkpt>
      <trkpt lat="31.47310966260147" lon="120.25437290995195">
        <ele>9.447014711797237</ele>
        <time>2024-10-14T13:40:28Z</time>
      </trkpt>
      <trkpt lat="31.47315137485731" lon="120.25420624563625">
        <ele>9.935142486356199</ele>
        <time>2024-10-14T13:40:34Z</time>
      </trkpt>
      <trkpt lat="31.473139690267978" lon="120.25412727868665">
        <ele>9.562243424355984</ele>
        <time>2024-10-14T13:40:37Z</time>
      </trkpt>
      <trkpt lat="31.473048863893556" lon="120.25396833811793">
        <ele>10.07569391746074</ele>
        <time>2024-10-14T13:40:43Z</time>
      </trkpt>
      <trkpt lat="31.472996138816214" lon="120.25390980262">
        <ele>9.540860151872039</ele>
        <time>2024-10-14T13:40:46Z</time>
      </trkpt>
      <trkpt lat="31.472875112244104" lon="120.25383223185851">
        <ele>8.951999274082482</ele>
        <time>2024-10-14T13:40:52Z</time>
      </trkpt>
      <trkpt lat="31.472708248233964" lon="120.25381213188668">
        <ele>9.772604450583458</ele>
        <time>2024-10-14T13:40:58Z</time>
      </trkpt>
      <trkpt lat="31.472636155076483" lon="120.25378396424482">
        <ele>9.639682068489492</ele>
        <time>2024-10-14T13:41:01Z</time>
      </trkpt>
      <trkpt lat="31.472374405312827" lon="120.2537566702009">
        <ele>7.346765412949026</ele>
        <time>2024-10-14T13:41:13Z</time>
      </trkpt>
      <trkpt lat="31.472103518119273" lon="120.25368516415699">
        <ele>8.287791987881064</ele>
        <time>2024-10-14T13:41:25Z</time>
      </trkpt>
      <trkpt lat="31.471963046195807" lon="120.25368196195785">
        <ele>8.78515044786036</ele>
        <time>2024-10-14T13:41:31Z</time>
      </trkpt>
      <trkpt lat="31.471910045008833" lon="120.25370001435364">
        <ele>8.387841138988733</ele>
        <time>2024-10-14T13:41:34Z</time>
      </trkpt>
      <trkpt lat="31.471742497537623" lon="120.25385557971079">
        <ele>7.202950457111001</ele>
        <time>2024-10-14T13:41:43Z</time>
      </trkpt>
      <trkpt lat="31.471662411058293" lon="120.25403061199654">
        <ele>7.292945925146341</ele>
        <time>2024-10-14T13:41:49Z</time>
      </trkpt>
      <trkpt lat="31.471673297573407" lon="120.25423487828442">
        <ele>5.731957155279815</ele>
        <time>2024-10-14T13:41:56Z</time>
      </trkpt>
      <trkpt lat="31.47171011543265" lon="120.25435236020255">
        <ele>6.246516638435423</ele>
        <time>2024-10-14T13:42:00Z</time>
      </trkpt>
      <trkpt lat="31.471784302384297" lon="120.25445183218338">
        <ele>6.949001209810376</ele>
        <time>2024-10-14T13:42:04Z</time>
      </trkpt>
      <trkpt lat="31.47186107188574" lon="120.25451398627337">
        <ele>7.207943770103157</ele>
        <time>2024-10-14T13:42:08Z</time>
      </trkpt>
      <trkpt lat="31.471961821028817" lon="120.25455542896465">
        <ele>6.594800038263202</ele>
        <time>2024-10-14T13:42:12Z</time>
      </trkpt>
      <trkpt lat="31.472276847644466" lon="120.25460473950875">
        <ele>8.92767727188766</ele>
        <time>2024-10-14T13:42:24Z</time>
      </trkpt>
      <trkpt lat="31.47252695043381" lon="120.254646463601">
        <ele>10.33388050738722</ele>
        <time>2024-10-14T13:42:33Z</time>
      </trkpt>
      <trkpt lat="31.472675836954984" lon="120.25469250017173">
        <ele>8.956831051036716</ele>
        <time>2024-10-14T13:42:39Z</time>
      </trkpt>
      <trkpt lat="31.47274983524817" lon="120.25468809347429">
        <ele>8.07491356227547</ele>
        <time>2024-10-14T13:42:42Z</time>
      </trkpt>
      <trkpt lat="31.47296928779774" lon="120.25460131889143">
        <ele>7.3421713430434465</ele>
        <time>2024-10-14T13:42:51Z</time>
      </trkpt>
      <trkpt lat="31.473106192797484" lon="120.25440196356364">
        <ele>5.954225467517972</ele>
        <time>2024-10-14T13:43:00Z</time>
      </trkpt>
      <trkpt lat="31.473129012520424" lon="120.25425220931255">
        <ele>7.998005621135235</ele>
        <time>2024-10-14T13:43:06Z</time>
      </trkpt>
      <trkpt lat="31.473121558491812" lon="120.25410308953381">
        <ele>7.511976342648268</ele>
        <time>2024-10-14T13:43:12Z</time>
      </trkpt>
      <trkpt lat="31.472977181728282" lon="120.25390539590047">
        <ele>7.385287897661328</ele>
        <time>2024-10-14T13:43:21Z</time>
      </trkpt>
      <trkpt lat="31.472916371082583" lon="120.25391237369632">
        <ele>9.210633060894907</ele>
        <time>2024-10-14T13:43:24Z</time>
      </trkpt>
      <trkpt lat="31.472852366215765" lon="120.2538651930865">
        <ele>8.581294872798026</ele>
        <time>2024-10-14T13:43:27Z</time>
      </trkpt>
      <trkpt lat="31.472768377886137" lon="120.25385959571858">
        <ele>10.886987646110356</ele>
        <time>2024-10-14T13:43:30Z</time>
      </trkpt>
      <trkpt lat="31.47248903354596" lon="120.25378447151012">
        <ele>10.48016706481576</ele>
        <time>2024-10-14T13:43:42Z</time>
      </trkpt>
      <trkpt lat="31.47216533797053" lon="120.25371718602275">
        <ele>8.882401248440146</ele>
        <time>2024-10-14T13:43:57Z</time>
      </trkpt>
      <trkpt lat="31.471973261597473" lon="120.25372050211348">
        <ele>9.757868055254221</ele>
        <time>2024-10-14T13:44:05Z</time>
      </trkpt>
      <trkpt lat="31.47188600085536" lon="120.25375692699225">
        <ele>7.945167200639844</ele>
        <time>2024-10-14T13:44:09Z</time>
      </trkpt>
      <trkpt lat="31.471726558934012" lon="120.25394149843962">
        <ele>9.445927039720118</ele>
        <time>2024-10-14T13:44:17Z</time>
      </trkpt>
      <trkpt lat="31.47167488814141" lon="120.25403971936512">
        <ele>9.293622362427413</ele>
        <time>2024-10-14T13:44:21Z</time>
      </trkpt>
      <trkpt lat="31.471649817533056" lon="120.25416818816211">
        <ele>9.49426468461752</ele>
        <time>2024-10-14T13:44:25Z</time>
      </trkpt>
      <trkpt lat="31.471662441775013" lon="120.25428929633875">
        <ele>8.723547634668648</ele>
        <time>2024-10-14T13:44:29Z</time>
      </trkpt>
      <trkpt lat="31.471772936038583" lon="120.25448007589065">
        <ele>8.69550339691341</ele>
        <time>2024-10-14T13:44:37Z</time>
      </trkpt>
      <trkpt lat="31.471926872853388" lon="120.25460156961024">
        <ele>9.300846018828452</ele>
        <time>2024-10-14T13:44:44Z</time>
      </trkpt>
      <trkpt lat="31.472133831451796" lon="120.25461466986573">
        <ele>9.569592820480466</ele>
        <time>2024-10-14T13:44:53Z</time>
      </trkpt>
      <trkpt lat="31.472451835631496" lon="120.25467168445334">
        <ele>8.99126752000302</ele>
        <time>2024-10-14T13:45:05Z</time>
      </trkpt>
      <trkpt lat="31.47259980034688" lon="120.25467989210156">
        <ele>9.595938275568187</ele>
        <time>2024-10-14T13:45:11Z</time>
      </trkpt>
      <trkpt lat="31.47264915740452" lon="120.25471201411342">
        <ele>9.403249761089683</ele>
        <time>2024-10-14T13:45:14Z</time>
      </trkpt>
      <trkpt lat="31.47272251169812" lon="120.25470773014914">
        <ele>8.933863630518317</ele>
        <time>2024-10-14T13:45:17Z</time>
      </trkpt>
      <trkpt lat="31.472807128889162" lon="120.2546591617109">
        <ele>9.146691768430173</ele>
        <time>2024-10-14T13:45:20Z</time>
      </trkpt>
      <trkpt lat="31.472895463602164" lon="120.25468675357008">
        <ele>8.976400678046048</ele>
        <time>2024-10-14T13:45:23Z</time>
      </trkpt>
      <trkpt lat="31.473092031726473" lon="120.25452280374826">
        <ele>7.98985692858696</ele>
        <time>2024-10-14T13:45:32Z</time>
      </trkpt>
      <trkpt lat="31.473152705686182" lon="120.25436996444368">
        <ele>8.3085345486179</ele>
        <time>2024-10-14T13:45:38Z</time>
      </trkpt>
      <trkpt lat="31.473153082862517" lon="120.25418262056603">
        <ele>9.699998885393143</ele>
        <time>2024-10-14T13:45:44Z</time>
      </trkpt>
      <trkpt lat="31.473061409448356" lon="120.25396829777524">
        <ele>7.9311311058700085</ele>
        <time>2024-10-14T13:45:53Z</time>
      </trkpt>
      <trkpt lat="31.47301371223816" lon="120.2539039350294">
        <ele>8.618241785094142</ele>
        <time>2024-10-14T13:45:56Z</time>
      </trkpt>
      <trkpt lat="31.472938422451882" lon="120.25388909216935">
        <ele>6.87089650798589</ele>
        <time>2024-10-14T13:45:59Z</time>
      </trkpt>
      <trkpt lat="31.472876648697234" lon="120.25385252234085">
        <ele>7.172668756917119</ele>
        <time>2024-10-14T13:46:02Z</time>
      </trkpt>
      <trkpt lat="31.47271579379892" lon="120.2538308688128">
        <ele>7.134792671538889</ele>
        <time>2024-10-14T13:46:09Z</time>
      </trkpt>
      <trkpt lat="31.472619382669293" lon="120.25378535386078">
        <ele>7.918462461791933</ele>
        <time>2024-10-14T13:46:13Z</time>
      </trkpt>
      <trkpt lat="31.472458758965647" lon="120.25375898668402">
        <ele>7.734630887396634</ele>
        <time>2024-10-14T13:46:21Z</time>
      </trkpt>
      <trkpt lat="31.472371482280405" lon="120.25372129380034">
        <ele>6.213897429406643</ele>
        <time>2024-10-14T13:46:25Z</time>
      </trkpt>
      <trkpt lat="31.472042660450203" lon="120.2536932694228">
        <ele>7.282708154991269</ele>
        <time>2024-10-14T13:46:41Z</time>
      </trkpt>
      <trkpt lat="31.471908969690464" lon="120.25370592355021">
        <ele>8.35671946592629</ele>
        <time>2024-10-14T13:46:47Z</time>
      </trkpt>
      <trkpt lat="31.471743656653036" lon="120.25386450688593">
        <ele>8.407436070032418</ele>
        <time>2024-10-14T13:46:56Z</time>
      </trkpt>
      <trkpt lat="31.47167646140524" lon="120.25400680228746">
        <ele>7.823118475265801</ele>
        <time>2024-10-14T13:47:02Z</time>
      </trkpt>
      <trkpt lat="31.47165434389554" lon="120.25425163379583">
        <ele>6.654045608825982</ele>
        <time>2024-10-14T13:47:11Z</time>
      </trkpt>
      <trkpt lat="31.471670279430768" lon="120.25433269958549">
        <ele>7.172342048957944</ele>
        <time>2024-10-14T13:47:14Z</time>
      </trkpt>
      <trkpt lat="31.471744443687616" lon="120.25445764186576">
        <ele>7.557925490662456</ele>
        <time>2024-10-14T13:47:20Z</time>
      </trkpt>
      <trkpt lat="31.4718001366356" lon="120.25451200993803">
        <ele>7.758671568706632</ele>
        <time>2024-10-14T13:47:23Z</time>
      </trkpt>
      <trkpt lat="31.4718703730471" lon="120.25452829345511">
        <ele>7.088948386721313</ele>
        <time>2024-10-14T13:47:26Z</time>
      </trkpt>
      <trkpt lat="31.471928964650196" lon="120.25457588883002">
        <ele>7.301176503300667</ele>
        <time>2024-10-14T13:47:29Z</time>
      </trkpt>
      <trkpt lat="31.472006303097164" lon="120.25458853132692">
        <ele>7.648633200675249</ele>
        <time>2024-10-14T13:47:32Z</time>
      </trkpt>
      <trkpt lat="31.472095175090836" lon="120.25457811962846">
        <ele>8.192986614070833</ele>
        <time>2024-10-14T13:47:35Z</time>
      </trkpt>
      <trkpt lat="31.472224498203133" lon="120.25460842194755">
        <ele>9.67097161244601</ele>
        <time>2024-10-14T13:47:41Z</time>
      </trkpt>
      <trkpt lat="31.47227500672015" lon="120.25464445159432">
        <ele>10.10917592793703</ele>
        <time>2024-10-14T13:47:44Z</time>
      </trkpt>
      <trkpt lat="31.47242487890057" lon="120.25465620304895">
        <ele>9.751395287923515</ele>
        <time>2024-10-14T13:47:50Z</time>
      </trkpt>
      <trkpt lat="31.472627994044583" lon="120.25471082637749">
        <ele>9.595694151706994</ele>
        <time>2024-10-14T13:47:59Z</time>
      </trkpt>
      <trkpt lat="31.472805411854942" lon="120.25470149828243">
        <ele>6.75098804011941</ele>
        <time>2024-10-14T13:48:05Z</time>
      </trkpt>
      <trkpt lat="31.472963312089913" lon="120.25463405146725">
        <ele>6.5599283296614885</ele>
        <time>2024-10-14T13:48:11Z</time>
      </trkpt>
      <trkpt lat="31.473124938874953" lon="120.25442189417022">
        <ele>8.048062319867313</ele>
        <time>2024-10-14T13:48:19Z</time>
      </trkpt>
      <trkpt lat="31.47316481229839" lon="120.25430471449667">
        <ele>11.323572037741542</ele>
        <time>2024-10-14T13:48:23Z</time>
      </trkpt>
      <trkpt lat="31.473100730188772" lon="120.25403854620923">
        <ele>10.424839689396322</ele>
        <time>2024-10-14T13:48:31Z</time>
      </trkpt>
      <trkpt lat="31.4730137082065" lon="120.25392021939476">
        <ele>9.64446295518428</ele>
        <time>2024-10-14T13:48:35Z</time>
      </trkpt>
      <trkpt lat="31.472738404749318" lon="120.25382784120228">
        <ele>9.268658857792616</ele>
        <time>2024-10-14T13:48:47Z</time>
      </trkpt>
      <trkpt lat="31.4726461611616" lon="120.25378750339785">
        <ele>9.274467272683978</ele>
        <time>2024-10-14T13:48:51Z</time>
      </trkpt>
      <trkpt lat="31.472346001549383" lon="120.2537346566384">
        <ele>7.522298510186374</ele>
        <time>2024-10-14T13:49:06Z</time>
      </trkpt>
      <trkpt lat="31.472182898731486" lon="120.25369540268849">
        <ele>7.921630575321615</ele>
        <time>2024-10-14T13:49:15Z</time>
      </trkpt>
      <trkpt lat="31.472108169581517" lon="120.25370129585255">
        <ele>7.655249873176217</ele>
        <time>2024-10-14T13:49:18Z</time>
      </trkpt>
      <trkpt lat="31.472057287975463" lon="120.25368195774529">
        <ele>7.398079150356352</ele>
        <time>2024-10-14T13:49:21Z</time>
      </trkpt>
      <trkpt lat="31.471937277710836" lon="120.2536981362557">
        <ele>8.866272535175085</ele>
        <time>2024-10-14T13:49:27Z</time>
      </trkpt>
      <trkpt lat="31.471867880060966" lon="120.25372477341841">
        <ele>7.904048573225737</ele>
        <time>2024-10-14T13:49:30Z</time>
      </trkpt>
      <trkpt lat="31.471698024658984" lon="120.25388813622914">
        <ele>6.257676755078137</ele>
        <time>2024-10-14T13:49:39Z</time>
      </trkpt>
      <trkpt lat="31.471642014924992" lon="120.25405805499679">
        <ele>6.551070953719318</ele>
        <time>2024-10-14T13:49:45Z</time>
      </trkpt>
      <trkpt lat="31.47163805988742" lon="120.2542247391382">
        <ele>6.680772723630071</ele>
        <time>2024-10-14T13:49:51Z</time>
      </trkpt>
      <trkpt lat="31.47165034542841" lon="120.25430073056407">
        <ele>7.630281264893711</ele>
        <time>2024-10-14T13:49:54Z</time>
      </trkpt>
      <trkpt lat="31.47171562262932" lon="120.25444266045812">
        <ele>6.684055291116238</ele>
        <time>2024-10-14T13:50:00Z</time>
      </trkpt>
      <trkpt lat="31.471762564272613" lon="120.25450348607067">
        <ele>6.828722530044615</ele>
        <time>2024-10-14T13:50:03Z</time>
      </trkpt>
      <trkpt lat="31.472000486526255" lon="120.25459149134124">
        <ele>5.940138227306306</ele>
        <time>2024-10-14T13:50:15Z</time>
      </trkpt>
      <trkpt lat="31.472300062301777" lon="120.25464374191644">
        <ele>6.3278710432350636</ele>
        <time>2024-10-14T13:50:31Z</time>
      </trkpt>
      <trkpt lat="31.472578342246067" lon="120.25469637319769">
        <ele>6.6537510845810175</ele>
        <time>2024-10-14T13:50:46Z</time>
      </trkpt>
      <trkpt lat="31.472798388097434" lon="120.25470596848689">
        <ele>5.818786386400461</ele>
        <time>2024-10-14T13:50:58Z</time>
      </trkpt>
      <trkpt lat="31.47297955777643" lon="120.25463237730791">
        <ele>6.185417672619224</ele>
        <time>2024-10-14T13:51:07Z</time>
      </trkpt>
      <trkpt lat="31.473076590769043" lon="120.25452964571473">
        <ele>6.712456735782325</ele>
        <time>2024-10-14T13:51:13Z</time>
      </trkpt>
      <trkpt lat="31.473150754701113" lon="120.25438470640246">
        <ele>6.776576096192002</ele>
        <time>2024-10-14T13:51:19Z</time>
      </trkpt>
      <trkpt lat="31.473173831774815" lon="120.25427326794477">
        <ele>6.744500768370926</ele>
        <time>2024-10-14T13:51:23Z</time>
      </trkpt>
      <trkpt lat="31.47317113271578" lon="120.25417889247112">
        <ele>6.58950437605381</ele>
        <time>2024-10-14T13:51:26Z</time>
      </trkpt>
      <trkpt lat="31.47313983917637" lon="120.25409195121594">
        <ele>7.3216090416535735</ele>
        <time>2024-10-14T13:51:29Z</time>
      </trkpt>
      <trkpt lat="31.473035121837974" lon="120.25393722687453">
        <ele>7.549021179787815</ele>
        <time>2024-10-14T13:51:35Z</time>
      </trkpt>
      <trkpt lat="31.472979589518303" lon="120.25388500104941">
        <ele>8.296957705169916</ele>
        <time>2024-10-14T13:51:38Z</time>
      </trkpt>
      <trkpt lat="31.47280160787504" lon="120.25382164300045">
        <ele>7.458695685490966</ele>
        <time>2024-10-14T13:51:47Z</time>
      </trkpt>
      <trkpt lat="31.472501392943595" lon="120.25377277842647">
        <ele>7.130647416226566</ele>
        <time>2024-10-14T13:52:05Z</time>
      </trkpt>
      <trkpt lat="31.472228107158998" lon="120.25370679470186">
        <ele>7.832508857361972</ele>
        <time>2024-10-14T13:52:17Z</time>
      </trkpt>
      <trkpt lat="31.471986194107313" lon="120.25369380604927">
        <ele>7.804512543603778</ele>
        <time>2024-10-14T13:52:27Z</time>
      </trkpt>
      <trkpt lat="31.47179532406952" lon="120.25381844857333">
        <ele>8.818108986131847</ele>
        <time>2024-10-14T13:52:36Z</time>
      </trkpt>
      <trkpt lat="31.471703269965126" lon="120.2539412945909">
        <ele>7.7458775490522385</ele>
        <time>2024-10-14T13:52:42Z</time>
      </trkpt>
      <trkpt lat="31.47165654328436" lon="120.25408747067169">
        <ele>6.581858183257282</ele>
        <time>2024-10-14T13:52:48Z</time>
      </trkpt>
      <trkpt lat="31.47164892006948" lon="120.2541583671758">
        <ele>6.464302898384631</ele>
        <time>2024-10-14T13:52:51Z</time>
      </trkpt>
      <trkpt lat="31.47167313276059" lon="120.2543106290969">
        <ele>6.814340826123953</ele>
        <time>2024-10-14T13:52:57Z</time>
      </trkpt>
      <trkpt lat="31.47170461516112" lon="120.25438961091174">
        <ele>7.456658114679158</ele>
        <time>2024-10-14T13:53:00Z</time>
      </trkpt>
      <trkpt lat="31.471850330336753" lon="120.25456031054796">
        <ele>8.195869493298233</ele>
        <time>2024-10-14T13:53:09Z</time>
      </trkpt>
      <trkpt lat="31.472148742101385" lon="120.25461974684775">
        <ele>7.726165534928441</ele>
        <time>2024-10-14T13:53:21Z</time>
      </trkpt>
      <trkpt lat="31.472387511083944" lon="120.25467396687857">
        <ele>8.19512921012938</ele>
        <time>2024-10-14T13:53:30Z</time>
      </trkpt>
      <trkpt lat="31.472478354919918" lon="120.25466970363954">
        <ele>8.42391280643642</ele>
        <time>2024-10-14T13:53:33Z</time>
      </trkpt>
      <trkpt lat="31.472766225000395" lon="120.25472453082311">
        <ele>7.527809087187052</ele>
        <time>2024-10-14T13:53:45Z</time>
      </trkpt>
      <trkpt lat="31.472837238720956" lon="120.25471113313378">
        <ele>8.42167812306434</ele>
        <time>2024-10-14T13:53:48Z</time>
      </trkpt>
      <trkpt lat="31.47297368455819" lon="120.25460970072407">
        <ele>7.852256894111633</ele>
        <time>2024-10-14T13:53:54Z</time>
      </trkpt>
      <trkpt lat="31.47312310721178" lon="120.25440626314106">
        <ele>7.640829870477319</ele>
        <time>2024-10-14T13:54:03Z</time>
      </trkpt>
      <trkpt lat="31.473164106669277" lon="120.25424100269633">
        <ele>7.487225039862096</ele>
        <time>2024-10-14T13:54:09Z</time>
      </trkpt>
      <trkpt lat="31.473165029364342" lon="120.25417003597717">
        <ele>7.54408313985914</ele>
        <time>2024-10-14T13:54:12Z</time>
      </trkpt>
      <trkpt lat="31.473116472938724" lon="120.2540100790661">
        <ele>7.371551260352135</ele>
        <time>2024-10-14T13:54:18Z</time>
      </trkpt>
      <trkpt lat="31.47291693689529" lon="120.25385509126652">
        <ele>8.86010211519897</ele>
        <time>2024-10-14T13:54:27Z</time>
      </trkpt>
      <trkpt lat="31.47269208552905" lon="120.25378997421677">
        <ele>8.530747557990253</ele>
        <time>2024-10-14T13:54:37Z</time>
      </trkpt>
      <trkpt lat="31.472484163682953" lon="120.25377831832859">
        <ele>7.86494507919997</ele>
        <time>2024-10-14T13:54:46Z</time>
      </trkpt>
      <trkpt lat="31.472432284013045" lon="120.25375710552674">
        <ele>7.482360941357911</ele>
        <time>2024-10-14T13:54:49Z</time>
      </trkpt>
      <trkpt lat="31.472368824165834" lon="120.25375626246246">
        <ele>7.340396584011614</ele>
        <time>2024-10-14T13:54:52Z</time>
      </trkpt>
      <trkpt lat="31.47214202894448" lon="120.25369912755218">
        <ele>8.369859529659152</ele>
        <time>2024-10-14T13:55:04Z</time>
      </trkpt>
      <trkpt lat="31.472086121902297" lon="120.25367033621339">
        <ele>8.30239187180996</ele>
        <time>2024-10-14T13:55:07Z</time>
      </trkpt>
      <trkpt lat="31.47202130842449" lon="120.2536711752551">
        <ele>8.87177780456841</ele>
        <time>2024-10-14T13:55:10Z</time>
      </trkpt>
      <trkpt lat="31.471908788301903" lon="120.2537078476953">
        <ele>8.76950810290873</ele>
        <time>2024-10-14T13:55:16Z</time>
      </trkpt>
      <trkpt lat="31.471735615495763" lon="120.25385633566995">
        <ele>8.285643430426717</ele>
        <time>2024-10-14T13:55:25Z</time>
      </trkpt>
      <trkpt lat="31.47166112644255" lon="120.25400289967709">
        <ele>6.669545529410243</ele>
        <time>2024-10-14T13:55:31Z</time>
      </trkpt>
      <trkpt lat="31.471635394375653" lon="120.25417760092229">
        <ele>6.4320423090830445</ele>
        <time>2024-10-14T13:55:37Z</time>
      </trkpt>
      <trkpt lat="31.471678678285244" lon="120.25433584297727">
        <ele>6.772167318500578</ele>
        <time>2024-10-14T13:55:43Z</time>
      </trkpt>
      <trkpt lat="31.47177608992795" lon="120.25446437372342">
        <ele>6.7668758211657405</ele>
        <time>2024-10-14T13:55:49Z</time>
      </trkpt>
      <trkpt lat="31.471957559689066" lon="120.25458002823427">
        <ele>6.7992360685020685</ele>
        <time>2024-10-14T13:55:58Z</time>
      </trkpt>
      <trkpt lat="31.4722464625405" lon="120.25463114038767">
        <ele>8.586307853460312</ele>
        <time>2024-10-14T13:56:10Z</time>
      </trkpt>
      <trkpt lat="31.472524930346495" lon="120.25469167219995">
        <ele>9.755478993058205</ele>
        <time>2024-10-14T13:56:22Z</time>
      </trkpt>
      <trkpt lat="31.47265399873916" lon="120.2547192291235">
        <ele>7.95153565146029</ele>
        <time>2024-10-14T13:56:28Z</time>
      </trkpt>
      <trkpt lat="31.47281487546572" lon="120.25470098459229">
        <ele>8.612673097290099</ele>
        <time>2024-10-14T13:56:34Z</time>
      </trkpt>
      <trkpt lat="31.47287936246149" lon="120.25467674062654">
        <ele>8.523475047200918</ele>
        <time>2024-10-14T13:56:37Z</time>
      </trkpt>
      <trkpt lat="31.473051892736226" lon="120.25453545859116">
        <ele>7.836676703765988</ele>
        <time>2024-10-14T13:56:45Z</time>
      </trkpt>
      <trkpt lat="31.473157608616305" lon="120.2543333963931">
        <ele>7.46296735946089</ele>
        <time>2024-10-14T13:56:53Z</time>
      </trkpt>
      <trkpt lat="31.473146906991357" lon="120.25411698851741">
        <ele>8.207632378675044</ele>
        <time>2024-10-14T13:57:01Z</time>
      </trkpt>
      <trkpt lat="31.473121981388005" lon="120.25400548223175">
        <ele>9.254364504478872</ele>
        <time>2024-10-14T13:57:05Z</time>
      </trkpt>
      <trkpt lat="31.472979307638983" lon="120.25386565902524">
        <ele>9.1125194048509</ele>
        <time>2024-10-14T13:57:13Z</time>
      </trkpt>
      <trkpt lat="31.472704015843785" lon="120.25379711476431">
        <ele>8.741312428377569</ele>
        <time>2024-10-14T13:57:25Z</time>
      </trkpt>
      <trkpt lat="31.472553492481595" lon="120.25375012346305">
        <ele>10.82254985626787</ele>
        <time>2024-10-14T13:57:31Z</time>
      </trkpt>
      <trkpt lat="31.472367948595796" lon="120.25374037333027">
        <ele>9.707233999855816</ele>
        <time>2024-10-14T13:57:40Z</time>
      </trkpt>
      <trkpt lat="31.47211314113808" lon="120.25370415339805">
        <ele>8.742853118106723</ele>
        <time>2024-10-14T13:57:52Z</time>
      </trkpt>
      <trkpt lat="31.472051465729056" lon="120.2536808058025">
        <ele>7.629241559654474</ele>
        <time>2024-10-14T13:57:55Z</time>
      </trkpt>
      <trkpt lat="31.471920527044684" lon="120.25371266368816">
        <ele>9.571760007180274</ele>
        <time>2024-10-14T13:58:01Z</time>
      </trkpt>
      <trkpt lat="31.471747241292665" lon="120.2538645495916">
        <ele>7.619057998992503</ele>
        <time>2024-10-14T13:58:10Z</time>
      </trkpt>
      <trkpt lat="31.471706491095947" lon="120.25393809879358">
        <ele>8.54058242496103</ele>
        <time>2024-10-14T13:58:13Z</time>
      </trkpt>
      <trkpt lat="31.47167077798224" lon="120.25410777181862">
        <ele>7.7631791634485126</ele>
        <time>2024-10-14T13:58:19Z</time>
      </trkpt>
      <trkpt lat="31.471685575421223" lon="120.2542712479787">
        <ele>1.797919454984367</ele>
        <time>2024-10-14T13:58:26Z</time>
      </trkpt>
      <trkpt lat="31.47176187914397" lon="120.25445513245562">
        <ele>5.794255565851927</ele>
        <time>2024-10-14T13:58:32Z</time>
      </trkpt>
      <trkpt lat="31.471811092559385" lon="120.25450865495559">
        <ele>6.210452223196626</ele>
        <time>2024-10-14T13:58:35Z</time>
      </trkpt>
      <trkpt lat="31.47201100036827" lon="120.25458310280743">
        <ele>5.90393244754523</ele>
        <time>2024-10-14T13:58:44Z</time>
      </trkpt>
      <trkpt lat="31.472243548309358" lon="120.254618771452">
        <ele>8.14968040958047</ele>
        <time>2024-10-14T13:58:52Z</time>
      </trkpt>
      <trkpt lat="31.472313823784287" lon="120.25467530228376">
        <ele>7.395940839312971</ele>
        <time>2024-10-14T13:58:56Z</time>
      </trkpt>
      <trkpt lat="31.472511378067495" lon="120.25471226166984">
        <ele>7.893946415744722</ele>
        <time>2024-10-14T13:59:04Z</time>
      </trkpt>
      <trkpt lat="31.47260373481818" lon="120.25474893837941">
        <ele>8.111165941692889</ele>
        <time>2024-10-14T13:59:08Z</time>
      </trkpt>
      <trkpt lat="31.47275642024686" lon="120.25476770534567">
        <ele>8.559384176507592</ele>
        <time>2024-10-14T13:59:16Z</time>
      </trkpt>
      <trkpt lat="31.47285533336491" lon="120.254734817676">
        <ele>8.186473060399294</ele>
        <time>2024-10-14T13:59:20Z</time>
      </trkpt>
      <trkpt lat="31.47302571263486" lon="120.25461535142543">
        <ele>6.957513690926135</ele>
        <time>2024-10-14T13:59:28Z</time>
      </trkpt>
      <trkpt lat="31.473096258513685" lon="120.25454292000235">
        <ele>6.035473437979817</ele>
        <time>2024-10-14T13:59:32Z</time>
      </trkpt>
      <trkpt lat="31.473196352521608" lon="120.25434347287714">
        <ele>8.993792249821126</ele>
        <time>2024-10-14T13:59:40Z</time>
      </trkpt>
      <trkpt lat="31.473168301898852" lon="120.25408065403231">
        <ele>9.605630309320986</ele>
        <time>2024-10-14T13:59:50Z</time>
      </trkpt>
      <trkpt lat="31.473136795728102" lon="120.25399663730892">
        <ele>9.611108264885843</ele>
        <time>2024-10-14T13:59:53Z</time>
      </trkpt>
      <trkpt lat="31.47295371980244" lon="120.2538130530305">
        <ele>9.193327581509948</ele>
        <time>2024-10-14T14:00:02Z</time>
      </trkpt>
      <trkpt lat="31.472620955591125" lon="120.25375949067865">
        <ele>7.989837182685733</ele>
        <time>2024-10-14T14:00:17Z</time>
      </trkpt>
      <trkpt lat="31.472479615979676" lon="120.25372391607088">
        <ele>9.009929372929037</ele>
        <time>2024-10-14T14:00:23Z</time>
      </trkpt>
      <trkpt lat="31.472344385023373" lon="120.25370690758551">
        <ele>10.035546246916056</ele>
        <time>2024-10-14T14:00:29Z</time>
      </trkpt>
      <trkpt lat="31.47226585417581" lon="120.25371483299256">
        <ele>9.631783556193113</ele>
        <time>2024-10-14T14:00:32Z</time>
      </trkpt>
      <trkpt lat="31.472135038876814" lon="120.2536676173137">
        <ele>9.088650351390243</ele>
        <time>2024-10-14T14:00:38Z</time>
      </trkpt>
      <trkpt lat="31.47189091811485" lon="120.2536917107206">
        <ele>9.23340913746506</ele>
        <time>2024-10-14T14:00:50Z</time>
      </trkpt>
      <trkpt lat="31.471736204824392" lon="120.25380341483472">
        <ele>7.75252172537148</ele>
        <time>2024-10-14T14:00:58Z</time>
      </trkpt>
      <trkpt lat="31.47165375403985" lon="120.25400943692169">
        <ele>7.753653148189187</ele>
        <time>2024-10-14T14:01:06Z</time>
      </trkpt>
      <trkpt lat="31.471638400815173" lon="120.2541971487373">
        <ele>7.508624762296677</ele>
        <time>2024-10-14T14:01:14Z</time>
      </trkpt>
      <trkpt lat="31.471679514329836" lon="120.25440782931393">
        <ele>7.595089141279459</ele>
        <time>2024-10-14T14:01:22Z</time>
      </trkpt>
      <trkpt lat="31.471731183230226" lon="120.25449363414161">
        <ele>7.79767919331789</ele>
        <time>2024-10-14T14:01:26Z</time>
      </trkpt>
      <trkpt lat="31.471813485215144" lon="120.25456001560656">
        <ele>7.085724127478898</ele>
        <time>2024-10-14T14:01:30Z</time>
      </trkpt>
      <trkpt lat="31.47208917812199" lon="120.25463511706964">
        <ele>6.935270929709077</ele>
        <time>2024-10-14T14:01:42Z</time>
      </trkpt>
      <trkpt lat="31.47219669776279" lon="120.25467470675139">
        <ele>7.462332588620484</ele>
        <time>2024-10-14T14:01:46Z</time>
      </trkpt>
      <trkpt lat="31.472497236364838" lon="120.25472557124307">
        <ele>7.287689303979278</ele>
        <time>2024-10-14T14:01:58Z</time>
      </trkpt>
      <trkpt lat="31.47279854030819" lon="120.25474129556531">
        <ele>7.184090721420944</ele>
        <time>2024-10-14T14:02:10Z</time>
      </trkpt>
      <trkpt lat="31.472910089216953" lon="120.25472302093138">
        <ele>7.660700508393347</ele>
        <time>2024-10-14T14:02:14Z</time>
      </trkpt>
      <trkpt lat="31.47305612125805" lon="120.25458247387702">
        <ele>8.18798939883709</ele>
        <time>2024-10-14T14:02:22Z</time>
      </trkpt>
      <trkpt lat="31.473151781919277" lon="120.25441550478796">
        <ele>8.5826934883371</ele>
        <time>2024-10-14T14:02:29Z</time>
      </trkpt>
      <trkpt lat="31.473190753132076" lon="120.25431435218371">
        <ele>7.608683611266315</ele>
        <time>2024-10-14T14:02:33Z</time>
      </trkpt>
      <trkpt lat="31.473199042054897" lon="120.25421599714612">
        <ele>8.325726154260337</ele>
        <time>2024-10-14T14:02:36Z</time>
      </trkpt>
      <trkpt lat="31.473158379399624" lon="120.25401532744827">
        <ele>8.057261019945145</ele>
        <time>2024-10-14T14:02:44Z</time>
      </trkpt>
      <trkpt lat="31.47311221640307" lon="120.2539318731136">
        <ele>6.7373635014519095</ele>
        <time>2024-10-14T14:02:48Z</time>
      </trkpt>
      <trkpt lat="31.472959295760166" lon="120.25381129910853">
        <ele>8.476337648928165</ele>
        <time>2024-10-14T14:02:55Z</time>
      </trkpt>
      <trkpt lat="31.47267095526507" lon="120.25376430262423">
        <ele>7.176142813637853</ele>
        <time>2024-10-14T14:03:07Z</time>
      </trkpt>
      <trkpt lat="31.472407450108616" lon="120.2537175906689">
        <ele>6.777228271588683</ele>
        <time>2024-10-14T14:03:19Z</time>
      </trkpt>
      <trkpt lat="31.472290072431026" lon="120.25367212328644">
        <ele>7.10184165649116</ele>
        <time>2024-10-14T14:03:23Z</time>
      </trkpt>
      <trkpt lat="31.47216003202729" lon="120.25364734133473">
        <ele>8.211434331722558</ele>
        <time>2024-10-14T14:03:27Z</time>
      </trkpt>
      <trkpt lat="31.47201987173911" lon="120.25365533529407">
        <ele>9.854963646270335</ele>
        <time>2024-10-14T14:03:31Z</time>
      </trkpt>
      <trkpt lat="31.471909061432516" lon="120.25373247597835">
        <ele>10.006686157546937</ele>
        <time>2024-10-14T14:03:35Z</time>
      </trkpt>
      <trkpt lat="31.471822350984194" lon="120.25376812267952">
        <ele>9.692515588365495</ele>
        <time>2024-10-14T14:03:39Z</time>
      </trkpt>
      <trkpt lat="31.471729195640258" lon="120.25386452940592">
        <ele>8.678967962041497</ele>
        <time>2024-10-14T14:03:43Z</time>
      </trkpt>
      <trkpt lat="31.471665191199843" lon="120.25404114363496">
        <ele>7.369334440678358</ele>
        <time>2024-10-14T14:03:51Z</time>
      </trkpt>
      <trkpt lat="31.471671049313358" lon="120.25426147926765">
        <ele>6.152289013378322</ele>
        <time>2024-10-14T14:03:59Z</time>
      </trkpt>
      <trkpt lat="31.471715569008012" lon="120.25438359776787">
        <ele>6.9655542597174644</ele>
        <time>2024-10-14T14:04:03Z</time>
      </trkpt>
      <trkpt lat="31.471856217831586" lon="120.25453012495008">
        <ele>6.665853259153664</ele>
        <time>2024-10-14T14:04:11Z</time>
      </trkpt>
      <trkpt lat="31.472140010202324" lon="120.25463087630631">
        <ele>7.6076613906770945</ele>
        <time>2024-10-14T14:04:23Z</time>
      </trkpt>
      <trkpt lat="31.472242093280617" lon="120.25466158757183">
        <ele>7.364351645112038</ele>
        <time>2024-10-14T14:04:27Z</time>
      </trkpt>
      <trkpt lat="31.472338375505405" lon="120.25466580268935">
        <ele>9.715289645828307</ele>
        <time>2024-10-14T14:04:31Z</time>
      </trkpt>
      <trkpt lat="31.472636915153757" lon="120.2547328180867">
        <ele>9.112251198850572</ele>
        <time>2024-10-14T14:04:43Z</time>
      </trkpt>
      <trkpt lat="31.472731555503334" lon="120.25474347819544">
        <ele>10.45072381850332</ele>
        <time>2024-10-14T14:04:47Z</time>
      </trkpt>
      <trkpt lat="31.472940321611507" lon="120.25467248694308">
        <ele>10.137641464360058</ele>
        <time>2024-10-14T14:04:55Z</time>
      </trkpt>
      <trkpt lat="31.473054608376394" lon="120.25457124313172">
        <ele>8.653066795319319</ele>
        <time>2024-10-14T14:04:59Z</time>
      </trkpt>
      <trkpt lat="31.473083319928435" lon="120.25448394189144">
        <ele>8.668663384392858</ele>
        <time>2024-10-14T14:05:02Z</time>
      </trkpt>
      <trkpt lat="31.47315421349284" lon="120.25438013036374">
        <ele>8.221922313794494</ele>
        <time>2024-10-14T14:05:06Z</time>
      </trkpt>
      <trkpt lat="31.473172924669786" lon="120.2541391237986">
        <ele>9.441954684443772</ele>
        <time>2024-10-14T14:05:14Z</time>
      </trkpt>
      <trkpt lat="31.47303941808809" lon="120.2538726727533">
        <ele>9.388648828491569</ele>
        <time>2024-10-14T14:05:26Z</time>
      </trkpt>
      <trkpt lat="31.47292412568147" lon="120.25374140628226">
        <ele>7.934542739763856</ele>
        <time>2024-10-14T14:05:34Z</time>
      </trkpt>
      <trkpt lat="31.472884885555445" lon="120.2537392327439">
        <ele>7.859818946570158</ele>
        <time>2024-10-14T14:05:38Z</time>
      </trkpt>
    </trkseg>
  </trk>
</gpx>