<?xml version="1.0" encoding="UTF-8"?>
<gpx xmlns="http://www.topografix.com/GPX/1/1" xmlns:gpxtpx="http://www.garmin.com/xmlschemas/TrackPointExtension/v1" xmlns:xsi="http://www.w3.org/2001/XMLSchema-instance" xsi:schemaLocation="http://www.topografix.com/GPX/1/1 http://www.topografix.com/GPX/1/1/gpx.xsd" version="1.1" creator="gpx.py -- https://github.com/tkrajina/gpxpy">
  <trk>
    <name>gpx from keep</name>
    <type>Run</type>
    <trkseg>
      <trkpt lat="31.472538287769357" lon="120.25378326942985">
        <ele>1.72906494140625</ele>
        <time>2024-11-06T11:09:25Z</time>
      </trkpt>
      <trkpt lat="31.472538287769357" lon="120.25378326942985">
        <ele>1.72906494140625</ele>
        <time>2024-11-06T11:09:25Z</time>
      </trkpt>
      <trkpt lat="31.472445258841393" lon="120.25379881861515">
        <ele>4.2497354773804545</ele>
        <time>2024-11-06T11:09:51Z</time>
        <extensions>
          <gpxtpx:TrackPointExtension>
            <gpxtpx:hr>87</gpxtpx:hr>
          </gpxtpx:TrackPointExtension>
        </extensions>
      </trkpt>
      <trkpt lat="31.472364206589187" lon="120.2537537989">
        <ele>4.08314513694495</ele>
        <time>2024-11-06T11:09:55Z</time>
        <extensions>
          <gpxtpx:TrackPointExtension>
            <gpxtpx:hr>87</gpxtpx:hr>
          </gpxtpx:TrackPointExtension>
        </extensions>
      </trkpt>
      <trkpt lat="31.472107299352448" lon="120.25367412655933">
        <ele>4.807039476931095</ele>
        <time>2024-11-06T11:10:03Z</time>
        <extensions>
          <gpxtpx:TrackPointExtension>
            <gpxtpx:hr>87</gpxtpx:hr>
          </gpxtpx:TrackPointExtension>
        </extensions>
      </trkpt>
      <trkpt lat="31.47196486118059" lon="120.25367223049243">
        <ele>5.0717230113223195</ele>
        <time>2024-11-06T11:10:07Z</time>
      </trkpt>
      <trkpt lat="31.471822574216052" lon="120.25372969135947">
        <ele>6.253059022128582</ele>
        <time>2024-11-06T11:10:11Z</time>
      </trkpt>
      <trkpt lat="31.471733670213844" lon="120.25385117940304">
        <ele>6.848762835375965</ele>
        <time>2024-11-06T11:10:15Z</time>
      </trkpt>
      <trkpt lat="31.471672516197113" lon="120.25400130753522">
        <ele>7.355281428433955</ele>
        <time>2024-11-06T11:10:19Z</time>
      </trkpt>
      <trkpt lat="31.47166933127037" lon="120.25417980088987">
        <ele>6.698578094132245</ele>
        <time>2024-11-06T11:10:23Z</time>
      </trkpt>
      <trkpt lat="31.471732725956063" lon="120.25432399226133">
        <ele>5.626234362833202</ele>
        <time>2024-11-06T11:10:27Z</time>
      </trkpt>
      <trkpt lat="31.47179779972993" lon="120.25442489355434">
        <ele>4.947641596198082</ele>
        <time>2024-11-06T11:10:30Z</time>
      </trkpt>
      <trkpt lat="31.471874116646763" lon="120.25450003641721">
        <ele>6.846183770336211</ele>
        <time>2024-11-06T11:10:33Z</time>
      </trkpt>
      <trkpt lat="31.47217636104659" lon="120.25457522769871">
        <ele>10.319424003362656</ele>
        <time>2024-11-06T11:10:42Z</time>
      </trkpt>
      <trkpt lat="31.47246914062258" lon="120.25462826085773">
        <ele>10.120475498959422</ele>
        <time>2024-11-06T11:10:51Z</time>
      </trkpt>
      <trkpt lat="31.472774437294476" lon="120.25468456135425">
        <ele>11.286268709227443</ele>
        <time>2024-11-06T11:11:00Z</time>
      </trkpt>
      <trkpt lat="31.47288169022421" lon="120.25465512393944">
        <ele>11.727625689469278</ele>
        <time>2024-11-06T11:11:03Z</time>
      </trkpt>
      <trkpt lat="31.47304663811624" lon="120.25453313349934">
        <ele>10.180289216339588</ele>
        <time>2024-11-06T11:11:09Z</time>
      </trkpt>
      <trkpt lat="31.47312357783042" lon="120.25430185236665">
        <ele>9.388150551356375</ele>
        <time>2024-11-06T11:11:15Z</time>
      </trkpt>
      <trkpt lat="31.47313354166648" lon="120.2542003999694">
        <ele>7.08109544031322</ele>
        <time>2024-11-06T11:11:18Z</time>
      </trkpt>
      <trkpt lat="31.473120317145227" lon="120.2540706012705">
        <ele>6.857578797265887</ele>
        <time>2024-11-06T11:11:21Z</time>
      </trkpt>
      <trkpt lat="31.473062995249553" lon="120.25395879670633">
        <ele>6.830391545780003</ele>
        <time>2024-11-06T11:11:24Z</time>
      </trkpt>
      <trkpt lat="31.472962396889482" lon="120.25387072858594">
        <ele>6.666488071903586</ele>
        <time>2024-11-06T11:11:28Z</time>
      </trkpt>
      <trkpt lat="31.47282348860569" lon="120.25381307126351">
        <ele>6.151980644091964</ele>
        <time>2024-11-06T11:11:32Z</time>
      </trkpt>
      <trkpt lat="31.472544673362453" lon="120.25375438988243">
        <ele>4.563188761472702</ele>
        <time>2024-11-06T11:11:40Z</time>
      </trkpt>
      <trkpt lat="31.472170468359398" lon="120.25369238780972">
        <ele>5.1175278620794415</ele>
        <time>2024-11-06T11:11:52Z</time>
      </trkpt>
      <trkpt lat="31.47203394272812" lon="120.2536576335751">
        <ele>5.93282157368958</ele>
        <time>2024-11-06T11:11:56Z</time>
      </trkpt>
      <trkpt lat="31.471908248785912" lon="120.25369148271402">
        <ele>4.550943156704307</ele>
        <time>2024-11-06T11:12:00Z</time>
      </trkpt>
      <trkpt lat="31.471804210711287" lon="120.25376855576869">
        <ele>5.341075825504959</ele>
        <time>2024-11-06T11:12:04Z</time>
      </trkpt>
      <trkpt lat="31.471712163970388" lon="120.25387613965482">
        <ele>5.629210157319903</ele>
        <time>2024-11-06T11:12:08Z</time>
      </trkpt>
      <trkpt lat="31.471684693766566" lon="120.254087707779">
        <ele>4.579668332822621</ele>
        <time>2024-11-06T11:12:15Z</time>
      </trkpt>
      <trkpt lat="31.47170861141913" lon="120.25419627383667">
        <ele>4.670652779750526</ele>
        <time>2024-11-06T11:12:18Z</time>
      </trkpt>
      <trkpt lat="31.47184728546236" lon="120.25440153107229">
        <ele>5.782340274192393</ele>
        <time>2024-11-06T11:12:25Z</time>
      </trkpt>
      <trkpt lat="31.47203375231075" lon="120.25456343509995">
        <ele>10.602944754064083</ele>
        <time>2024-11-06T11:12:31Z</time>
      </trkpt>
      <trkpt lat="31.47225231966007" lon="120.2546066903721">
        <ele>13.177434827201068</ele>
        <time>2024-11-06T11:12:37Z</time>
      </trkpt>
      <trkpt lat="31.472519202701406" lon="120.25470260277847">
        <ele>9.921752369962633</ele>
        <time>2024-11-06T11:12:46Z</time>
      </trkpt>
      <trkpt lat="31.472806350485403" lon="120.25473785518646">
        <ele>11.141768237575889</ele>
        <time>2024-11-06T11:12:55Z</time>
      </trkpt>
      <trkpt lat="31.472907064827467" lon="120.25473243810404">
        <ele>12.19051417708397</ele>
        <time>2024-11-06T11:12:58Z</time>
      </trkpt>
      <trkpt lat="31.472989430313216" lon="120.25468982724998">
        <ele>9.692796587012708</ele>
        <time>2024-11-06T11:13:01Z</time>
      </trkpt>
      <trkpt lat="31.47307538344828" lon="120.25461971049482">
        <ele>9.508439942263067</ele>
        <time>2024-11-06T11:13:04Z</time>
      </trkpt>
      <trkpt lat="31.473134907263486" lon="120.25453654108865">
        <ele>8.926526736468077</ele>
        <time>2024-11-06T11:13:07Z</time>
      </trkpt>
      <trkpt lat="31.47320740623074" lon="120.25430562799923">
        <ele>9.636535302735865</ele>
        <time>2024-11-06T11:13:13Z</time>
      </trkpt>
      <trkpt lat="31.473205950842324" lon="120.25418691453739">
        <ele>9.390053862705827</ele>
        <time>2024-11-06T11:13:16Z</time>
      </trkpt>
      <trkpt lat="31.473150556864507" lon="120.25398895579144">
        <ele>7.553495277650654</ele>
        <time>2024-11-06T11:13:22Z</time>
      </trkpt>
      <trkpt lat="31.473044611528074" lon="120.25383857578211">
        <ele>7.3075358578935266</ele>
        <time>2024-11-06T11:13:28Z</time>
      </trkpt>
      <trkpt lat="31.472925677904914" lon="120.25376236120789">
        <ele>6.005046642385423</ele>
        <time>2024-11-06T11:13:34Z</time>
      </trkpt>
      <trkpt lat="31.472580599681667" lon="120.25370403951541">
        <ele>6.992510517127812</ele>
        <time>2024-11-06T11:13:46Z</time>
      </trkpt>
      <trkpt lat="31.47234267687799" lon="120.25363911319201">
        <ele>7.515149416401982</ele>
        <time>2024-11-06T11:13:54Z</time>
      </trkpt>
      <trkpt lat="31.4722205439392" lon="120.25362442951102">
        <ele>6.111929529346526</ele>
        <time>2024-11-06T11:13:58Z</time>
      </trkpt>
      <trkpt lat="31.472110444452646" lon="120.25358423784682">
        <ele>5.902556709013879</ele>
        <time>2024-11-06T11:14:02Z</time>
      </trkpt>
      <trkpt lat="31.471979661234055" lon="120.25360841040796">
        <ele>6.855715774931014</ele>
        <time>2024-11-06T11:14:06Z</time>
      </trkpt>
      <trkpt lat="31.47187083384785" lon="120.25366219015112">
        <ele>6.293276068754494</ele>
        <time>2024-11-06T11:14:10Z</time>
      </trkpt>
      <trkpt lat="31.471771280662328" lon="120.25374178881324">
        <ele>5.129420178942382</ele>
        <time>2024-11-06T11:14:14Z</time>
      </trkpt>
      <trkpt lat="31.47168429342904" lon="120.25384160715333">
        <ele>6.496893987059593</ele>
        <time>2024-11-06T11:14:18Z</time>
      </trkpt>
      <trkpt lat="31.471635221596145" lon="120.25395120150287">
        <ele>4.877624101936817</ele>
        <time>2024-11-06T11:14:22Z</time>
      </trkpt>
      <trkpt lat="31.471617743892967" lon="120.25409450660334">
        <ele>5.4584579626098275</ele>
        <time>2024-11-06T11:14:26Z</time>
      </trkpt>
      <trkpt lat="31.471694760014824" lon="120.2543789247492">
        <ele>6.285165663808584</ele>
        <time>2024-11-06T11:14:34Z</time>
      </trkpt>
      <trkpt lat="31.471789171752935" lon="120.25448827877861">
        <ele>7.573268887586892</ele>
        <time>2024-11-06T11:14:38Z</time>
      </trkpt>
      <trkpt lat="31.471895141855764" lon="120.25457462803158">
        <ele>10.260054497048259</ele>
        <time>2024-11-06T11:14:42Z</time>
      </trkpt>
      <trkpt lat="31.472255909737495" lon="120.25468947734824">
        <ele>9.798976966179907</ele>
        <time>2024-11-06T11:14:54Z</time>
      </trkpt>
      <trkpt lat="31.472568690775084" lon="120.25472981056353">
        <ele>9.510734071023762</ele>
        <time>2024-11-06T11:15:04Z</time>
      </trkpt>
      <trkpt lat="31.472759745826114" lon="120.25477498713732">
        <ele>9.58313219062984</ele>
        <time>2024-11-06T11:15:11Z</time>
      </trkpt>
      <trkpt lat="31.47287904344058" lon="120.25475257682466">
        <ele>8.301291855052114</ele>
        <time>2024-11-06T11:15:15Z</time>
      </trkpt>
      <trkpt lat="31.472994650135387" lon="120.25467746513604">
        <ele>7.851623520255089</ele>
        <time>2024-11-06T11:15:19Z</time>
      </trkpt>
      <trkpt lat="31.473102559843973" lon="120.25456800529076">
        <ele>8.254185763187706</ele>
        <time>2024-11-06T11:15:23Z</time>
      </trkpt>
      <trkpt lat="31.473159820431707" lon="120.25446314933448">
        <ele>8.160350968129933</ele>
        <time>2024-11-06T11:15:26Z</time>
      </trkpt>
      <trkpt lat="31.473176429710524" lon="120.25415876337372">
        <ele>10.709650469012558</ele>
        <time>2024-11-06T11:15:33Z</time>
      </trkpt>
      <trkpt lat="31.47313808887012" lon="120.25401524637684">
        <ele>9.341776638291776</ele>
        <time>2024-11-06T11:15:37Z</time>
      </trkpt>
      <trkpt lat="31.47308117825913" lon="120.2539186219972">
        <ele>8.433060037903488</ele>
        <time>2024-11-06T11:15:40Z</time>
      </trkpt>
      <trkpt lat="31.473000639041015" lon="120.25384175551113">
        <ele>8.372347267344594</ele>
        <time>2024-11-06T11:15:43Z</time>
      </trkpt>
      <trkpt lat="31.47278283315567" lon="120.25376511195141">
        <ele>7.826355868950486</ele>
        <time>2024-11-06T11:15:50Z</time>
      </trkpt>
      <trkpt lat="31.472426294472992" lon="120.25370962930991">
        <ele>6.100037038326263</ele>
        <time>2024-11-06T11:16:02Z</time>
      </trkpt>
      <trkpt lat="31.472307291947697" lon="120.25366892107013">
        <ele>6.884967979043722</ele>
        <time>2024-11-06T11:16:06Z</time>
      </trkpt>
      <trkpt lat="31.47209466044162" lon="120.25362631539025">
        <ele>5.759748371317983</ele>
        <time>2024-11-06T11:16:14Z</time>
      </trkpt>
      <trkpt lat="31.47196386765626" lon="120.25363895180128">
        <ele>6.013055061921477</ele>
        <time>2024-11-06T11:16:18Z</time>
      </trkpt>
      <trkpt lat="31.47185830149923" lon="120.25368642007273">
        <ele>7.195889254100621</ele>
        <time>2024-11-06T11:16:22Z</time>
      </trkpt>
      <trkpt lat="31.471713696163416" lon="120.25393717762006">
        <ele>6.932739259675145</ele>
        <time>2024-11-06T11:16:30Z</time>
      </trkpt>
      <trkpt lat="31.471679521976498" lon="120.25408335044568">
        <ele>7.422637851908803</ele>
        <time>2024-11-06T11:16:34Z</time>
      </trkpt>
      <trkpt lat="31.471700083669383" lon="120.25425558315456">
        <ele>6.465774708427489</ele>
        <time>2024-11-06T11:16:38Z</time>
      </trkpt>
      <trkpt lat="31.47189552677946" lon="120.25450926357905">
        <ele>5.996615177020431</ele>
        <time>2024-11-06T11:16:46Z</time>
      </trkpt>
      <trkpt lat="31.47214852589919" lon="120.25459384334675">
        <ele>8.164546119980514</ele>
        <time>2024-11-06T11:16:54Z</time>
      </trkpt>
      <trkpt lat="31.472537360984077" lon="120.25465284080504">
        <ele>9.708781717345119</ele>
        <time>2024-11-06T11:17:06Z</time>
      </trkpt>
      <trkpt lat="31.472750304026956" lon="120.2546855099188">
        <ele>9.296084915287793</ele>
        <time>2024-11-06T11:17:14Z</time>
      </trkpt>
      <trkpt lat="31.47286249771211" lon="120.25467536733963">
        <ele>8.135423482395709</ele>
        <time>2024-11-06T11:17:18Z</time>
      </trkpt>
      <trkpt lat="31.472985990044158" lon="120.25460104147827">
        <ele>9.522070637904108</ele>
        <time>2024-11-06T11:17:22Z</time>
      </trkpt>
      <trkpt lat="31.473076595750396" lon="120.25449060560214">
        <ele>9.196000975556672</ele>
        <time>2024-11-06T11:17:26Z</time>
      </trkpt>
      <trkpt lat="31.473145481837175" lon="120.25422438654189">
        <ele>6.701037043705583</ele>
        <time>2024-11-06T11:17:34Z</time>
      </trkpt>
      <trkpt lat="31.47307184491794" lon="120.25397713253066">
        <ele>6.125173629261553</ele>
        <time>2024-11-06T11:17:42Z</time>
      </trkpt>
      <trkpt lat="31.47300889951395" lon="120.25390007887194">
        <ele>6.638541999273002</ele>
        <time>2024-11-06T11:17:45Z</time>
      </trkpt>
      <trkpt lat="31.472919434243913" lon="120.25383016983322">
        <ele>6.909965776838362</ele>
        <time>2024-11-06T11:17:49Z</time>
      </trkpt>
      <trkpt lat="31.472691779526343" lon="120.2537614905023">
        <ele>7.3767827199772</ele>
        <time>2024-11-06T11:17:57Z</time>
      </trkpt>
      <trkpt lat="31.472349794447986" lon="120.25371254386762">
        <ele>5.776038018986583</ele>
        <time>2024-11-06T11:18:09Z</time>
      </trkpt>
      <trkpt lat="31.47213179000338" lon="120.25365341215033">
        <ele>6.66340088378638</ele>
        <time>2024-11-06T11:18:17Z</time>
      </trkpt>
      <trkpt lat="31.472016596682284" lon="120.25365918902985">
        <ele>7.018906611949205</ele>
        <time>2024-11-06T11:18:21Z</time>
      </trkpt>
      <trkpt lat="31.471911899682798" lon="120.253693637508">
        <ele>4.611434460617602</ele>
        <time>2024-11-06T11:18:25Z</time>
      </trkpt>
      <trkpt lat="31.47181877858485" lon="120.25375840639066">
        <ele>4.95441067032516</ele>
        <time>2024-11-06T11:18:29Z</time>
      </trkpt>
      <trkpt lat="31.471745189223547" lon="120.25383741614407">
        <ele>6.642504147253931</ele>
        <time>2024-11-06T11:18:33Z</time>
      </trkpt>
      <trkpt lat="31.47169208289148" lon="120.25395589537452">
        <ele>6.542018115520477</ele>
        <time>2024-11-06T11:18:37Z</time>
      </trkpt>
      <trkpt lat="31.47168449636386" lon="120.25407246511253">
        <ele>6.293107547797263</ele>
        <time>2024-11-06T11:18:41Z</time>
      </trkpt>
      <trkpt lat="31.471732140704336" lon="120.2543466244566">
        <ele>6.759481675922871</ele>
        <time>2024-11-06T11:18:49Z</time>
      </trkpt>
      <trkpt lat="31.471805757869415" lon="120.2544594236611">
        <ele>5.00148069113493</ele>
        <time>2024-11-06T11:18:53Z</time>
      </trkpt>
      <trkpt lat="31.471905530027115" lon="120.25451849872832">
        <ele>7.031960018910468</ele>
        <time>2024-11-06T11:18:57Z</time>
      </trkpt>
      <trkpt lat="31.471999617097804" lon="120.25454916783578">
        <ele>7.613394537009299</ele>
        <time>2024-11-06T11:19:01Z</time>
      </trkpt>
      <trkpt lat="31.47209658230727" lon="120.25455142415888">
        <ele>8.660532492212951</ele>
        <time>2024-11-06T11:19:05Z</time>
      </trkpt>
      <trkpt lat="31.472279917491722" lon="120.25462190069076">
        <ele>7.833897612057626</ele>
        <time>2024-11-06T11:19:13Z</time>
      </trkpt>
      <trkpt lat="31.472588169358225" lon="120.25467229928731">
        <ele>7.061159323900938</ele>
        <time>2024-11-06T11:19:25Z</time>
      </trkpt>
      <trkpt lat="31.472692270977333" lon="120.25469405760315">
        <ele>7.301669868640602</ele>
        <time>2024-11-06T11:19:29Z</time>
      </trkpt>
      <trkpt lat="31.472812854763177" lon="120.2546818582454">
        <ele>7.254963059909642</ele>
        <time>2024-11-06T11:19:33Z</time>
      </trkpt>
      <trkpt lat="31.47293227876326" lon="120.25462582426756">
        <ele>6.658886798657477</ele>
        <time>2024-11-06T11:19:37Z</time>
      </trkpt>
      <trkpt lat="31.473037957992723" lon="120.25453562369032">
        <ele>6.296578099951148</ele>
        <time>2024-11-06T11:19:41Z</time>
      </trkpt>
      <trkpt lat="31.473072030706724" lon="120.25446295672673">
        <ele>5.965393462218344</ele>
        <time>2024-11-06T11:19:45Z</time>
      </trkpt>
      <trkpt lat="31.473092973547008" lon="120.25430821747706">
        <ele>7.8467571986839175</ele>
        <time>2024-11-06T11:19:49Z</time>
      </trkpt>
      <trkpt lat="31.4731283209377" lon="120.25419011717403">
        <ele>6.553293288685381</ele>
        <time>2024-11-06T11:19:52Z</time>
      </trkpt>
      <trkpt lat="31.473072157428554" lon="120.25397870736083">
        <ele>9.105172574520111</ele>
        <time>2024-11-06T11:19:59Z</time>
      </trkpt>
      <trkpt lat="31.472956188293093" lon="120.25387934743398">
        <ele>7.7257728558033705</ele>
        <time>2024-11-06T11:20:03Z</time>
      </trkpt>
      <trkpt lat="31.472710717038677" lon="120.25379857817056">
        <ele>6.591502274386585</ele>
        <time>2024-11-06T11:20:11Z</time>
      </trkpt>
      <trkpt lat="31.47259714043584" lon="120.25377976724009">
        <ele>6.9560264041647315</ele>
        <time>2024-11-06T11:20:15Z</time>
      </trkpt>
      <trkpt lat="31.472373447180804" lon="120.25371543608424">
        <ele>5.352495265193284</ele>
        <time>2024-11-06T11:20:23Z</time>
      </trkpt>
      <trkpt lat="31.47213296932762" lon="120.25368317819648">
        <ele>9.594766795635223</ele>
        <time>2024-11-06T11:20:31Z</time>
      </trkpt>
      <trkpt lat="31.47201298623371" lon="120.25369173879363">
        <ele>8.324075520969927</ele>
        <time>2024-11-06T11:20:35Z</time>
      </trkpt>
      <trkpt lat="31.47179412244761" lon="120.25378287156919">
        <ele>5.423797856085002</ele>
        <time>2024-11-06T11:20:43Z</time>
      </trkpt>
      <trkpt lat="31.47170808656248" lon="120.25392671801605">
        <ele>6.585370814427733</ele>
        <time>2024-11-06T11:20:47Z</time>
      </trkpt>
      <trkpt lat="31.471678380648243" lon="120.25421421010044">
        <ele>4.68639468960464</ele>
        <time>2024-11-06T11:20:55Z</time>
      </trkpt>
      <trkpt lat="31.471735796105268" lon="120.25434398217544">
        <ele>5.044051218777895</ele>
        <time>2024-11-06T11:20:59Z</time>
      </trkpt>
      <trkpt lat="31.471847460085034" lon="120.25444635993426">
        <ele>6.81837765686214</ele>
        <time>2024-11-06T11:21:03Z</time>
      </trkpt>
      <trkpt lat="31.472063348151906" lon="120.25455425594427">
        <ele>9.79496693238616</ele>
        <time>2024-11-06T11:21:11Z</time>
      </trkpt>
      <trkpt lat="31.47238602658933" lon="120.25463345418332">
        <ele>6.287094089202583</ele>
        <time>2024-11-06T11:21:23Z</time>
      </trkpt>
      <trkpt lat="31.472738184219832" lon="120.25467741558857">
        <ele>8.135238978080451</ele>
        <time>2024-11-06T11:21:35Z</time>
      </trkpt>
      <trkpt lat="31.472858959415817" lon="120.25465871596529">
        <ele>7.417475491762161</ele>
        <time>2024-11-06T11:21:39Z</time>
      </trkpt>
      <trkpt lat="31.472985333261477" lon="120.2545730464606">
        <ele>7.460089479573071</ele>
        <time>2024-11-06T11:21:43Z</time>
      </trkpt>
      <trkpt lat="31.473058175690763" lon="120.25447518677122">
        <ele>7.039796492084861</ele>
        <time>2024-11-06T11:21:47Z</time>
      </trkpt>
      <trkpt lat="31.47311657932132" lon="120.25435039516812">
        <ele>8.25619243644178</ele>
        <time>2024-11-06T11:21:51Z</time>
      </trkpt>
      <trkpt lat="31.47313322956345" lon="120.25419469145181">
        <ele>8.369301149621606</ele>
        <time>2024-11-06T11:21:55Z</time>
      </trkpt>
      <trkpt lat="31.473074104015033" lon="120.25397938196414">
        <ele>7.743392177857459</ele>
        <time>2024-11-06T11:22:02Z</time>
      </trkpt>
      <trkpt lat="31.472987165613564" lon="120.25387599811246">
        <ele>7.827182621695101</ele>
        <time>2024-11-06T11:22:06Z</time>
      </trkpt>
      <trkpt lat="31.47289732529633" lon="120.25381892906856">
        <ele>7.817003842443228</ele>
        <time>2024-11-06T11:22:10Z</time>
      </trkpt>
      <trkpt lat="31.47255553030694" lon="120.25374233746906">
        <ele>5.824701890349388</ele>
        <time>2024-11-06T11:22:22Z</time>
      </trkpt>
      <trkpt lat="31.472342494857635" lon="120.25372118675244">
        <ele>5.793392142280936</ele>
        <time>2024-11-06T11:22:30Z</time>
      </trkpt>
      <trkpt lat="31.47223145049242" lon="120.25368731558899">
        <ele>6.705482194200158</ele>
        <time>2024-11-06T11:22:34Z</time>
      </trkpt>
      <trkpt lat="31.472136849853854" lon="120.25369284840698">
        <ele>7.175825099460781</ele>
        <time>2024-11-06T11:22:38Z</time>
      </trkpt>
      <trkpt lat="31.472017667693063" lon="120.2536600931366">
        <ele>7.257939853705466</ele>
        <time>2024-11-06T11:22:42Z</time>
      </trkpt>
      <trkpt lat="31.471904702156344" lon="120.25370221409774">
        <ele>7.497503238730133</ele>
        <time>2024-11-06T11:22:46Z</time>
      </trkpt>
      <trkpt lat="31.471826145857463" lon="120.25375754599415">
        <ele>8.097991310991347</ele>
        <time>2024-11-06T11:22:50Z</time>
      </trkpt>
      <trkpt lat="31.47175795535375" lon="120.25384954385245">
        <ele>8.88951959554106</ele>
        <time>2024-11-06T11:22:54Z</time>
      </trkpt>
      <trkpt lat="31.4717036201918" lon="120.2539596508643">
        <ele>8.107366122305393</ele>
        <time>2024-11-06T11:22:58Z</time>
      </trkpt>
      <trkpt lat="31.471690151561905" lon="120.25408183863166">
        <ele>7.401045320555568</ele>
        <time>2024-11-06T11:23:02Z</time>
      </trkpt>
      <trkpt lat="31.471736415425468" lon="120.25431738499344">
        <ele>7.865441464819014</ele>
        <time>2024-11-06T11:23:10Z</time>
      </trkpt>
      <trkpt lat="31.47180569996611" lon="120.2544390621677">
        <ele>7.28049071598798</ele>
        <time>2024-11-06T11:23:14Z</time>
      </trkpt>
      <trkpt lat="31.47189397697944" lon="120.25451444091291">
        <ele>7.39734950941056</ele>
        <time>2024-11-06T11:23:18Z</time>
      </trkpt>
      <trkpt lat="31.47200601920431" lon="120.25456943300249">
        <ele>8.077772507444024</ele>
        <time>2024-11-06T11:23:22Z</time>
      </trkpt>
      <trkpt lat="31.472316134719197" lon="120.25463298137767">
        <ele>8.325568744912744</ele>
        <time>2024-11-06T11:23:34Z</time>
      </trkpt>
      <trkpt lat="31.472418574326845" lon="120.25466213038257">
        <ele>6.519453842192888</ele>
        <time>2024-11-06T11:23:38Z</time>
      </trkpt>
      <trkpt lat="31.472532944278612" lon="120.25466086613375">
        <ele>7.113277465105057</ele>
        <time>2024-11-06T11:23:42Z</time>
      </trkpt>
      <trkpt lat="31.472733699604003" lon="120.25469050997755">
        <ele>9.07880868948996</ele>
        <time>2024-11-06T11:23:50Z</time>
      </trkpt>
      <trkpt lat="31.472854507225136" lon="120.25467793412669">
        <ele>8.660465735010803</ele>
        <time>2024-11-06T11:23:54Z</time>
      </trkpt>
      <trkpt lat="31.47304356744225" lon="120.25452657660615">
        <ele>7.0344375893473625</ele>
        <time>2024-11-06T11:24:02Z</time>
      </trkpt>
      <trkpt lat="31.47310442883297" lon="120.25441905063792">
        <ele>7.387292334809899</ele>
        <time>2024-11-06T11:24:06Z</time>
      </trkpt>
      <trkpt lat="31.47314431671523" lon="120.25428603702382">
        <ele>9.006490149535239</ele>
        <time>2024-11-06T11:24:10Z</time>
      </trkpt>
      <trkpt lat="31.473098066212586" lon="120.25403931041853">
        <ele>8.830158714205027</ele>
        <time>2024-11-06T11:24:18Z</time>
      </trkpt>
      <trkpt lat="31.47304534615063" lon="120.25393378964036">
        <ele>8.129796049557626</ele>
        <time>2024-11-06T11:24:22Z</time>
      </trkpt>
      <trkpt lat="31.472850768227772" lon="120.25381359125146">
        <ele>8.399399779736996</ele>
        <time>2024-11-06T11:24:30Z</time>
      </trkpt>
      <trkpt lat="31.4725310889969" lon="120.25375693327706">
        <ele>7.7347393818199635</ele>
        <time>2024-11-06T11:24:42Z</time>
      </trkpt>
      <trkpt lat="31.47220755343073" lon="120.25369886663469">
        <ele>7.245343646034598</ele>
        <time>2024-11-06T11:24:54Z</time>
      </trkpt>
      <trkpt lat="31.472088410218344" lon="120.25367866282159">
        <ele>7.687381208874285</ele>
        <time>2024-11-06T11:24:58Z</time>
      </trkpt>
      <trkpt lat="31.47197333645889" lon="120.25369288397003">
        <ele>8.370798211544752</ele>
        <time>2024-11-06T11:25:02Z</time>
      </trkpt>
      <trkpt lat="31.471857956643742" lon="120.25373300847515">
        <ele>7.729978036135435</ele>
        <time>2024-11-06T11:25:06Z</time>
      </trkpt>
      <trkpt lat="31.471776137211382" lon="120.2538232052304">
        <ele>7.204498312436044</ele>
        <time>2024-11-06T11:25:10Z</time>
      </trkpt>
      <trkpt lat="31.471718928339218" lon="120.25393446816743">
        <ele>7.883033775724471</ele>
        <time>2024-11-06T11:25:14Z</time>
      </trkpt>
      <trkpt lat="31.471685318589472" lon="120.25405800498466">
        <ele>7.530103604309261</ele>
        <time>2024-11-06T11:25:18Z</time>
      </trkpt>
      <trkpt lat="31.471678424600313" lon="120.25417774074164">
        <ele>6.899004153907299</ele>
        <time>2024-11-06T11:25:22Z</time>
      </trkpt>
      <trkpt lat="31.471728711831783" lon="120.25431250943488">
        <ele>7.6175758531317115</ele>
        <time>2024-11-06T11:25:26Z</time>
      </trkpt>
      <trkpt lat="31.471792606375192" lon="120.25441677643428">
        <ele>8.50523612741381</ele>
        <time>2024-11-06T11:25:30Z</time>
      </trkpt>
      <trkpt lat="31.47189028662322" lon="120.25450762865601">
        <ele>7.591056658886373</ele>
        <time>2024-11-06T11:25:34Z</time>
      </trkpt>
      <trkpt lat="31.471983891585094" lon="120.25455251663756">
        <ele>7.104557437822223</ele>
        <time>2024-11-06T11:25:38Z</time>
      </trkpt>
      <trkpt lat="31.472277052117892" lon="120.25461787402621">
        <ele>7.521462691016495</ele>
        <time>2024-11-06T11:25:50Z</time>
      </trkpt>
      <trkpt lat="31.472577022154244" lon="120.25468281229621">
        <ele>8.767423401586711</ele>
        <time>2024-11-06T11:26:02Z</time>
      </trkpt>
      <trkpt lat="31.47267822699282" lon="120.25470758171883">
        <ele>8.151967350393534</ele>
        <time>2024-11-06T11:26:06Z</time>
      </trkpt>
      <trkpt lat="31.47291566116495" lon="120.25465821602349">
        <ele>7.196104027330875</ele>
        <time>2024-11-06T11:26:15Z</time>
      </trkpt>
      <trkpt lat="31.473003958391494" lon="120.25459204632409">
        <ele>8.097200682386756</ele>
        <time>2024-11-06T11:26:19Z</time>
      </trkpt>
      <trkpt lat="31.473115570992526" lon="120.25437025128596">
        <ele>7.379059049300849</ele>
        <time>2024-11-06T11:26:27Z</time>
      </trkpt>
      <trkpt lat="31.473138698632052" lon="120.25425425061417">
        <ele>7.853241937234998</ele>
        <time>2024-11-06T11:26:31Z</time>
      </trkpt>
      <trkpt lat="31.473129715559082" lon="120.25414312508995">
        <ele>8.639364174567163</ele>
        <time>2024-11-06T11:26:35Z</time>
      </trkpt>
      <trkpt lat="31.473095943048037" lon="120.25402025484274">
        <ele>7.44760359544307</ele>
        <time>2024-11-06T11:26:39Z</time>
      </trkpt>
      <trkpt lat="31.47304267615972" lon="120.25392108164532">
        <ele>7.304700765758753</ele>
        <time>2024-11-06T11:26:43Z</time>
      </trkpt>
      <trkpt lat="31.47293860868936" lon="120.25383422488653">
        <ele>7.598887214437127</ele>
        <time>2024-11-06T11:26:47Z</time>
      </trkpt>
      <trkpt lat="31.472848600864477" lon="120.25380332586538">
        <ele>6.319503610953689</ele>
        <time>2024-11-06T11:26:51Z</time>
      </trkpt>
      <trkpt lat="31.472490684344532" lon="120.2537255618386">
        <ele>6.834371379576623</ele>
        <time>2024-11-06T11:27:03Z</time>
      </trkpt>
      <trkpt lat="31.472145360048415" lon="120.25366970943888">
        <ele>5.752238336019218</ele>
        <time>2024-11-06T11:27:15Z</time>
      </trkpt>
      <trkpt lat="31.471924454535266" lon="120.25370728375772">
        <ele>6.731505612842739</ele>
        <time>2024-11-06T11:27:23Z</time>
      </trkpt>
      <trkpt lat="31.47175843874229" lon="120.25386976344454">
        <ele>8.453223377466202</ele>
        <time>2024-11-06T11:27:31Z</time>
      </trkpt>
      <trkpt lat="31.471705149368265" lon="120.25398570856589">
        <ele>7.911816827021539</ele>
        <time>2024-11-06T11:27:35Z</time>
      </trkpt>
      <trkpt lat="31.47169705670503" lon="120.25411664930928">
        <ele>7.515771136619151</ele>
        <time>2024-11-06T11:27:39Z</time>
      </trkpt>
      <trkpt lat="31.471714251172966" lon="120.25425682274475">
        <ele>8.483549822121859</ele>
        <time>2024-11-06T11:27:43Z</time>
      </trkpt>
      <trkpt lat="31.47176589408069" lon="120.25437607695028">
        <ele>8.462307071313262</ele>
        <time>2024-11-06T11:27:47Z</time>
      </trkpt>
      <trkpt lat="31.471859691718084" lon="120.25447979325344">
        <ele>8.630863633938134</ele>
        <time>2024-11-06T11:27:51Z</time>
      </trkpt>
      <trkpt lat="31.471956273817774" lon="120.25455802987788">
        <ele>8.94020851701498</ele>
        <time>2024-11-06T11:27:55Z</time>
      </trkpt>
      <trkpt lat="31.472300585833498" lon="120.25462829710432">
        <ele>9.252677432261407</ele>
        <time>2024-11-06T11:28:07Z</time>
      </trkpt>
      <trkpt lat="31.472643334481955" lon="120.25468375704253">
        <ele>9.120610954239964</ele>
        <time>2024-11-06T11:28:20Z</time>
      </trkpt>
      <trkpt lat="31.472840558560335" lon="120.25467301665502">
        <ele>8.070564417168498</ele>
        <time>2024-11-06T11:28:27Z</time>
      </trkpt>
      <trkpt lat="31.472928860015095" lon="120.25464394790065">
        <ele>6.486315056681633</ele>
        <time>2024-11-06T11:28:30Z</time>
      </trkpt>
      <trkpt lat="31.473009380847515" lon="120.25459524795954">
        <ele>7.310607033781707</ele>
        <time>2024-11-06T11:28:33Z</time>
      </trkpt>
      <trkpt lat="31.473079982577673" lon="120.25452484793206">
        <ele>6.305886236950755</ele>
        <time>2024-11-06T11:28:36Z</time>
      </trkpt>
      <trkpt lat="31.473147864514566" lon="120.25427383626491">
        <ele>10.42198258265853</ele>
        <time>2024-11-06T11:28:43Z</time>
      </trkpt>
      <trkpt lat="31.47315884610866" lon="120.25415161414834">
        <ele>9.43538945261389</ele>
        <time>2024-11-06T11:28:47Z</time>
      </trkpt>
      <trkpt lat="31.47310823844795" lon="120.2540284163615">
        <ele>8.031058611348271</ele>
        <time>2024-11-06T11:28:51Z</time>
      </trkpt>
      <trkpt lat="31.473025001517755" lon="120.25390481364657">
        <ele>8.822543155401945</ele>
        <time>2024-11-06T11:28:55Z</time>
      </trkpt>
      <trkpt lat="31.472928982314702" lon="120.25382298439372">
        <ele>7.963547738268971</ele>
        <time>2024-11-06T11:28:59Z</time>
      </trkpt>
      <trkpt lat="31.472590062186903" lon="120.25376624811595">
        <ele>9.22207242064178</ele>
        <time>2024-11-06T11:29:11Z</time>
      </trkpt>
      <trkpt lat="31.472278017478025" lon="120.25371021967509">
        <ele>9.125383888371289</ele>
        <time>2024-11-06T11:29:23Z</time>
      </trkpt>
      <trkpt lat="31.471967701904283" lon="120.25368831724381">
        <ele>9.313894571736455</ele>
        <time>2024-11-06T11:29:35Z</time>
      </trkpt>
      <trkpt lat="31.47187363317669" lon="120.25373581177688">
        <ele>9.405881439335644</ele>
        <time>2024-11-06T11:29:39Z</time>
      </trkpt>
      <trkpt lat="31.471794312488132" lon="120.25381548600308">
        <ele>8.882016244344413</ele>
        <time>2024-11-06T11:29:43Z</time>
      </trkpt>
      <trkpt lat="31.47174152306048" lon="120.25393181700197">
        <ele>9.423840193077922</ele>
        <time>2024-11-06T11:29:47Z</time>
      </trkpt>
      <trkpt lat="31.471711577977764" lon="120.25416515515937">
        <ele>9.136800252832472</ele>
        <time>2024-11-06T11:29:55Z</time>
      </trkpt>
      <trkpt lat="31.47172905289574" lon="120.25431415657586">
        <ele>9.249239049851894</ele>
        <time>2024-11-06T11:29:59Z</time>
      </trkpt>
      <trkpt lat="31.471874655821193" lon="120.25449948654723">
        <ele>8.93602457549423</ele>
        <time>2024-11-06T11:30:07Z</time>
      </trkpt>
      <trkpt lat="31.47196367466511" lon="120.25455855439134">
        <ele>8.069224132224917</ele>
        <time>2024-11-06T11:30:11Z</time>
      </trkpt>
      <trkpt lat="31.472184498254595" lon="120.25461070037721">
        <ele>10.027951369062066</ele>
        <time>2024-11-06T11:30:19Z</time>
      </trkpt>
      <trkpt lat="31.472276157101813" lon="120.25461692923488">
        <ele>9.930217825807631</ele>
        <time>2024-11-06T11:30:22Z</time>
      </trkpt>
      <trkpt lat="31.472443786063895" lon="120.25467560886065">
        <ele>8.477455790154636</ele>
        <time>2024-11-06T11:30:29Z</time>
      </trkpt>
      <trkpt lat="31.472723470486624" lon="120.25470480504988">
        <ele>9.356469377875328</ele>
        <time>2024-11-06T11:30:39Z</time>
      </trkpt>
      <trkpt lat="31.472857126123063" lon="120.25471161912576">
        <ele>9.453187531791627</ele>
        <time>2024-11-06T11:30:43Z</time>
      </trkpt>
      <trkpt lat="31.47297122966843" lon="120.25462887038219">
        <ele>10.05434696096927</ele>
        <time>2024-11-06T11:30:47Z</time>
      </trkpt>
      <trkpt lat="31.47313791953615" lon="120.25441615265525">
        <ele>8.37024025246501</ele>
        <time>2024-11-06T11:30:55Z</time>
      </trkpt>
      <trkpt lat="31.473146791746846" lon="120.2541518683732">
        <ele>8.0878651374951</ele>
        <time>2024-11-06T11:31:03Z</time>
      </trkpt>
      <trkpt lat="31.47308878469573" lon="120.25400690168237">
        <ele>7.5914640333503485</ele>
        <time>2024-11-06T11:31:07Z</time>
      </trkpt>
      <trkpt lat="31.472924292185006" lon="120.25381988124728">
        <ele>7.191066399216652</ele>
        <time>2024-11-06T11:31:15Z</time>
      </trkpt>
      <trkpt lat="31.47261522884496" lon="120.25377297003442">
        <ele>7.337803863920271</ele>
        <time>2024-11-06T11:31:27Z</time>
      </trkpt>
      <trkpt lat="31.47240810934484" lon="120.25371487788104">
        <ele>7.854264733381569</ele>
        <time>2024-11-06T11:31:35Z</time>
      </trkpt>
      <trkpt lat="31.472219346087115" lon="120.25370617317606">
        <ele>8.89995816256851</ele>
        <time>2024-11-06T11:31:43Z</time>
      </trkpt>
      <trkpt lat="31.472091309314916" lon="120.25366568392718">
        <ele>8.91108039021492</ele>
        <time>2024-11-06T11:31:47Z</time>
      </trkpt>
      <trkpt lat="31.471863996225423" lon="120.25372058344433">
        <ele>13.525908936746418</ele>
        <time>2024-11-06T11:31:55Z</time>
      </trkpt>
      <trkpt lat="31.471785112745263" lon="120.25381328262442">
        <ele>12.270110776647925</ele>
        <time>2024-11-06T11:31:59Z</time>
      </trkpt>
      <trkpt lat="31.471741204726865" lon="120.2539314493501">
        <ele>10.725686302408576</ele>
        <time>2024-11-06T11:32:03Z</time>
      </trkpt>
      <trkpt lat="31.47174489426087" lon="120.25404614514196">
        <ele>10.130392042919993</ele>
        <time>2024-11-06T11:32:07Z</time>
      </trkpt>
      <trkpt lat="31.47172281640474" lon="120.25416539582041">
        <ele>9.493546142242849</ele>
        <time>2024-11-06T11:32:11Z</time>
      </trkpt>
      <trkpt lat="31.47179801869059" lon="120.25441139197818">
        <ele>7.2314762165769935</ele>
        <time>2024-11-06T11:32:19Z</time>
      </trkpt>
      <trkpt lat="31.471880209204972" lon="120.25449532302173">
        <ele>9.494106485508382</ele>
        <time>2024-11-06T11:32:23Z</time>
      </trkpt>
      <trkpt lat="31.472038708503128" lon="120.25456838749935">
        <ele>9.245772880502045</ele>
        <time>2024-11-06T11:32:29Z</time>
      </trkpt>
      <trkpt lat="31.472372716849883" lon="120.25463839580001">
        <ele>7.830188985913992</ele>
        <time>2024-11-06T11:32:41Z</time>
      </trkpt>
      <trkpt lat="31.47269817861081" lon="120.25470062092595">
        <ele>7.083686648868024</ele>
        <time>2024-11-06T11:32:53Z</time>
      </trkpt>
      <trkpt lat="31.47295875810643" lon="120.25464406109128">
        <ele>8.61261931154877</ele>
        <time>2024-11-06T11:33:01Z</time>
      </trkpt>
      <trkpt lat="31.473055391064836" lon="120.25455578672268">
        <ele>10.762185397557914</ele>
        <time>2024-11-06T11:33:05Z</time>
      </trkpt>
      <trkpt lat="31.473128114319998" lon="120.25445004752531">
        <ele>9.67411735188216</ele>
        <time>2024-11-06T11:33:09Z</time>
      </trkpt>
      <trkpt lat="31.473175878199935" lon="120.25431368446787">
        <ele>9.026181277818978</ele>
        <time>2024-11-06T11:33:13Z</time>
      </trkpt>
      <trkpt lat="31.473170900342502" lon="120.25416535420949">
        <ele>9.606448414735496</ele>
        <time>2024-11-06T11:33:17Z</time>
      </trkpt>
      <trkpt lat="31.47307448658602" lon="120.25393998235808">
        <ele>9.10270017851144</ele>
        <time>2024-11-06T11:33:25Z</time>
      </trkpt>
      <trkpt lat="31.472970708800094" lon="120.25387030791917">
        <ele>9.161413706839085</ele>
        <time>2024-11-06T11:33:29Z</time>
      </trkpt>
      <trkpt lat="31.472622616576114" lon="120.2537621723212">
        <ele>8.51697623822838</ele>
        <time>2024-11-06T11:33:41Z</time>
      </trkpt>
      <trkpt lat="31.472372120573766" lon="120.25369638952753">
        <ele>7.443573578260839</ele>
        <time>2024-11-06T11:33:49Z</time>
      </trkpt>
      <trkpt lat="31.472142831311928" lon="120.25366532795711">
        <ele>7.608986317180097</ele>
        <time>2024-11-06T11:33:57Z</time>
      </trkpt>
      <trkpt lat="31.47203671533948" lon="120.25366720668602">
        <ele>7.484634067863226</ele>
        <time>2024-11-06T11:34:01Z</time>
      </trkpt>
      <trkpt lat="31.4719391242792" lon="120.2536965438682">
        <ele>8.024951833300292</ele>
        <time>2024-11-06T11:34:05Z</time>
      </trkpt>
      <trkpt lat="31.471826275649004" lon="120.2537668533815">
        <ele>8.435715447179973</ele>
        <time>2024-11-06T11:34:09Z</time>
      </trkpt>
      <trkpt lat="31.47176092531486" lon="120.25388792449964">
        <ele>8.087631213478744</ele>
        <time>2024-11-06T11:34:13Z</time>
      </trkpt>
      <trkpt lat="31.47169236065303" lon="120.25407083631556">
        <ele>11.836525900289416</ele>
        <time>2024-11-06T11:34:17Z</time>
      </trkpt>
      <trkpt lat="31.471727269916226" lon="120.2542221924363">
        <ele>8.716124336235225</ele>
        <time>2024-11-06T11:34:21Z</time>
      </trkpt>
      <trkpt lat="31.471799037513804" lon="120.2543870304319">
        <ele>9.53140848595649</ele>
        <time>2024-11-06T11:34:25Z</time>
      </trkpt>
      <trkpt lat="31.471896842346567" lon="120.25449880479074">
        <ele>9.132391903549433</ele>
        <time>2024-11-06T11:34:28Z</time>
      </trkpt>
      <trkpt lat="31.47216108903594" lon="120.25459646371552">
        <ele>8.607766442000866</ele>
        <time>2024-11-06T11:34:35Z</time>
      </trkpt>
      <trkpt lat="31.472532695795145" lon="120.2546864169037">
        <ele>12.120027858763933</ele>
        <time>2024-11-06T11:34:44Z</time>
      </trkpt>
      <trkpt lat="31.4728202298802" lon="120.25471025666754">
        <ele>8.685080434195697</ele>
        <time>2024-11-06T11:34:52Z</time>
      </trkpt>
      <trkpt lat="31.4729417476055" lon="120.25465296707539">
        <ele>8.664722117595375</ele>
        <time>2024-11-06T11:34:56Z</time>
      </trkpt>
      <trkpt lat="31.473094372926106" lon="120.25451373351136">
        <ele>9.535684504546225</ele>
        <time>2024-11-06T11:35:04Z</time>
      </trkpt>
      <trkpt lat="31.473142883183158" lon="120.25436614702039">
        <ele>6.865901947021484</ele>
        <time>2024-11-06T11:35:08Z</time>
      </trkpt>
      <trkpt lat="31.473166195525277" lon="120.25424026768799">
        <ele>7.237764031626284</ele>
        <time>2024-11-06T11:35:12Z</time>
      </trkpt>
      <trkpt lat="31.473148047460466" lon="120.25409759771765">
        <ele>8.084331324324012</ele>
        <time>2024-11-06T11:35:16Z</time>
      </trkpt>
      <trkpt lat="31.473018993569738" lon="120.25388229740112">
        <ele>9.039876162074506</ele>
        <time>2024-11-06T11:35:24Z</time>
      </trkpt>
      <trkpt lat="31.472906083381297" lon="120.2538175268446">
        <ele>8.509706788696349</ele>
        <time>2024-11-06T11:35:28Z</time>
      </trkpt>
      <trkpt lat="31.47263463429559" lon="120.25374409114228">
        <ele>10.652303030714393</ele>
        <time>2024-11-06T11:35:38Z</time>
      </trkpt>
      <trkpt lat="31.472576005203237" lon="120.25370825707715">
        <ele>9.337119253352284</ele>
        <time>2024-11-06T11:35:41Z</time>
      </trkpt>
      <trkpt lat="31.472613051149047" lon="120.25363988286055">
        <ele>7.461883431300521</ele>
        <time>2024-11-06T11:35:56Z</time>
      </trkpt>
    </trkseg>
  </trk>
</gpx>