<?xml version="1.0" encoding="UTF-8"?>
<gpx xmlns="http://www.topografix.com/GPX/1/1" xmlns:gpxtpx="http://www.garmin.com/xmlschemas/TrackPointExtension/v1" xmlns:xsi="http://www.w3.org/2001/XMLSchema-instance" xsi:schemaLocation="http://www.topografix.com/GPX/1/1 http://www.topografix.com/GPX/1/1/gpx.xsd" version="1.1" creator="gpx.py -- https://github.com/tkrajina/gpxpy">
  <trk>
    <name>gpx from keep</name>
    <type>Run</type>
    <trkseg>
      <trkpt lat="36.03092594416062" lon="119.41448236782142">
        <ele>66.73388671875</ele>
        <time>2023-02-06T02:25:22Z</time>
      </trkpt>
      <trkpt lat="36.03110889099482" lon="119.41446832878012">
        <ele>66.8599853515625</ele>
        <time>2023-02-06T02:25:34Z</time>
      </trkpt>
      <trkpt lat="36.031427837024836" lon="119.41449232475452">
        <ele>67.85723876953125</ele>
        <time>2023-02-06T02:25:46Z</time>
      </trkpt>
      <trkpt lat="36.03149483046452" lon="119.41450333180384">
        <ele>66.55865478515625</ele>
        <time>2023-02-06T02:25:49Z</time>
      </trkpt>
      <trkpt lat="36.03156880229215" lon="119.4144893049701">
        <ele>65.8338623046875</ele>
        <time>2023-02-06T02:25:52Z</time>
      </trkpt>
      <trkpt lat="36.03156965642203" lon="119.41430606361195">
        <ele>65.717529296875</ele>
        <time>2023-02-06T02:25:58Z</time>
      </trkpt>
      <trkpt lat="36.03160850490887" lon="119.4141248225005">
        <ele>64.95880126953125</ele>
        <time>2023-02-06T02:26:04Z</time>
      </trkpt>
      <trkpt lat="36.03160443860079" lon="119.4140387111189">
        <ele>66.2757568359375</ele>
        <time>2023-02-06T02:26:07Z</time>
      </trkpt>
      <trkpt lat="36.0316423072464" lon="119.4138805024972">
        <ele>67.4154052734375</ele>
        <time>2023-02-06T02:26:13Z</time>
      </trkpt>
      <trkpt lat="36.031647242892646" lon="119.41379839643596">
        <ele>68.22808837890625</ele>
        <time>2023-02-06T02:26:19Z</time>
      </trkpt>
      <trkpt lat="36.0317508930894" lon="119.4104413986182">
        <ele>73.9140625</ele>
        <time>2023-02-06T02:29:27Z</time>
      </trkpt>
      <trkpt lat="36.03177374017499" lon="119.41020013424165">
        <ele>69.39251708984375</ele>
        <time>2023-02-06T02:29:42Z</time>
      </trkpt>
      <trkpt lat="36.0318765328724" lon="119.4098937950551">
        <ele>65.1422119140625</ele>
        <time>2023-02-06T02:30:00Z</time>
      </trkpt>
      <trkpt lat="36.03181134342617" lon="119.40954443520589">
        <ele>71.818115234375</ele>
        <time>2023-02-06T02:30:18Z</time>
      </trkpt>
      <trkpt lat="36.031850206220994" lon="119.40932019884718">
        <ele>69.9437255859375</ele>
        <time>2023-02-06T02:30:30Z</time>
      </trkpt>
      <trkpt lat="36.031838088547275" lon="119.40910598124353">
        <ele>66.343994140625</ele>
        <time>2023-02-06T02:30:42Z</time>
      </trkpt>
      <trkpt lat="36.031838915901346" lon="119.40879266559871">
        <ele>68.4954833984375</ele>
        <time>2023-02-06T02:31:00Z</time>
      </trkpt>
      <trkpt lat="36.03182186402697" lon="119.40868956489618">
        <ele>70.833984375</ele>
        <time>2023-02-06T02:31:06Z</time>
      </trkpt>
      <trkpt lat="36.03184374940456" lon="119.4084843600043">
        <ele>67.8731689453125</ele>
        <time>2023-02-06T02:31:18Z</time>
      </trkpt>
      <trkpt lat="36.03184564126206" lon="119.40827915975578">
        <ele>69.066162109375</ele>
        <time>2023-02-06T02:31:30Z</time>
      </trkpt>
      <trkpt lat="36.03189947572545" lon="119.40798086720565">
        <ele>67.5120849609375</ele>
        <time>2023-02-06T02:31:48Z</time>
      </trkpt>
      <trkpt lat="36.03194042085797" lon="119.40789077707655">
        <ele>66.8642578125</ele>
        <time>2023-02-06T02:31:54Z</time>
      </trkpt>
      <trkpt lat="36.03199819681536" lon="119.40746337108601">
        <ele>63.4876708984375</ele>
        <time>2023-02-06T02:32:18Z</time>
      </trkpt>
      <trkpt lat="36.03194720221933" lon="119.40745036481168">
        <ele>63.6060791015625</ele>
        <time>2023-02-06T02:32:25Z</time>
      </trkpt>
      <trkpt lat="36.031907180547485" lon="119.40738631037036">
        <ele>64.31158447265625</ele>
        <time>2023-02-06T02:32:30Z</time>
      </trkpt>
      <trkpt lat="36.031939121584834" lon="119.40727820786181">
        <ele>63.36944580078125</ele>
        <time>2023-02-06T02:32:36Z</time>
      </trkpt>
      <trkpt lat="36.03191308633925" lon="119.40719113158143">
        <ele>65.9085693359375</ele>
        <time>2023-02-06T02:32:42Z</time>
      </trkpt>
      <trkpt lat="36.03182605747407" lon="119.40708704723939">
        <ele>64.58892822265625</ele>
        <time>2023-02-06T02:32:57Z</time>
      </trkpt>
      <trkpt lat="36.03177306449084" lon="119.40707604327106">
        <ele>64.4410400390625</ele>
        <time>2023-02-06T02:33:03Z</time>
      </trkpt>
      <trkpt lat="36.031701060980865" lon="119.40703301265049">
        <ele>64.12109375</ele>
        <time>2023-02-06T02:33:09Z</time>
      </trkpt>
      <trkpt lat="36.031664999143274" lon="119.40688088072753">
        <ele>65.0111083984375</ele>
        <time>2023-02-06T02:33:18Z</time>
      </trkpt>
      <trkpt lat="36.03169481146787" lon="119.40647752325413">
        <ele>67.4879150390625</ele>
        <time>2023-02-06T02:33:42Z</time>
      </trkpt>
      <trkpt lat="36.031723631757465" lon="119.40607517599666">
        <ele>66.48553466796875</ele>
        <time>2023-02-06T02:34:06Z</time>
      </trkpt>
      <trkpt lat="36.031745491712314" lon="119.40574890132324">
        <ele>65.34979248046875</ele>
        <time>2023-02-06T02:34:31Z</time>
      </trkpt>
      <trkpt lat="36.031799420822324" lon="119.40560377613434">
        <ele>59.30023193359375</ele>
        <time>2023-02-06T02:34:43Z</time>
      </trkpt>
      <trkpt lat="36.031746402684014" lon="119.40552772012404">
        <ele>67.216064453125</ele>
        <time>2023-02-06T02:34:46Z</time>
      </trkpt>
      <trkpt lat="36.031765367118496" lon="119.40544865393353">
        <ele>64.4696044921875</ele>
        <time>2023-02-06T02:34:52Z</time>
      </trkpt>
      <trkpt lat="36.03180920970388" lon="119.40506534347482">
        <ele>66.64208984375</ele>
        <time>2023-02-06T02:35:16Z</time>
      </trkpt>
      <trkpt lat="36.0318220735376" lon="119.4047030609241">
        <ele>65.05462646484375</ele>
        <time>2023-02-06T02:35:37Z</time>
      </trkpt>
      <trkpt lat="36.03181403855256" lon="119.404599983206">
        <ele>64.87811279296875</ele>
        <time>2023-02-06T02:35:43Z</time>
      </trkpt>
      <trkpt lat="36.031822918334015" lon="119.40425972696909">
        <ele>44.27667236328125</ele>
        <time>2023-02-06T02:36:01Z</time>
      </trkpt>
      <trkpt lat="36.0318568338844" lon="119.40403055495355">
        <ele>63.24053955078125</ele>
        <time>2023-02-06T02:36:16Z</time>
      </trkpt>
      <trkpt lat="36.03188479896034" lon="119.40394348869046">
        <ele>64.61956787109375</ele>
        <time>2023-02-06T02:36:22Z</time>
      </trkpt>
      <trkpt lat="36.03189168332406" lon="119.40358423199547">
        <ele>63.1165771484375</ele>
        <time>2023-02-06T02:36:43Z</time>
      </trkpt>
      <trkpt lat="36.031921563799" lon="119.40320996980958">
        <ele>65.01214599609375</ele>
        <time>2023-02-06T02:37:04Z</time>
      </trkpt>
      <trkpt lat="36.03196244691831" lon="119.40283171168602">
        <ele>62.85711669921875</ele>
        <time>2023-02-06T02:37:25Z</time>
      </trkpt>
      <trkpt lat="36.03196733668374" lon="119.40242244593976">
        <ele>63.28076171875</ele>
        <time>2023-02-06T02:37:49Z</time>
      </trkpt>
      <trkpt lat="36.03198426512019" lon="119.4021532747854">
        <ele>63.95819091796875</ele>
        <time>2023-02-06T02:38:04Z</time>
      </trkpt>
      <trkpt lat="36.031973244035484" lon="119.40205621599688">
        <ele>63.4254150390625</ele>
        <time>2023-02-06T02:38:10Z</time>
      </trkpt>
      <trkpt lat="36.03197914374434" lon="119.40162895742627">
        <ele>62.345947265625</ele>
        <time>2023-02-06T02:38:37Z</time>
      </trkpt>
      <trkpt lat="36.031981066012115" lon="119.40126774721105">
        <ele>63.08294677734375</ele>
        <time>2023-02-06T02:39:01Z</time>
      </trkpt>
      <trkpt lat="36.03198305347742" lon="119.40120871336686">
        <ele>62.7115478515625</ele>
        <time>2023-02-06T02:39:07Z</time>
      </trkpt>
      <trkpt lat="36.032053809027424" lon="119.39989800952112">
        <ele>67.06573486328125</ele>
        <time>2023-02-06T02:40:35Z</time>
      </trkpt>
      <trkpt lat="36.0320677933689" lon="119.39981096515862">
        <ele>67.900390625</ele>
        <time>2023-02-06T02:40:38Z</time>
      </trkpt>
      <trkpt lat="36.03209278049687" lon="119.39975993746502">
        <ele>67.239990234375</ele>
        <time>2023-02-06T02:40:41Z</time>
      </trkpt>
      <trkpt lat="36.03210672893523" lon="119.39938975972788">
        <ele>64.6119384765625</ele>
        <time>2023-02-06T02:41:02Z</time>
      </trkpt>
      <trkpt lat="36.03210768781035" lon="119.39903259693217">
        <ele>68.15789794921875</ele>
        <time>2023-02-06T02:41:23Z</time>
      </trkpt>
      <trkpt lat="36.032110676680304" lon="119.39893255230844">
        <ele>67.5294189453125</ele>
        <time>2023-02-06T02:41:29Z</time>
      </trkpt>
      <trkpt lat="36.03225453881282" lon="119.39739492590923">
        <ele>0.0</ele>
        <time>2023-02-06T02:43:36Z</time>
      </trkpt>
      <trkpt lat="36.03230154607332" lon="119.39781007237447">
        <ele>0.0</ele>
        <time>2023-02-06T02:44:03Z</time>
      </trkpt>
      <trkpt lat="36.031874651686415" lon="119.39794917330958">
        <ele>0.0</ele>
        <time>2023-02-06T02:44:49Z</time>
      </trkpt>
      <trkpt lat="36.03005603066264" lon="119.39641085146803">
        <ele>0.0</ele>
        <time>2023-02-06T02:45:37Z</time>
      </trkpt>
      <trkpt lat="36.03006103042649" lon="119.39690300487763">
        <ele>0.0</ele>
        <time>2023-02-06T02:45:46Z</time>
      </trkpt>
      <trkpt lat="36.03005529685242" lon="119.39659964542197">
        <ele>0.0</ele>
        <time>2023-02-06T02:45:58Z</time>
      </trkpt>
      <trkpt lat="36.02990707223704" lon="119.39599974989251">
        <ele>0.0</ele>
        <time>2023-02-06T02:47:16Z</time>
      </trkpt>
      <trkpt lat="36.029911086365914" lon="119.39558263898154">
        <ele>0.0</ele>
        <time>2023-02-06T02:47:25Z</time>
      </trkpt>
      <trkpt lat="36.02991150586653" lon="119.39527631507727">
        <ele>0.0</ele>
        <time>2023-02-06T02:47:34Z</time>
      </trkpt>
      <trkpt lat="36.02991894678909" lon="119.39505923819601">
        <ele>0.0</ele>
        <time>2023-02-06T02:47:43Z</time>
      </trkpt>
      <trkpt lat="36.02992030703468" lon="119.39493441174005">
        <ele>0.0</ele>
        <time>2023-02-06T02:47:49Z</time>
      </trkpt>
      <trkpt lat="36.02990534272458" lon="119.39481621201722">
        <ele>0.0</ele>
        <time>2023-02-06T02:47:58Z</time>
      </trkpt>
      <trkpt lat="36.02986417922398" lon="119.39441938699272">
        <ele>0.0</ele>
        <time>2023-02-06T02:48:43Z</time>
      </trkpt>
      <trkpt lat="36.029966167836584" lon="119.39429735287189">
        <ele>0.0</ele>
        <time>2023-02-06T02:48:55Z</time>
      </trkpt>
      <trkpt lat="36.02989118454358" lon="119.39430236220834">
        <ele>0.0</ele>
        <time>2023-02-06T02:49:16Z</time>
      </trkpt>
      <trkpt lat="36.02996221484258" lon="119.39387928187374">
        <ele>0.0</ele>
        <time>2023-02-06T02:49:43Z</time>
      </trkpt>
      <trkpt lat="36.029920253847806" lon="119.39364325049098">
        <ele>0.0</ele>
        <time>2023-02-06T02:49:49Z</time>
      </trkpt>
      <trkpt lat="36.029769866406255" lon="119.39345703660685">
        <ele>0.0</ele>
        <time>2023-02-06T02:49:58Z</time>
      </trkpt>
      <trkpt lat="36.02953037836551" lon="119.39338425819103">
        <ele>0.0</ele>
        <time>2023-02-06T02:50:40Z</time>
      </trkpt>
      <trkpt lat="36.02930543582515" lon="119.39334327808349">
        <ele>0.0</ele>
        <time>2023-02-06T02:51:01Z</time>
      </trkpt>
      <trkpt lat="36.02914848957999" lon="119.39322128025765">
        <ele>0.0</ele>
        <time>2023-02-06T02:51:22Z</time>
      </trkpt>
      <trkpt lat="36.02869457300172" lon="119.39336534958058">
        <ele>0.0</ele>
        <time>2023-02-06T02:51:43Z</time>
      </trkpt>
      <trkpt lat="36.02860739591913" lon="119.39335708969863">
        <ele>0.0</ele>
        <time>2023-02-06T02:51:46Z</time>
      </trkpt>
      <trkpt lat="36.02838717782359" lon="119.39335353113324">
        <ele>0.0</ele>
        <time>2023-02-06T02:51:58Z</time>
      </trkpt>
      <trkpt lat="36.02845263932461" lon="119.39329036706935">
        <ele>0.0</ele>
        <time>2023-02-06T02:52:23Z</time>
      </trkpt>
      <trkpt lat="36.027747788583945" lon="119.39337945777966">
        <ele>0.0</ele>
        <time>2023-02-06T02:53:02Z</time>
      </trkpt>
      <trkpt lat="36.02751584274879" lon="119.39337348304345">
        <ele>0.0</ele>
        <time>2023-02-06T02:53:11Z</time>
      </trkpt>
      <trkpt lat="36.027403877761955" lon="119.39330848717712">
        <ele>0.0</ele>
        <time>2023-02-06T02:53:32Z</time>
      </trkpt>
      <trkpt lat="36.027199919925685" lon="119.39334151434547">
        <ele>0.0</ele>
        <time>2023-02-06T02:53:44Z</time>
      </trkpt>
      <trkpt lat="36.02708994081383" lon="119.39337253075335">
        <ele>0.0</ele>
        <time>2023-02-06T02:54:05Z</time>
      </trkpt>
      <trkpt lat="36.02672102523302" lon="119.3933755725881">
        <ele>0.0</ele>
        <time>2023-02-06T02:54:35Z</time>
      </trkpt>
      <trkpt lat="36.026417093736555" lon="119.39338560804832">
        <ele>0.0</ele>
        <time>2023-02-06T02:54:41Z</time>
      </trkpt>
      <trkpt lat="36.02597937999841" lon="119.39340522752093">
        <ele>0.0</ele>
        <time>2023-02-06T02:54:59Z</time>
      </trkpt>
      <trkpt lat="36.025623269837475" lon="119.3934327034941">
        <ele>0.0</ele>
        <time>2023-02-06T02:55:50Z</time>
      </trkpt>
      <trkpt lat="36.0253263706314" lon="119.39320670775132">
        <ele>0.0</ele>
        <time>2023-02-06T02:56:02Z</time>
      </trkpt>
      <trkpt lat="36.025261547188684" lon="119.39225062284821">
        <ele>0.0</ele>
        <time>2023-02-06T02:57:29Z</time>
      </trkpt>
      <trkpt lat="36.025325588842676" lon="119.39196259764601">
        <ele>0.0</ele>
        <time>2023-02-06T02:57:35Z</time>
      </trkpt>
      <trkpt lat="36.02534089338359" lon="119.39171157896025">
        <ele>0.0</ele>
        <time>2023-02-06T02:57:44Z</time>
      </trkpt>
      <trkpt lat="36.02537033053622" lon="119.39176682090694">
        <ele>0.0</ele>
        <time>2023-02-06T02:57:47Z</time>
      </trkpt>
      <trkpt lat="36.025395861075005" lon="119.39161903114255">
        <ele>0.0</ele>
        <time>2023-02-06T02:57:53Z</time>
      </trkpt>
      <trkpt lat="36.02531855006391" lon="119.39145924510568">
        <ele>0.0</ele>
        <time>2023-02-06T02:57:59Z</time>
      </trkpt>
      <trkpt lat="36.02538471512106" lon="119.39131456695131">
        <ele>0.0</ele>
        <time>2023-02-06T02:58:41Z</time>
      </trkpt>
      <trkpt lat="36.025290833277275" lon="119.39090957400998">
        <ele>0.0</ele>
        <time>2023-02-06T02:59:05Z</time>
      </trkpt>
      <trkpt lat="36.02529592746489" lon="119.39053557808431">
        <ele>0.0</ele>
        <time>2023-02-06T02:59:26Z</time>
      </trkpt>
      <trkpt lat="36.025275567154374" lon="119.39030502379414">
        <ele>0.0</ele>
        <time>2023-02-06T02:59:32Z</time>
      </trkpt>
      <trkpt lat="36.025285494317785" lon="119.38986765202513">
        <ele>0.0</ele>
        <time>2023-02-06T02:59:44Z</time>
      </trkpt>
      <trkpt lat="36.025311542958846" lon="119.38966820358696">
        <ele>0.0</ele>
        <time>2023-02-06T02:59:53Z</time>
      </trkpt>
      <trkpt lat="36.02539519914884" lon="119.3895016189368">
        <ele>0.0</ele>
        <time>2023-02-06T03:01:05Z</time>
      </trkpt>
      <trkpt lat="36.02430147352225" lon="119.38942874761703">
        <ele>0.0</ele>
        <time>2023-02-06T03:01:38Z</time>
      </trkpt>
      <trkpt lat="36.024246482476215" lon="119.38944075281404">
        <ele>0.0</ele>
        <time>2023-02-06T03:01:44Z</time>
      </trkpt>
      <trkpt lat="36.024147917524644" lon="119.38943962651909">
        <ele>0.0</ele>
        <time>2023-02-06T03:01:53Z</time>
      </trkpt>
      <trkpt lat="36.02408093692557" lon="119.38965133646957">
        <ele>0.0</ele>
        <time>2023-02-06T03:01:59Z</time>
      </trkpt>
      <trkpt lat="36.02403004637701" lon="119.38946826790519">
        <ele>0.0</ele>
        <time>2023-02-06T03:02:11Z</time>
      </trkpt>
      <trkpt lat="36.02331767558785" lon="119.38950885172581">
        <ele>0.0</ele>
        <time>2023-02-06T03:03:47Z</time>
      </trkpt>
      <trkpt lat="36.023275663016236" lon="119.38958185091911">
        <ele>0.0</ele>
        <time>2023-02-06T03:03:53Z</time>
      </trkpt>
      <trkpt lat="36.02320389470416" lon="119.3895756994714">
        <ele>0.0</ele>
        <time>2023-02-06T03:03:59Z</time>
      </trkpt>
      <trkpt lat="36.02299275417959" lon="119.38949688915255">
        <ele>0.0</ele>
        <time>2023-02-06T03:04:35Z</time>
      </trkpt>
      <trkpt lat="36.022097813629124" lon="119.38710832849938">
        <ele>0.0</ele>
        <time>2023-02-06T03:07:52Z</time>
      </trkpt>
      <trkpt lat="36.02199973991241" lon="119.38509385885378">
        <ele>0.0</ele>
        <time>2023-02-06T03:10:13Z</time>
      </trkpt>
      <trkpt lat="36.021857335610484" lon="119.38399524687098">
        <ele>0.0</ele>
        <time>2023-02-06T03:11:41Z</time>
      </trkpt>
      <trkpt lat="36.021712493017525" lon="119.38376534884678">
        <ele>0.0</ele>
        <time>2023-02-06T03:11:53Z</time>
      </trkpt>
      <trkpt lat="36.02170769261406" lon="119.38371558522545">
        <ele>0.0</ele>
        <time>2023-02-06T03:11:56Z</time>
      </trkpt>
      <trkpt lat="36.021531333206006" lon="119.38374966795091">
        <ele>0.0</ele>
        <time>2023-02-06T03:12:05Z</time>
      </trkpt>
      <trkpt lat="36.02141579015072" lon="119.38393728408303">
        <ele>0.0</ele>
        <time>2023-02-06T03:12:14Z</time>
      </trkpt>
      <trkpt lat="36.01972924711619" lon="119.38323178093601">
        <ele>59.325927734375</ele>
        <time>2023-02-06T03:14:47Z</time>
      </trkpt>
      <trkpt lat="36.019631304870366" lon="119.38316981718856">
        <ele>62.28778076171875</ele>
        <time>2023-02-06T03:14:56Z</time>
      </trkpt>
      <trkpt lat="36.0194553608811" lon="119.38314284800097">
        <ele>61.48486328125</ele>
        <time>2023-02-06T03:15:11Z</time>
      </trkpt>
      <trkpt lat="36.01919439679491" lon="119.38318585970097">
        <ele>64.392333984375</ele>
        <time>2023-02-06T03:15:32Z</time>
      </trkpt>
    </trkseg>
  </trk>
</gpx>