<?xml version="1.0" encoding="UTF-8"?>
<gpx xmlns="http://www.topografix.com/GPX/1/1" xmlns:gpxtpx="http://www.garmin.com/xmlschemas/TrackPointExtension/v1" xmlns:xsi="http://www.w3.org/2001/XMLSchema-instance" xsi:schemaLocation="http://www.topografix.com/GPX/1/1 http://www.topografix.com/GPX/1/1/gpx.xsd" version="1.1" creator="gpx.py -- https://github.com/tkrajina/gpxpy">
  <trk>
    <name>gpx from keep</name>
    <type>Run</type>
    <trkseg>
      <trkpt lat="36.0303340056331" lon="119.41560595454511">
        <ele>0.0</ele>
        <time>2024-04-11T01:21:56Z</time>
      </trkpt>
      <trkpt lat="36.03083449865264" lon="119.41513825693619">
        <ele>66.73114013671875</ele>
        <time>2024-04-11T01:22:40Z</time>
      </trkpt>
      <trkpt lat="36.030862348659326" lon="119.41496401796881">
        <ele>64.927490234375</ele>
        <time>2024-04-11T01:22:46Z</time>
      </trkpt>
      <trkpt lat="36.03078524445941" lon="119.41481482602583">
        <ele>64.7423095703125</ele>
        <time>2024-04-11T01:22:52Z</time>
      </trkpt>
      <trkpt lat="36.03077209107141" lon="119.41462156954873">
        <ele>60.545654296875</ele>
        <time>2024-04-11T01:23:01Z</time>
      </trkpt>
      <trkpt lat="36.03080599970277" lon="119.41451742762194">
        <ele>61.02764892578125</ele>
        <time>2024-04-11T01:23:07Z</time>
      </trkpt>
      <trkpt lat="36.03096294607264" lon="119.41449538087662">
        <ele>62.66717529296875</ele>
        <time>2024-04-11T01:23:16Z</time>
      </trkpt>
      <trkpt lat="36.03116991781223" lon="119.41451938944918">
        <ele>64.96923828125</ele>
        <time>2024-04-11T01:23:28Z</time>
      </trkpt>
      <trkpt lat="36.03125087441625" lon="119.41448833931148">
        <ele>65.1185302734375</ele>
        <time>2024-04-11T01:24:16Z</time>
      </trkpt>
      <trkpt lat="36.03145982728663" lon="119.41448931719489">
        <ele>64.8353271484375</ele>
        <time>2024-04-11T01:24:25Z</time>
      </trkpt>
      <trkpt lat="36.03153179398713" lon="119.41446828133921">
        <ele>63.6634521484375</ele>
        <time>2024-04-11T01:24:28Z</time>
      </trkpt>
      <trkpt lat="36.03156273026176" lon="119.41439718412302">
        <ele>63.2625732421875</ele>
        <time>2024-04-11T01:24:31Z</time>
      </trkpt>
      <trkpt lat="36.03157257835865" lon="119.41420793486613">
        <ele>61.24737548828125</ele>
        <time>2024-04-11T01:24:37Z</time>
      </trkpt>
      <trkpt lat="36.031546530884725" lon="119.41413984900272">
        <ele>62.90570068359375</ele>
        <time>2024-04-11T01:24:40Z</time>
      </trkpt>
      <trkpt lat="36.03157930933507" lon="119.41386448894806">
        <ele>66.73492431640625</ele>
        <time>2024-04-11T01:24:49Z</time>
      </trkpt>
      <trkpt lat="36.03161123270458" lon="119.4137743696681">
        <ele>66.1329345703125</ele>
        <time>2024-04-11T01:24:52Z</time>
      </trkpt>
      <trkpt lat="36.031607974150546" lon="119.41343293584602">
        <ele>69.4566650390625</ele>
        <time>2024-04-11T01:25:04Z</time>
      </trkpt>
      <trkpt lat="36.03163590542122" lon="119.41334982803153">
        <ele>69.58984375</ele>
        <time>2024-04-11T01:25:07Z</time>
      </trkpt>
      <trkpt lat="36.03161380235538" lon="119.41320464857657">
        <ele>68.3050537109375</ele>
        <time>2024-04-11T01:25:13Z</time>
      </trkpt>
      <trkpt lat="36.03166756929877" lon="119.41290426992731">
        <ele>66.4549560546875</ele>
        <time>2024-04-11T01:25:28Z</time>
      </trkpt>
      <trkpt lat="36.03171752217563" lon="119.4128552039486">
        <ele>65.498779296875</ele>
        <time>2024-04-11T01:25:31Z</time>
      </trkpt>
      <trkpt lat="36.0317244806739" lon="119.41280013556421">
        <ele>66.9532470703125</ele>
        <time>2024-04-11T01:25:34Z</time>
      </trkpt>
      <trkpt lat="36.031679366385255" lon="119.41262692910585">
        <ele>66.05816650390625</ele>
        <time>2024-04-11T01:25:46Z</time>
      </trkpt>
      <trkpt lat="36.03165921940368" lon="119.41241367328189">
        <ele>66.30804443359375</ele>
        <time>2024-04-11T01:25:55Z</time>
      </trkpt>
      <trkpt lat="36.031634167330346" lon="119.41233157742579">
        <ele>66.50787353515625</ele>
        <time>2024-04-11T01:25:58Z</time>
      </trkpt>
      <trkpt lat="36.03163892835628" lon="119.41198916950954">
        <ele>69.69287109375</ele>
        <time>2024-04-11T01:26:10Z</time>
      </trkpt>
      <trkpt lat="36.03164064704742" lon="119.41157468509226">
        <ele>69.15167236328125</ele>
        <time>2024-04-11T01:26:25Z</time>
      </trkpt>
      <trkpt lat="36.031654385678564" lon="119.41118323520301">
        <ele>66.2503662109375</ele>
        <time>2024-04-11T01:26:40Z</time>
      </trkpt>
      <trkpt lat="36.03167412728731" lon="119.41078778890926">
        <ele>64.651123046875</ele>
        <time>2024-04-11T01:26:55Z</time>
      </trkpt>
      <trkpt lat="36.03168685477738" lon="119.41035531199866">
        <ele>67.83563232421875</ele>
        <time>2024-04-11T01:27:10Z</time>
      </trkpt>
      <trkpt lat="36.0317246010213" lon="119.40994987167095">
        <ele>63.107666015625</ele>
        <time>2024-04-11T01:27:22Z</time>
      </trkpt>
      <trkpt lat="36.03175834922579" lon="119.40953342969492">
        <ele>62.666259765625</ele>
        <time>2024-04-11T01:27:40Z</time>
      </trkpt>
      <trkpt lat="36.03175415819987" lon="119.40919608243408">
        <ele>64.79559326171875</ele>
        <time>2024-04-11T01:27:55Z</time>
      </trkpt>
      <trkpt lat="36.0317919419206" lon="119.40882069887242">
        <ele>65.978515625</ele>
        <time>2024-04-11T01:28:10Z</time>
      </trkpt>
      <trkpt lat="36.03179987446451" lon="119.40869957730096">
        <ele>65.811767578125</ele>
        <time>2024-04-11T01:28:13Z</time>
      </trkpt>
      <trkpt lat="36.031788833962494" lon="119.40861949921027">
        <ele>67.327392578125</ele>
        <time>2024-04-11T01:28:16Z</time>
      </trkpt>
      <trkpt lat="36.03186867778677" lon="119.4083592349471">
        <ele>65.0662841796875</ele>
        <time>2024-04-11T01:28:31Z</time>
      </trkpt>
      <trkpt lat="36.03187855815982" lon="119.40813301505816">
        <ele>60.41497802734375</ele>
        <time>2024-04-11T01:28:43Z</time>
      </trkpt>
      <trkpt lat="36.03192348444367" lon="119.40800889121456">
        <ele>60.8321533203125</ele>
        <time>2024-04-11T01:28:49Z</time>
      </trkpt>
      <trkpt lat="36.031902409478406" lon="119.4078507434781">
        <ele>61.01373291015625</ele>
        <time>2024-04-11T01:28:55Z</time>
      </trkpt>
      <trkpt lat="36.031939225364006" lon="119.40749440636047">
        <ele>68.02105712890625</ele>
        <time>2024-04-11T01:29:16Z</time>
      </trkpt>
      <trkpt lat="36.03199317719426" lon="119.40742033199513">
        <ele>65.37109375</ele>
        <time>2024-04-11T01:29:22Z</time>
      </trkpt>
      <trkpt lat="36.031972104517024" lon="119.40725818591268">
        <ele>66.9783935546875</ele>
        <time>2024-04-11T01:29:28Z</time>
      </trkpt>
      <trkpt lat="36.03200106145151" lon="119.40718111262771">
        <ele>64.281982421875</ele>
        <time>2024-04-11T01:29:34Z</time>
      </trkpt>
      <trkpt lat="36.03199101218217" lon="119.40707101429446">
        <ele>64.28802490234375</ele>
        <time>2024-04-11T01:29:40Z</time>
      </trkpt>
      <trkpt lat="36.031969989564985" lon="119.4070119635917">
        <ele>65.51934814453125</ele>
        <time>2024-04-11T01:29:43Z</time>
      </trkpt>
      <trkpt lat="36.03192097582883" lon="119.40695792070271">
        <ele>68.69122314453125</ele>
        <time>2024-04-11T01:29:49Z</time>
      </trkpt>
      <trkpt lat="36.031859947118775" lon="119.4068648446028">
        <ele>65.35467529296875</ele>
        <time>2024-04-11T01:30:16Z</time>
      </trkpt>
      <trkpt lat="36.03170696714021" lon="119.40683183246327">
        <ele>64.07720947265625</ele>
        <time>2024-04-11T01:30:22Z</time>
      </trkpt>
      <trkpt lat="36.0316219989438" lon="119.40685886598456">
        <ele>65.2349853515625</ele>
        <time>2024-04-11T01:30:28Z</time>
      </trkpt>
      <trkpt lat="36.03153105418949" lon="119.40693394302814">
        <ele>69.59033203125</ele>
        <time>2024-04-11T01:30:34Z</time>
      </trkpt>
      <trkpt lat="36.031494132661194" lon="119.40708508270282">
        <ele>67.54498291015625</ele>
        <time>2024-04-11T01:30:43Z</time>
      </trkpt>
      <trkpt lat="36.03140226329004" lon="119.4073173037822">
        <ele>63.872314453125</ele>
        <time>2024-04-11T01:30:55Z</time>
      </trkpt>
      <trkpt lat="36.03139434207741" lon="119.40747745181571">
        <ele>62.2664794921875</ele>
        <time>2024-04-11T01:31:01Z</time>
      </trkpt>
      <trkpt lat="36.031278438922904" lon="119.40762159850676">
        <ele>63.45941162109375</ele>
        <time>2024-04-11T01:31:10Z</time>
      </trkpt>
      <trkpt lat="36.03121247422998" lon="119.40766264419017">
        <ele>62.95501708984375</ele>
        <time>2024-04-11T01:31:13Z</time>
      </trkpt>
      <trkpt lat="36.03106350938889" lon="119.40766466278376">
        <ele>65.70196533203125</ele>
        <time>2024-04-11T01:31:25Z</time>
      </trkpt>
      <trkpt lat="36.030850514547815" lon="119.40757560371766">
        <ele>61.48687744140625</ele>
        <time>2024-04-11T01:31:44Z</time>
      </trkpt>
      <trkpt lat="36.030665542337665" lon="119.40754559661559">
        <ele>63.062255859375</ele>
        <time>2024-04-11T01:31:53Z</time>
      </trkpt>
      <trkpt lat="36.03040665665666" lon="119.4076577299832">
        <ele>60.4974365234375</ele>
        <time>2024-04-11T01:32:17Z</time>
      </trkpt>
      <trkpt lat="36.03015278884931" lon="119.4078068983535">
        <ele>65.3818359375</ele>
        <time>2024-04-11T01:32:32Z</time>
      </trkpt>
      <trkpt lat="36.029953891237696" lon="119.40792002760251">
        <ele>66.62353515625</ele>
        <time>2024-04-11T01:32:44Z</time>
      </trkpt>
      <trkpt lat="36.0298879124426" lon="119.40793204640643">
        <ele>64.72259521484375</ele>
        <time>2024-04-11T01:32:47Z</time>
      </trkpt>
      <trkpt lat="36.02978696499184" lon="119.40799011294088">
        <ele>65.5174560546875</ele>
        <time>2024-04-11T01:32:53Z</time>
      </trkpt>
      <trkpt lat="36.02967800526105" lon="119.4080201538006">
        <ele>65.43682861328125</ele>
        <time>2024-04-11T01:32:59Z</time>
      </trkpt>
      <trkpt lat="36.029546040145085" lon="119.40802917721305">
        <ele>65.8350830078125</ele>
        <time>2024-04-11T01:33:05Z</time>
      </trkpt>
      <trkpt lat="36.02950306480798" lon="119.40805820977486">
        <ele>63.755859375</ele>
        <time>2024-04-11T01:33:08Z</time>
      </trkpt>
      <trkpt lat="36.0292181343282" lon="119.40806624941999">
        <ele>65.27886962890625</ele>
        <time>2024-04-11T01:33:20Z</time>
      </trkpt>
      <trkpt lat="36.029136147027096" lon="119.40805424713456">
        <ele>65.97265625</ele>
        <time>2024-04-11T01:33:26Z</time>
      </trkpt>
      <trkpt lat="36.0289401467772" lon="119.40796518418401">
        <ele>61.3985595703125</ele>
        <time>2024-04-11T01:33:44Z</time>
      </trkpt>
      <trkpt lat="36.028790162515854" lon="119.40792816583617">
        <ele>64.58538818359375</ele>
        <time>2024-04-11T01:33:56Z</time>
      </trkpt>
      <trkpt lat="36.02857015079208" lon="119.40780407318873">
        <ele>65.34405517578125</ele>
        <time>2024-04-11T01:34:14Z</time>
      </trkpt>
      <trkpt lat="36.02831509622215" lon="119.4075748874179">
        <ele>62.29632568359375</ele>
        <time>2024-04-11T01:34:38Z</time>
      </trkpt>
      <trkpt lat="36.02804706187067" lon="119.40737673454097">
        <ele>65.73974609375</ele>
        <time>2024-04-11T01:35:02Z</time>
      </trkpt>
      <trkpt lat="36.02786602865555" lon="119.40721961137493">
        <ele>64.3641357421875</ele>
        <time>2024-04-11T01:35:20Z</time>
      </trkpt>
      <trkpt lat="36.02782700650212" lon="119.40715355585547">
        <ele>63.68060302734375</ele>
        <time>2024-04-11T01:35:26Z</time>
      </trkpt>
      <trkpt lat="36.02761095844455" lon="119.4069433911712">
        <ele>64.59466552734375</ele>
        <time>2024-04-11T01:35:50Z</time>
      </trkpt>
      <trkpt lat="36.02738991217688" lon="119.4067302269192">
        <ele>64.5250244140625</ele>
        <time>2024-04-11T01:36:14Z</time>
      </trkpt>
      <trkpt lat="36.027291872908414" lon="119.40659211681276">
        <ele>63.23779296875</ele>
        <time>2024-04-11T01:36:26Z</time>
      </trkpt>
      <trkpt lat="36.02712276875443" lon="119.40626485314851">
        <ele>64.57806396484375</ele>
        <time>2024-04-11T01:36:50Z</time>
      </trkpt>
      <trkpt lat="36.02694166263964" lon="119.40591457770589">
        <ele>65.50299072265625</ele>
        <time>2024-04-11T01:37:17Z</time>
      </trkpt>
      <trkpt lat="36.026882605221346" lon="119.4057414407173">
        <ele>62.74774169921875</ele>
        <time>2024-04-11T01:37:29Z</time>
      </trkpt>
      <trkpt lat="36.02668851698872" lon="119.40540819086205">
        <ele>63.10675048828125</ele>
        <time>2024-04-11T01:37:53Z</time>
      </trkpt>
      <trkpt lat="36.026616469571586" lon="119.40524306669204">
        <ele>66.3052978515625</ele>
        <time>2024-04-11T01:38:05Z</time>
      </trkpt>
      <trkpt lat="36.026434393805246" lon="119.40493084128174">
        <ele>63.4375</ele>
        <time>2024-04-11T01:38:29Z</time>
      </trkpt>
      <trkpt lat="36.026401367546754" lon="119.40483877355273">
        <ele>63.07843017578125</ele>
        <time>2024-04-11T01:38:35Z</time>
      </trkpt>
      <trkpt lat="36.02640730354653" lon="119.40466563985814">
        <ele>61.80023193359375</ele>
        <time>2024-04-11T01:38:47Z</time>
      </trkpt>
      <trkpt lat="36.02645523684163" lon="119.40450851522527">
        <ele>63.24676513671875</ele>
        <time>2024-04-11T01:38:59Z</time>
      </trkpt>
      <trkpt lat="36.026449106740024" lon="119.40412423014953">
        <ele>63.76922607421875</ele>
        <time>2024-04-11T01:39:23Z</time>
      </trkpt>
      <trkpt lat="36.02644298389222" lon="119.40374195487821">
        <ele>61.2579345703125</ele>
        <time>2024-04-11T01:39:47Z</time>
      </trkpt>
      <trkpt lat="36.02644995365446" lon="119.40365088957957">
        <ele>61.55029296875</ele>
        <time>2024-04-11T01:39:53Z</time>
      </trkpt>
      <trkpt lat="36.02640089482947" lon="119.40342273550884">
        <ele>60.9837646484375</ele>
        <time>2024-04-11T01:40:08Z</time>
      </trkpt>
      <trkpt lat="36.02643386678493" lon="119.40335468478422">
        <ele>61.49737548828125</ele>
        <time>2024-04-11T01:40:14Z</time>
      </trkpt>
      <trkpt lat="36.02650784677446" lon="119.4033446695844">
        <ele>62.4326171875</ele>
        <time>2024-04-11T01:40:20Z</time>
      </trkpt>
      <trkpt lat="36.026561856590824" lon="119.40341871466192">
        <ele>62.95599365234375</ele>
        <time>2024-04-11T01:40:26Z</time>
      </trkpt>
      <trkpt lat="36.02656488725951" lon="119.4035217860234">
        <ele>64.10614013671875</ele>
        <time>2024-04-11T01:40:32Z</time>
      </trkpt>
      <trkpt lat="36.02652692565497" lon="119.40361785765714">
        <ele>64.5592041015625</ele>
        <time>2024-04-11T01:40:38Z</time>
      </trkpt>
      <trkpt lat="36.02650602614899" lon="119.40391907463449">
        <ele>65.85394287109375</ele>
        <time>2024-04-11T01:40:50Z</time>
      </trkpt>
      <trkpt lat="36.02656411456947" lon="119.40422629232486">
        <ele>68.751708984375</ele>
        <time>2024-04-11T01:41:05Z</time>
      </trkpt>
      <trkpt lat="36.026615148583446" lon="119.4043603861394">
        <ele>67.43280029296875</ele>
        <time>2024-04-11T01:41:14Z</time>
      </trkpt>
      <trkpt lat="36.026863105017924" lon="119.40439938746297">
        <ele>67.73236083984375</ele>
        <time>2024-04-11T01:41:32Z</time>
      </trkpt>
      <trkpt lat="36.02701912016199" lon="119.40454547989144">
        <ele>64.54437255859375</ele>
        <time>2024-04-11T01:41:44Z</time>
      </trkpt>
      <trkpt lat="36.02707914150317" lon="119.40464454839447">
        <ele>63.4180908203125</ele>
        <time>2024-04-11T01:41:50Z</time>
      </trkpt>
      <trkpt lat="36.027090209103925" lon="119.40483869621312">
        <ele>63.876220703125</ele>
        <time>2024-04-11T01:41:59Z</time>
      </trkpt>
      <trkpt lat="36.027070245701516" lon="119.40492576599718">
        <ele>64.813232421875</ele>
        <time>2024-04-11T01:42:05Z</time>
      </trkpt>
      <trkpt lat="36.02704933106817" lon="119.40514093710897">
        <ele>72.1051025390625</ele>
        <time>2024-04-11T01:42:14Z</time>
      </trkpt>
      <trkpt lat="36.02707838723213" lon="119.40530506434736">
        <ele>72.41912841796875</ele>
        <time>2024-04-11T01:42:20Z</time>
      </trkpt>
      <trkpt lat="36.02716344436823" lon="119.40550121277114">
        <ele>68.94091796875</ele>
        <time>2024-04-11T01:42:29Z</time>
      </trkpt>
      <trkpt lat="36.0273624790502" lon="119.40570235470148">
        <ele>65.7947998046875</ele>
        <time>2024-04-11T01:42:41Z</time>
      </trkpt>
      <trkpt lat="36.0275314666025" lon="119.40576738934593">
        <ele>63.59539794921875</ele>
        <time>2024-04-11T01:42:50Z</time>
      </trkpt>
      <trkpt lat="36.02757844806374" lon="119.40574836837382">
        <ele>63.81787109375</ele>
        <time>2024-04-11T01:42:53Z</time>
      </trkpt>
      <trkpt lat="36.027641406433766" lon="119.40568130611521">
        <ele>63.57012939453125</ele>
        <time>2024-04-11T01:42:59Z</time>
      </trkpt>
      <trkpt lat="36.027640353366564" lon="119.40554819743444">
        <ele>62.49859619140625</ele>
        <time>2024-04-11T01:43:05Z</time>
      </trkpt>
      <trkpt lat="36.02771620479944" lon="119.40521191854526">
        <ele>61.2808837890625</ele>
        <time>2024-04-11T01:43:20Z</time>
      </trkpt>
      <trkpt lat="36.02772517757588" lon="119.40514586518425">
        <ele>62.50543212890625</ele>
        <time>2024-04-11T01:43:23Z</time>
      </trkpt>
      <trkpt lat="36.02785702330891" lon="119.40481259001484">
        <ele>63.20880126953125</ele>
        <time>2024-04-11T01:43:38Z</time>
      </trkpt>
      <trkpt lat="36.0279099576488" lon="119.40466447037872">
        <ele>63.00537109375</ele>
        <time>2024-04-11T01:43:44Z</time>
      </trkpt>
      <trkpt lat="36.02800488683874" lon="119.40452635483184">
        <ele>64.4183349609375</ele>
        <time>2024-04-11T01:43:50Z</time>
      </trkpt>
      <trkpt lat="36.028133828151425" lon="119.40444327779063">
        <ele>63.47613525390625</ele>
        <time>2024-04-11T01:43:56Z</time>
      </trkpt>
      <trkpt lat="36.028200785053464" lon="119.4043632103413">
        <ele>65.4281005859375</ele>
        <time>2024-04-11T01:43:59Z</time>
      </trkpt>
      <trkpt lat="36.028295739905204" lon="119.4042951490239">
        <ele>65.1962890625</ele>
        <time>2024-04-11T01:44:05Z</time>
      </trkpt>
      <trkpt lat="36.028330710442035" lon="119.40423209840114">
        <ele>66.9281005859375</ele>
        <time>2024-04-11T01:44:08Z</time>
      </trkpt>
      <trkpt lat="36.02847265422802" lon="119.40416203084271">
        <ele>67.103271484375</ele>
        <time>2024-04-11T01:44:14Z</time>
      </trkpt>
      <trkpt lat="36.02855760204156" lon="119.40406394950409">
        <ele>65.6722412109375</ele>
        <time>2024-04-11T01:44:23Z</time>
      </trkpt>
      <trkpt lat="36.02865456030584" lon="119.40400489565339">
        <ele>66.68560791015625</ele>
        <time>2024-04-11T01:44:32Z</time>
      </trkpt>
      <trkpt lat="36.02867053505209" lon="119.4039388460334">
        <ele>67.24365234375</ele>
        <time>2024-04-11T01:44:35Z</time>
      </trkpt>
      <trkpt lat="36.028708516256266" lon="119.40390781939007">
        <ele>65.88934326171875</ele>
        <time>2024-04-11T01:44:38Z</time>
      </trkpt>
      <trkpt lat="36.02865552227992" lon="119.40388881165207">
        <ele>66.80535888671875</ele>
        <time>2024-04-11T01:44:41Z</time>
      </trkpt>
      <trkpt lat="36.028723499883874" lon="119.4038677889129">
        <ele>66.34527587890625</ele>
        <time>2024-04-11T01:45:02Z</time>
      </trkpt>
      <trkpt lat="36.0287713892583" lon="119.40355155925326">
        <ele>62.5211181640625</ele>
        <time>2024-04-11T01:45:26Z</time>
      </trkpt>
      <trkpt lat="36.02874226642372" lon="119.40311726373268">
        <ele>59.7811279296875</ele>
        <time>2024-04-11T01:45:56Z</time>
      </trkpt>
      <trkpt lat="36.028721246304066" lon="119.40303020748362">
        <ele>60.75457763671875</ele>
        <time>2024-04-11T01:46:02Z</time>
      </trkpt>
      <trkpt lat="36.02845726390059" lon="119.40287713509814">
        <ele>60.49749755859375</ele>
        <time>2024-04-11T01:46:26Z</time>
      </trkpt>
      <trkpt lat="36.0283982614112" lon="119.402819103393">
        <ele>60.26873779296875</ele>
        <time>2024-04-11T01:46:32Z</time>
      </trkpt>
      <trkpt lat="36.02840023500059" lon="119.40272404079994">
        <ele>58.45941162109375</ele>
        <time>2024-04-11T01:46:38Z</time>
      </trkpt>
      <trkpt lat="36.028200209915376" lon="119.4024558900673">
        <ele>61.2965087890625</ele>
        <time>2024-04-11T01:47:02Z</time>
      </trkpt>
      <trkpt lat="36.02805215989352" lon="119.40212169654218">
        <ele>59.72314453125</ele>
        <time>2024-04-11T01:47:26Z</time>
      </trkpt>
      <trkpt lat="36.027969093755694" lon="119.40176048583423">
        <ele>57.68927001953125</ele>
        <time>2024-04-11T01:47:50Z</time>
      </trkpt>
      <trkpt lat="36.027950075324476" lon="119.40165942772879">
        <ele>59.73748779296875</ele>
        <time>2024-04-11T01:47:56Z</time>
      </trkpt>
      <trkpt lat="36.02796402959716" lon="119.40146531206896">
        <ele>62.13232421875</ele>
        <time>2024-04-11T01:48:08Z</time>
      </trkpt>
      <trkpt lat="36.02791900282491" lon="119.40128921545963">
        <ele>60.24127197265625</ele>
        <time>2024-04-11T01:48:20Z</time>
      </trkpt>
      <trkpt lat="36.02787100111035" lon="119.4012271854533">
        <ele>59.98797607421875</ele>
        <time>2024-04-11T01:48:26Z</time>
      </trkpt>
      <trkpt lat="36.02774000982279" lon="119.4011211401497">
        <ele>61.9471435546875</ele>
        <time>2024-04-11T01:48:38Z</time>
      </trkpt>
      <trkpt lat="36.02748503516836" lon="119.40095107386001">
        <ele>59.5654296875</ele>
        <time>2024-04-11T01:48:59Z</time>
      </trkpt>
      <trkpt lat="36.02723206634392" lon="119.40080802368497">
        <ele>60.87744140625</ele>
        <time>2024-04-11T01:49:14Z</time>
      </trkpt>
      <trkpt lat="36.02691911979791" lon="119.4007070040221">
        <ele>62.603515625</ele>
        <time>2024-04-11T01:49:32Z</time>
      </trkpt>
      <trkpt lat="36.02680313676239" lon="119.40065298798015">
        <ele>60.426513671875</ele>
        <time>2024-04-11T01:49:44Z</time>
      </trkpt>
      <trkpt lat="36.02652919781192" lon="119.40064201284378">
        <ele>60.376220703125</ele>
        <time>2024-04-11T01:50:05Z</time>
      </trkpt>
      <trkpt lat="36.02626026684361" lon="119.40068206453631">
        <ele>63.12158203125</ele>
        <time>2024-04-11T01:50:23Z</time>
      </trkpt>
      <trkpt lat="36.02594435443977" lon="119.40076414435174">
        <ele>57.24755859375</ele>
        <time>2024-04-11T01:50:47Z</time>
      </trkpt>
      <trkpt lat="36.02587137160287" lon="119.40076615363391">
        <ele>57.00506591796875</ele>
        <time>2024-04-11T01:50:53Z</time>
      </trkpt>
      <trkpt lat="36.02559042895412" lon="119.40072616350355">
        <ele>55.66571044921875</ele>
        <time>2024-04-11T01:51:14Z</time>
      </trkpt>
      <trkpt lat="36.02525249412706" lon="119.40065616373028">
        <ele>56.8096923828125</ele>
        <time>2024-04-11T01:51:38Z</time>
      </trkpt>
      <trkpt lat="36.02498554178618" lon="119.40057815200004">
        <ele>60.00543212890625</ele>
        <time>2024-04-11T01:51:59Z</time>
      </trkpt>
      <trkpt lat="36.02469758146825" lon="119.40042310247361">
        <ele>60.91339111328125</ele>
        <time>2024-04-11T01:52:23Z</time>
      </trkpt>
      <trkpt lat="36.02461559331939" lon="119.4003810897315">
        <ele>59.88690185546875</ele>
        <time>2024-04-11T01:52:29Z</time>
      </trkpt>
      <trkpt lat="36.02454859687759" lon="119.40030905985927">
        <ele>61.32379150390625</ele>
        <time>2024-04-11T01:52:35Z</time>
      </trkpt>
      <trkpt lat="36.02439961651899" lon="119.4002180297432">
        <ele>61.72943115234375</ele>
        <time>2024-04-11T01:52:47Z</time>
      </trkpt>
      <trkpt lat="36.0241616336632" lon="119.39997293266245">
        <ele>66.75927734375</ele>
        <time>2024-04-11T01:53:11Z</time>
      </trkpt>
      <trkpt lat="36.02410163895626" lon="119.3999149105854">
        <ele>66.43597412109375</ele>
        <time>2024-04-11T01:53:17Z</time>
      </trkpt>
      <trkpt lat="36.02409060335667" lon="119.39964177874134">
        <ele>65.1898193359375</ele>
        <time>2024-04-11T01:53:35Z</time>
      </trkpt>
      <trkpt lat="36.024102589524944" lon="119.39955773728995">
        <ele>65.03466796875</ele>
        <time>2024-04-11T01:53:41Z</time>
      </trkpt>
      <trkpt lat="36.02438653718625" lon="119.3996567527118">
        <ele>69.081298828125</ele>
        <time>2024-04-11T01:54:05Z</time>
      </trkpt>
      <trkpt lat="36.02457450698611" lon="119.39975277800465">
        <ele>61.79815673828125</ele>
        <time>2024-04-11T01:54:20Z</time>
      </trkpt>
      <trkpt lat="36.02482445612138" lon="119.39980077333067">
        <ele>57.99346923828125</ele>
        <time>2024-04-11T01:54:38Z</time>
      </trkpt>
      <trkpt lat="36.02512740693577" lon="119.39994380977623">
        <ele>59.27618408203125</ele>
        <time>2024-04-11T01:55:02Z</time>
      </trkpt>
      <trkpt lat="36.025461341360874" lon="119.40001981019444">
        <ele>60.2794189453125</ele>
        <time>2024-04-11T01:55:20Z</time>
      </trkpt>
      <trkpt lat="36.02574727075415" lon="119.39998776207781">
        <ele>63.507080078125</ele>
        <time>2024-04-11T01:55:32Z</time>
      </trkpt>
      <trkpt lat="36.02593222447641" lon="119.39996272884221">
        <ele>66.3089599609375</ele>
        <time>2024-04-11T01:55:41Z</time>
      </trkpt>
      <trkpt lat="36.026065186830465" lon="119.3999146900766">
        <ele>65.73272705078125</ele>
        <time>2024-04-11T01:55:47Z</time>
      </trkpt>
      <trkpt lat="36.026121164710744" lon="119.39985065221398">
        <ele>68.0045166015625</ele>
        <time>2024-04-11T01:55:50Z</time>
      </trkpt>
      <trkpt lat="36.02629211562016" lon="119.39978159923037">
        <ele>64.337158203125</ele>
        <time>2024-04-11T01:56:02Z</time>
      </trkpt>
      <trkpt lat="36.026432084398365" lon="119.39978858692601">
        <ele>65.4385986328125</ele>
        <time>2024-04-11T01:56:14Z</time>
      </trkpt>
      <trkpt lat="36.02650207167491" lon="119.39981259079615">
        <ele>63.1578369140625</ele>
        <time>2024-04-11T01:56:20Z</time>
      </trkpt>
      <trkpt lat="36.026563064905375" lon="119.3998636089806">
        <ele>62.9051513671875</ele>
        <time>2024-04-11T01:56:26Z</time>
      </trkpt>
      <trkpt lat="36.02660206433272" lon="119.39992163324915">
        <ele>59.00286865234375</ele>
        <time>2024-04-11T01:56:38Z</time>
      </trkpt>
      <trkpt lat="36.02685901422572" lon="119.3999826347261">
        <ele>54.263427734375</ele>
        <time>2024-04-11T01:56:56Z</time>
      </trkpt>
      <trkpt lat="36.02698899092374" lon="119.40002664213934">
        <ele>56.2342529296875</ele>
        <time>2024-04-11T01:57:05Z</time>
      </trkpt>
      <trkpt lat="36.02714795497157" lon="119.40003062629252">
        <ele>57.7376708984375</ele>
        <time>2024-04-11T01:57:17Z</time>
      </trkpt>
      <trkpt lat="36.02721594358163" lon="119.40005863272668">
        <ele>61.94659423828125</ele>
        <time>2024-04-11T01:57:23Z</time>
      </trkpt>
      <trkpt lat="36.027255947167674" lon="119.40014167020075">
        <ele>61.749267578125</ele>
        <time>2024-04-11T01:57:29Z</time>
      </trkpt>
      <trkpt lat="36.02739193043057" lon="119.4002337018994">
        <ele>59.0841064453125</ele>
        <time>2024-04-11T01:57:41Z</time>
      </trkpt>
      <trkpt lat="36.02746191867499" lon="119.40026070791447">
        <ele>60.2301025390625</ele>
        <time>2024-04-11T01:57:47Z</time>
      </trkpt>
      <trkpt lat="36.027546914646486" lon="119.40035574751622">
        <ele>57.44439697265625</ele>
        <time>2024-04-11T01:58:05Z</time>
      </trkpt>
      <trkpt lat="36.02766590202064" lon="119.4004437801328">
        <ele>57.95599365234375</ele>
        <time>2024-04-11T01:58:17Z</time>
      </trkpt>
      <trkpt lat="36.027826913800695" lon="119.40072191017362">
        <ele>56.65557861328125</ele>
        <time>2024-04-11T01:58:38Z</time>
      </trkpt>
      <trkpt lat="36.02790389628829" lon="119.40072290206842">
        <ele>60.2552490234375</ele>
        <time>2024-04-11T01:58:44Z</time>
      </trkpt>
      <trkpt lat="36.02811580098962" lon="119.40045773695937">
        <ele>54.23681640625</ele>
        <time>2024-04-11T01:59:05Z</time>
      </trkpt>
      <trkpt lat="36.02841070546502" lon="119.40029061681933">
        <ele>57.1025390625</ele>
        <time>2024-04-11T01:59:20Z</time>
      </trkpt>
      <trkpt lat="36.02867762811203" lon="119.40019053548518">
        <ele>58.78399658203125</ele>
        <time>2024-04-11T01:59:35Z</time>
      </trkpt>
      <trkpt lat="36.028792596666314" lon="119.40015850625777">
        <ele>57.78558349609375</ele>
        <time>2024-04-11T01:59:41Z</time>
      </trkpt>
      <trkpt lat="36.02903154649911" lon="119.40018849471272">
        <ele>56.74127197265625</ele>
        <time>2024-04-11T01:59:53Z</time>
      </trkpt>
      <trkpt lat="36.029181519048386" lon="119.40023250038988">
        <ele>60.549560546875</ele>
        <time>2024-04-11T01:59:59Z</time>
      </trkpt>
      <trkpt lat="36.02924550451374" lon="119.40023349371624">
        <ele>61.05718994140625</ele>
        <time>2024-04-11T02:00:02Z</time>
      </trkpt>
      <trkpt lat="36.029310493763354" lon="119.40025949977782">
        <ele>60.118896484375</ele>
        <time>2024-04-11T02:00:05Z</time>
      </trkpt>
      <trkpt lat="36.02941948606405" lon="119.40036554240231">
        <ele>59.184326171875</ele>
        <time>2024-04-11T02:00:11Z</time>
      </trkpt>
      <trkpt lat="36.02967345936599" lon="119.40055161168218">
        <ele>58.09100341796875</ele>
        <time>2024-04-11T02:00:23Z</time>
      </trkpt>
      <trkpt lat="36.02988044445728" lon="119.40073468656644">
        <ele>56.011962890625</ele>
        <time>2024-04-11T02:00:35Z</time>
      </trkpt>
      <trkpt lat="36.03000444914262" lon="119.40091276990269">
        <ele>55.21551513671875</ele>
        <time>2024-04-11T02:00:47Z</time>
      </trkpt>
      <trkpt lat="36.03015044093232" lon="119.40104382622984">
        <ele>59.01318359375</ele>
        <time>2024-04-11T02:00:59Z</time>
      </trkpt>
      <trkpt lat="36.03026843007782" lon="119.40112585899301">
        <ele>61.96844482421875</ele>
        <time>2024-04-11T02:01:08Z</time>
      </trkpt>
      <trkpt lat="36.03029343397668" lon="119.40117388329678">
        <ele>62.3421630859375</ele>
        <time>2024-04-11T02:01:11Z</time>
      </trkpt>
      <trkpt lat="36.03044440459248" lon="119.4011998810801">
        <ele>64.1331787109375</ele>
        <time>2024-04-11T02:01:23Z</time>
      </trkpt>
      <trkpt lat="36.03048740083594" lon="119.40122989330611">
        <ele>64.22125244140625</ele>
        <time>2024-04-11T02:01:32Z</time>
      </trkpt>
      <trkpt lat="36.03053846822439" lon="119.4016021032817">
        <ele>62.443115234375</ele>
        <time>2024-04-11T02:01:56Z</time>
      </trkpt>
      <trkpt lat="36.03052653038889" lon="119.40186426124468">
        <ele>60.7093505859375</ele>
        <time>2024-04-11T02:02:14Z</time>
      </trkpt>
      <trkpt lat="36.03053857047109" lon="119.40204537036176">
        <ele>59.2359619140625</ele>
        <time>2024-04-11T02:02:26Z</time>
      </trkpt>
      <trkpt lat="36.030468679424956" lon="119.40241861171374">
        <ele>59.290283203125</ele>
        <time>2024-04-11T02:02:44Z</time>
      </trkpt>
      <trkpt lat="36.03039380014355" lon="119.4028078720394">
        <ele>62.637451171875</ele>
        <time>2024-04-11T02:02:59Z</time>
      </trkpt>
      <trkpt lat="36.030383851779746" lon="119.4029849906218">
        <ele>63.56365966796875</ele>
        <time>2024-04-11T02:03:08Z</time>
      </trkpt>
      <trkpt lat="36.03031690861998" lon="119.40313009569266">
        <ele>66.48419189453125</ele>
        <time>2024-04-11T02:03:17Z</time>
      </trkpt>
      <trkpt lat="36.030326009311366" lon="119.40347633227238">
        <ele>63.75799560546875</ele>
        <time>2024-04-11T02:03:42Z</time>
      </trkpt>
      <trkpt lat="36.030376079536936" lon="119.40373951180145">
        <ele>60.3065185546875</ele>
        <time>2024-04-11T02:04:00Z</time>
      </trkpt>
      <trkpt lat="36.03051315931652" lon="119.40408274378429">
        <ele>58.1976318359375</ele>
        <time>2024-04-11T02:04:21Z</time>
      </trkpt>
      <trkpt lat="36.03055618589861" lon="119.40419181896516">
        <ele>63.78436279296875</ele>
        <time>2024-04-11T02:04:27Z</time>
      </trkpt>
      <trkpt lat="36.03059119273275" lon="119.40423584752406">
        <ele>65.65435791015625</ele>
        <time>2024-04-11T02:04:30Z</time>
      </trkpt>
      <trkpt lat="36.03062221184179" lon="119.40431290116322">
        <ele>64.709716796875</ele>
        <time>2024-04-11T02:04:36Z</time>
      </trkpt>
      <trkpt lat="36.03083226694475" lon="119.40460910030264">
        <ele>66.81329345703125</ele>
        <time>2024-04-11T02:05:00Z</time>
      </trkpt>
      <trkpt lat="36.03100234699146" lon="119.40493733383285">
        <ele>66.294921875</ele>
        <time>2024-04-11T02:05:24Z</time>
      </trkpt>
      <trkpt lat="36.031107416888915" lon="119.40518751869968">
        <ele>67.80218505859375</ele>
        <time>2024-04-11T02:05:42Z</time>
      </trkpt>
      <trkpt lat="36.031162504995606" lon="119.40544772082106">
        <ele>63.40203857421875</ele>
        <time>2024-04-11T02:06:00Z</time>
      </trkpt>
      <trkpt lat="36.03126162513401" lon="119.4058040011575">
        <ele>62.55718994140625</ele>
        <time>2024-04-11T02:06:24Z</time>
      </trkpt>
      <trkpt lat="36.031254789771346" lon="119.40619432951755">
        <ele>65.79034423828125</ele>
        <time>2024-04-11T02:06:48Z</time>
      </trkpt>
      <trkpt lat="36.03124782824878" lon="119.4062804037042">
        <ele>62.12274169921875</ele>
        <time>2024-04-11T02:06:54Z</time>
      </trkpt>
      <trkpt lat="36.03133895151133" lon="119.4066096781819">
        <ele>66.3526611328125</ele>
        <time>2024-04-11T02:07:18Z</time>
      </trkpt>
      <trkpt lat="36.03136997973729" lon="119.40668874398187">
        <ele>66.17041015625</ele>
        <time>2024-04-11T02:07:24Z</time>
      </trkpt>
      <trkpt lat="36.031608048511664" lon="119.4069599576269">
        <ele>69.4747314453125</ele>
        <time>2024-04-11T02:07:48Z</time>
      </trkpt>
      <trkpt lat="36.031659066895536" lon="119.40702501017618">
        <ele>66.20135498046875</ele>
        <time>2024-04-11T02:07:54Z</time>
      </trkpt>
      <trkpt lat="36.031670101653035" lon="119.40710508099424">
        <ele>67.7593994140625</ele>
        <time>2024-04-11T02:08:00Z</time>
      </trkpt>
      <trkpt lat="36.03164619685051" lon="119.40729525627683">
        <ele>68.26910400390625</ele>
        <time>2024-04-11T02:08:12Z</time>
      </trkpt>
      <trkpt lat="36.031622364953684" lon="119.4076315692215">
        <ele>67.6973876953125</ele>
        <time>2024-04-11T02:08:33Z</time>
      </trkpt>
      <trkpt lat="36.031593518052404" lon="119.40792584923021">
        <ele>70.7921142578125</ele>
        <time>2024-04-11T02:08:51Z</time>
      </trkpt>
      <trkpt lat="36.031608564804564" lon="119.40802494184928">
        <ele>70.10906982421875</ele>
        <time>2024-04-11T02:08:57Z</time>
      </trkpt>
      <trkpt lat="36.03164459999651" lon="119.40811001922191">
        <ele>71.682373046875</ele>
        <time>2024-04-11T02:09:03Z</time>
      </trkpt>
      <trkpt lat="36.03164177086134" lon="119.40843733660493">
        <ele>72.88818359375</ele>
        <time>2024-04-11T02:09:24Z</time>
      </trkpt>
      <trkpt lat="36.03162882205762" lon="119.40852842737954">
        <ele>71.1343994140625</ele>
        <time>2024-04-11T02:09:30Z</time>
      </trkpt>
      <trkpt lat="36.03153188806575" lon="119.40861051915319">
        <ele>67.76708984375</ele>
        <time>2024-04-11T02:09:42Z</time>
      </trkpt>
      <trkpt lat="36.03153891706254" lon="119.40866757481993">
        <ele>67.8258056640625</ele>
        <time>2024-04-11T02:09:48Z</time>
      </trkpt>
      <trkpt lat="36.031509958787886" lon="119.40873264267651">
        <ele>61.517333984375</ele>
        <time>2024-04-11T02:09:57Z</time>
      </trkpt>
      <trkpt lat="36.031458985650644" lon="119.40876067630312">
        <ele>56.73150634765625</ele>
        <time>2024-04-11T02:10:03Z</time>
      </trkpt>
      <trkpt lat="36.03145709934237" lon="119.40896788419722">
        <ele>53.2022705078125</ele>
        <time>2024-04-11T02:10:15Z</time>
      </trkpt>
      <trkpt lat="36.031517267263425" lon="119.40929320844981">
        <ele>53.0787353515625</ele>
        <time>2024-04-11T02:10:30Z</time>
      </trkpt>
      <trkpt lat="36.03151544835613" lon="119.40960853523029">
        <ele>58.55322265625</ele>
        <time>2024-04-11T02:10:45Z</time>
      </trkpt>
      <trkpt lat="36.031499558430504" lon="119.40979072828422">
        <ele>61.17156982421875</ele>
        <time>2024-04-11T02:10:54Z</time>
      </trkpt>
      <trkpt lat="36.03153377882558" lon="119.41017313205002">
        <ele>68.3582763671875</ele>
        <time>2024-04-11T02:11:15Z</time>
      </trkpt>
      <trkpt lat="36.03154796377254" lon="119.41048046407397">
        <ele>69.4005126953125</ele>
        <time>2024-04-11T02:11:33Z</time>
      </trkpt>
      <trkpt lat="36.03150419991369" lon="119.41084086704865">
        <ele>68.71844482421875</ele>
        <time>2024-04-11T02:11:54Z</time>
      </trkpt>
      <trkpt lat="36.03147542411729" lon="119.41117925074585">
        <ele>76.0601806640625</ele>
        <time>2024-04-11T02:12:15Z</time>
      </trkpt>
      <trkpt lat="36.031432690059724" lon="119.41156770032634">
        <ele>71.87835693359375</ele>
        <time>2024-04-11T02:12:39Z</time>
      </trkpt>
      <trkpt lat="36.03141983718348" lon="119.41178195076192">
        <ele>69.4915771484375</ele>
        <time>2024-04-11T02:12:51Z</time>
      </trkpt>
      <trkpt lat="36.03138105236006" lon="119.41208330975319">
        <ele>67.7393798828125</ele>
        <time>2024-04-11T02:13:09Z</time>
      </trkpt>
      <trkpt lat="36.03139716067616" lon="119.41224449975644">
        <ele>68.1533203125</ele>
        <time>2024-04-11T02:13:18Z</time>
      </trkpt>
      <trkpt lat="36.03135920580885" lon="119.41229656628242">
        <ele>68.01568603515625</ele>
        <time>2024-04-11T02:13:24Z</time>
      </trkpt>
      <trkpt lat="36.031364263043834" lon="119.41237966542194">
        <ele>68.7557373046875</ele>
        <time>2024-04-11T02:13:30Z</time>
      </trkpt>
      <trkpt lat="36.03128743051406" lon="119.41259092928269">
        <ele>66.55645751953125</ele>
        <time>2024-04-11T02:13:42Z</time>
      </trkpt>
      <trkpt lat="36.03124348931238" lon="119.4126590170109">
        <ele>68.33154296875</ele>
        <time>2024-04-11T02:13:48Z</time>
      </trkpt>
      <trkpt lat="36.03125556001158" lon="119.41276114034702">
        <ele>68.73809814453125</ele>
        <time>2024-04-11T02:13:54Z</time>
      </trkpt>
      <trkpt lat="36.03132669057239" lon="119.4129633810512">
        <ele>69.88592529296875</ele>
        <time>2024-04-11T02:14:06Z</time>
      </trkpt>
      <trkpt lat="36.03133686067928" lon="119.41319767089638">
        <ele>66.97088623046875</ele>
        <time>2024-04-11T02:14:21Z</time>
      </trkpt>
      <trkpt lat="36.0313251205865" lon="119.4135411043785">
        <ele>68.15728759765625</ele>
        <time>2024-04-11T02:14:42Z</time>
      </trkpt>
      <trkpt lat="36.03132039654673" lon="119.41390056440348">
        <ele>66.0201416015625</ele>
        <time>2024-04-11T02:15:06Z</time>
      </trkpt>
      <trkpt lat="36.03121460309949" lon="119.41413487972196">
        <ele>64.46563720703125</ele>
        <time>2024-04-11T02:15:21Z</time>
      </trkpt>
      <trkpt lat="36.031228834737036" lon="119.41443226775634">
        <ele>64.230712890625</ele>
        <time>2024-04-11T02:15:30Z</time>
      </trkpt>
      <trkpt lat="36.03110987878527" lon="119.4144533088401">
        <ele>66.56719970703125</ele>
        <time>2024-04-11T02:15:39Z</time>
      </trkpt>
    </trkseg>
  </trk>
</gpx>