<?xml version="1.0" encoding="UTF-8"?>
<gpx xmlns="http://www.topografix.com/GPX/1/1" xmlns:gpxtpx="http://www.garmin.com/xmlschemas/TrackPointExtension/v1" xmlns:xsi="http://www.w3.org/2001/XMLSchema-instance" xsi:schemaLocation="http://www.topografix.com/GPX/1/1 http://www.topografix.com/GPX/1/1/gpx.xsd" version="1.1" creator="gpx.py -- https://github.com/tkrajina/gpxpy">
  <trk>
    <name>gpx from keep</name>
    <type>Run</type>
    <trkseg>
      <trkpt lat="36.03040252032363" lon="119.41622080906565">
        <ele>58.985595703125</ele>
        <time>2023-02-08T05:50:19Z</time>
      </trkpt>
      <trkpt lat="36.03035350964609" lon="119.4161957790389">
        <ele>60.023681640625</ele>
        <time>2023-02-08T05:50:22Z</time>
      </trkpt>
      <trkpt lat="36.03033944377166" lon="119.41611666859595">
        <ele>63.91455078125</ele>
        <time>2023-02-08T05:50:28Z</time>
      </trkpt>
      <trkpt lat="36.0303423499548" lon="119.41600951710977">
        <ele>63.87286376953125</ele>
        <time>2023-02-08T05:50:34Z</time>
      </trkpt>
      <trkpt lat="36.03027322834689" lon="119.41585030143857">
        <ele>67.542724609375</ele>
        <time>2023-02-08T05:50:46Z</time>
      </trkpt>
      <trkpt lat="36.030256160951225" lon="119.41576718729212">
        <ele>65.58209228515625</ele>
        <time>2023-02-08T05:50:52Z</time>
      </trkpt>
      <trkpt lat="36.030111016061966" lon="119.41555791305173">
        <ele>63.04486083984375</ele>
        <time>2023-02-08T05:51:10Z</time>
      </trkpt>
      <trkpt lat="36.03005198388734" lon="119.41550384501292">
        <ele>61.0872802734375</ele>
        <time>2023-02-08T05:51:16Z</time>
      </trkpt>
      <trkpt lat="36.02993095511916" lon="119.41543676618387">
        <ele>57.39556884765625</ele>
        <time>2023-02-08T05:51:28Z</time>
      </trkpt>
      <trkpt lat="36.02989975304248" lon="119.41518642714308">
        <ele>59.30157470703125</ele>
        <time>2023-02-08T05:51:46Z</time>
      </trkpt>
      <trkpt lat="36.0299444537352" lon="119.4148349471883">
        <ele>60.6053466796875</ele>
        <time>2023-02-08T05:52:10Z</time>
      </trkpt>
      <trkpt lat="36.029941387708924" lon="119.41475283758524">
        <ele>60.1885986328125</ele>
        <time>2023-02-08T05:52:16Z</time>
      </trkpt>
      <trkpt lat="36.0299103445813" lon="119.41469075819022">
        <ele>57.82464599609375</ele>
        <time>2023-02-08T05:52:25Z</time>
      </trkpt>
      <trkpt lat="36.029852327185075" lon="119.4146527140103">
        <ele>58.9659423828125</ele>
        <time>2023-02-08T05:52:31Z</time>
      </trkpt>
      <trkpt lat="36.029581391814624" lon="119.41465574839948">
        <ele>69.06097412109375</ele>
        <time>2023-02-08T05:52:55Z</time>
      </trkpt>
      <trkpt lat="36.029473394018815" lon="119.41462772321245">
        <ele>67.9798583984375</ele>
        <time>2023-02-08T05:53:07Z</time>
      </trkpt>
      <trkpt lat="36.02934343757663" lon="119.41464476043103">
        <ele>67.30194091796875</ele>
        <time>2023-02-08T05:53:19Z</time>
      </trkpt>
      <trkpt lat="36.02859751158838" lon="119.41452368330187">
        <ele>0.0</ele>
        <time>2023-02-08T05:54:20Z</time>
      </trkpt>
      <trkpt lat="36.028556562744285" lon="119.41457575689554">
        <ele>0.0</ele>
        <time>2023-02-08T05:54:26Z</time>
      </trkpt>
      <trkpt lat="36.0274553104871" lon="119.41393504188062">
        <ele>0.0</ele>
        <time>2023-02-08T05:56:26Z</time>
      </trkpt>
      <trkpt lat="36.027402391052235" lon="119.41402316173415">
        <ele>0.0</ele>
        <time>2023-02-08T05:56:32Z</time>
      </trkpt>
      <trkpt lat="36.02693706697422" lon="119.41444007554381">
        <ele>98.15875244140625</ele>
        <time>2023-02-08T05:56:56Z</time>
      </trkpt>
      <trkpt lat="36.026995710058024" lon="119.41431058193486">
        <ele>84.82470703125</ele>
        <time>2023-02-08T05:56:59Z</time>
      </trkpt>
      <trkpt lat="36.02696466107219" lon="119.41423949231424">
        <ele>74.042236328125</ele>
        <time>2023-02-08T05:57:08Z</time>
      </trkpt>
      <trkpt lat="36.02678063807234" lon="119.41415640447933">
        <ele>74.998046875</ele>
        <time>2023-02-08T05:57:26Z</time>
      </trkpt>
      <trkpt lat="36.026506724659114" lon="119.41418647436477">
        <ele>69.4781494140625</ele>
        <time>2023-02-08T05:57:50Z</time>
      </trkpt>
      <trkpt lat="36.02646072344914" lon="119.41417145993661">
        <ele>69.2720947265625</ele>
        <time>2023-02-08T05:57:56Z</time>
      </trkpt>
      <trkpt lat="36.02634115398693" lon="119.41433296428573">
        <ele>0.0</ele>
        <time>2023-02-08T05:58:17Z</time>
      </trkpt>
      <trkpt lat="36.024686202853516" lon="119.41426177667762">
        <ele>0.0</ele>
        <time>2023-02-08T06:00:23Z</time>
      </trkpt>
      <trkpt lat="36.023978380154986" lon="119.41427987965824">
        <ele>0.0</ele>
        <time>2023-02-08T06:00:35Z</time>
      </trkpt>
      <trkpt lat="36.024049791618985" lon="119.41353991796082">
        <ele>0.0</ele>
        <time>2023-02-08T06:02:20Z</time>
      </trkpt>
      <trkpt lat="36.02407242355682" lon="119.41305330516948">
        <ele>0.0</ele>
        <time>2023-02-08T06:02:38Z</time>
      </trkpt>
      <trkpt lat="36.02404122001691" lon="119.41276395215863">
        <ele>0.0</ele>
        <time>2023-02-08T06:04:05Z</time>
      </trkpt>
      <trkpt lat="36.02372418208816" lon="119.4111430785454">
        <ele>104.7666015625</ele>
        <time>2023-02-08T06:04:50Z</time>
      </trkpt>
      <trkpt lat="36.023783146432535" lon="119.41110903343852">
        <ele>97.50390625</ele>
        <time>2023-02-08T06:04:53Z</time>
      </trkpt>
      <trkpt lat="36.02391015483449" lon="119.41116708489088">
        <ele>80.41497802734375</ele>
        <time>2023-02-08T06:05:00Z</time>
      </trkpt>
      <trkpt lat="36.02393799863659" lon="119.41093482011112">
        <ele>65.0634765625</ele>
        <time>2023-02-08T06:05:18Z</time>
      </trkpt>
      <trkpt lat="36.02396894869994" lon="119.41086774164567">
        <ele>61.990966796875</ele>
        <time>2023-02-08T06:05:24Z</time>
      </trkpt>
      <trkpt lat="36.019398432183074" lon="119.40994024314882">
        <ele>0.0</ele>
        <time>2023-02-08T06:10:30Z</time>
      </trkpt>
      <trkpt lat="36.021140623798615" lon="119.40923931655801">
        <ele>66.294189453125</ele>
        <time>2023-02-08T06:11:04Z</time>
      </trkpt>
      <trkpt lat="36.02106957508366" lon="119.40912320607251">
        <ele>64.40509033203125</ele>
        <time>2023-02-08T06:11:15Z</time>
      </trkpt>
      <trkpt lat="36.02089151525367" lon="119.40894104174428">
        <ele>58.5948486328125</ele>
        <time>2023-02-08T06:11:34Z</time>
      </trkpt>
      <trkpt lat="36.019679568092606" lon="119.40645785382635">
        <ele>0.0</ele>
        <time>2023-02-08T06:15:09Z</time>
      </trkpt>
      <trkpt lat="36.019942035387054" lon="119.40531387184909">
        <ele>73.671875</ele>
        <time>2023-02-08T06:16:37Z</time>
      </trkpt>
      <trkpt lat="36.01997700338217" lon="119.40525181838437">
        <ele>70.04119873046875</ele>
        <time>2023-02-08T06:16:40Z</time>
      </trkpt>
      <trkpt lat="36.019985980229656" lon="119.40519677361328">
        <ele>68.13739013671875</ele>
        <time>2023-02-08T06:16:43Z</time>
      </trkpt>
      <trkpt lat="36.02004191501611" lon="119.4050586582865">
        <ele>66.5693359375</ele>
        <time>2023-02-08T06:16:55Z</time>
      </trkpt>
      <trkpt lat="36.020065851408425" lon="119.40490253363276">
        <ele>65.39794921875</ele>
        <time>2023-02-08T06:17:07Z</time>
      </trkpt>
      <trkpt lat="36.020088825884784" lon="119.40484748838303">
        <ele>66.3388671875</ele>
        <time>2023-02-08T06:17:13Z</time>
      </trkpt>
      <trkpt lat="36.02006378011035" lon="119.40470538182144">
        <ele>65.91357421875</ele>
        <time>2023-02-08T06:18:01Z</time>
      </trkpt>
      <trkpt lat="36.02006975614361" lon="119.4046423329935">
        <ele>64.13623046875</ele>
        <time>2023-02-08T06:18:07Z</time>
      </trkpt>
      <trkpt lat="36.02000968908241" lon="119.40441216584067">
        <ele>0.0</ele>
        <time>2023-02-08T06:18:37Z</time>
      </trkpt>
      <trkpt lat="36.02004763220917" lon="119.40427205720533">
        <ele>0.0</ele>
        <time>2023-02-08T06:18:40Z</time>
      </trkpt>
      <trkpt lat="36.01986431873959" lon="119.40396156745261">
        <ele>0.0</ele>
        <time>2023-02-08T06:18:49Z</time>
      </trkpt>
      <trkpt lat="36.02005662265232" lon="119.4042500398955">
        <ele>0.0</ele>
        <time>2023-02-08T06:19:10Z</time>
      </trkpt>
      <trkpt lat="36.020067561735765" lon="119.40407591071347">
        <ele>0.0</ele>
        <time>2023-02-08T06:19:22Z</time>
      </trkpt>
      <trkpt lat="36.02017010136975" lon="119.40261389266004">
        <ele>0.0</ele>
        <time>2023-02-08T06:20:38Z</time>
      </trkpt>
      <trkpt lat="36.02023788988054" lon="119.40182539240816">
        <ele>38.64483642578125</ele>
        <time>2023-02-08T06:21:59Z</time>
      </trkpt>
      <trkpt lat="36.020183886988725" lon="119.40175835820529">
        <ele>48.25762939453125</ele>
        <time>2023-02-08T06:22:02Z</time>
      </trkpt>
      <trkpt lat="36.02015786954081" lon="119.40165429912726">
        <ele>55.944091796875</ele>
        <time>2023-02-08T06:22:05Z</time>
      </trkpt>
      <trkpt lat="36.02015485296034" lon="119.40157625336813">
        <ele>58.802490234375</ele>
        <time>2023-02-08T06:22:11Z</time>
      </trkpt>
      <trkpt lat="36.020058806294024" lon="119.40125207634959">
        <ele>62.5626220703125</ele>
        <time>2023-02-08T06:22:35Z</time>
      </trkpt>
      <trkpt lat="36.01995675357944" lon="119.40086387071197">
        <ele>60.854736328125</ele>
        <time>2023-02-08T06:23:05Z</time>
      </trkpt>
      <trkpt lat="36.01985270786799" lon="119.4004746732677">
        <ele>65.4404296875</ele>
        <time>2023-02-08T06:23:35Z</time>
      </trkpt>
      <trkpt lat="36.019855692499426" lon="119.40038762732914">
        <ele>62.795654296875</ele>
        <time>2023-02-08T06:23:41Z</time>
      </trkpt>
      <trkpt lat="36.019813668956104" lon="119.40018252627756">
        <ele>60.66534423828125</ele>
        <time>2023-02-08T06:23:53Z</time>
      </trkpt>
      <trkpt lat="36.01974665454663" lon="119.3999874353881">
        <ele>57.5185546875</ele>
        <time>2023-02-08T06:24:02Z</time>
      </trkpt>
      <trkpt lat="36.01973164232929" lon="119.39988038398194">
        <ele>56.29351806640625</ele>
        <time>2023-02-08T06:24:05Z</time>
      </trkpt>
      <trkpt lat="36.01987659546646" lon="119.39978632159729">
        <ele>58.25299072265625</ele>
        <time>2023-02-08T06:24:17Z</time>
      </trkpt>
      <trkpt lat="36.01991857661778" lon="119.39972028480585">
        <ele>57.699951171875</ele>
        <time>2023-02-08T06:24:23Z</time>
      </trkpt>
      <trkpt lat="36.02015150534245" lon="119.39959019618551">
        <ele>63.3465576171875</ele>
        <time>2023-02-08T06:24:47Z</time>
      </trkpt>
      <trkpt lat="36.0205573796459" lon="119.39933603130291">
        <ele>52.969970703125</ele>
        <time>2023-02-08T06:25:32Z</time>
      </trkpt>
      <trkpt lat="36.02064334547102" lon="119.39921396563231">
        <ele>58.92242431640625</ele>
        <time>2023-02-08T06:25:41Z</time>
      </trkpt>
      <trkpt lat="36.020942253759735" lon="119.3990078393782">
        <ele>58.2989501953125</ele>
        <time>2023-02-08T06:26:11Z</time>
      </trkpt>
      <trkpt lat="36.0210512177627" lon="119.39890278081376">
        <ele>59.461181640625</ele>
        <time>2023-02-08T06:26:23Z</time>
      </trkpt>
      <trkpt lat="36.02112019753881" lon="119.39885975427374">
        <ele>61.4068603515625</ele>
        <time>2023-02-08T06:26:29Z</time>
      </trkpt>
      <trkpt lat="36.020376438815205" lon="119.3994771174031">
        <ele>0.0</ele>
        <time>2023-02-08T06:26:56Z</time>
      </trkpt>
      <trkpt lat="36.02060134949384" lon="119.39916394763105">
        <ele>0.0</ele>
        <time>2023-02-08T06:27:05Z</time>
      </trkpt>
      <trkpt lat="36.02062935297561" lon="119.3992509841042">
        <ele>0.0</ele>
        <time>2023-02-08T06:27:32Z</time>
      </trkpt>
      <trkpt lat="36.02157706224415" lon="119.39853456427424">
        <ele>0.0</ele>
        <time>2023-02-08T06:28:20Z</time>
      </trkpt>
      <trkpt lat="36.022433827104564" lon="119.39802326195063">
        <ele>45.7352294921875</ele>
        <time>2023-02-08T06:28:35Z</time>
      </trkpt>
      <trkpt lat="36.02271774978528" lon="119.39781715110668">
        <ele>47.46490478515625</ele>
        <time>2023-02-08T06:29:05Z</time>
      </trkpt>
      <trkpt lat="36.02281772263951" lon="119.39773710985502">
        <ele>49.92291259765625</ele>
        <time>2023-02-08T06:29:17Z</time>
      </trkpt>
      <trkpt lat="36.02291969260373" lon="119.39759604635535">
        <ele>56.6468505859375</ele>
        <time>2023-02-08T06:29:29Z</time>
      </trkpt>
      <trkpt lat="36.02288870315577" lon="119.39767207775199">
        <ele>0.0</ele>
        <time>2023-02-08T06:30:05Z</time>
      </trkpt>
      <trkpt lat="36.01928281680696" lon="119.400338666151">
        <ele>0.0</ele>
        <time>2023-02-08T06:32:09Z</time>
      </trkpt>
      <trkpt lat="36.02169900495138" lon="119.39507644003892">
        <ele>43.6640625</ele>
        <time>2023-02-08T06:33:24Z</time>
      </trkpt>
      <trkpt lat="36.01785387156676" lon="119.39544995969598">
        <ele>0.0</ele>
        <time>2023-02-08T06:39:59Z</time>
      </trkpt>
      <trkpt lat="36.01772014341276" lon="119.38635598930442">
        <ele>0.0</ele>
        <time>2023-02-08T06:45:18Z</time>
      </trkpt>
      <trkpt lat="36.01773921361523" lon="119.3861870292296">
        <ele>0.0</ele>
        <time>2023-02-08T06:46:16Z</time>
      </trkpt>
      <trkpt lat="36.01755639860818" lon="119.38587113241032">
        <ele>55.10589599609375</ele>
        <time>2023-02-08T06:46:31Z</time>
      </trkpt>
      <trkpt lat="36.01748547815701" lon="119.38573417782432">
        <ele>57.6944580078125</ele>
        <time>2023-02-08T06:46:40Z</time>
      </trkpt>
      <trkpt lat="36.0174355115605" lon="119.38568719650743">
        <ele>57.04986572265625</ele>
        <time>2023-02-08T06:46:46Z</time>
      </trkpt>
      <trkpt lat="36.01738259882243" lon="119.38552724781397">
        <ele>58.9364013671875</ele>
        <time>2023-02-08T06:46:58Z</time>
      </trkpt>
      <trkpt lat="36.01743059905093" lon="119.38550324934472">
        <ele>56.8131103515625</ele>
        <time>2023-02-08T06:47:04Z</time>
      </trkpt>
      <trkpt lat="36.01747261683019" lon="119.38544526147342">
        <ele>58.552490234375</ele>
        <time>2023-02-08T06:47:10Z</time>
      </trkpt>
      <trkpt lat="36.01746565134637" lon="119.38537628252365">
        <ele>58.93609619140625</ele>
        <time>2023-02-08T06:47:16Z</time>
      </trkpt>
      <trkpt lat="36.017357781556214" lon="119.38515836029167">
        <ele>60.47802734375</ele>
        <time>2023-02-08T06:47:34Z</time>
      </trkpt>
      <trkpt lat="36.017179954263746" lon="119.38489146402291">
        <ele>68.412353515625</ele>
        <time>2023-02-08T06:47:58Z</time>
      </trkpt>
      <trkpt lat="36.01700816983623" lon="119.38454359801455">
        <ele>74.411865234375</ele>
        <time>2023-02-08T06:48:28Z</time>
      </trkpt>
      <trkpt lat="36.016948253231874" lon="119.3844086509193">
        <ele>74.4742431640625</ele>
        <time>2023-02-08T06:48:40Z</time>
      </trkpt>
      <trkpt lat="36.01688838934612" lon="119.38417473990266">
        <ele>66.7056884765625</ele>
        <time>2023-02-08T06:49:01Z</time>
      </trkpt>
      <trkpt lat="36.01684643765433" lon="119.38410177085092">
        <ele>70.88519287109375</ele>
        <time>2023-02-08T06:49:07Z</time>
      </trkpt>
      <trkpt lat="36.016770571754165" lon="119.38388385935116">
        <ele>71.8056640625</ele>
        <time>2023-02-08T06:49:25Z</time>
      </trkpt>
      <trkpt lat="36.01671066256639" lon="119.38374191948499">
        <ele>69.08056640625</ele>
        <time>2023-02-08T06:49:37Z</time>
      </trkpt>
      <trkpt lat="36.01665182583175" lon="119.38347003127211">
        <ele>65.34796142578125</ele>
        <time>2023-02-08T06:49:55Z</time>
      </trkpt>
      <trkpt lat="36.01655003494939" lon="119.3831401753762">
        <ele>58.74029541015625</ele>
        <time>2023-02-08T06:50:19Z</time>
      </trkpt>
      <trkpt lat="36.01651413364514" lon="119.38298224489267">
        <ele>58.3388671875</ele>
        <time>2023-02-08T06:50:31Z</time>
      </trkpt>
      <trkpt lat="36.016406287891456" lon="119.38275935158268">
        <ele>62.19134521484375</ele>
        <time>2023-02-08T06:50:49Z</time>
      </trkpt>
      <trkpt lat="36.01636043272622" lon="119.38253145604091">
        <ele>61.3338623046875</ele>
        <time>2023-02-08T06:51:07Z</time>
      </trkpt>
      <trkpt lat="36.016399468281776" lon="119.38245648490246">
        <ele>62.59466552734375</ele>
        <time>2023-02-08T06:51:13Z</time>
      </trkpt>
      <trkpt lat="36.01671040220674" lon="119.38244645445525">
        <ele>65.3853759765625</ele>
        <time>2023-02-08T06:51:43Z</time>
      </trkpt>
      <trkpt lat="36.01696933984236" lon="119.38245042360798">
        <ele>70.0736083984375</ele>
        <time>2023-02-08T06:52:07Z</time>
      </trkpt>
      <trkpt lat="36.01711128017142" lon="119.38249538768153">
        <ele>66.41888427734375</ele>
        <time>2023-02-08T06:52:19Z</time>
      </trkpt>
      <trkpt lat="36.01727024752286" lon="119.382488372941">
        <ele>61.933837890625</ele>
        <time>2023-02-08T06:52:31Z</time>
      </trkpt>
      <trkpt lat="36.017410210952214" lon="119.38249535412665">
        <ele>63.11767578125</ele>
        <time>2023-02-08T06:52:43Z</time>
      </trkpt>
      <trkpt lat="36.01758712077925" lon="119.38257829765915">
        <ele>67.54327392578125</ele>
        <time>2023-02-08T06:53:01Z</time>
      </trkpt>
      <trkpt lat="36.01791400558768" lon="119.3826452316676">
        <ele>63.0108642578125</ele>
        <time>2023-02-08T06:53:31Z</time>
      </trkpt>
      <trkpt lat="36.017949999023635" lon="119.3826422289342">
        <ele>61.925537109375</ele>
        <time>2023-02-08T06:53:34Z</time>
      </trkpt>
    </trkseg>
  </trk>
</gpx>