<?xml version="1.0" encoding="UTF-8"?>
<gpx xmlns="http://www.topografix.com/GPX/1/1" xmlns:gpxtpx="http://www.garmin.com/xmlschemas/TrackPointExtension/v1" xmlns:xsi="http://www.w3.org/2001/XMLSchema-instance" xsi:schemaLocation="http://www.topografix.com/GPX/1/1 http://www.topografix.com/GPX/1/1/gpx.xsd" version="1.1" creator="gpx.py -- https://github.com/tkrajina/gpxpy">
  <trk>
    <name>gpx from keep</name>
    <type>Run</type>
    <trkseg>
      <trkpt lat="31.472241939510788" lon="120.25357963122939">
        <ele>7.331695556640625</ele>
        <time>2024-11-03T13:00:58Z</time>
      </trkpt>
      <trkpt lat="31.472241939510788" lon="120.25357963122939">
        <ele>7.331695556640625</ele>
        <time>2024-11-03T13:00:59Z</time>
      </trkpt>
      <trkpt lat="31.472207044288687" lon="120.25362322385745">
        <ele>8.306549145840108</ele>
        <time>2024-11-03T13:01:15Z</time>
        <extensions>
          <gpxtpx:TrackPointExtension>
            <gpxtpx:hr>79</gpxtpx:hr>
          </gpxtpx:TrackPointExtension>
        </extensions>
      </trkpt>
      <trkpt lat="31.47216056066325" lon="120.2536907896831">
        <ele>8.083465845324099</ele>
        <time>2024-11-03T13:01:19Z</time>
        <extensions>
          <gpxtpx:TrackPointExtension>
            <gpxtpx:hr>79</gpxtpx:hr>
          </gpxtpx:TrackPointExtension>
        </extensions>
      </trkpt>
      <trkpt lat="31.472026910010236" lon="120.2536529774674">
        <ele>6.294314965605736</ele>
        <time>2024-11-03T13:01:23Z</time>
        <extensions>
          <gpxtpx:TrackPointExtension>
            <gpxtpx:hr>79</gpxtpx:hr>
          </gpxtpx:TrackPointExtension>
        </extensions>
      </trkpt>
      <trkpt lat="31.471836235945453" lon="120.25376120132225">
        <ele>7.401606782339513</ele>
        <time>2024-11-03T13:01:31Z</time>
        <extensions>
          <gpxtpx:TrackPointExtension>
            <gpxtpx:hr>79</gpxtpx:hr>
          </gpxtpx:TrackPointExtension>
        </extensions>
      </trkpt>
      <trkpt lat="31.471754272781162" lon="120.25385273522966">
        <ele>8.245557051151991</ele>
        <time>2024-11-03T13:01:35Z</time>
      </trkpt>
      <trkpt lat="31.47169797488235" lon="120.25414563752007">
        <ele>7.096022741869092</ele>
        <time>2024-11-03T13:01:43Z</time>
      </trkpt>
      <trkpt lat="31.47170119694514" lon="120.2542759974109">
        <ele>6.54071703646332</ele>
        <time>2024-11-03T13:01:47Z</time>
      </trkpt>
      <trkpt lat="31.471754567814397" lon="120.25438582189003">
        <ele>5.375270548276603</ele>
        <time>2024-11-03T13:01:51Z</time>
      </trkpt>
      <trkpt lat="31.471831271644778" lon="120.25447288032528">
        <ele>5.100573500618339</ele>
        <time>2024-11-03T13:01:55Z</time>
      </trkpt>
      <trkpt lat="31.472168892004483" lon="120.25454993195511">
        <ele>6.339995635673404</ele>
        <time>2024-11-03T13:02:11Z</time>
      </trkpt>
      <trkpt lat="31.472507152094387" lon="120.2546200036038">
        <ele>6.116913635283709</ele>
        <time>2024-11-03T13:02:27Z</time>
      </trkpt>
      <trkpt lat="31.47266729438918" lon="120.25467008980213">
        <ele>5.7828878024593</ele>
        <time>2024-11-03T13:02:35Z</time>
      </trkpt>
      <trkpt lat="31.47275934406244" lon="120.2546763537248">
        <ele>6.086795828305185</ele>
        <time>2024-11-03T13:02:39Z</time>
      </trkpt>
      <trkpt lat="31.47286984650414" lon="120.25463322467472">
        <ele>6.551489292643964</ele>
        <time>2024-11-03T13:02:43Z</time>
      </trkpt>
      <trkpt lat="31.473043902256745" lon="120.2544763868325">
        <ele>5.121076088398695</ele>
        <time>2024-11-03T13:02:51Z</time>
      </trkpt>
      <trkpt lat="31.47308825889302" lon="120.25437071510584">
        <ele>4.90019653737545</ele>
        <time>2024-11-03T13:02:55Z</time>
      </trkpt>
      <trkpt lat="31.473111166262598" lon="120.25426510275486">
        <ele>5.3599320547655225</ele>
        <time>2024-11-03T13:02:59Z</time>
      </trkpt>
      <trkpt lat="31.473107023240768" lon="120.25415754889333">
        <ele>5.4933956898748875</ele>
        <time>2024-11-03T13:03:02Z</time>
      </trkpt>
      <trkpt lat="31.47306488593406" lon="120.25403352704005">
        <ele>5.444967081770301</ele>
        <time>2024-11-03T13:03:06Z</time>
      </trkpt>
      <trkpt lat="31.472865328375704" lon="120.25376406520039">
        <ele>5.156704000197351</ele>
        <time>2024-11-03T13:03:18Z</time>
      </trkpt>
      <trkpt lat="31.47280715835978" lon="120.25371115583694">
        <ele>7.052922415547073</ele>
        <time>2024-11-03T13:03:21Z</time>
      </trkpt>
      <trkpt lat="31.472542288934847" lon="120.25374589892448">
        <ele>5.403236451558769</ele>
        <time>2024-11-03T13:03:39Z</time>
      </trkpt>
      <trkpt lat="31.472204046136845" lon="120.25366115073321">
        <ele>7.861306892707944</ele>
        <time>2024-11-03T13:03:48Z</time>
      </trkpt>
      <trkpt lat="31.472090135603814" lon="120.25365105290082">
        <ele>10.397761475294828</ele>
        <time>2024-11-03T13:03:51Z</time>
      </trkpt>
      <trkpt lat="31.471908826898648" lon="120.2536960381267">
        <ele>8.29323778860271</ele>
        <time>2024-11-03T13:03:57Z</time>
      </trkpt>
      <trkpt lat="31.47182592082301" lon="120.2537498624154">
        <ele>9.81637133192271</ele>
        <time>2024-11-03T13:04:00Z</time>
      </trkpt>
      <trkpt lat="31.471761657553987" lon="120.25382684746978">
        <ele>8.519402330741286</ele>
        <time>2024-11-03T13:04:03Z</time>
      </trkpt>
      <trkpt lat="31.47169224605984" lon="120.2539457241775">
        <ele>8.13879321794957</ele>
        <time>2024-11-03T13:04:07Z</time>
      </trkpt>
      <trkpt lat="31.471669322622905" lon="120.25409206601965">
        <ele>7.704350458458066</ele>
        <time>2024-11-03T13:04:11Z</time>
      </trkpt>
      <trkpt lat="31.47167500648274" lon="120.25425086483239">
        <ele>7.530717340297997</ele>
        <time>2024-11-03T13:04:15Z</time>
      </trkpt>
      <trkpt lat="31.471741889372463" lon="120.25439294535936">
        <ele>6.186909265816212</ele>
        <time>2024-11-03T13:04:19Z</time>
      </trkpt>
      <trkpt lat="31.471844435948565" lon="120.25449046192941">
        <ele>7.320178552530706</ele>
        <time>2024-11-03T13:04:23Z</time>
      </trkpt>
      <trkpt lat="31.472088588343738" lon="120.25457170609425">
        <ele>9.436970681883395</ele>
        <time>2024-11-03T13:04:31Z</time>
      </trkpt>
      <trkpt lat="31.47236182791614" lon="120.25459663130225">
        <ele>8.772471982054412</ele>
        <time>2024-11-03T13:04:39Z</time>
      </trkpt>
      <trkpt lat="31.47262466580961" lon="120.25461916907831">
        <ele>8.274979091249406</ele>
        <time>2024-11-03T13:04:47Z</time>
      </trkpt>
      <trkpt lat="31.472741860574523" lon="120.25466633304855">
        <ele>7.795861308462918</ele>
        <time>2024-11-03T13:04:51Z</time>
      </trkpt>
      <trkpt lat="31.4728701661299" lon="120.25463897336333">
        <ele>7.65436044242233</ele>
        <time>2024-11-03T13:04:55Z</time>
      </trkpt>
      <trkpt lat="31.472975434371403" lon="120.25458313198479">
        <ele>8.130342590622604</ele>
        <time>2024-11-03T13:04:59Z</time>
      </trkpt>
      <trkpt lat="31.473065256409228" lon="120.2544620948632">
        <ele>8.490530839189887</ele>
        <time>2024-11-03T13:05:03Z</time>
      </trkpt>
      <trkpt lat="31.47310232691484" lon="120.2543707003353">
        <ele>9.808095663785934</ele>
        <time>2024-11-03T13:05:06Z</time>
      </trkpt>
      <trkpt lat="31.47311922458174" lon="120.25427818906826">
        <ele>8.642854840494692</ele>
        <time>2024-11-03T13:05:09Z</time>
      </trkpt>
      <trkpt lat="31.473077586126408" lon="120.25406899959961">
        <ele>7.088644335046411</ele>
        <time>2024-11-03T13:05:15Z</time>
      </trkpt>
      <trkpt lat="31.473039323853172" lon="120.25397896400466">
        <ele>7.6744037959724665</ele>
        <time>2024-11-03T13:05:18Z</time>
      </trkpt>
      <trkpt lat="31.472978650275014" lon="120.25389743885138">
        <ele>6.798287656158209</ele>
        <time>2024-11-03T13:05:21Z</time>
      </trkpt>
      <trkpt lat="31.472901543971226" lon="120.25385079497165">
        <ele>7.7173657128587365</ele>
        <time>2024-11-03T13:05:24Z</time>
      </trkpt>
      <trkpt lat="31.4725809187199" lon="120.25377637767832">
        <ele>7.717663533985615</ele>
        <time>2024-11-03T13:05:36Z</time>
      </trkpt>
      <trkpt lat="31.472346990781805" lon="120.25374712443997">
        <ele>7.606565726920962</ele>
        <time>2024-11-03T13:05:45Z</time>
      </trkpt>
      <trkpt lat="31.47227111313308" lon="120.2537170481464">
        <ele>8.076865401118994</ele>
        <time>2024-11-03T13:05:48Z</time>
      </trkpt>
      <trkpt lat="31.47202048565711" lon="120.25368119513969">
        <ele>8.749785836786032</ele>
        <time>2024-11-03T13:05:57Z</time>
      </trkpt>
      <trkpt lat="31.471944038647376" lon="120.25369089557293">
        <ele>8.203484044410288</ele>
        <time>2024-11-03T13:06:00Z</time>
      </trkpt>
      <trkpt lat="31.471801215034837" lon="120.25375404856646">
        <ele>7.885594506748021</ele>
        <time>2024-11-03T13:06:06Z</time>
      </trkpt>
      <trkpt lat="31.47168556393963" lon="120.25394503191117">
        <ele>8.744862067513168</ele>
        <time>2024-11-03T13:06:14Z</time>
      </trkpt>
      <trkpt lat="31.47166029269536" lon="120.25406139434057">
        <ele>8.440522451885045</ele>
        <time>2024-11-03T13:06:18Z</time>
      </trkpt>
      <trkpt lat="31.471685944917464" lon="120.25415122610111">
        <ele>7.259087026119232</ele>
        <time>2024-11-03T13:06:21Z</time>
      </trkpt>
      <trkpt lat="31.471698068795867" lon="120.2542857020016">
        <ele>7.736494462937117</ele>
        <time>2024-11-03T13:06:25Z</time>
      </trkpt>
      <trkpt lat="31.471817581996635" lon="120.25447818423594">
        <ele>7.183839438483119</ele>
        <time>2024-11-03T13:06:32Z</time>
      </trkpt>
      <trkpt lat="31.47190791972901" lon="120.25453840797952">
        <ele>7.712864972651005</ele>
        <time>2024-11-03T13:06:36Z</time>
      </trkpt>
      <trkpt lat="31.472243919319922" lon="120.25459649661914">
        <ele>8.376579876057804</ele>
        <time>2024-11-03T13:06:48Z</time>
      </trkpt>
      <trkpt lat="31.472568339057513" lon="120.25465640253998">
        <ele>6.47358107753098</ele>
        <time>2024-11-03T13:07:00Z</time>
      </trkpt>
      <trkpt lat="31.472731555526984" lon="120.25468150741285">
        <ele>7.355123186483979</ele>
        <time>2024-11-03T13:07:07Z</time>
      </trkpt>
      <trkpt lat="31.47282305507043" lon="120.25467665799385">
        <ele>6.8292899345979095</ele>
        <time>2024-11-03T13:07:11Z</time>
      </trkpt>
      <trkpt lat="31.47291662595809" lon="120.25462989499304">
        <ele>7.016181429848075</ele>
        <time>2024-11-03T13:07:15Z</time>
      </trkpt>
      <trkpt lat="31.472992705959864" lon="120.25456554659712">
        <ele>7.106112671084702</ele>
        <time>2024-11-03T13:07:19Z</time>
      </trkpt>
      <trkpt lat="31.47306011747775" lon="120.25447476422993">
        <ele>6.211465275846422</ele>
        <time>2024-11-03T13:07:23Z</time>
      </trkpt>
      <trkpt lat="31.473104701650872" lon="120.2543648121355">
        <ele>6.060697679407895</ele>
        <time>2024-11-03T13:07:27Z</time>
      </trkpt>
      <trkpt lat="31.47312357959712" lon="120.2542321169211">
        <ele>6.400598130188882</ele>
        <time>2024-11-03T13:07:31Z</time>
      </trkpt>
      <trkpt lat="31.473118793175033" lon="120.25411355587765">
        <ele>6.647036427631974</ele>
        <time>2024-11-03T13:07:35Z</time>
      </trkpt>
      <trkpt lat="31.47308969937556" lon="120.25400328322064">
        <ele>6.695266477763653</ele>
        <time>2024-11-03T13:07:39Z</time>
      </trkpt>
      <trkpt lat="31.472983110809924" lon="120.2538092984103">
        <ele>7.006833815947175</ele>
        <time>2024-11-03T13:07:47Z</time>
      </trkpt>
      <trkpt lat="31.472892617765694" lon="120.2537296252048">
        <ele>6.801466025412083</ele>
        <time>2024-11-03T13:07:51Z</time>
      </trkpt>
      <trkpt lat="31.472813038852507" lon="120.25368944701297">
        <ele>5.528047473169863</ele>
        <time>2024-11-03T13:07:55Z</time>
      </trkpt>
      <trkpt lat="31.47271792305715" lon="120.25376655343823">
        <ele>5.092826880514622</ele>
        <time>2024-11-03T13:07:59Z</time>
      </trkpt>
      <trkpt lat="31.472617895994347" lon="120.25380014578501">
        <ele>5.1589866215363145</ele>
        <time>2024-11-03T13:08:03Z</time>
      </trkpt>
      <trkpt lat="31.472519273205254" lon="120.2537653650356">
        <ele>6.710686445236206</ele>
        <time>2024-11-03T13:08:07Z</time>
      </trkpt>
      <trkpt lat="31.47240270142457" lon="120.25375165308674">
        <ele>6.981162215583026</ele>
        <time>2024-11-03T13:08:11Z</time>
      </trkpt>
      <trkpt lat="31.472333262646057" lon="120.25371850983306">
        <ele>6.782884263433516</ele>
        <time>2024-11-03T13:08:14Z</time>
      </trkpt>
      <trkpt lat="31.47202887048963" lon="120.25366035814008">
        <ele>6.297321585007012</ele>
        <time>2024-11-03T13:08:26Z</time>
      </trkpt>
      <trkpt lat="31.471919338516198" lon="120.25368954444924">
        <ele>7.816534083336592</ele>
        <time>2024-11-03T13:08:30Z</time>
      </trkpt>
      <trkpt lat="31.47183454354714" lon="120.25374991978711">
        <ele>8.613457722589374</ele>
        <time>2024-11-03T13:08:34Z</time>
      </trkpt>
      <trkpt lat="31.471753244030126" lon="120.2538407572773">
        <ele>8.895975142717361</ele>
        <time>2024-11-03T13:08:38Z</time>
      </trkpt>
      <trkpt lat="31.471700190297504" lon="120.25395094946023">
        <ele>8.680917947553098</ele>
        <time>2024-11-03T13:08:42Z</time>
      </trkpt>
      <trkpt lat="31.47168209714791" lon="120.25409134468093">
        <ele>9.18003511801362</ele>
        <time>2024-11-03T13:08:46Z</time>
      </trkpt>
      <trkpt lat="31.47168975022434" lon="120.25422171074229">
        <ele>8.356520191766322</ele>
        <time>2024-11-03T13:08:50Z</time>
      </trkpt>
      <trkpt lat="31.471748572086508" lon="120.2543287896618">
        <ele>9.972468949854374</ele>
        <time>2024-11-03T13:08:54Z</time>
      </trkpt>
      <trkpt lat="31.47192542702155" lon="120.25449554263307">
        <ele>8.993226459249854</ele>
        <time>2024-11-03T13:09:02Z</time>
      </trkpt>
      <trkpt lat="31.472265151451115" lon="120.25457964123379">
        <ele>8.20583856664598</ele>
        <time>2024-11-03T13:09:14Z</time>
      </trkpt>
      <trkpt lat="31.472541940543373" lon="120.25460860494054">
        <ele>7.860174530185759</ele>
        <time>2024-11-03T13:09:24Z</time>
      </trkpt>
      <trkpt lat="31.472834689372995" lon="120.25468393547501">
        <ele>6.570704715326428</ele>
        <time>2024-11-03T13:09:36Z</time>
      </trkpt>
      <trkpt lat="31.473008433702887" lon="120.25454575686824">
        <ele>6.903286180458963</ele>
        <time>2024-11-03T13:09:44Z</time>
      </trkpt>
      <trkpt lat="31.473075280830955" lon="120.25445822323192">
        <ele>7.17656962480396</ele>
        <time>2024-11-03T13:09:48Z</time>
      </trkpt>
      <trkpt lat="31.473120419234547" lon="120.25433208785475">
        <ele>5.859374737367034</ele>
        <time>2024-11-03T13:09:52Z</time>
      </trkpt>
      <trkpt lat="31.473081617436996" lon="120.25410155651335">
        <ele>6.1404773853719234</ele>
        <time>2024-11-03T13:10:00Z</time>
      </trkpt>
      <trkpt lat="31.47303970713039" lon="120.25398206775309">
        <ele>8.061675760895014</ele>
        <time>2024-11-03T13:10:04Z</time>
      </trkpt>
      <trkpt lat="31.47296728380689" lon="120.25390009106964">
        <ele>7.649736012332141</ele>
        <time>2024-11-03T13:10:08Z</time>
      </trkpt>
      <trkpt lat="31.47287652472485" lon="120.25384654098413">
        <ele>6.5678320890292525</ele>
        <time>2024-11-03T13:10:12Z</time>
      </trkpt>
      <trkpt lat="31.47256533433222" lon="120.25376974661901">
        <ele>6.463819361291826</ele>
        <time>2024-11-03T13:10:26Z</time>
      </trkpt>
      <trkpt lat="31.47244268998925" lon="120.25375885032628">
        <ele>6.665476611815393</ele>
        <time>2024-11-03T13:10:32Z</time>
      </trkpt>
      <trkpt lat="31.47206575399476" lon="120.25368745473244">
        <ele>5.807402024976909</ele>
        <time>2024-11-03T13:10:45Z</time>
      </trkpt>
      <trkpt lat="31.471957840721924" lon="120.25370797682163">
        <ele>6.276931477710605</ele>
        <time>2024-11-03T13:10:49Z</time>
      </trkpt>
      <trkpt lat="31.471854729319972" lon="120.25375627547345">
        <ele>6.301538403145969</ele>
        <time>2024-11-03T13:10:53Z</time>
      </trkpt>
      <trkpt lat="31.47176503562042" lon="120.25383545954776">
        <ele>7.381994337774813</ele>
        <time>2024-11-03T13:10:57Z</time>
      </trkpt>
      <trkpt lat="31.47170672071023" lon="120.25394054998768">
        <ele>8.634390390478075</ele>
        <time>2024-11-03T13:11:01Z</time>
      </trkpt>
      <trkpt lat="31.47169421503282" lon="120.25419608700913">
        <ele>8.470027804374695</ele>
        <time>2024-11-03T13:11:09Z</time>
      </trkpt>
      <trkpt lat="31.471721749600547" lon="120.25432396318062">
        <ele>6.536741206422448</ele>
        <time>2024-11-03T13:11:13Z</time>
      </trkpt>
      <trkpt lat="31.47178460547578" lon="120.25443491034136">
        <ele>6.721912287175655</ele>
        <time>2024-11-03T13:11:17Z</time>
      </trkpt>
      <trkpt lat="31.471954590709213" lon="120.25453300006063">
        <ele>7.059745303355157</ele>
        <time>2024-11-03T13:11:24Z</time>
      </trkpt>
      <trkpt lat="31.47227182270144" lon="120.25461059814964">
        <ele>6.84743670001626</ele>
        <time>2024-11-03T13:11:36Z</time>
      </trkpt>
      <trkpt lat="31.472608125436597" lon="120.25466165679087">
        <ele>7.753428691998124</ele>
        <time>2024-11-03T13:11:48Z</time>
      </trkpt>
      <trkpt lat="31.47271027497583" lon="120.2546820149113">
        <ele>8.916337280534208</ele>
        <time>2024-11-03T13:11:52Z</time>
      </trkpt>
      <trkpt lat="31.472823411253522" lon="120.25467244824155">
        <ele>8.64652795996517</ele>
        <time>2024-11-03T13:11:56Z</time>
      </trkpt>
      <trkpt lat="31.47293061735662" lon="120.25463506380103">
        <ele>8.59488750807941</ele>
        <time>2024-11-03T13:12:00Z</time>
      </trkpt>
      <trkpt lat="31.47301212016572" lon="120.25457357031372">
        <ele>7.226996272802353</ele>
        <time>2024-11-03T13:12:04Z</time>
      </trkpt>
      <trkpt lat="31.473077648080217" lon="120.25448223427131">
        <ele>6.198400748893619</ele>
        <time>2024-11-03T13:12:08Z</time>
      </trkpt>
      <trkpt lat="31.4731365453496" lon="120.25423635355554">
        <ele>5.418495054356754</ele>
        <time>2024-11-03T13:12:16Z</time>
      </trkpt>
      <trkpt lat="31.473140330161947" lon="120.25411881254567">
        <ele>6.94171813968569</ele>
        <time>2024-11-03T13:12:20Z</time>
      </trkpt>
      <trkpt lat="31.47309561250384" lon="120.25399296784316">
        <ele>6.934739973396063</ele>
        <time>2024-11-03T13:12:24Z</time>
      </trkpt>
      <trkpt lat="31.47302443979916" lon="120.25386253101367">
        <ele>7.3141215071082115</ele>
        <time>2024-11-03T13:12:28Z</time>
      </trkpt>
      <trkpt lat="31.47292476214901" lon="120.25381754697015">
        <ele>7.362036551348865</ele>
        <time>2024-11-03T13:12:32Z</time>
      </trkpt>
      <trkpt lat="31.472820246463044" lon="120.25380182276234">
        <ele>8.14596764370799</ele>
        <time>2024-11-03T13:12:36Z</time>
      </trkpt>
      <trkpt lat="31.472719710835968" lon="120.25376439881413">
        <ele>8.475819506682456</ele>
        <time>2024-11-03T13:12:40Z</time>
      </trkpt>
      <trkpt lat="31.472389868238057" lon="120.25372751143347">
        <ele>8.542005981318653</ele>
        <time>2024-11-03T13:12:52Z</time>
      </trkpt>
      <trkpt lat="31.472046602316112" lon="120.25367368538052">
        <ele>8.2255200445652</ele>
        <time>2024-11-03T13:13:04Z</time>
      </trkpt>
      <trkpt lat="31.471945740495055" lon="120.25369135944777">
        <ele>8.460970288142562</ele>
        <time>2024-11-03T13:13:08Z</time>
      </trkpt>
      <trkpt lat="31.47176821603231" lon="120.2538101122917">
        <ele>8.86395084951073</ele>
        <time>2024-11-03T13:13:16Z</time>
      </trkpt>
      <trkpt lat="31.47171648692821" lon="120.25390032310197">
        <ele>7.907875885255635</ele>
        <time>2024-11-03T13:13:20Z</time>
      </trkpt>
      <trkpt lat="31.47166681441564" lon="120.25414260208782">
        <ele>6.7843879433348775</ele>
        <time>2024-11-03T13:13:28Z</time>
      </trkpt>
      <trkpt lat="31.471670791444406" lon="120.25424877123967">
        <ele>6.992389617487788</ele>
        <time>2024-11-03T13:13:31Z</time>
      </trkpt>
      <trkpt lat="31.471775450339557" lon="120.25443334255026">
        <ele>8.062028542160988</ele>
        <time>2024-11-03T13:13:38Z</time>
      </trkpt>
      <trkpt lat="31.471965311534966" lon="120.25455465690972">
        <ele>7.507043185643852</ele>
        <time>2024-11-03T13:13:46Z</time>
      </trkpt>
      <trkpt lat="31.472289953210968" lon="120.25462000678473">
        <ele>8.229768009856343</ele>
        <time>2024-11-03T13:13:58Z</time>
      </trkpt>
      <trkpt lat="31.472395737924185" lon="120.25461594336414">
        <ele>8.069900247268379</ele>
        <time>2024-11-03T13:14:02Z</time>
      </trkpt>
      <trkpt lat="31.472605713712976" lon="120.25470372117296">
        <ele>8.113054376095533</ele>
        <time>2024-11-03T13:14:10Z</time>
      </trkpt>
      <trkpt lat="31.47283113178273" lon="120.25469333077271">
        <ele>8.559239975176752</ele>
        <time>2024-11-03T13:14:18Z</time>
      </trkpt>
      <trkpt lat="31.472939752762187" lon="120.25466023210568">
        <ele>7.656535353511572</ele>
        <time>2024-11-03T13:14:22Z</time>
      </trkpt>
      <trkpt lat="31.473043998285466" lon="120.25458060295814">
        <ele>7.8088287357240915</ele>
        <time>2024-11-03T13:14:26Z</time>
      </trkpt>
      <trkpt lat="31.473093339498508" lon="120.25446464349626">
        <ele>7.856177371926606</ele>
        <time>2024-11-03T13:14:30Z</time>
      </trkpt>
      <trkpt lat="31.47311989110444" lon="120.25434536190629">
        <ele>6.525567865930498</ele>
        <time>2024-11-03T13:14:34Z</time>
      </trkpt>
      <trkpt lat="31.473127758220617" lon="120.25421512906017">
        <ele>6.009187655523419</ele>
        <time>2024-11-03T13:14:38Z</time>
      </trkpt>
      <trkpt lat="31.473050470897988" lon="120.25396037194298">
        <ele>8.292974357493222</ele>
        <time>2024-11-03T13:14:46Z</time>
      </trkpt>
      <trkpt lat="31.472977813516515" lon="120.25385365869836">
        <ele>8.252447767183185</ele>
        <time>2024-11-03T13:14:50Z</time>
      </trkpt>
      <trkpt lat="31.472769860697838" lon="120.2537691148185">
        <ele>9.101731854490936</ele>
        <time>2024-11-03T13:14:58Z</time>
      </trkpt>
      <trkpt lat="31.472663631625547" lon="120.2537849030118">
        <ele>8.975936606526375</ele>
        <time>2024-11-03T13:15:02Z</time>
      </trkpt>
      <trkpt lat="31.4724395624593" lon="120.25372255929943">
        <ele>9.389046280644834</ele>
        <time>2024-11-03T13:15:10Z</time>
      </trkpt>
      <trkpt lat="31.472218641933793" lon="120.25370220382084">
        <ele>7.9324281718581915</ele>
        <time>2024-11-03T13:15:18Z</time>
      </trkpt>
      <trkpt lat="31.47211684627983" lon="120.25366862853237">
        <ele>8.088644000701606</ele>
        <time>2024-11-03T13:15:22Z</time>
      </trkpt>
      <trkpt lat="31.471987007441488" lon="120.25368949169929">
        <ele>8.676878853701055</ele>
        <time>2024-11-03T13:15:26Z</time>
      </trkpt>
      <trkpt lat="31.471784626878442" lon="120.25381807105823">
        <ele>8.955383583903313</ele>
        <time>2024-11-03T13:15:34Z</time>
      </trkpt>
      <trkpt lat="31.471692771771988" lon="120.25401592373606">
        <ele>10.271148203872144</ele>
        <time>2024-11-03T13:15:41Z</time>
      </trkpt>
      <trkpt lat="31.471685674107487" lon="120.25413159956621">
        <ele>8.522880128584802</ele>
        <time>2024-11-03T13:15:45Z</time>
      </trkpt>
      <trkpt lat="31.471750958027847" lon="120.25436394118567">
        <ele>8.422882762737572</ele>
        <time>2024-11-03T13:15:53Z</time>
      </trkpt>
      <trkpt lat="31.471828372810002" lon="120.25446291541269">
        <ele>7.634293794631958</ele>
        <time>2024-11-03T13:15:57Z</time>
      </trkpt>
      <trkpt lat="31.47192935540561" lon="120.25452159520806">
        <ele>8.038582070730627</ele>
        <time>2024-11-03T13:16:01Z</time>
      </trkpt>
      <trkpt lat="31.472170113701722" lon="120.25458333453558">
        <ele>8.448052514344454</ele>
        <time>2024-11-03T13:16:09Z</time>
      </trkpt>
      <trkpt lat="31.472291952022832" lon="120.25458849875227">
        <ele>8.36388907302171</ele>
        <time>2024-11-03T13:16:13Z</time>
      </trkpt>
      <trkpt lat="31.47266262872528" lon="120.2546812192416">
        <ele>8.997364336624742</ele>
        <time>2024-11-03T13:16:25Z</time>
      </trkpt>
      <trkpt lat="31.472785132210817" lon="120.25469994338708">
        <ele>8.83598227519542</ele>
        <time>2024-11-03T13:16:29Z</time>
      </trkpt>
      <trkpt lat="31.47289581408642" lon="120.25468115815401">
        <ele>8.675841675139964</ele>
        <time>2024-11-03T13:16:33Z</time>
      </trkpt>
      <trkpt lat="31.47298384624918" lon="120.25462272072303">
        <ele>8.87006620131433</ele>
        <time>2024-11-03T13:16:37Z</time>
      </trkpt>
      <trkpt lat="31.473064507215867" lon="120.25450657529267">
        <ele>10.150321901775897</ele>
        <time>2024-11-03T13:16:41Z</time>
      </trkpt>
      <trkpt lat="31.473106527760176" lon="120.25438116193442">
        <ele>8.607368568889797</ele>
        <time>2024-11-03T13:16:45Z</time>
      </trkpt>
      <trkpt lat="31.473105182633116" lon="120.25410560024496">
        <ele>6.609257637523115</ele>
        <time>2024-11-03T13:16:53Z</time>
      </trkpt>
      <trkpt lat="31.47298171851248" lon="120.25388604941726">
        <ele>8.37839093618095</ele>
        <time>2024-11-03T13:17:01Z</time>
      </trkpt>
      <trkpt lat="31.472891993138248" lon="120.25381993467714">
        <ele>8.68561754282564</ele>
        <time>2024-11-03T13:17:05Z</time>
      </trkpt>
      <trkpt lat="31.47256121718234" lon="120.25375347483043">
        <ele>9.501051276922226</ele>
        <time>2024-11-03T13:17:17Z</time>
      </trkpt>
      <trkpt lat="31.472231605901886" lon="120.25369328173659">
        <ele>8.992042230442166</ele>
        <time>2024-11-03T13:17:28Z</time>
      </trkpt>
      <trkpt lat="31.472138375674774" lon="120.2536795850652">
        <ele>10.02837255783379</ele>
        <time>2024-11-03T13:17:32Z</time>
      </trkpt>
      <trkpt lat="31.472020833800933" lon="120.25368953312554">
        <ele>8.773570477031171</ele>
        <time>2024-11-03T13:17:36Z</time>
      </trkpt>
      <trkpt lat="31.471913468133643" lon="120.25374519201509">
        <ele>7.068507112562656</ele>
        <time>2024-11-03T13:17:40Z</time>
      </trkpt>
      <trkpt lat="31.471758115441695" lon="120.25388574462578">
        <ele>7.1493646474555135</ele>
        <time>2024-11-03T13:17:47Z</time>
      </trkpt>
      <trkpt lat="31.471697989315743" lon="120.25399367975189">
        <ele>7.7894709669053555</ele>
        <time>2024-11-03T13:17:51Z</time>
      </trkpt>
      <trkpt lat="31.471678755626485" lon="120.25408918881433">
        <ele>8.097060865722597</ele>
        <time>2024-11-03T13:17:54Z</time>
      </trkpt>
      <trkpt lat="31.47168646156798" lon="120.25421889331727">
        <ele>7.832278724759817</ele>
        <time>2024-11-03T13:17:58Z</time>
      </trkpt>
      <trkpt lat="31.47172937986942" lon="120.25434825559508">
        <ele>8.406546040438116</ele>
        <time>2024-11-03T13:18:02Z</time>
      </trkpt>
      <trkpt lat="31.471903851752252" lon="120.254513215985">
        <ele>7.064880493097007</ele>
        <time>2024-11-03T13:18:10Z</time>
      </trkpt>
      <trkpt lat="31.47200811005187" lon="120.25456721274739">
        <ele>7.783108553849161</ele>
        <time>2024-11-03T13:18:14Z</time>
      </trkpt>
      <trkpt lat="31.472339817989994" lon="120.25461817996778">
        <ele>6.912018644623458</ele>
        <time>2024-11-03T13:18:26Z</time>
      </trkpt>
      <trkpt lat="31.47246399307586" lon="120.25462151745893">
        <ele>7.916514843702316</ele>
        <time>2024-11-03T13:18:30Z</time>
      </trkpt>
      <trkpt lat="31.472789775246138" lon="120.25467408519268">
        <ele>8.622066699899733</ele>
        <time>2024-11-03T13:18:42Z</time>
      </trkpt>
      <trkpt lat="31.47289257258817" lon="120.25465780050418">
        <ele>8.09144002199173</ele>
        <time>2024-11-03T13:18:46Z</time>
      </trkpt>
      <trkpt lat="31.472984667762603" lon="120.25458898760553">
        <ele>7.460853029042482</ele>
        <time>2024-11-03T13:18:50Z</time>
      </trkpt>
      <trkpt lat="31.473061948180753" lon="120.25448756588546">
        <ele>7.196341000497341</ele>
        <time>2024-11-03T13:18:54Z</time>
      </trkpt>
      <trkpt lat="31.47309539309066" lon="120.25435496609936">
        <ele>6.345312747173011</ele>
        <time>2024-11-03T13:18:58Z</time>
      </trkpt>
      <trkpt lat="31.473109908850756" lon="120.25422211489008">
        <ele>8.446898547932506</ele>
        <time>2024-11-03T13:19:02Z</time>
      </trkpt>
      <trkpt lat="31.473093910894224" lon="120.25408717782928">
        <ele>7.905014453455806</ele>
        <time>2024-11-03T13:19:06Z</time>
      </trkpt>
      <trkpt lat="31.47304965479149" lon="120.2539566094643">
        <ele>7.746896157972515</ele>
        <time>2024-11-03T13:19:10Z</time>
      </trkpt>
      <trkpt lat="31.472966234336393" lon="120.2538592433008">
        <ele>9.16177286952734</ele>
        <time>2024-11-03T13:19:14Z</time>
      </trkpt>
      <trkpt lat="31.472777934668198" lon="120.25378052966602">
        <ele>9.03389676939696</ele>
        <time>2024-11-03T13:19:22Z</time>
      </trkpt>
      <trkpt lat="31.472683307360363" lon="120.25378955358727">
        <ele>7.149146657437086</ele>
        <time>2024-11-03T13:19:26Z</time>
      </trkpt>
      <trkpt lat="31.47257627926858" lon="120.25375835512017">
        <ele>7.858101923018694</ele>
        <time>2024-11-03T13:19:30Z</time>
      </trkpt>
      <trkpt lat="31.472467227156933" lon="120.25375713766825">
        <ele>9.269137037917972</ele>
        <time>2024-11-03T13:19:34Z</time>
      </trkpt>
      <trkpt lat="31.472137271932205" lon="120.25368072464329">
        <ele>6.853323953226209</ele>
        <time>2024-11-03T13:19:46Z</time>
      </trkpt>
      <trkpt lat="31.472052921890697" lon="120.25367007085744">
        <ele>7.847638296894729</ele>
        <time>2024-11-03T13:19:49Z</time>
      </trkpt>
      <trkpt lat="31.471948550977284" lon="120.25369748974494">
        <ele>7.390728712081909</ele>
        <time>2024-11-03T13:19:53Z</time>
      </trkpt>
      <trkpt lat="31.471849482608523" lon="120.25376446822261">
        <ele>7.531067590229213</ele>
        <time>2024-11-03T13:19:57Z</time>
      </trkpt>
      <trkpt lat="31.471747531313323" lon="120.2538632663739">
        <ele>8.255410477519035</ele>
        <time>2024-11-03T13:20:01Z</time>
      </trkpt>
      <trkpt lat="31.47168916054714" lon="120.25398118013186">
        <ele>7.8063599253073335</ele>
        <time>2024-11-03T13:20:05Z</time>
      </trkpt>
      <trkpt lat="31.47167441291977" lon="120.25413523377838">
        <ele>8.004731046967208</ele>
        <time>2024-11-03T13:20:09Z</time>
      </trkpt>
      <trkpt lat="31.47170314299902" lon="120.25425909147143">
        <ele>6.571393798105419</ele>
        <time>2024-11-03T13:20:13Z</time>
      </trkpt>
      <trkpt lat="31.47175917153553" lon="120.2543974707217">
        <ele>7.551968608982861</ele>
        <time>2024-11-03T13:20:17Z</time>
      </trkpt>
      <trkpt lat="31.47201141132248" lon="120.25453992233419">
        <ele>6.625220276415348</ele>
        <time>2024-11-03T13:20:25Z</time>
      </trkpt>
      <trkpt lat="31.472343094070027" lon="120.25464441784011">
        <ele>7.385197697207332</ele>
        <time>2024-11-03T13:20:37Z</time>
      </trkpt>
      <trkpt lat="31.47241958345115" lon="120.25463631281433">
        <ele>7.101661649532616</ele>
        <time>2024-11-03T13:20:41Z</time>
      </trkpt>
      <trkpt lat="31.472689887278648" lon="120.2546790332693">
        <ele>8.820441830903292</ele>
        <time>2024-11-03T13:20:49Z</time>
      </trkpt>
      <trkpt lat="31.472823006042653" lon="120.25468003306948">
        <ele>9.094004375860095</ele>
        <time>2024-11-03T13:20:53Z</time>
      </trkpt>
      <trkpt lat="31.472932742979538" lon="120.25460467156147">
        <ele>7.539899781346321</ele>
        <time>2024-11-03T13:20:57Z</time>
      </trkpt>
      <trkpt lat="31.4730244648888" lon="120.25450851713387">
        <ele>7.9637593338266015</ele>
        <time>2024-11-03T13:21:01Z</time>
      </trkpt>
      <trkpt lat="31.47313363056405" lon="120.25427821762065">
        <ele>6.89668736141175</ele>
        <time>2024-11-03T13:21:09Z</time>
      </trkpt>
      <trkpt lat="31.473079049686575" lon="120.25403516597568">
        <ele>6.924967888742685</ele>
        <time>2024-11-03T13:21:17Z</time>
      </trkpt>
      <trkpt lat="31.473018559767297" lon="120.25392277360605">
        <ele>7.645241316407919</ele>
        <time>2024-11-03T13:21:21Z</time>
      </trkpt>
      <trkpt lat="31.4728440342621" lon="120.25381480229039">
        <ele>7.3252725545316935</ele>
        <time>2024-11-03T13:21:29Z</time>
      </trkpt>
      <trkpt lat="31.472746741869187" lon="120.2538140489732">
        <ele>7.7704994743689895</ele>
        <time>2024-11-03T13:21:33Z</time>
      </trkpt>
      <trkpt lat="31.472639074848903" lon="120.25377992495667">
        <ele>6.792064697481692</ele>
        <time>2024-11-03T13:21:37Z</time>
      </trkpt>
      <trkpt lat="31.47252495199772" lon="120.25377738361006">
        <ele>6.847184837795794</ele>
        <time>2024-11-03T13:21:41Z</time>
      </trkpt>
      <trkpt lat="31.47222260415056" lon="120.25370392139978">
        <ele>7.323953435756266</ele>
        <time>2024-11-03T13:21:53Z</time>
      </trkpt>
      <trkpt lat="31.47204158573131" lon="120.25368162471523">
        <ele>6.93658290989697</ele>
        <time>2024-11-03T13:22:00Z</time>
      </trkpt>
      <trkpt lat="31.4719703323232" lon="120.25369276277569">
        <ele>7.230458558537066</ele>
        <time>2024-11-03T13:22:03Z</time>
      </trkpt>
      <trkpt lat="31.471859351875246" lon="120.25373878601255">
        <ele>7.6911886455491185</ele>
        <time>2024-11-03T13:22:07Z</time>
      </trkpt>
      <trkpt lat="31.471774353520516" lon="120.253817341688">
        <ele>7.3487682193517685</ele>
        <time>2024-11-03T13:22:11Z</time>
      </trkpt>
      <trkpt lat="31.471706139553085" lon="120.25392186301569">
        <ele>7.129115493036807</ele>
        <time>2024-11-03T13:22:15Z</time>
      </trkpt>
      <trkpt lat="31.471666401651763" lon="120.25404164091384">
        <ele>8.111195368692279</ele>
        <time>2024-11-03T13:22:19Z</time>
      </trkpt>
      <trkpt lat="31.47167334289381" lon="120.25418043130134">
        <ele>7.124295823276043</ele>
        <time>2024-11-03T13:22:23Z</time>
      </trkpt>
      <trkpt lat="31.47179008732573" lon="120.25440701800738">
        <ele>5.901896718889475</ele>
        <time>2024-11-03T13:22:31Z</time>
      </trkpt>
      <trkpt lat="31.471894781487002" lon="120.25449652537321">
        <ele>6.087518954649568</ele>
        <time>2024-11-03T13:22:35Z</time>
      </trkpt>
      <trkpt lat="31.472108858422125" lon="120.25457285543169">
        <ele>6.530164330266416</ele>
        <time>2024-11-03T13:22:43Z</time>
      </trkpt>
      <trkpt lat="31.472455764299323" lon="120.25462743393607">
        <ele>6.790253268554807</ele>
        <time>2024-11-03T13:22:55Z</time>
      </trkpt>
      <trkpt lat="31.472665754031375" lon="120.25468668729877">
        <ele>8.404091819189489</ele>
        <time>2024-11-03T13:23:03Z</time>
      </trkpt>
      <trkpt lat="31.472920302170902" lon="120.2546758412102">
        <ele>6.9240604201331735</ele>
        <time>2024-11-03T13:23:11Z</time>
      </trkpt>
      <trkpt lat="31.473099801018492" lon="120.25441781873161">
        <ele>7.227262667380273</ele>
        <time>2024-11-03T13:23:22Z</time>
      </trkpt>
      <trkpt lat="31.473134347905095" lon="120.25431907523071">
        <ele>7.162835781462491</ele>
        <time>2024-11-03T13:23:25Z</time>
      </trkpt>
      <trkpt lat="31.47314492655746" lon="120.2542146616715">
        <ele>8.435863429680467</ele>
        <time>2024-11-03T13:23:28Z</time>
      </trkpt>
      <trkpt lat="31.473085994396428" lon="120.25401185745051">
        <ele>4.694606815464795</ele>
        <time>2024-11-03T13:23:35Z</time>
      </trkpt>
      <trkpt lat="31.473022756850387" lon="120.25390507360873">
        <ele>6.354213937185705</ele>
        <time>2024-11-03T13:23:39Z</time>
      </trkpt>
      <trkpt lat="31.472961023188073" lon="120.25384542319954">
        <ele>6.8720901645720005</ele>
        <time>2024-11-03T13:23:43Z</time>
      </trkpt>
      <trkpt lat="31.472654492383032" lon="120.25376350323803">
        <ele>7.202081084251404</ele>
        <time>2024-11-03T13:23:55Z</time>
      </trkpt>
      <trkpt lat="31.47234821637029" lon="120.25369995516678">
        <ele>6.46473194938153</ele>
        <time>2024-11-03T13:24:07Z</time>
      </trkpt>
      <trkpt lat="31.472234257225452" lon="120.25366811678266">
        <ele>7.136718709953129</ele>
        <time>2024-11-03T13:24:11Z</time>
      </trkpt>
      <trkpt lat="31.472016022488553" lon="120.25366051821675">
        <ele>8.540325762704015</ele>
        <time>2024-11-03T13:24:19Z</time>
      </trkpt>
      <trkpt lat="31.471913558652087" lon="120.25370573348502">
        <ele>8.029803206212819</ele>
        <time>2024-11-03T13:24:23Z</time>
      </trkpt>
      <trkpt lat="31.471817069625548" lon="120.25377738359698">
        <ele>8.464967078529298</ele>
        <time>2024-11-03T13:24:27Z</time>
      </trkpt>
      <trkpt lat="31.471670113780736" lon="120.25399954442129">
        <ele>8.829584767110646</ele>
        <time>2024-11-03T13:24:35Z</time>
      </trkpt>
      <trkpt lat="31.471677150340135" lon="120.25415002429851">
        <ele>8.958960198797286</ele>
        <time>2024-11-03T13:24:39Z</time>
      </trkpt>
      <trkpt lat="31.471706491150744" lon="120.25426826194847">
        <ele>5.840763799846172</ele>
        <time>2024-11-03T13:24:43Z</time>
      </trkpt>
      <trkpt lat="31.47176537895078" lon="120.25441272016606">
        <ele>6.549635746516287</ele>
        <time>2024-11-03T13:24:47Z</time>
      </trkpt>
      <trkpt lat="31.47198802990924" lon="120.2545409869739">
        <ele>4.9580035004764795</ele>
        <time>2024-11-03T13:24:55Z</time>
      </trkpt>
      <trkpt lat="31.472096501639346" lon="120.25458089813348">
        <ele>6.293522933498025</ele>
        <time>2024-11-03T13:24:59Z</time>
      </trkpt>
      <trkpt lat="31.472427788086428" lon="120.2546374187841">
        <ele>7.397228681482375</ele>
        <time>2024-11-03T13:25:11Z</time>
      </trkpt>
      <trkpt lat="31.47272848202241" lon="120.25469318626128">
        <ele>8.409200072288513</ele>
        <time>2024-11-03T13:25:23Z</time>
      </trkpt>
      <trkpt lat="31.472933979488104" lon="120.25463998854921">
        <ele>7.286361926235259</ele>
        <time>2024-11-03T13:25:31Z</time>
      </trkpt>
      <trkpt lat="31.473010954258626" lon="120.25456691203807">
        <ele>6.478017160668969</ele>
        <time>2024-11-03T13:25:35Z</time>
      </trkpt>
      <trkpt lat="31.473076638293694" lon="120.25446050692875">
        <ele>7.302705833688378</ele>
        <time>2024-11-03T13:25:39Z</time>
      </trkpt>
      <trkpt lat="31.47314326914604" lon="120.25424235896735">
        <ele>7.544382160529494</ele>
        <time>2024-11-03T13:25:47Z</time>
      </trkpt>
      <trkpt lat="31.473126386258944" lon="120.2541149780461">
        <ele>7.749113683588803</ele>
        <time>2024-11-03T13:25:51Z</time>
      </trkpt>
      <trkpt lat="31.473088573540192" lon="120.2539974432423">
        <ele>7.204221109859645</ele>
        <time>2024-11-03T13:25:55Z</time>
      </trkpt>
      <trkpt lat="31.473026844930292" lon="120.25391476019423">
        <ele>8.739436091855168</ele>
        <time>2024-11-03T13:25:59Z</time>
      </trkpt>
      <trkpt lat="31.472934418431436" lon="120.25384762148406">
        <ele>8.776596232317388</ele>
        <time>2024-11-03T13:26:03Z</time>
      </trkpt>
      <trkpt lat="31.472601692404265" lon="120.25377019363779">
        <ele>7.892892642877996</ele>
        <time>2024-11-03T13:26:15Z</time>
      </trkpt>
      <trkpt lat="31.472312848588754" lon="120.25373323278014">
        <ele>7.525906202383339</ele>
        <time>2024-11-03T13:26:26Z</time>
      </trkpt>
      <trkpt lat="31.47221790757113" lon="120.25370239433053">
        <ele>7.7005747221410275</ele>
        <time>2024-11-03T13:26:30Z</time>
      </trkpt>
      <trkpt lat="31.472101569421795" lon="120.25368988741253">
        <ele>8.135226437821984</ele>
        <time>2024-11-03T13:26:34Z</time>
      </trkpt>
      <trkpt lat="31.471974093413987" lon="120.25370571687571">
        <ele>7.401747781783342</ele>
        <time>2024-11-03T13:26:38Z</time>
      </trkpt>
      <trkpt lat="31.47185522521868" lon="120.25376636457844">
        <ele>9.813066828995943</ele>
        <time>2024-11-03T13:26:42Z</time>
      </trkpt>
      <trkpt lat="31.471756977261062" lon="120.25389062473045">
        <ele>8.671792721375823</ele>
        <time>2024-11-03T13:26:46Z</time>
      </trkpt>
      <trkpt lat="31.47169501926944" lon="120.25404143039337">
        <ele>10.58790042437613</ele>
        <time>2024-11-03T13:26:50Z</time>
      </trkpt>
      <trkpt lat="31.471718967507748" lon="120.25420525851322">
        <ele>8.420557327568531</ele>
        <time>2024-11-03T13:26:54Z</time>
      </trkpt>
      <trkpt lat="31.47188039238578" lon="120.2544477440821">
        <ele>9.743616863153875</ele>
        <time>2024-11-03T13:27:02Z</time>
      </trkpt>
      <trkpt lat="31.47200650405004" lon="120.25452143457385">
        <ele>9.814393478445709</ele>
        <time>2024-11-03T13:27:06Z</time>
      </trkpt>
      <trkpt lat="31.47212203620343" lon="120.25455631639835">
        <ele>9.966972074471414</ele>
        <time>2024-11-03T13:27:10Z</time>
      </trkpt>
      <trkpt lat="31.47222025217493" lon="120.25461267658405">
        <ele>9.306370335631073</ele>
        <time>2024-11-03T13:27:14Z</time>
      </trkpt>
      <trkpt lat="31.472351547974192" lon="120.25461938497428">
        <ele>10.776663833297789</ele>
        <time>2024-11-03T13:27:18Z</time>
      </trkpt>
      <trkpt lat="31.472453273127716" lon="120.2546662136794">
        <ele>9.500609810464084</ele>
        <time>2024-11-03T13:27:22Z</time>
      </trkpt>
      <trkpt lat="31.47267256530389" lon="120.25470541686559">
        <ele>7.789661108516157</ele>
        <time>2024-11-03T13:27:30Z</time>
      </trkpt>
      <trkpt lat="31.472775117957045" lon="120.25469992033288">
        <ele>8.831889659166336</ele>
        <time>2024-11-03T13:27:34Z</time>
      </trkpt>
      <trkpt lat="31.47290170755251" lon="120.25464798692023">
        <ele>7.6602418860420585</ele>
        <time>2024-11-03T13:27:38Z</time>
      </trkpt>
      <trkpt lat="31.47300954594536" lon="120.25457008331546">
        <ele>6.417595510371029</ele>
        <time>2024-11-03T13:27:42Z</time>
      </trkpt>
      <trkpt lat="31.47307491756224" lon="120.25441878344999">
        <ele>7.122169917449355</ele>
        <time>2024-11-03T13:27:46Z</time>
      </trkpt>
      <trkpt lat="31.473116131590373" lon="120.25426566091149">
        <ele>5.772739144042134</ele>
        <time>2024-11-03T13:27:50Z</time>
      </trkpt>
      <trkpt lat="31.473083561747966" lon="120.25407833343357">
        <ele>8.022291667759418</ele>
        <time>2024-11-03T13:27:54Z</time>
      </trkpt>
      <trkpt lat="31.473042052029946" lon="120.25396678339638">
        <ele>7.384617012925446</ele>
        <time>2024-11-03T13:27:58Z</time>
      </trkpt>
      <trkpt lat="31.472976951542687" lon="120.25388230229093">
        <ele>9.410190635360777</ele>
        <time>2024-11-03T13:28:02Z</time>
      </trkpt>
      <trkpt lat="31.472720906309746" lon="120.25379005270153">
        <ele>8.842203401960433</ele>
        <time>2024-11-03T13:28:13Z</time>
      </trkpt>
      <trkpt lat="31.472638010684996" lon="120.25378718157585">
        <ele>8.424605918116868</ele>
        <time>2024-11-03T13:28:16Z</time>
      </trkpt>
      <trkpt lat="31.47244809152011" lon="120.25369161507278">
        <ele>9.047592716291547</ele>
        <time>2024-11-03T13:28:22Z</time>
      </trkpt>
      <trkpt lat="31.472256910509913" lon="120.25370053658747">
        <ele>9.887911835685372</ele>
        <time>2024-11-03T13:28:26Z</time>
      </trkpt>
      <trkpt lat="31.471929110397024" lon="120.25368171823813">
        <ele>8.416273487731814</ele>
        <time>2024-11-03T13:28:34Z</time>
      </trkpt>
      <trkpt lat="31.471815669422988" lon="120.25369992394134">
        <ele>8.133439273573458</ele>
        <time>2024-11-03T13:28:38Z</time>
      </trkpt>
      <trkpt lat="31.471713793388943" lon="120.2537776575842">
        <ele>6.568012813106179</ele>
        <time>2024-11-03T13:28:50Z</time>
      </trkpt>
    </trkseg>
  </trk>
</gpx>