<?xml version="1.0" encoding="UTF-8"?>
<gpx xmlns="http://www.topografix.com/GPX/1/1" xmlns:gpxtpx="http://www.garmin.com/xmlschemas/TrackPointExtension/v1" xmlns:xsi="http://www.w3.org/2001/XMLSchema-instance" xsi:schemaLocation="http://www.topografix.com/GPX/1/1 http://www.topografix.com/GPX/1/1/gpx.xsd" version="1.1" creator="gpx.py -- https://github.com/tkrajina/gpxpy">
  <trk>
    <name>gpx from keep</name>
    <type>Run</type>
    <trkseg>
      <trkpt lat="36.0174232359276" lon="119.38244837354956">
        <ele>50.1119384765625</ele>
        <time>2023-02-08T13:48:32Z</time>
      </trkpt>
      <trkpt lat="36.01728732844442" lon="119.38234643451388">
        <ele>64.118408203125</ele>
        <time>2023-02-08T13:48:44Z</time>
      </trkpt>
      <trkpt lat="36.01706139518875" lon="119.38232247070583">
        <ele>65.1575927734375</ele>
        <time>2023-02-08T13:48:56Z</time>
      </trkpt>
      <trkpt lat="36.01699340191781" lon="119.38233747156491">
        <ele>63.701416015625</ele>
        <time>2023-02-08T13:48:59Z</time>
      </trkpt>
      <trkpt lat="36.01691442922688" lon="119.38232248720236">
        <ele>61.80072021484375</ele>
        <time>2023-02-08T13:49:05Z</time>
      </trkpt>
      <trkpt lat="36.01658047536279" lon="119.38237450125645">
        <ele>66.88427734375</ele>
        <time>2023-02-08T13:49:20Z</time>
      </trkpt>
      <trkpt lat="36.01631546274363" lon="119.38249847568052">
        <ele>72.10357666015625</ele>
        <time>2023-02-08T13:49:44Z</time>
      </trkpt>
      <trkpt lat="36.016268454633455" lon="119.38253046680641">
        <ele>69.8741455078125</ele>
        <time>2023-02-08T13:49:56Z</time>
      </trkpt>
      <trkpt lat="36.01638634054302" lon="119.38267738923577">
        <ele>61.19793701171875</ele>
        <time>2023-02-08T13:50:23Z</time>
      </trkpt>
      <trkpt lat="36.01646622914623" lon="119.38283631191001">
        <ele>68.66778564453125</ele>
        <time>2023-02-08T13:50:26Z</time>
      </trkpt>
      <trkpt lat="36.016495147252094" lon="119.38296625372617">
        <ele>69.28875732421875</ele>
        <time>2023-02-08T13:50:32Z</time>
      </trkpt>
      <trkpt lat="36.01649609365514" lon="119.38305921484483">
        <ele>67.42950439453125</ele>
        <time>2023-02-08T13:50:38Z</time>
      </trkpt>
      <trkpt lat="36.01657887390953" lon="119.38341406158523">
        <ele>68.9678955078125</ele>
        <time>2023-02-08T13:50:56Z</time>
      </trkpt>
      <trkpt lat="36.01668669704141" lon="119.38368894237382">
        <ele>66.5560302734375</ele>
        <time>2023-02-08T13:51:08Z</time>
      </trkpt>
      <trkpt lat="36.016696645145956" lon="119.38377990666494">
        <ele>66.517333984375</ele>
        <time>2023-02-08T13:51:11Z</time>
      </trkpt>
      <trkpt lat="36.01677855913348" lon="119.3839038510151">
        <ele>65.3370361328125</ele>
        <time>2023-02-08T13:51:17Z</time>
      </trkpt>
      <trkpt lat="36.016838441097136" lon="119.38409877283274">
        <ele>69.1405029296875</ele>
        <time>2023-02-08T13:51:26Z</time>
      </trkpt>
      <trkpt lat="36.01684738620327" lon="119.3841987359389">
        <ele>68.691162109375</ele>
        <time>2023-02-08T13:51:29Z</time>
      </trkpt>
      <trkpt lat="36.01688734440145" lon="119.3842607094595">
        <ele>69.5595703125</ele>
        <time>2023-02-08T13:51:32Z</time>
      </trkpt>
      <trkpt lat="36.016909294950175" lon="119.38434567716362">
        <ele>70.8194580078125</ele>
        <time>2023-02-08T13:51:35Z</time>
      </trkpt>
      <trkpt lat="36.017045106707386" lon="119.38465055793401">
        <ele>70.4598388671875</ele>
        <time>2023-02-08T13:51:47Z</time>
      </trkpt>
      <trkpt lat="36.01707305670809" lon="119.38473652634262">
        <ele>71.18896484375</ele>
        <time>2023-02-08T13:51:50Z</time>
      </trkpt>
      <trkpt lat="36.01726186399749" lon="119.3850354091914">
        <ele>71.73876953125</ele>
        <time>2023-02-08T13:52:05Z</time>
      </trkpt>
      <trkpt lat="36.01731577377086" lon="119.38519435399539">
        <ele>69.56610107421875</ele>
        <time>2023-02-08T13:52:11Z</time>
      </trkpt>
      <trkpt lat="36.017471579637345" lon="119.38552423868761">
        <ele>64.06292724609375</ele>
        <time>2023-02-08T13:52:29Z</time>
      </trkpt>
      <trkpt lat="36.01759744343497" lon="119.38575316000166">
        <ele>67.98614501953125</ele>
        <time>2023-02-08T13:52:41Z</time>
      </trkpt>
      <trkpt lat="36.01770134266254" lon="119.38592010297947">
        <ele>67.02252197265625</ele>
        <time>2023-02-08T13:52:50Z</time>
      </trkpt>
      <trkpt lat="36.01773030232913" lon="119.38599408009411">
        <ele>66.54754638671875</ele>
        <time>2023-02-08T13:52:53Z</time>
      </trkpt>
      <trkpt lat="36.01777626458796" lon="119.38605405922392">
        <ele>65.89886474609375</ele>
        <time>2023-02-08T13:52:56Z</time>
      </trkpt>
      <trkpt lat="36.01781817136933" lon="119.3862410067613">
        <ele>67.60089111328125</ele>
        <time>2023-02-08T13:53:08Z</time>
      </trkpt>
      <trkpt lat="36.01788909555451" lon="119.38637596545611">
        <ele>66.57568359375</ele>
        <time>2023-02-08T13:53:17Z</time>
      </trkpt>
      <trkpt lat="36.01803590094789" lon="119.38674986158335">
        <ele>68.7081298828125</ele>
        <time>2023-02-08T13:53:38Z</time>
      </trkpt>
      <trkpt lat="36.01812678112002" lon="119.38698679979711">
        <ele>69.1917724609375</ele>
        <time>2023-02-08T13:53:47Z</time>
      </trkpt>
      <trkpt lat="36.01813573846641" lon="119.38708577811781">
        <ele>72.78875732421875</ele>
        <time>2023-02-08T13:53:50Z</time>
      </trkpt>
      <trkpt lat="36.01821766000361" lon="119.38723273917347">
        <ele>67.82305908203125</ele>
        <time>2023-02-08T13:53:56Z</time>
      </trkpt>
      <trkpt lat="36.01835656174577" lon="119.38739869135414">
        <ele>68.81982421875</ele>
        <time>2023-02-08T13:54:05Z</time>
      </trkpt>
      <trkpt lat="36.018537377043295" lon="119.38776760462743">
        <ele>67.79937744140625</ele>
        <time>2023-02-08T13:54:26Z</time>
      </trkpt>
      <trkpt lat="36.018699212258106" lon="119.38810953131689">
        <ele>65.38311767578125</ele>
        <time>2023-02-08T13:54:47Z</time>
      </trkpt>
      <trkpt lat="36.018808060412155" lon="119.3884634685481">
        <ele>67.1192626953125</ele>
        <time>2023-02-08T13:55:05Z</time>
      </trkpt>
      <trkpt lat="36.01896690931174" lon="119.38879640923874">
        <ele>63.049560546875</ele>
        <time>2023-02-08T13:55:26Z</time>
      </trkpt>
      <trkpt lat="36.019091795353575" lon="119.38905336724379">
        <ele>63.07757568359375</ele>
        <time>2023-02-08T13:55:44Z</time>
      </trkpt>
      <trkpt lat="36.01904976629821" lon="119.38917336010849">
        <ele>62.67559814453125</ele>
        <time>2023-02-08T13:55:50Z</time>
      </trkpt>
      <trkpt lat="36.01905473614958" lon="119.38926435107311">
        <ele>63.91259765625</ele>
        <time>2023-02-08T13:55:53Z</time>
      </trkpt>
      <trkpt lat="36.01911566912961" lon="119.38943332966113">
        <ele>66.4136962890625</ele>
        <time>2023-02-08T13:55:59Z</time>
      </trkpt>
      <trkpt lat="36.01919562141813" lon="119.38952831316362">
        <ele>62.3837890625</ele>
        <time>2023-02-08T13:56:05Z</time>
      </trkpt>
      <trkpt lat="36.01925056694021" lon="119.38966629693076">
        <ele>61.9683837890625</ele>
        <time>2023-02-08T13:56:11Z</time>
      </trkpt>
      <trkpt lat="36.01940942730505" lon="119.39001825804522">
        <ele>63.5081787109375</ele>
        <time>2023-02-08T13:56:26Z</time>
      </trkpt>
      <trkpt lat="36.01953431514363" lon="119.3903172313674">
        <ele>60.8468017578125</ele>
        <time>2023-02-08T13:56:38Z</time>
      </trkpt>
      <trkpt lat="36.01969718404821" lon="119.39067020432955">
        <ele>61.2884521484375</ele>
        <time>2023-02-08T13:56:56Z</time>
      </trkpt>
      <trkpt lat="36.019861069209135" lon="119.39097718377833">
        <ele>60.28924560546875</ele>
        <time>2023-02-08T13:57:14Z</time>
      </trkpt>
      <trkpt lat="36.01999596740266" lon="119.39127417139642">
        <ele>60.81549072265625</ele>
        <time>2023-02-08T13:57:32Z</time>
      </trkpt>
      <trkpt lat="36.02013486844107" lon="119.39157116333786">
        <ele>61.01580810546875</ele>
        <time>2023-02-08T13:57:50Z</time>
      </trkpt>
      <trkpt lat="36.02028776099817" lon="119.39191216072204">
        <ele>62.16949462890625</ele>
        <time>2023-02-08T13:58:11Z</time>
      </trkpt>
      <trkpt lat="36.020400681922276" lon="119.39217916384469">
        <ele>60.9659423828125</ele>
        <time>2023-02-08T13:58:29Z</time>
      </trkpt>
      <trkpt lat="36.0205446018366" lon="119.39242916599542">
        <ele>60.73577880859375</ele>
        <time>2023-02-08T13:58:47Z</time>
      </trkpt>
      <trkpt lat="36.02060655546525" lon="119.3926091743313">
        <ele>60.93145751953125</ele>
        <time>2023-02-08T13:58:59Z</time>
      </trkpt>
      <trkpt lat="36.02073349431576" lon="119.39279617783536">
        <ele>61.407958984375</ele>
        <time>2023-02-08T13:59:14Z</time>
      </trkpt>
      <trkpt lat="36.02089140413793" lon="119.39313419704656">
        <ele>61.3280029296875</ele>
        <time>2023-02-08T13:59:38Z</time>
      </trkpt>
      <trkpt lat="36.02105032487204" lon="119.39342721628084">
        <ele>61.4954833984375</ele>
        <time>2023-02-08T14:00:02Z</time>
      </trkpt>
      <trkpt lat="36.021071312585505" lon="119.39348122127097">
        <ele>61.98828125</ele>
        <time>2023-02-08T14:00:05Z</time>
      </trkpt>
      <trkpt lat="36.02107929689969" lon="119.39358423483125">
        <ele>61.10186767578125</ele>
        <time>2023-02-08T14:00:11Z</time>
      </trkpt>
      <trkpt lat="36.02120822895449" lon="119.39388826641374">
        <ele>62.26922607421875</ele>
        <time>2023-02-08T14:00:29Z</time>
      </trkpt>
      <trkpt lat="36.0213471609171" lon="119.39420930495729">
        <ele>63.85833740234375</ele>
        <time>2023-02-08T14:00:50Z</time>
      </trkpt>
      <trkpt lat="36.02141812710535" lon="119.39438132833163">
        <ele>60.5906982421875</ele>
        <time>2023-02-08T14:01:02Z</time>
      </trkpt>
      <trkpt lat="36.021593061102976" lon="119.39466136319527">
        <ele>64.1505126953125</ele>
        <time>2023-02-08T14:01:17Z</time>
      </trkpt>
      <trkpt lat="36.02161105173813" lon="119.39472337382897">
        <ele>65.44598388671875</ele>
        <time>2023-02-08T14:01:20Z</time>
      </trkpt>
      <trkpt lat="36.021775989843604" lon="119.39503742264911">
        <ele>63.93280029296875</ele>
        <time>2023-02-08T14:01:41Z</time>
      </trkpt>
      <trkpt lat="36.02190594144132" lon="119.39533147604435">
        <ele>66.3057861328125</ele>
        <time>2023-02-08T14:01:59Z</time>
      </trkpt>
      <trkpt lat="36.02206489126712" lon="119.39559952433463">
        <ele>63.117431640625</ele>
        <time>2023-02-08T14:02:20Z</time>
      </trkpt>
      <trkpt lat="36.022218844425936" lon="119.39589758525939">
        <ele>62.17755126953125</ele>
        <time>2023-02-08T14:02:44Z</time>
      </trkpt>
      <trkpt lat="36.02230582045993" lon="119.39603461310085">
        <ele>62.59039306640625</ele>
        <time>2023-02-08T14:02:56Z</time>
      </trkpt>
      <trkpt lat="36.02265973314258" lon="119.39633565964334">
        <ele>52.2222900390625</ele>
        <time>2023-02-08T14:03:26Z</time>
      </trkpt>
      <trkpt lat="36.02254475866084" lon="119.39643470203538">
        <ele>67.11199951171875</ele>
        <time>2023-02-08T14:03:29Z</time>
      </trkpt>
      <trkpt lat="36.02256475367895" lon="119.39648971640298">
        <ele>68.54095458984375</ele>
        <time>2023-02-08T14:03:32Z</time>
      </trkpt>
      <trkpt lat="36.022779704101254" lon="119.39674077021473">
        <ele>64.1038818359375</ele>
        <time>2023-02-08T14:03:56Z</time>
      </trkpt>
      <trkpt lat="36.02280869797772" lon="119.39681879189634">
        <ele>65.54595947265625</ele>
        <time>2023-02-08T14:04:02Z</time>
      </trkpt>
      <trkpt lat="36.0229936597646" lon="119.39710886681264">
        <ele>62.51239013671875</ele>
        <time>2023-02-08T14:04:23Z</time>
      </trkpt>
      <trkpt lat="36.0231156358172" lon="119.39727390964909">
        <ele>65.23529052734375</ele>
        <time>2023-02-08T14:04:35Z</time>
      </trkpt>
      <trkpt lat="36.022909691718965" lon="119.39751901952354">
        <ele>67.7464599609375</ele>
        <time>2023-02-08T14:04:59Z</time>
      </trkpt>
      <trkpt lat="36.02279172378546" lon="119.39763407464429">
        <ele>68.08935546875</ele>
        <time>2023-02-08T14:05:11Z</time>
      </trkpt>
      <trkpt lat="36.02253679078652" lon="119.39780316614808">
        <ele>67.5028076171875</ele>
        <time>2023-02-08T14:05:35Z</time>
      </trkpt>
      <trkpt lat="36.02227386198554" lon="119.39799026710578">
        <ele>64.66650390625</ele>
        <time>2023-02-08T14:05:59Z</time>
      </trkpt>
      <trkpt lat="36.02199194022906" lon="119.39819337852082">
        <ele>65.3736572265625</ele>
        <time>2023-02-08T14:06:23Z</time>
      </trkpt>
      <trkpt lat="36.02174201167332" lon="119.39838048209664">
        <ele>65.74957275390625</ele>
        <time>2023-02-08T14:06:44Z</time>
      </trkpt>
      <trkpt lat="36.02144909606647" lon="119.39858459959659">
        <ele>63.72113037109375</ele>
        <time>2023-02-08T14:07:08Z</time>
      </trkpt>
      <trkpt lat="36.021182174596596" lon="119.39877070874377">
        <ele>66.909423828125</ele>
        <time>2023-02-08T14:07:29Z</time>
      </trkpt>
      <trkpt lat="36.0209022584993" lon="119.39896482482145">
        <ele>65.68182373046875</ele>
        <time>2023-02-08T14:07:50Z</time>
      </trkpt>
      <trkpt lat="36.020641337460326" lon="119.3991389318353">
        <ele>63.79888916015625</ele>
        <time>2023-02-08T14:08:11Z</time>
      </trkpt>
      <trkpt lat="36.02039941196182" lon="119.39930103288374">
        <ele>62.5184326171875</ele>
        <time>2023-02-08T14:08:29Z</time>
      </trkpt>
      <trkpt lat="36.02016548692233" lon="119.39947213873717">
        <ele>59.9781494140625</ele>
        <time>2023-02-08T14:08:47Z</time>
      </trkpt>
      <trkpt lat="36.019941563292875" lon="119.39966125375665">
        <ele>63.61053466796875</ele>
        <time>2023-02-08T14:09:05Z</time>
      </trkpt>
      <trkpt lat="36.019650648389714" lon="119.39979134940616">
        <ele>62.87994384765625</ele>
        <time>2023-02-08T14:09:26Z</time>
      </trkpt>
      <trkpt lat="36.019584678757546" lon="119.39989740887454">
        <ele>65.4078369140625</ele>
        <time>2023-02-08T14:09:44Z</time>
      </trkpt>
      <trkpt lat="36.01976067368807" lon="119.40013450780408">
        <ele>64.80718994140625</ele>
        <time>2023-02-08T14:10:05Z</time>
      </trkpt>
      <trkpt lat="36.01979569791704" lon="119.40033660753029">
        <ele>65.52783203125</ele>
        <time>2023-02-08T14:10:17Z</time>
      </trkpt>
      <trkpt lat="36.01982270447488" lon="119.40041364461678">
        <ele>64.25616455078125</ele>
        <time>2023-02-08T14:10:23Z</time>
      </trkpt>
      <trkpt lat="36.01982171793785" lon="119.4004916857079">
        <ele>64.940673828125</ele>
        <time>2023-02-08T14:10:29Z</time>
      </trkpt>
      <trkpt lat="36.019900739008484" lon="119.40071479589012">
        <ele>63.452392578125</ele>
        <time>2023-02-08T14:10:47Z</time>
      </trkpt>
      <trkpt lat="36.01998578104023" lon="119.40104196599289">
        <ele>65.48712158203125</ele>
        <time>2023-02-08T14:11:12Z</time>
      </trkpt>
      <trkpt lat="36.02002380012173" lon="119.40118204048456">
        <ele>65.73077392578125</ele>
        <time>2023-02-08T14:11:24Z</time>
      </trkpt>
      <trkpt lat="36.020153830152594" lon="119.40147019138861">
        <ele>70.85205078125</ele>
        <time>2023-02-08T14:11:42Z</time>
      </trkpt>
      <trkpt lat="36.02009784567229" lon="119.40148220467162">
        <ele>65.333740234375</ele>
        <time>2023-02-08T14:11:45Z</time>
      </trkpt>
      <trkpt lat="36.02013791367351" lon="119.40182840544112">
        <ele>63.01373291015625</ele>
        <time>2023-02-08T14:11:54Z</time>
      </trkpt>
      <trkpt lat="36.02019098278981" lon="119.40216960841175">
        <ele>66.08184814453125</ele>
        <time>2023-02-08T14:12:03Z</time>
      </trkpt>
      <trkpt lat="36.020222028064524" lon="119.40237873623343">
        <ele>69.325927734375</ele>
        <time>2023-02-08T14:12:09Z</time>
      </trkpt>
      <trkpt lat="36.020221119941645" lon="119.40272696046172">
        <ele>69.3187255859375</ele>
        <time>2023-02-08T14:12:21Z</time>
      </trkpt>
      <trkpt lat="36.02023820079573" lon="119.40303216062206">
        <ele>67.731689453125</ele>
        <time>2023-02-08T14:12:33Z</time>
      </trkpt>
      <trkpt lat="36.0201903155119" lon="119.40338640715734">
        <ele>64.92388916015625</ele>
        <time>2023-02-08T14:12:48Z</time>
      </trkpt>
      <trkpt lat="36.02015944971738" lon="119.40379669882243">
        <ele>67.2266845703125</ele>
        <time>2023-02-08T14:13:12Z</time>
      </trkpt>
      <trkpt lat="36.0201295690603" lon="119.40414095135074">
        <ele>66.3463134765625</ele>
        <time>2023-02-08T14:13:36Z</time>
      </trkpt>
      <trkpt lat="36.02007071973169" lon="119.40454025539528">
        <ele>67.222900390625</ele>
        <time>2023-02-08T14:14:06Z</time>
      </trkpt>
      <trkpt lat="36.020009826973414" lon="119.40480046092232">
        <ele>0.0</ele>
        <time>2023-02-08T14:14:45Z</time>
      </trkpt>
      <trkpt lat="36.01985161115592" lon="119.40664499744227">
        <ele>65.5731201171875</ele>
        <time>2023-02-08T14:16:36Z</time>
      </trkpt>
      <trkpt lat="36.01985364795328" lon="119.4067280701664">
        <ele>65.4307861328125</ele>
        <time>2023-02-08T14:16:42Z</time>
      </trkpt>
      <trkpt lat="36.01989079807006" lon="119.40707437434584">
        <ele>66.51568603515625</ele>
        <time>2023-02-08T14:17:03Z</time>
      </trkpt>
      <trkpt lat="36.019934886358364" lon="119.40728355896304">
        <ele>66.6025390625</ele>
        <time>2023-02-08T14:17:09Z</time>
      </trkpt>
      <trkpt lat="36.019979920404026" lon="119.40737663906228">
        <ele>64.8878173828125</ele>
        <time>2023-02-08T14:17:12Z</time>
      </trkpt>
      <trkpt lat="36.02008209691781" lon="119.40778600794337">
        <ele>64.8494873046875</ele>
        <time>2023-02-08T14:17:24Z</time>
      </trkpt>
      <trkpt lat="36.02013617134189" lon="119.4079591656284">
        <ele>63.74578857421875</ele>
        <time>2023-02-08T14:17:30Z</time>
      </trkpt>
      <trkpt lat="36.02028324829244" lon="119.40817635694059">
        <ele>63.78753662109375</ele>
        <time>2023-02-08T14:17:39Z</time>
      </trkpt>
      <trkpt lat="36.02034330659123" lon="119.40831548473076">
        <ele>64.86810302734375</ele>
        <time>2023-02-08T14:17:45Z</time>
      </trkpt>
      <trkpt lat="36.02048439480308" lon="119.40854469293915">
        <ele>62.34710693359375</ele>
        <time>2023-02-08T14:18:00Z</time>
      </trkpt>
      <trkpt lat="36.02071746413729" lon="119.40877389382035">
        <ele>66.20721435546875</ele>
        <time>2023-02-08T14:18:21Z</time>
      </trkpt>
      <trkpt lat="36.020827491611044" lon="119.40887097854417">
        <ele>64.0364990234375</ele>
        <time>2023-02-08T14:18:33Z</time>
      </trkpt>
      <trkpt lat="36.020924553475744" lon="119.40902412185496">
        <ele>64.71337890625</ele>
        <time>2023-02-08T14:18:45Z</time>
      </trkpt>
      <trkpt lat="36.0209795741091" lon="119.40908417651741">
        <ele>63.8323974609375</ele>
        <time>2023-02-08T14:18:51Z</time>
      </trkpt>
      <trkpt lat="36.02103057459697" lon="119.40910619315295">
        <ele>64.30084228515625</ele>
        <time>2023-02-08T14:18:54Z</time>
      </trkpt>
      <trkpt lat="36.021287696670115" lon="119.40942749367015">
        <ele>67.91131591796875</ele>
        <time>2023-02-08T14:19:09Z</time>
      </trkpt>
      <trkpt lat="36.02153879783872" lon="119.40970275234298">
        <ele>67.7862548828125</ele>
        <time>2023-02-08T14:19:21Z</time>
      </trkpt>
      <trkpt lat="36.02175091919301" lon="119.40999103357812">
        <ele>65.07342529296875</ele>
        <time>2023-02-08T14:19:42Z</time>
      </trkpt>
      <trkpt lat="36.021851958898466" lon="119.41009613463021">
        <ele>62.177001953125</ele>
        <time>2023-02-08T14:19:51Z</time>
      </trkpt>
      <trkpt lat="36.021929966849534" lon="119.41013917208537">
        <ele>65.45068359375</ele>
        <time>2023-02-08T14:19:57Z</time>
      </trkpt>
      <trkpt lat="36.02210703553754" lon="119.41031934679101">
        <ele>67.20245361328125</ele>
        <time>2023-02-08T14:20:12Z</time>
      </trkpt>
      <trkpt lat="36.0222540513896" lon="119.4104004184574">
        <ele>66.15557861328125</ele>
        <time>2023-02-08T14:20:24Z</time>
      </trkpt>
      <trkpt lat="36.02240803931592" lon="119.41043844266922">
        <ele>65.55194091796875</ele>
        <time>2023-02-08T14:20:36Z</time>
      </trkpt>
      <trkpt lat="36.02247406745603" lon="119.4105085119032">
        <ele>66.8526611328125</ele>
        <time>2023-02-08T14:20:42Z</time>
      </trkpt>
      <trkpt lat="36.02275507687775" lon="119.4106276113089">
        <ele>64.761474609375</ele>
        <time>2023-02-08T14:21:03Z</time>
      </trkpt>
      <trkpt lat="36.02303807007879" lon="119.41072068244759">
        <ele>67.55938720703125</ele>
        <time>2023-02-08T14:21:24Z</time>
      </trkpt>
      <trkpt lat="36.023348004927634" lon="119.41073065876718">
        <ele>63.1214599609375</ele>
        <time>2023-02-08T14:21:48Z</time>
      </trkpt>
      <trkpt lat="36.02349499632513" lon="119.41077068670354">
        <ele>65.151611328125</ele>
        <time>2023-02-08T14:22:00Z</time>
      </trkpt>
      <trkpt lat="36.023803926384595" lon="119.41077265426647">
        <ele>66.7510986328125</ele>
        <time>2023-02-08T14:22:24Z</time>
      </trkpt>
      <trkpt lat="36.023848921080905" lon="119.41078065811573">
        <ele>66.3580322265625</ele>
        <time>2023-02-08T14:22:27Z</time>
      </trkpt>
      <trkpt lat="36.02390593966881" lon="119.41083070741082">
        <ele>65.7735595703125</ele>
        <time>2023-02-08T14:22:33Z</time>
      </trkpt>
      <trkpt lat="36.02392816892421" lon="119.41119511465664">
        <ele>65.1324462890625</ele>
        <time>2023-02-08T14:22:54Z</time>
      </trkpt>
      <trkpt lat="36.02394529233332" lon="119.41138933420105">
        <ele>63.845703125</ele>
        <time>2023-02-08T14:23:06Z</time>
      </trkpt>
      <trkpt lat="36.023943575615625" lon="119.41181182355109">
        <ele>66.59442138671875</ele>
        <time>2023-02-08T14:23:30Z</time>
      </trkpt>
      <trkpt lat="36.02394661374029" lon="119.41186889005972">
        <ele>67.396240234375</ele>
        <time>2023-02-08T14:23:33Z</time>
      </trkpt>
      <trkpt lat="36.02392960598791" lon="119.41217083685129">
        <ele>72.8922119140625</ele>
        <time>2023-02-08T14:23:48Z</time>
      </trkpt>
      <trkpt lat="36.02397096343095" lon="119.41238149610436">
        <ele>71.44482421875</ele>
        <time>2023-02-08T14:24:03Z</time>
      </trkpt>
      <trkpt lat="36.02398499623498" lon="119.41243255598829">
        <ele>71.0640869140625</ele>
        <time>2023-02-08T14:24:06Z</time>
      </trkpt>
      <trkpt lat="36.02398413029107" lon="119.41262078391685">
        <ele>67.5604248046875</ele>
        <time>2023-02-08T14:24:18Z</time>
      </trkpt>
      <trkpt lat="36.024028239641346" lon="119.41278698181326">
        <ele>74.4404296875</ele>
        <time>2023-02-08T14:24:27Z</time>
      </trkpt>
      <trkpt lat="36.02401951546342" lon="119.41316144555374">
        <ele>74.29559326171875</ele>
        <time>2023-02-08T14:24:48Z</time>
      </trkpt>
      <trkpt lat="36.02404167361152" lon="119.41338071774103">
        <ele>73.4910888671875</ele>
        <time>2023-02-08T14:25:00Z</time>
      </trkpt>
      <trkpt lat="36.02404997237286" lon="119.41377722040869">
        <ele>72.07196044921875</ele>
        <time>2023-02-08T14:25:24Z</time>
      </trkpt>
      <trkpt lat="36.024069248954056" lon="119.41413968641133">
        <ele>79.67889404296875</ele>
        <time>2023-02-08T14:25:45Z</time>
      </trkpt>
      <trkpt lat="36.02408731241931" lon="119.4142257967023">
        <ele>79.83148193359375</ele>
        <time>2023-02-08T14:25:51Z</time>
      </trkpt>
      <trkpt lat="36.0241273703565" lon="119.41431090363373">
        <ele>75.6285400390625</ele>
        <time>2023-02-08T14:25:57Z</time>
      </trkpt>
      <trkpt lat="36.024224360688045" lon="119.41432691377626">
        <ele>73.3424072265625</ele>
        <time>2023-02-08T14:26:03Z</time>
      </trkpt>
      <trkpt lat="36.02439427958262" lon="119.41427382514729">
        <ele>71.48309326171875</ele>
        <time>2023-02-08T14:26:15Z</time>
      </trkpt>
      <trkpt lat="36.02457823878558" lon="119.41427580713862">
        <ele>71.9173583984375</ele>
        <time>2023-02-08T14:26:24Z</time>
      </trkpt>
      <trkpt lat="36.024763217538975" lon="119.41430282181895">
        <ele>72.37310791015625</ele>
        <time>2023-02-08T14:26:36Z</time>
      </trkpt>
      <trkpt lat="36.024852156733694" lon="119.41425174496325">
        <ele>68.43475341796875</ele>
        <time>2023-02-08T14:26:42Z</time>
      </trkpt>
      <trkpt lat="36.02515406275698" lon="119.4142206705224">
        <ele>65.69964599609375</ele>
        <time>2023-02-08T14:27:03Z</time>
      </trkpt>
      <trkpt lat="36.02543400618528" lon="119.41423065221001">
        <ele>63.1776123046875</ele>
        <time>2023-02-08T14:27:24Z</time>
      </trkpt>
      <trkpt lat="36.025492012558345" lon="119.41425567844101">
        <ele>65.824951171875</ele>
        <time>2023-02-08T14:27:30Z</time>
      </trkpt>
      <trkpt lat="36.02546815692536" lon="119.41443091126833">
        <ele>63.44287109375</ele>
        <time>2023-02-08T14:27:39Z</time>
      </trkpt>
      <trkpt lat="36.025505268511694" lon="119.41458110576428">
        <ele>63.210693359375</ele>
        <time>2023-02-08T14:27:48Z</time>
      </trkpt>
      <trkpt lat="36.025581278383704" lon="119.41461514244665">
        <ele>62.0208740234375</ele>
        <time>2023-02-08T14:27:54Z</time>
      </trkpt>
      <trkpt lat="36.02588519151937" lon="119.41459408043266">
        <ele>58.8828125</ele>
        <time>2023-02-08T14:28:15Z</time>
      </trkpt>
      <trkpt lat="36.02616912617719" lon="119.4145940485886">
        <ele>54.86334228515625</ele>
        <time>2023-02-08T14:28:36Z</time>
      </trkpt>
      <trkpt lat="36.026474022261965" lon="119.41455195860843">
        <ele>56.9146728515625</ele>
        <time>2023-02-08T14:29:00Z</time>
      </trkpt>
      <trkpt lat="36.026709960760556" lon="119.41454292020562">
        <ele>60.6160888671875</ele>
        <time>2023-02-08T14:29:18Z</time>
      </trkpt>
      <trkpt lat="36.02676697897755" lon="119.41458196558771">
        <ele>57.574462890625</ele>
        <time>2023-02-08T14:29:24Z</time>
      </trkpt>
      <trkpt lat="36.02690593977844" lon="119.41457293804608">
        <ele>57.3326416015625</ele>
        <time>2023-02-08T14:29:36Z</time>
      </trkpt>
      <trkpt lat="36.02706092585422" lon="119.41459995654583">
        <ele>53.91143798828125</ele>
        <time>2023-02-08T14:29:48Z</time>
      </trkpt>
      <trkpt lat="36.02714798899368" lon="119.41470308404696">
        <ele>57.8092041015625</ele>
        <time>2023-02-08T14:30:00Z</time>
      </trkpt>
      <trkpt lat="36.02722300903593" lon="119.41474913713093">
        <ele>64.0989990234375</ele>
        <time>2023-02-08T14:30:06Z</time>
      </trkpt>
      <trkpt lat="36.02743393620281" lon="119.41471907335301">
        <ele>64.293212890625</ele>
        <time>2023-02-08T14:30:24Z</time>
      </trkpt>
      <trkpt lat="36.02762593913939" lon="119.41477712943211">
        <ele>59.0523681640625</ele>
        <time>2023-02-08T14:30:39Z</time>
      </trkpt>
      <trkpt lat="36.02789584542066" lon="119.41473804695025">
        <ele>56.87371826171875</ele>
        <time>2023-02-08T14:31:00Z</time>
      </trkpt>
      <trkpt lat="36.02797179878595" lon="119.41470199031438">
        <ele>57.42352294921875</ele>
        <time>2023-02-08T14:31:06Z</time>
      </trkpt>
      <trkpt lat="36.02805276965386" lon="119.41468896387516">
        <ele>55.6026611328125</ele>
        <time>2023-02-08T14:31:12Z</time>
      </trkpt>
      <trkpt lat="36.02811877148516" lon="119.4147099845162">
        <ele>53.442138671875</ele>
        <time>2023-02-08T14:31:18Z</time>
      </trkpt>
      <trkpt lat="36.028173794523866" lon="119.41475403718454">
        <ele>58.6915283203125</ele>
        <time>2023-02-08T14:31:24Z</time>
      </trkpt>
      <trkpt lat="36.028170846445775" lon="119.41481712195447">
        <ele>58.3062744140625</ele>
        <time>2023-02-08T14:31:30Z</time>
      </trkpt>
      <trkpt lat="36.028199921469735" lon="119.41491725318686">
        <ele>60.6181640625</ele>
        <time>2023-02-08T14:31:36Z</time>
      </trkpt>
      <trkpt lat="36.02823495526123" lon="119.41496831806784">
        <ele>62.0428466796875</ele>
        <time>2023-02-08T14:31:39Z</time>
      </trkpt>
      <trkpt lat="36.028206022005755" lon="119.41504142006298">
        <ele>64.38909912109375</ele>
        <time>2023-02-08T14:31:45Z</time>
      </trkpt>
      <trkpt lat="36.028213088171135" lon="119.41512353055593">
        <ele>63.738037109375</ele>
        <time>2023-02-08T14:31:51Z</time>
      </trkpt>
      <trkpt lat="36.028258077003805" lon="119.41512252415079">
        <ele>63.76458740234375</ele>
        <time>2023-02-08T14:31:57Z</time>
      </trkpt>
      <trkpt lat="36.028314091496235" lon="119.41515556275998">
        <ele>64.055419921875</ele>
        <time>2023-02-08T14:32:03Z</time>
      </trkpt>
      <trkpt lat="36.0283331636605" lon="119.41524768609928">
        <ele>68.6787109375</ele>
        <time>2023-02-08T14:32:09Z</time>
      </trkpt>
      <trkpt lat="36.028316415516336" lon="119.4155430935649">
        <ele>64.83856201171875</ele>
        <time>2023-02-08T14:32:27Z</time>
      </trkpt>
      <trkpt lat="36.02829176801248" lon="119.41594866118926">
        <ele>0.0</ele>
        <time>2023-02-08T14:32:57Z</time>
      </trkpt>
      <trkpt lat="36.02845578927538" lon="119.41601673854788">
        <ele>76.829345703125</ele>
        <time>2023-02-08T14:33:03Z</time>
      </trkpt>
      <trkpt lat="36.02859473218356" lon="119.41598768209903">
        <ele>69.093994140625</ele>
        <time>2023-02-08T14:33:12Z</time>
      </trkpt>
      <trkpt lat="36.0286876174481" lon="119.41587951990496">
        <ele>68.19293212890625</ele>
        <time>2023-02-08T14:33:21Z</time>
      </trkpt>
      <trkpt lat="36.028898473562805" lon="119.41576834095311">
        <ele>74.9644775390625</ele>
        <time>2023-02-08T14:33:39Z</time>
      </trkpt>
      <trkpt lat="36.0290244043881" lon="119.41572126128068">
        <ele>78.2138671875</ele>
        <time>2023-02-08T14:33:48Z</time>
      </trkpt>
      <trkpt lat="36.029277201575205" lon="119.41555099688024">
        <ele>71.78375244140625</ele>
        <time>2023-02-08T14:34:12Z</time>
      </trkpt>
      <trkpt lat="36.02942409341993" lon="119.41546285885904">
        <ele>68.8817138671875</ele>
        <time>2023-02-08T14:34:24Z</time>
      </trkpt>
      <trkpt lat="36.029738979826874" lon="119.41541375605347">
        <ele>61.0828857421875</ele>
        <time>2023-02-08T14:34:48Z</time>
      </trkpt>
      <trkpt lat="36.02990799244042" lon="119.41547482113583">
        <ele>59.152587890625</ele>
        <time>2023-02-08T14:35:00Z</time>
      </trkpt>
      <trkpt lat="36.02990799244042" lon="119.41547482113583">
        <ele>59.152587890625</ele>
        <time>2023-02-08T14:35:05Z</time>
      </trkpt>
    </trkseg>
  </trk>
</gpx>