<?xml version="1.0" encoding="UTF-8"?>
<gpx xmlns="http://www.topografix.com/GPX/1/1" xmlns:gpxtpx="http://www.garmin.com/xmlschemas/TrackPointExtension/v1" xmlns:xsi="http://www.w3.org/2001/XMLSchema-instance" xsi:schemaLocation="http://www.topografix.com/GPX/1/1 http://www.topografix.com/GPX/1/1/gpx.xsd" version="1.1" creator="gpx.py -- https://github.com/tkrajina/gpxpy">
  <trk>
    <name>gpx from keep</name>
    <type>Ride</type>
    <trkseg>
      <trkpt lat="32.05984384463756" lon="118.79032078999795">
        <ele>0</ele>
        <time>2026-06-07T06:22:30Z</time>
      </trkpt>
      <trkpt lat="32.059825269668984" lon="118.79036088650392">
        <ele>0</ele>
        <time>2026-06-07T06:22:31Z</time>
      </trkpt>
      <trkpt lat="32.05980881461131" lon="118.79039924708366">
        <ele>0</ele>
        <time>2026-06-07T06:22:32Z</time>
      </trkpt>
      <trkpt lat="32.05979508412696" lon="118.79043407988799">
        <ele>0</ele>
        <time>2026-06-07T06:22:33Z</time>
      </trkpt>
      <trkpt lat="32.05978334194666" lon="118.79046513211159">
        <ele>0</ele>
        <time>2026-06-07T06:22:34Z</time>
      </trkpt>
      <trkpt lat="32.05977555939594" lon="118.79048471549451">
        <ele>0</ele>
        <time>2026-06-07T06:22:34Z</time>
      </trkpt>
      <trkpt lat="32.05976256062789" lon="118.79051315768915">
        <ele>0</ele>
        <time>2026-06-07T06:22:35Z</time>
      </trkpt>
      <trkpt lat="32.059747552131356" lon="118.79054141504537">
        <ele>0</ele>
        <time>2026-06-07T06:22:36Z</time>
      </trkpt>
      <trkpt lat="32.05973160694707" lon="118.790570106511">
        <ele>0</ele>
        <time>2026-06-07T06:22:37Z</time>
      </trkpt>
      <trkpt lat="32.05971584207635" lon="118.7905984633651">
        <ele>0</ele>
        <time>2026-06-07T06:22:38Z</time>
      </trkpt>
      <trkpt lat="32.05970081479953" lon="118.79062585957602">
        <ele>0</ele>
        <time>2026-06-07T06:22:39Z</time>
      </trkpt>
      <trkpt lat="32.05968735627065" lon="118.79065056451536">
        <ele>0</ele>
        <time>2026-06-07T06:22:40Z</time>
      </trkpt>
      <trkpt lat="32.05967626849648" lon="118.79067006066188">
        <ele>0</ele>
        <time>2026-06-07T06:22:41Z</time>
      </trkpt>
      <trkpt lat="32.05966771193119" lon="118.79068441075742">
        <ele>0</ele>
        <time>2026-06-07T06:22:42Z</time>
      </trkpt>
      <trkpt lat="32.0596618392142" lon="118.79069385160054">
        <ele>0</ele>
        <time>2026-06-07T06:22:43Z</time>
      </trkpt>
      <trkpt lat="32.05965804907748" lon="118.79069992242317">
        <ele>0</ele>
        <time>2026-06-07T06:22:44Z</time>
      </trkpt>
      <trkpt lat="32.059656136242964" lon="118.79070318120087">
        <ele>0</ele>
        <time>2026-06-07T06:22:45Z</time>
        <extensions>
          <gpxtpx:TrackPointExtension>
            <gpxtpx:hr>109</gpxtpx:hr>
          </gpxtpx:TrackPointExtension>
        </extensions>
      </trkpt>
      <trkpt lat="32.059655780321876" lon="118.79070377375719">
        <ele>0</ele>
        <time>2026-06-07T06:22:46Z</time>
        <extensions>
          <gpxtpx:TrackPointExtension>
            <gpxtpx:hr>109</gpxtpx:hr>
          </gpxtpx:TrackPointExtension>
        </extensions>
      </trkpt>
      <trkpt lat="32.05965565601607" lon="118.79070395088831">
        <ele>0</ele>
        <time>2026-06-07T06:22:47Z</time>
        <extensions>
          <gpxtpx:TrackPointExtension>
            <gpxtpx:hr>109</gpxtpx:hr>
          </gpxtpx:TrackPointExtension>
        </extensions>
      </trkpt>
      <trkpt lat="32.05965553652712" lon="118.79070414174593">
        <ele>0</ele>
        <time>2026-06-07T06:22:48Z</time>
        <extensions>
          <gpxtpx:TrackPointExtension>
            <gpxtpx:hr>109</gpxtpx:hr>
          </gpxtpx:TrackPointExtension>
        </extensions>
      </trkpt>
      <trkpt lat="32.05965545362909" lon="118.79070427121245">
        <ele>0</ele>
        <time>2026-06-07T06:22:49Z</time>
        <extensions>
          <gpxtpx:TrackPointExtension>
            <gpxtpx:hr>109</gpxtpx:hr>
          </gpxtpx:TrackPointExtension>
        </extensions>
      </trkpt>
      <trkpt lat="32.0596549265354" lon="118.79070510614484">
        <ele>0</ele>
        <time>2026-06-07T06:22:50Z</time>
        <extensions>
          <gpxtpx:TrackPointExtension>
            <gpxtpx:hr>109</gpxtpx:hr>
          </gpxtpx:TrackPointExtension>
        </extensions>
      </trkpt>
      <trkpt lat="32.059654193093685" lon="118.79070628255324">
        <ele>0</ele>
        <time>2026-06-07T06:22:51Z</time>
        <extensions>
          <gpxtpx:TrackPointExtension>
            <gpxtpx:hr>109</gpxtpx:hr>
          </gpxtpx:TrackPointExtension>
        </extensions>
      </trkpt>
      <trkpt lat="32.059653809425654" lon="118.79070689511693">
        <ele>0</ele>
        <time>2026-06-07T06:22:52Z</time>
        <extensions>
          <gpxtpx:TrackPointExtension>
            <gpxtpx:hr>109</gpxtpx:hr>
          </gpxtpx:TrackPointExtension>
        </extensions>
      </trkpt>
      <trkpt lat="32.05965362885188" lon="118.79070717633265">
        <ele>0</ele>
        <time>2026-06-07T06:22:53Z</time>
        <extensions>
          <gpxtpx:TrackPointExtension>
            <gpxtpx:hr>109</gpxtpx:hr>
          </gpxtpx:TrackPointExtension>
        </extensions>
      </trkpt>
      <trkpt lat="32.059653505843244" lon="118.79070736269134">
        <ele>0</ele>
        <time>2026-06-07T06:22:54Z</time>
        <extensions>
          <gpxtpx:TrackPointExtension>
            <gpxtpx:hr>109</gpxtpx:hr>
          </gpxtpx:TrackPointExtension>
        </extensions>
      </trkpt>
      <trkpt lat="32.05965340316556" lon="118.79070751706125">
        <ele>0</ele>
        <time>2026-06-07T06:22:55Z</time>
        <extensions>
          <gpxtpx:TrackPointExtension>
            <gpxtpx:hr>109</gpxtpx:hr>
          </gpxtpx:TrackPointExtension>
        </extensions>
      </trkpt>
      <trkpt lat="32.059653244627945" lon="118.79070776148484">
        <ele>0</ele>
        <time>2026-06-07T06:22:56Z</time>
        <extensions>
          <gpxtpx:TrackPointExtension>
            <gpxtpx:hr>109</gpxtpx:hr>
          </gpxtpx:TrackPointExtension>
        </extensions>
      </trkpt>
      <trkpt lat="32.059653097759124" lon="118.79070799079476">
        <ele>0</ele>
        <time>2026-06-07T06:22:57Z</time>
        <extensions>
          <gpxtpx:TrackPointExtension>
            <gpxtpx:hr>109</gpxtpx:hr>
          </gpxtpx:TrackPointExtension>
        </extensions>
      </trkpt>
      <trkpt lat="32.05965306187713" lon="118.79070803449964">
        <ele>0</ele>
        <time>2026-06-07T06:22:58Z</time>
        <extensions>
          <gpxtpx:TrackPointExtension>
            <gpxtpx:hr>114</gpxtpx:hr>
          </gpxtpx:TrackPointExtension>
        </extensions>
      </trkpt>
      <trkpt lat="32.05965301786726" lon="118.7907080911387">
        <ele>0</ele>
        <time>2026-06-07T06:22:59Z</time>
        <extensions>
          <gpxtpx:TrackPointExtension>
            <gpxtpx:hr>114</gpxtpx:hr>
          </gpxtpx:TrackPointExtension>
        </extensions>
      </trkpt>
      <trkpt lat="32.05965269623682" lon="118.79070857501739">
        <ele>0</ele>
        <time>2026-06-07T06:23:00Z</time>
        <extensions>
          <gpxtpx:TrackPointExtension>
            <gpxtpx:hr>114</gpxtpx:hr>
          </gpxtpx:TrackPointExtension>
        </extensions>
      </trkpt>
      <trkpt lat="32.059652145799944" lon="118.79070946664937">
        <ele>0</ele>
        <time>2026-06-07T06:23:01Z</time>
        <extensions>
          <gpxtpx:TrackPointExtension>
            <gpxtpx:hr>114</gpxtpx:hr>
          </gpxtpx:TrackPointExtension>
        </extensions>
      </trkpt>
      <trkpt lat="32.05965090174766" lon="118.79071138807018">
        <ele>0</ele>
        <time>2026-06-07T06:23:02Z</time>
        <extensions>
          <gpxtpx:TrackPointExtension>
            <gpxtpx:hr>113</gpxtpx:hr>
          </gpxtpx:TrackPointExtension>
        </extensions>
      </trkpt>
      <trkpt lat="32.05964454600659" lon="118.79071160209125">
        <ele>0</ele>
        <time>2026-06-07T06:23:03Z</time>
        <extensions>
          <gpxtpx:TrackPointExtension>
            <gpxtpx:hr>113</gpxtpx:hr>
          </gpxtpx:TrackPointExtension>
        </extensions>
      </trkpt>
      <trkpt lat="32.05962933908025" lon="118.79070788145727">
        <ele>0</ele>
        <time>2026-06-07T06:23:04Z</time>
        <extensions>
          <gpxtpx:TrackPointExtension>
            <gpxtpx:hr>113</gpxtpx:hr>
          </gpxtpx:TrackPointExtension>
        </extensions>
      </trkpt>
      <trkpt lat="32.059608876002336" lon="118.79070274229136">
        <ele>0</ele>
        <time>2026-06-07T06:23:05Z</time>
        <extensions>
          <gpxtpx:TrackPointExtension>
            <gpxtpx:hr>114</gpxtpx:hr>
          </gpxtpx:TrackPointExtension>
        </extensions>
      </trkpt>
      <trkpt lat="32.05958606929876" lon="118.79069776684072">
        <ele>0</ele>
        <time>2026-06-07T06:23:06Z</time>
        <extensions>
          <gpxtpx:TrackPointExtension>
            <gpxtpx:hr>114</gpxtpx:hr>
          </gpxtpx:TrackPointExtension>
        </extensions>
      </trkpt>
      <trkpt lat="32.05955733131518" lon="118.7906927273315">
        <ele>0</ele>
        <time>2026-06-07T06:23:07Z</time>
        <extensions>
          <gpxtpx:TrackPointExtension>
            <gpxtpx:hr>114</gpxtpx:hr>
          </gpxtpx:TrackPointExtension>
        </extensions>
      </trkpt>
      <trkpt lat="32.05952459302191" lon="118.79068699496023">
        <ele>0</ele>
        <time>2026-06-07T06:23:08Z</time>
        <extensions>
          <gpxtpx:TrackPointExtension>
            <gpxtpx:hr>114</gpxtpx:hr>
          </gpxtpx:TrackPointExtension>
        </extensions>
      </trkpt>
      <trkpt lat="32.0594926282891" lon="118.79068102546256">
        <ele>0</ele>
        <time>2026-06-07T06:23:09Z</time>
        <extensions>
          <gpxtpx:TrackPointExtension>
            <gpxtpx:hr>114</gpxtpx:hr>
          </gpxtpx:TrackPointExtension>
        </extensions>
      </trkpt>
      <trkpt lat="32.05946260677997" lon="118.790675623625">
        <ele>0</ele>
        <time>2026-06-07T06:23:10Z</time>
        <extensions>
          <gpxtpx:TrackPointExtension>
            <gpxtpx:hr>113</gpxtpx:hr>
          </gpxtpx:TrackPointExtension>
        </extensions>
      </trkpt>
      <trkpt lat="32.059433896888706" lon="118.79067090210997">
        <ele>0</ele>
        <time>2026-06-07T06:23:11Z</time>
        <extensions>
          <gpxtpx:TrackPointExtension>
            <gpxtpx:hr>113</gpxtpx:hr>
          </gpxtpx:TrackPointExtension>
        </extensions>
      </trkpt>
      <trkpt lat="32.05940250668762" lon="118.79066819268232">
        <ele>0</ele>
        <time>2026-06-07T06:23:12Z</time>
        <extensions>
          <gpxtpx:TrackPointExtension>
            <gpxtpx:hr>113</gpxtpx:hr>
          </gpxtpx:TrackPointExtension>
        </extensions>
      </trkpt>
      <trkpt lat="32.05936613481243" lon="118.79067074780082">
        <ele>0</ele>
        <time>2026-06-07T06:23:13Z</time>
        <extensions>
          <gpxtpx:TrackPointExtension>
            <gpxtpx:hr>113</gpxtpx:hr>
          </gpxtpx:TrackPointExtension>
        </extensions>
      </trkpt>
      <trkpt lat="32.05932417452152" lon="118.79068038495943">
        <ele>0</ele>
        <time>2026-06-07T06:23:14Z</time>
        <extensions>
          <gpxtpx:TrackPointExtension>
            <gpxtpx:hr>115</gpxtpx:hr>
          </gpxtpx:TrackPointExtension>
        </extensions>
      </trkpt>
      <trkpt lat="32.05927877708583" lon="118.79069542499327">
        <ele>0</ele>
        <time>2026-06-07T06:23:15Z</time>
        <extensions>
          <gpxtpx:TrackPointExtension>
            <gpxtpx:hr>115</gpxtpx:hr>
          </gpxtpx:TrackPointExtension>
        </extensions>
      </trkpt>
      <trkpt lat="32.059231573224615" lon="118.79071355178495">
        <ele>0</ele>
        <time>2026-06-07T06:23:16Z</time>
        <extensions>
          <gpxtpx:TrackPointExtension>
            <gpxtpx:hr>115</gpxtpx:hr>
          </gpxtpx:TrackPointExtension>
        </extensions>
      </trkpt>
      <trkpt lat="32.05918184591585" lon="118.7907339247903">
        <ele>0</ele>
        <time>2026-06-07T06:23:17Z</time>
        <extensions>
          <gpxtpx:TrackPointExtension>
            <gpxtpx:hr>115</gpxtpx:hr>
          </gpxtpx:TrackPointExtension>
        </extensions>
      </trkpt>
      <trkpt lat="32.05913056832351" lon="118.79075560602521">
        <ele>0</ele>
        <time>2026-06-07T06:23:18Z</time>
        <extensions>
          <gpxtpx:TrackPointExtension>
            <gpxtpx:hr>115</gpxtpx:hr>
          </gpxtpx:TrackPointExtension>
        </extensions>
      </trkpt>
      <trkpt lat="32.05907890737092" lon="118.79077765798866">
        <ele>0</ele>
        <time>2026-06-07T06:23:19Z</time>
        <extensions>
          <gpxtpx:TrackPointExtension>
            <gpxtpx:hr>115</gpxtpx:hr>
          </gpxtpx:TrackPointExtension>
        </extensions>
      </trkpt>
      <trkpt lat="32.05902781932403" lon="118.79079914328406">
        <ele>0</ele>
        <time>2026-06-07T06:23:20Z</time>
        <extensions>
          <gpxtpx:TrackPointExtension>
            <gpxtpx:hr>115</gpxtpx:hr>
          </gpxtpx:TrackPointExtension>
        </extensions>
      </trkpt>
      <trkpt lat="32.05897773448785" lon="118.79081959123964">
        <ele>0</ele>
        <time>2026-06-07T06:23:21Z</time>
        <extensions>
          <gpxtpx:TrackPointExtension>
            <gpxtpx:hr>122</gpxtpx:hr>
          </gpxtpx:TrackPointExtension>
        </extensions>
      </trkpt>
      <trkpt lat="32.05892833337487" lon="118.79083877441677">
        <ele>0</ele>
        <time>2026-06-07T06:23:22Z</time>
        <extensions>
          <gpxtpx:TrackPointExtension>
            <gpxtpx:hr>122</gpxtpx:hr>
          </gpxtpx:TrackPointExtension>
        </extensions>
      </trkpt>
      <trkpt lat="32.05887912858078" lon="118.79085639479378">
        <ele>0</ele>
        <time>2026-06-07T06:23:23Z</time>
        <extensions>
          <gpxtpx:TrackPointExtension>
            <gpxtpx:hr>122</gpxtpx:hr>
          </gpxtpx:TrackPointExtension>
        </extensions>
      </trkpt>
      <trkpt lat="32.05882957206829" lon="118.79087224414415">
        <ele>0</ele>
        <time>2026-06-07T06:23:24Z</time>
        <extensions>
          <gpxtpx:TrackPointExtension>
            <gpxtpx:hr>122</gpxtpx:hr>
          </gpxtpx:TrackPointExtension>
        </extensions>
      </trkpt>
      <trkpt lat="32.05877968783773" lon="118.79088608210549">
        <ele>0</ele>
        <time>2026-06-07T06:23:25Z</time>
        <extensions>
          <gpxtpx:TrackPointExtension>
            <gpxtpx:hr>122</gpxtpx:hr>
          </gpxtpx:TrackPointExtension>
        </extensions>
      </trkpt>
      <trkpt lat="32.05872996578617" lon="118.79089790476814">
        <ele>0</ele>
        <time>2026-06-07T06:23:26Z</time>
        <extensions>
          <gpxtpx:TrackPointExtension>
            <gpxtpx:hr>122</gpxtpx:hr>
          </gpxtpx:TrackPointExtension>
        </extensions>
      </trkpt>
      <trkpt lat="32.05868039726623" lon="118.7909081877038">
        <ele>0</ele>
        <time>2026-06-07T06:23:27Z</time>
        <extensions>
          <gpxtpx:TrackPointExtension>
            <gpxtpx:hr>122</gpxtpx:hr>
          </gpxtpx:TrackPointExtension>
        </extensions>
      </trkpt>
      <trkpt lat="32.05863076795169" lon="118.79091777265575">
        <ele>0</ele>
        <time>2026-06-07T06:23:28Z</time>
        <extensions>
          <gpxtpx:TrackPointExtension>
            <gpxtpx:hr>129</gpxtpx:hr>
          </gpxtpx:TrackPointExtension>
        </extensions>
      </trkpt>
      <trkpt lat="32.05858008820131" lon="118.79092726053017">
        <ele>0</ele>
        <time>2026-06-07T06:23:29Z</time>
        <extensions>
          <gpxtpx:TrackPointExtension>
            <gpxtpx:hr>129</gpxtpx:hr>
          </gpxtpx:TrackPointExtension>
        </extensions>
      </trkpt>
      <trkpt lat="32.05852784344034" lon="118.79093636284131">
        <ele>0</ele>
        <time>2026-06-07T06:23:30Z</time>
        <extensions>
          <gpxtpx:TrackPointExtension>
            <gpxtpx:hr>129</gpxtpx:hr>
          </gpxtpx:TrackPointExtension>
        </extensions>
      </trkpt>
      <trkpt lat="32.05847305565978" lon="118.79094487944518">
        <ele>0</ele>
        <time>2026-06-07T06:23:31Z</time>
        <extensions>
          <gpxtpx:TrackPointExtension>
            <gpxtpx:hr>130</gpxtpx:hr>
          </gpxtpx:TrackPointExtension>
        </extensions>
      </trkpt>
      <trkpt lat="32.058415153738004" lon="118.79095276306597">
        <ele>0</ele>
        <time>2026-06-07T06:23:32Z</time>
        <extensions>
          <gpxtpx:TrackPointExtension>
            <gpxtpx:hr>130</gpxtpx:hr>
          </gpxtpx:TrackPointExtension>
        </extensions>
      </trkpt>
      <trkpt lat="32.05835591050512" lon="118.79095957361368">
        <ele>0</ele>
        <time>2026-06-07T06:23:33Z</time>
        <extensions>
          <gpxtpx:TrackPointExtension>
            <gpxtpx:hr>130</gpxtpx:hr>
          </gpxtpx:TrackPointExtension>
        </extensions>
      </trkpt>
      <trkpt lat="32.05829644426701" lon="118.79096504911087">
        <ele>0</ele>
        <time>2026-06-07T06:23:34Z</time>
        <extensions>
          <gpxtpx:TrackPointExtension>
            <gpxtpx:hr>130</gpxtpx:hr>
          </gpxtpx:TrackPointExtension>
        </extensions>
      </trkpt>
      <trkpt lat="32.05823721120212" lon="118.7909689389473">
        <ele>0</ele>
        <time>2026-06-07T06:23:35Z</time>
        <extensions>
          <gpxtpx:TrackPointExtension>
            <gpxtpx:hr>130</gpxtpx:hr>
          </gpxtpx:TrackPointExtension>
        </extensions>
      </trkpt>
      <trkpt lat="32.05817828676846" lon="118.79097107684414">
        <ele>0</ele>
        <time>2026-06-07T06:23:36Z</time>
        <extensions>
          <gpxtpx:TrackPointExtension>
            <gpxtpx:hr>128</gpxtpx:hr>
          </gpxtpx:TrackPointExtension>
        </extensions>
      </trkpt>
      <trkpt lat="32.05811964914641" lon="118.7909715429613">
        <ele>0</ele>
        <time>2026-06-07T06:23:37Z</time>
        <extensions>
          <gpxtpx:TrackPointExtension>
            <gpxtpx:hr>128</gpxtpx:hr>
          </gpxtpx:TrackPointExtension>
        </extensions>
      </trkpt>
      <trkpt lat="32.05806239839456" lon="118.79097050347218">
        <ele>0</ele>
        <time>2026-06-07T06:23:38Z</time>
        <extensions>
          <gpxtpx:TrackPointExtension>
            <gpxtpx:hr>128</gpxtpx:hr>
          </gpxtpx:TrackPointExtension>
        </extensions>
      </trkpt>
      <trkpt lat="32.05800667918315" lon="118.7909680089183">
        <ele>0</ele>
        <time>2026-06-07T06:23:39Z</time>
        <extensions>
          <gpxtpx:TrackPointExtension>
            <gpxtpx:hr>128</gpxtpx:hr>
          </gpxtpx:TrackPointExtension>
        </extensions>
      </trkpt>
      <trkpt lat="32.05795211271475" lon="118.79096443934368">
        <ele>0</ele>
        <time>2026-06-07T06:23:40Z</time>
        <extensions>
          <gpxtpx:TrackPointExtension>
            <gpxtpx:hr>128</gpxtpx:hr>
          </gpxtpx:TrackPointExtension>
        </extensions>
      </trkpt>
      <trkpt lat="32.057899156720005" lon="118.79096080754597">
        <ele>0</ele>
        <time>2026-06-07T06:23:41Z</time>
        <extensions>
          <gpxtpx:TrackPointExtension>
            <gpxtpx:hr>128</gpxtpx:hr>
          </gpxtpx:TrackPointExtension>
        </extensions>
      </trkpt>
      <trkpt lat="32.0578483658689" lon="118.79095790852121">
        <ele>0</ele>
        <time>2026-06-07T06:23:42Z</time>
        <extensions>
          <gpxtpx:TrackPointExtension>
            <gpxtpx:hr>128</gpxtpx:hr>
          </gpxtpx:TrackPointExtension>
        </extensions>
      </trkpt>
      <trkpt lat="32.057800621812675" lon="118.79095576639328">
        <ele>0</ele>
        <time>2026-06-07T06:23:43Z</time>
        <extensions>
          <gpxtpx:TrackPointExtension>
            <gpxtpx:hr>128</gpxtpx:hr>
          </gpxtpx:TrackPointExtension>
        </extensions>
      </trkpt>
      <trkpt lat="32.05775553873163" lon="118.79095391522893">
        <ele>0</ele>
        <time>2026-06-07T06:23:44Z</time>
        <extensions>
          <gpxtpx:TrackPointExtension>
            <gpxtpx:hr>128</gpxtpx:hr>
          </gpxtpx:TrackPointExtension>
        </extensions>
      </trkpt>
      <trkpt lat="32.057711909780565" lon="118.79095232613058">
        <ele>0</ele>
        <time>2026-06-07T06:23:45Z</time>
        <extensions>
          <gpxtpx:TrackPointExtension>
            <gpxtpx:hr>128</gpxtpx:hr>
          </gpxtpx:TrackPointExtension>
        </extensions>
      </trkpt>
      <trkpt lat="32.05766914649627" lon="118.79095121418922">
        <ele>0</ele>
        <time>2026-06-07T06:23:46Z</time>
        <extensions>
          <gpxtpx:TrackPointExtension>
            <gpxtpx:hr>128</gpxtpx:hr>
          </gpxtpx:TrackPointExtension>
        </extensions>
      </trkpt>
      <trkpt lat="32.05762682407544" lon="118.79095027795557">
        <ele>0</ele>
        <time>2026-06-07T06:23:47Z</time>
        <extensions>
          <gpxtpx:TrackPointExtension>
            <gpxtpx:hr>128</gpxtpx:hr>
          </gpxtpx:TrackPointExtension>
        </extensions>
      </trkpt>
      <trkpt lat="32.05758465017206" lon="118.79094885788811">
        <ele>0</ele>
        <time>2026-06-07T06:23:48Z</time>
        <extensions>
          <gpxtpx:TrackPointExtension>
            <gpxtpx:hr>131</gpxtpx:hr>
          </gpxtpx:TrackPointExtension>
        </extensions>
      </trkpt>
      <trkpt lat="32.05754208382193" lon="118.79094628669304">
        <ele>0</ele>
        <time>2026-06-07T06:23:49Z</time>
        <extensions>
          <gpxtpx:TrackPointExtension>
            <gpxtpx:hr>131</gpxtpx:hr>
          </gpxtpx:TrackPointExtension>
        </extensions>
      </trkpt>
      <trkpt lat="32.05749926246615" lon="118.79094272371317">
        <ele>0</ele>
        <time>2026-06-07T06:23:50Z</time>
        <extensions>
          <gpxtpx:TrackPointExtension>
            <gpxtpx:hr>131</gpxtpx:hr>
          </gpxtpx:TrackPointExtension>
        </extensions>
      </trkpt>
      <trkpt lat="32.057456773792964" lon="118.79093842661852">
        <ele>0</ele>
        <time>2026-06-07T06:23:51Z</time>
        <extensions>
          <gpxtpx:TrackPointExtension>
            <gpxtpx:hr>131</gpxtpx:hr>
          </gpxtpx:TrackPointExtension>
        </extensions>
      </trkpt>
      <trkpt lat="32.05741500453212" lon="118.79093299358358">
        <ele>0</ele>
        <time>2026-06-07T06:23:52Z</time>
        <extensions>
          <gpxtpx:TrackPointExtension>
            <gpxtpx:hr>131</gpxtpx:hr>
          </gpxtpx:TrackPointExtension>
        </extensions>
      </trkpt>
      <trkpt lat="32.05737475965368" lon="118.79092586307176">
        <ele>0</ele>
        <time>2026-06-07T06:23:53Z</time>
        <extensions>
          <gpxtpx:TrackPointExtension>
            <gpxtpx:hr>132</gpxtpx:hr>
          </gpxtpx:TrackPointExtension>
        </extensions>
      </trkpt>
      <trkpt lat="32.0573365677065" lon="118.79091652429109">
        <ele>0</ele>
        <time>2026-06-07T06:23:54Z</time>
        <extensions>
          <gpxtpx:TrackPointExtension>
            <gpxtpx:hr>132</gpxtpx:hr>
          </gpxtpx:TrackPointExtension>
        </extensions>
      </trkpt>
      <trkpt lat="32.057301707594526" lon="118.79090405281697">
        <ele>0</ele>
        <time>2026-06-07T06:23:55Z</time>
        <extensions>
          <gpxtpx:TrackPointExtension>
            <gpxtpx:hr>132</gpxtpx:hr>
          </gpxtpx:TrackPointExtension>
        </extensions>
      </trkpt>
      <trkpt lat="32.05727330439038" lon="118.79088743358439">
        <ele>0</ele>
        <time>2026-06-07T06:23:56Z</time>
        <extensions>
          <gpxtpx:TrackPointExtension>
            <gpxtpx:hr>132</gpxtpx:hr>
          </gpxtpx:TrackPointExtension>
        </extensions>
      </trkpt>
      <trkpt lat="32.05725411581387" lon="118.79086932051968">
        <ele>0</ele>
        <time>2026-06-07T06:23:57Z</time>
        <extensions>
          <gpxtpx:TrackPointExtension>
            <gpxtpx:hr>132</gpxtpx:hr>
          </gpxtpx:TrackPointExtension>
        </extensions>
      </trkpt>
      <trkpt lat="32.05724485981591" lon="118.79085659089806">
        <ele>0</ele>
        <time>2026-06-07T06:23:58Z</time>
        <extensions>
          <gpxtpx:TrackPointExtension>
            <gpxtpx:hr>133</gpxtpx:hr>
          </gpxtpx:TrackPointExtension>
        </extensions>
      </trkpt>
      <trkpt lat="32.057241132324954" lon="118.79084849478986">
        <ele>0</ele>
        <time>2026-06-07T06:23:59Z</time>
        <extensions>
          <gpxtpx:TrackPointExtension>
            <gpxtpx:hr>133</gpxtpx:hr>
          </gpxtpx:TrackPointExtension>
        </extensions>
      </trkpt>
      <trkpt lat="32.05723831850246" lon="118.79084085858923">
        <ele>0</ele>
        <time>2026-06-07T06:24:00Z</time>
        <extensions>
          <gpxtpx:TrackPointExtension>
            <gpxtpx:hr>133</gpxtpx:hr>
          </gpxtpx:TrackPointExtension>
        </extensions>
      </trkpt>
      <trkpt lat="32.05723560614957" lon="118.79083439841315">
        <ele>0</ele>
        <time>2026-06-07T06:24:01Z</time>
        <extensions>
          <gpxtpx:TrackPointExtension>
            <gpxtpx:hr>132</gpxtpx:hr>
          </gpxtpx:TrackPointExtension>
        </extensions>
      </trkpt>
      <trkpt lat="32.057233193181744" lon="118.79082865932267">
        <ele>0</ele>
        <time>2026-06-07T06:24:02Z</time>
        <extensions>
          <gpxtpx:TrackPointExtension>
            <gpxtpx:hr>132</gpxtpx:hr>
          </gpxtpx:TrackPointExtension>
        </extensions>
      </trkpt>
      <trkpt lat="32.05723196202193" lon="118.790824067093">
        <ele>0</ele>
        <time>2026-06-07T06:24:03Z</time>
        <extensions>
          <gpxtpx:TrackPointExtension>
            <gpxtpx:hr>132</gpxtpx:hr>
          </gpxtpx:TrackPointExtension>
        </extensions>
      </trkpt>
      <trkpt lat="32.057231591037635" lon="118.79082198395686">
        <ele>0</ele>
        <time>2026-06-07T06:24:04Z</time>
        <extensions>
          <gpxtpx:TrackPointExtension>
            <gpxtpx:hr>132</gpxtpx:hr>
          </gpxtpx:TrackPointExtension>
        </extensions>
      </trkpt>
      <trkpt lat="32.05723132159317" lon="118.79082134680402">
        <ele>0</ele>
        <time>2026-06-07T06:24:05Z</time>
        <extensions>
          <gpxtpx:TrackPointExtension>
            <gpxtpx:hr>130</gpxtpx:hr>
          </gpxtpx:TrackPointExtension>
        </extensions>
      </trkpt>
      <trkpt lat="32.05723098306732" lon="118.79082066379925">
        <ele>0</ele>
        <time>2026-06-07T06:24:06Z</time>
        <extensions>
          <gpxtpx:TrackPointExtension>
            <gpxtpx:hr>130</gpxtpx:hr>
          </gpxtpx:TrackPointExtension>
        </extensions>
      </trkpt>
      <trkpt lat="32.05723046065819" lon="118.79081947974673">
        <ele>0</ele>
        <time>2026-06-07T06:24:07Z</time>
        <extensions>
          <gpxtpx:TrackPointExtension>
            <gpxtpx:hr>130</gpxtpx:hr>
          </gpxtpx:TrackPointExtension>
        </extensions>
      </trkpt>
      <trkpt lat="32.057229357693814" lon="118.79081692042838">
        <ele>0</ele>
        <time>2026-06-07T06:24:08Z</time>
        <extensions>
          <gpxtpx:TrackPointExtension>
            <gpxtpx:hr>130</gpxtpx:hr>
          </gpxtpx:TrackPointExtension>
        </extensions>
      </trkpt>
      <trkpt lat="32.05722814255053" lon="118.79081416016044">
        <ele>0</ele>
        <time>2026-06-07T06:24:09Z</time>
        <extensions>
          <gpxtpx:TrackPointExtension>
            <gpxtpx:hr>130</gpxtpx:hr>
          </gpxtpx:TrackPointExtension>
        </extensions>
      </trkpt>
      <trkpt lat="32.05722686402637" lon="118.79081166982559">
        <ele>0</ele>
        <time>2026-06-07T06:24:10Z</time>
        <extensions>
          <gpxtpx:TrackPointExtension>
            <gpxtpx:hr>130</gpxtpx:hr>
          </gpxtpx:TrackPointExtension>
        </extensions>
      </trkpt>
      <trkpt lat="32.05722211496165" lon="118.79080564247623">
        <ele>0</ele>
        <time>2026-06-07T06:24:11Z</time>
        <extensions>
          <gpxtpx:TrackPointExtension>
            <gpxtpx:hr>130</gpxtpx:hr>
          </gpxtpx:TrackPointExtension>
        </extensions>
      </trkpt>
      <trkpt lat="32.05721584898128" lon="118.79079482181704">
        <ele>0</ele>
        <time>2026-06-07T06:24:12Z</time>
        <extensions>
          <gpxtpx:TrackPointExtension>
            <gpxtpx:hr>131</gpxtpx:hr>
          </gpxtpx:TrackPointExtension>
        </extensions>
      </trkpt>
      <trkpt lat="32.05721261268365" lon="118.79078239536743">
        <ele>0</ele>
        <time>2026-06-07T06:24:13Z</time>
        <extensions>
          <gpxtpx:TrackPointExtension>
            <gpxtpx:hr>131</gpxtpx:hr>
          </gpxtpx:TrackPointExtension>
        </extensions>
      </trkpt>
      <trkpt lat="32.05721100903477" lon="118.79076994787768">
        <ele>0</ele>
        <time>2026-06-07T06:24:14Z</time>
        <extensions>
          <gpxtpx:TrackPointExtension>
            <gpxtpx:hr>131</gpxtpx:hr>
          </gpxtpx:TrackPointExtension>
        </extensions>
      </trkpt>
      <trkpt lat="32.05721018131912" lon="118.79075570735581">
        <ele>0</ele>
        <time>2026-06-07T06:24:15Z</time>
        <extensions>
          <gpxtpx:TrackPointExtension>
            <gpxtpx:hr>131</gpxtpx:hr>
          </gpxtpx:TrackPointExtension>
        </extensions>
      </trkpt>
      <trkpt lat="32.057209604275364" lon="118.79073853724722">
        <ele>0</ele>
        <time>2026-06-07T06:24:16Z</time>
        <extensions>
          <gpxtpx:TrackPointExtension>
            <gpxtpx:hr>130</gpxtpx:hr>
          </gpxtpx:TrackPointExtension>
        </extensions>
      </trkpt>
      <trkpt lat="32.05720769634445" lon="118.79072036065874">
        <ele>0</ele>
        <time>2026-06-07T06:24:17Z</time>
        <extensions>
          <gpxtpx:TrackPointExtension>
            <gpxtpx:hr>130</gpxtpx:hr>
          </gpxtpx:TrackPointExtension>
        </extensions>
      </trkpt>
      <trkpt lat="32.05720486234295" lon="118.79069983360654">
        <ele>0</ele>
        <time>2026-06-07T06:24:18Z</time>
        <extensions>
          <gpxtpx:TrackPointExtension>
            <gpxtpx:hr>130</gpxtpx:hr>
          </gpxtpx:TrackPointExtension>
        </extensions>
      </trkpt>
      <trkpt lat="32.057203073344624" lon="118.79067392769564">
        <ele>0</ele>
        <time>2026-06-07T06:24:19Z</time>
        <extensions>
          <gpxtpx:TrackPointExtension>
            <gpxtpx:hr>127</gpxtpx:hr>
          </gpxtpx:TrackPointExtension>
        </extensions>
      </trkpt>
      <trkpt lat="32.05720355995675" lon="118.790644249741">
        <ele>0</ele>
        <time>2026-06-07T06:24:20Z</time>
        <extensions>
          <gpxtpx:TrackPointExtension>
            <gpxtpx:hr>127</gpxtpx:hr>
          </gpxtpx:TrackPointExtension>
        </extensions>
      </trkpt>
      <trkpt lat="32.05720611234044" lon="118.79061326403448">
        <ele>0</ele>
        <time>2026-06-07T06:24:21Z</time>
        <extensions>
          <gpxtpx:TrackPointExtension>
            <gpxtpx:hr>127</gpxtpx:hr>
          </gpxtpx:TrackPointExtension>
        </extensions>
      </trkpt>
      <trkpt lat="32.05720970662238" lon="118.79058063379848">
        <ele>0</ele>
        <time>2026-06-07T06:24:22Z</time>
        <extensions>
          <gpxtpx:TrackPointExtension>
            <gpxtpx:hr>127</gpxtpx:hr>
          </gpxtpx:TrackPointExtension>
        </extensions>
      </trkpt>
      <trkpt lat="32.05721388786123" lon="118.79054559689637">
        <ele>0</ele>
        <time>2026-06-07T06:24:23Z</time>
        <extensions>
          <gpxtpx:TrackPointExtension>
            <gpxtpx:hr>127</gpxtpx:hr>
          </gpxtpx:TrackPointExtension>
        </extensions>
      </trkpt>
      <trkpt lat="32.05721789352793" lon="118.79050927365473">
        <ele>0</ele>
        <time>2026-06-07T06:24:24Z</time>
        <extensions>
          <gpxtpx:TrackPointExtension>
            <gpxtpx:hr>127</gpxtpx:hr>
          </gpxtpx:TrackPointExtension>
        </extensions>
      </trkpt>
      <trkpt lat="32.05722093263883" lon="118.79047147158455">
        <ele>0</ele>
        <time>2026-06-07T06:24:25Z</time>
        <extensions>
          <gpxtpx:TrackPointExtension>
            <gpxtpx:hr>127</gpxtpx:hr>
          </gpxtpx:TrackPointExtension>
        </extensions>
      </trkpt>
      <trkpt lat="32.057223537048934" lon="118.79043204558867">
        <ele>0</ele>
        <time>2026-06-07T06:24:26Z</time>
        <extensions>
          <gpxtpx:TrackPointExtension>
            <gpxtpx:hr>121</gpxtpx:hr>
          </gpxtpx:TrackPointExtension>
        </extensions>
      </trkpt>
      <trkpt lat="32.05722640360157" lon="118.7903913437986">
        <ele>0</ele>
        <time>2026-06-07T06:24:27Z</time>
        <extensions>
          <gpxtpx:TrackPointExtension>
            <gpxtpx:hr>121</gpxtpx:hr>
          </gpxtpx:TrackPointExtension>
        </extensions>
      </trkpt>
      <trkpt lat="32.05722929553907" lon="118.79034882976644">
        <ele>0</ele>
        <time>2026-06-07T06:24:28Z</time>
        <extensions>
          <gpxtpx:TrackPointExtension>
            <gpxtpx:hr>121</gpxtpx:hr>
          </gpxtpx:TrackPointExtension>
        </extensions>
      </trkpt>
      <trkpt lat="32.05723194697439" lon="118.79030683197134">
        <ele>0</ele>
        <time>2026-06-07T06:24:29Z</time>
        <extensions>
          <gpxtpx:TrackPointExtension>
            <gpxtpx:hr>121</gpxtpx:hr>
          </gpxtpx:TrackPointExtension>
        </extensions>
      </trkpt>
      <trkpt lat="32.0572341926664" lon="118.79026601141615">
        <ele>0</ele>
        <time>2026-06-07T06:24:30Z</time>
        <extensions>
          <gpxtpx:TrackPointExtension>
            <gpxtpx:hr>121</gpxtpx:hr>
          </gpxtpx:TrackPointExtension>
        </extensions>
      </trkpt>
      <trkpt lat="32.057236011913645" lon="118.79022393705395">
        <ele>0</ele>
        <time>2026-06-07T06:24:31Z</time>
        <extensions>
          <gpxtpx:TrackPointExtension>
            <gpxtpx:hr>121</gpxtpx:hr>
          </gpxtpx:TrackPointExtension>
        </extensions>
      </trkpt>
      <trkpt lat="32.05723781083491" lon="118.7901793562674">
        <ele>0</ele>
        <time>2026-06-07T06:24:32Z</time>
        <extensions>
          <gpxtpx:TrackPointExtension>
            <gpxtpx:hr>121</gpxtpx:hr>
          </gpxtpx:TrackPointExtension>
        </extensions>
      </trkpt>
      <trkpt lat="32.05724053615264" lon="118.79013192933091">
        <ele>0</ele>
        <time>2026-06-07T06:24:33Z</time>
        <extensions>
          <gpxtpx:TrackPointExtension>
            <gpxtpx:hr>123</gpxtpx:hr>
          </gpxtpx:TrackPointExtension>
        </extensions>
      </trkpt>
      <trkpt lat="32.0572448994329" lon="118.79008214002562">
        <ele>0</ele>
        <time>2026-06-07T06:24:34Z</time>
        <extensions>
          <gpxtpx:TrackPointExtension>
            <gpxtpx:hr>123</gpxtpx:hr>
          </gpxtpx:TrackPointExtension>
        </extensions>
      </trkpt>
      <trkpt lat="32.057250705035266" lon="118.79003092338556">
        <ele>0</ele>
        <time>2026-06-07T06:24:35Z</time>
        <extensions>
          <gpxtpx:TrackPointExtension>
            <gpxtpx:hr>123</gpxtpx:hr>
          </gpxtpx:TrackPointExtension>
        </extensions>
      </trkpt>
      <trkpt lat="32.057257053569586" lon="118.78997904826873">
        <ele>0</ele>
        <time>2026-06-07T06:24:36Z</time>
        <extensions>
          <gpxtpx:TrackPointExtension>
            <gpxtpx:hr>123</gpxtpx:hr>
          </gpxtpx:TrackPointExtension>
        </extensions>
      </trkpt>
      <trkpt lat="32.05726383366619" lon="118.78992700761415">
        <ele>0</ele>
        <time>2026-06-07T06:24:37Z</time>
        <extensions>
          <gpxtpx:TrackPointExtension>
            <gpxtpx:hr>123</gpxtpx:hr>
          </gpxtpx:TrackPointExtension>
        </extensions>
      </trkpt>
      <trkpt lat="32.057271663990164" lon="118.78987514456105">
        <ele>0</ele>
        <time>2026-06-07T06:24:38Z</time>
        <extensions>
          <gpxtpx:TrackPointExtension>
            <gpxtpx:hr>123</gpxtpx:hr>
          </gpxtpx:TrackPointExtension>
        </extensions>
      </trkpt>
      <trkpt lat="32.05728136591885" lon="118.78982403924874">
        <ele>0</ele>
        <time>2026-06-07T06:24:39Z</time>
        <extensions>
          <gpxtpx:TrackPointExtension>
            <gpxtpx:hr>123</gpxtpx:hr>
          </gpxtpx:TrackPointExtension>
        </extensions>
      </trkpt>
      <trkpt lat="32.05729400392074" lon="118.78977495409382">
        <ele>0</ele>
        <time>2026-06-07T06:24:40Z</time>
        <extensions>
          <gpxtpx:TrackPointExtension>
            <gpxtpx:hr>123</gpxtpx:hr>
          </gpxtpx:TrackPointExtension>
        </extensions>
      </trkpt>
      <trkpt lat="32.05731125764248" lon="118.78973063102445">
        <ele>0</ele>
        <time>2026-06-07T06:24:41Z</time>
        <extensions>
          <gpxtpx:TrackPointExtension>
            <gpxtpx:hr>123</gpxtpx:hr>
          </gpxtpx:TrackPointExtension>
        </extensions>
      </trkpt>
      <trkpt lat="32.05733429772137" lon="118.78969576440974">
        <ele>0</ele>
        <time>2026-06-07T06:24:42Z</time>
        <extensions>
          <gpxtpx:TrackPointExtension>
            <gpxtpx:hr>123</gpxtpx:hr>
          </gpxtpx:TrackPointExtension>
        </extensions>
      </trkpt>
      <trkpt lat="32.057363910772146" lon="118.78967407565116">
        <ele>0</ele>
        <time>2026-06-07T06:24:43Z</time>
        <extensions>
          <gpxtpx:TrackPointExtension>
            <gpxtpx:hr>123</gpxtpx:hr>
          </gpxtpx:TrackPointExtension>
        </extensions>
      </trkpt>
      <trkpt lat="32.057398220397516" lon="118.78966340627905">
        <ele>0</ele>
        <time>2026-06-07T06:24:44Z</time>
        <extensions>
          <gpxtpx:TrackPointExtension>
            <gpxtpx:hr>123</gpxtpx:hr>
          </gpxtpx:TrackPointExtension>
        </extensions>
      </trkpt>
      <trkpt lat="32.0574340435276" lon="118.78965843381062">
        <ele>0</ele>
        <time>2026-06-07T06:24:45Z</time>
        <extensions>
          <gpxtpx:TrackPointExtension>
            <gpxtpx:hr>123</gpxtpx:hr>
          </gpxtpx:TrackPointExtension>
        </extensions>
      </trkpt>
      <trkpt lat="32.05747077719638" lon="118.78965593027688">
        <ele>0</ele>
        <time>2026-06-07T06:24:46Z</time>
        <extensions>
          <gpxtpx:TrackPointExtension>
            <gpxtpx:hr>137</gpxtpx:hr>
          </gpxtpx:TrackPointExtension>
        </extensions>
      </trkpt>
      <trkpt lat="32.0575085791754" lon="118.78965425443559">
        <ele>0</ele>
        <time>2026-06-07T06:24:47Z</time>
        <extensions>
          <gpxtpx:TrackPointExtension>
            <gpxtpx:hr>137</gpxtpx:hr>
          </gpxtpx:TrackPointExtension>
        </extensions>
      </trkpt>
      <trkpt lat="32.05754717229645" lon="118.78965292419103">
        <ele>0</ele>
        <time>2026-06-07T06:24:48Z</time>
        <extensions>
          <gpxtpx:TrackPointExtension>
            <gpxtpx:hr>137</gpxtpx:hr>
          </gpxtpx:TrackPointExtension>
        </extensions>
      </trkpt>
      <trkpt lat="32.05758615310343" lon="118.78965211255574">
        <ele>0</ele>
        <time>2026-06-07T06:24:49Z</time>
        <extensions>
          <gpxtpx:TrackPointExtension>
            <gpxtpx:hr>137</gpxtpx:hr>
          </gpxtpx:TrackPointExtension>
        </extensions>
      </trkpt>
      <trkpt lat="32.057626193030224" lon="118.78965174399869">
        <ele>0</ele>
        <time>2026-06-07T06:24:50Z</time>
        <extensions>
          <gpxtpx:TrackPointExtension>
            <gpxtpx:hr>137</gpxtpx:hr>
          </gpxtpx:TrackPointExtension>
        </extensions>
      </trkpt>
      <trkpt lat="32.057667180397246" lon="118.78965157090995">
        <ele>0</ele>
        <time>2026-06-07T06:24:51Z</time>
        <extensions>
          <gpxtpx:TrackPointExtension>
            <gpxtpx:hr>137</gpxtpx:hr>
          </gpxtpx:TrackPointExtension>
        </extensions>
      </trkpt>
      <trkpt lat="32.05770852810706" lon="118.78965106841078">
        <ele>0</ele>
        <time>2026-06-07T06:24:52Z</time>
        <extensions>
          <gpxtpx:TrackPointExtension>
            <gpxtpx:hr>137</gpxtpx:hr>
          </gpxtpx:TrackPointExtension>
        </extensions>
      </trkpt>
      <trkpt lat="32.05775009885016" lon="118.78964904991676">
        <ele>0</ele>
        <time>2026-06-07T06:24:53Z</time>
        <extensions>
          <gpxtpx:TrackPointExtension>
            <gpxtpx:hr>137</gpxtpx:hr>
          </gpxtpx:TrackPointExtension>
        </extensions>
      </trkpt>
      <trkpt lat="32.0577915482251" lon="118.78964431248686">
        <ele>0</ele>
        <time>2026-06-07T06:24:54Z</time>
        <extensions>
          <gpxtpx:TrackPointExtension>
            <gpxtpx:hr>137</gpxtpx:hr>
          </gpxtpx:TrackPointExtension>
        </extensions>
      </trkpt>
      <trkpt lat="32.05783289445055" lon="118.78963788366829">
        <ele>0</ele>
        <time>2026-06-07T06:24:55Z</time>
        <extensions>
          <gpxtpx:TrackPointExtension>
            <gpxtpx:hr>137</gpxtpx:hr>
          </gpxtpx:TrackPointExtension>
        </extensions>
      </trkpt>
      <trkpt lat="32.057874406172246" lon="118.78963273695481">
        <ele>0</ele>
        <time>2026-06-07T06:24:56Z</time>
        <extensions>
          <gpxtpx:TrackPointExtension>
            <gpxtpx:hr>136</gpxtpx:hr>
          </gpxtpx:TrackPointExtension>
        </extensions>
      </trkpt>
      <trkpt lat="32.05791713381107" lon="118.7896306036293">
        <ele>0</ele>
        <time>2026-06-07T06:24:57Z</time>
        <extensions>
          <gpxtpx:TrackPointExtension>
            <gpxtpx:hr>136</gpxtpx:hr>
          </gpxtpx:TrackPointExtension>
        </extensions>
      </trkpt>
      <trkpt lat="32.057961139998746" lon="118.78963117682596">
        <ele>0</ele>
        <time>2026-06-07T06:24:58Z</time>
        <extensions>
          <gpxtpx:TrackPointExtension>
            <gpxtpx:hr>136</gpxtpx:hr>
          </gpxtpx:TrackPointExtension>
        </extensions>
      </trkpt>
      <trkpt lat="32.05800529947533" lon="118.78963330882326">
        <ele>0</ele>
        <time>2026-06-07T06:24:59Z</time>
        <extensions>
          <gpxtpx:TrackPointExtension>
            <gpxtpx:hr>136</gpxtpx:hr>
          </gpxtpx:TrackPointExtension>
        </extensions>
      </trkpt>
      <trkpt lat="32.05804928818634" lon="118.78963628197022">
        <ele>0</ele>
        <time>2026-06-07T06:25:00Z</time>
        <extensions>
          <gpxtpx:TrackPointExtension>
            <gpxtpx:hr>136</gpxtpx:hr>
          </gpxtpx:TrackPointExtension>
        </extensions>
      </trkpt>
      <trkpt lat="32.058093107253896" lon="118.78964022008921">
        <ele>0</ele>
        <time>2026-06-07T06:25:01Z</time>
        <extensions>
          <gpxtpx:TrackPointExtension>
            <gpxtpx:hr>136</gpxtpx:hr>
          </gpxtpx:TrackPointExtension>
        </extensions>
      </trkpt>
      <trkpt lat="32.05813649647124" lon="118.78964474173873">
        <ele>0</ele>
        <time>2026-06-07T06:25:02Z</time>
        <extensions>
          <gpxtpx:TrackPointExtension>
            <gpxtpx:hr>136</gpxtpx:hr>
          </gpxtpx:TrackPointExtension>
        </extensions>
      </trkpt>
      <trkpt lat="32.058179744580194" lon="118.78964876656822">
        <ele>0</ele>
        <time>2026-06-07T06:25:03Z</time>
        <extensions>
          <gpxtpx:TrackPointExtension>
            <gpxtpx:hr>136</gpxtpx:hr>
          </gpxtpx:TrackPointExtension>
        </extensions>
      </trkpt>
      <trkpt lat="32.05822307109751" lon="118.78965200998013">
        <ele>0</ele>
        <time>2026-06-07T06:25:04Z</time>
        <extensions>
          <gpxtpx:TrackPointExtension>
            <gpxtpx:hr>136</gpxtpx:hr>
          </gpxtpx:TrackPointExtension>
        </extensions>
      </trkpt>
      <trkpt lat="32.05826639162102" lon="118.78965489891253">
        <ele>0</ele>
        <time>2026-06-07T06:25:05Z</time>
        <extensions>
          <gpxtpx:TrackPointExtension>
            <gpxtpx:hr>135</gpxtpx:hr>
          </gpxtpx:TrackPointExtension>
        </extensions>
      </trkpt>
      <trkpt lat="32.05830970773642" lon="118.7896576323596">
        <ele>0</ele>
        <time>2026-06-07T06:25:06Z</time>
        <extensions>
          <gpxtpx:TrackPointExtension>
            <gpxtpx:hr>135</gpxtpx:hr>
          </gpxtpx:TrackPointExtension>
        </extensions>
      </trkpt>
      <trkpt lat="32.058352508141965" lon="118.7896599306896">
        <ele>0</ele>
        <time>2026-06-07T06:25:07Z</time>
        <extensions>
          <gpxtpx:TrackPointExtension>
            <gpxtpx:hr>135</gpxtpx:hr>
          </gpxtpx:TrackPointExtension>
        </extensions>
      </trkpt>
      <trkpt lat="32.05839458220118" lon="118.78966145164674">
        <ele>0</ele>
        <time>2026-06-07T06:25:08Z</time>
        <extensions>
          <gpxtpx:TrackPointExtension>
            <gpxtpx:hr>135</gpxtpx:hr>
          </gpxtpx:TrackPointExtension>
        </extensions>
      </trkpt>
      <trkpt lat="32.058435940362706" lon="118.78966207026616">
        <ele>0</ele>
        <time>2026-06-07T06:25:09Z</time>
        <extensions>
          <gpxtpx:TrackPointExtension>
            <gpxtpx:hr>135</gpxtpx:hr>
          </gpxtpx:TrackPointExtension>
        </extensions>
      </trkpt>
      <trkpt lat="32.05847647445178" lon="118.78966129495497">
        <ele>0</ele>
        <time>2026-06-07T06:25:10Z</time>
        <extensions>
          <gpxtpx:TrackPointExtension>
            <gpxtpx:hr>134</gpxtpx:hr>
          </gpxtpx:TrackPointExtension>
        </extensions>
      </trkpt>
      <trkpt lat="32.058515103014926" lon="118.78965808584881">
        <ele>0</ele>
        <time>2026-06-07T06:25:11Z</time>
        <extensions>
          <gpxtpx:TrackPointExtension>
            <gpxtpx:hr>134</gpxtpx:hr>
          </gpxtpx:TrackPointExtension>
        </extensions>
      </trkpt>
      <trkpt lat="32.05854962443738" lon="118.7896505569382">
        <ele>0</ele>
        <time>2026-06-07T06:25:12Z</time>
        <extensions>
          <gpxtpx:TrackPointExtension>
            <gpxtpx:hr>134</gpxtpx:hr>
          </gpxtpx:TrackPointExtension>
        </extensions>
      </trkpt>
      <trkpt lat="32.058579076173785" lon="118.78963540441909">
        <ele>0</ele>
        <time>2026-06-07T06:25:13Z</time>
        <extensions>
          <gpxtpx:TrackPointExtension>
            <gpxtpx:hr>134</gpxtpx:hr>
          </gpxtpx:TrackPointExtension>
        </extensions>
      </trkpt>
      <trkpt lat="32.058603229079864" lon="118.7896102459058">
        <ele>0</ele>
        <time>2026-06-07T06:25:14Z</time>
        <extensions>
          <gpxtpx:TrackPointExtension>
            <gpxtpx:hr>134</gpxtpx:hr>
          </gpxtpx:TrackPointExtension>
        </extensions>
      </trkpt>
      <trkpt lat="32.0586235994979" lon="118.78957618107646">
        <ele>0</ele>
        <time>2026-06-07T06:25:15Z</time>
        <extensions>
          <gpxtpx:TrackPointExtension>
            <gpxtpx:hr>137</gpxtpx:hr>
          </gpxtpx:TrackPointExtension>
        </extensions>
      </trkpt>
      <trkpt lat="32.058642676809626" lon="118.78953676495824">
        <ele>0</ele>
        <time>2026-06-07T06:25:16Z</time>
        <extensions>
          <gpxtpx:TrackPointExtension>
            <gpxtpx:hr>137</gpxtpx:hr>
          </gpxtpx:TrackPointExtension>
        </extensions>
      </trkpt>
      <trkpt lat="32.05866204549408" lon="118.78949507570636">
        <ele>0</ele>
        <time>2026-06-07T06:25:17Z</time>
        <extensions>
          <gpxtpx:TrackPointExtension>
            <gpxtpx:hr>137</gpxtpx:hr>
          </gpxtpx:TrackPointExtension>
        </extensions>
      </trkpt>
      <trkpt lat="32.05868345715412" lon="118.78945398642645">
        <ele>0</ele>
        <time>2026-06-07T06:25:18Z</time>
        <extensions>
          <gpxtpx:TrackPointExtension>
            <gpxtpx:hr>137</gpxtpx:hr>
          </gpxtpx:TrackPointExtension>
        </extensions>
      </trkpt>
      <trkpt lat="32.0587078335769" lon="118.78941715561827">
        <ele>0</ele>
        <time>2026-06-07T06:25:19Z</time>
        <extensions>
          <gpxtpx:TrackPointExtension>
            <gpxtpx:hr>137</gpxtpx:hr>
          </gpxtpx:TrackPointExtension>
        </extensions>
      </trkpt>
      <trkpt lat="32.05873740118685" lon="118.789389216347">
        <ele>0</ele>
        <time>2026-06-07T06:25:20Z</time>
        <extensions>
          <gpxtpx:TrackPointExtension>
            <gpxtpx:hr>137</gpxtpx:hr>
          </gpxtpx:TrackPointExtension>
        </extensions>
      </trkpt>
      <trkpt lat="32.05877106948588" lon="118.78937129841724">
        <ele>0</ele>
        <time>2026-06-07T06:25:21Z</time>
        <extensions>
          <gpxtpx:TrackPointExtension>
            <gpxtpx:hr>137</gpxtpx:hr>
          </gpxtpx:TrackPointExtension>
        </extensions>
      </trkpt>
      <trkpt lat="32.05880430105846" lon="118.789359405482">
        <ele>0</ele>
        <time>2026-06-07T06:25:22Z</time>
        <extensions>
          <gpxtpx:TrackPointExtension>
            <gpxtpx:hr>138</gpxtpx:hr>
          </gpxtpx:TrackPointExtension>
        </extensions>
      </trkpt>
      <trkpt lat="32.05883674571522" lon="118.78934992131195">
        <ele>0</ele>
        <time>2026-06-07T06:25:23Z</time>
        <extensions>
          <gpxtpx:TrackPointExtension>
            <gpxtpx:hr>138</gpxtpx:hr>
          </gpxtpx:TrackPointExtension>
        </extensions>
      </trkpt>
      <trkpt lat="32.058869466613636" lon="118.78934103969226">
        <ele>0</ele>
        <time>2026-06-07T06:25:24Z</time>
        <extensions>
          <gpxtpx:TrackPointExtension>
            <gpxtpx:hr>138</gpxtpx:hr>
          </gpxtpx:TrackPointExtension>
        </extensions>
      </trkpt>
      <trkpt lat="32.05890241237802" lon="118.78933106307375">
        <ele>0</ele>
        <time>2026-06-07T06:25:25Z</time>
        <extensions>
          <gpxtpx:TrackPointExtension>
            <gpxtpx:hr>138</gpxtpx:hr>
          </gpxtpx:TrackPointExtension>
        </extensions>
      </trkpt>
      <trkpt lat="32.05893513749038" lon="118.78931810716264">
        <ele>0</ele>
        <time>2026-06-07T06:25:26Z</time>
        <extensions>
          <gpxtpx:TrackPointExtension>
            <gpxtpx:hr>138</gpxtpx:hr>
          </gpxtpx:TrackPointExtension>
        </extensions>
      </trkpt>
      <trkpt lat="32.058966821894764" lon="118.78930089928915">
        <ele>0</ele>
        <time>2026-06-07T06:25:27Z</time>
        <extensions>
          <gpxtpx:TrackPointExtension>
            <gpxtpx:hr>138</gpxtpx:hr>
          </gpxtpx:TrackPointExtension>
        </extensions>
      </trkpt>
      <trkpt lat="32.058996295753204" lon="118.78927889368282">
        <ele>0</ele>
        <time>2026-06-07T06:25:28Z</time>
        <extensions>
          <gpxtpx:TrackPointExtension>
            <gpxtpx:hr>138</gpxtpx:hr>
          </gpxtpx:TrackPointExtension>
        </extensions>
      </trkpt>
      <trkpt lat="32.05902195521496" lon="118.78925262526552">
        <ele>0</ele>
        <time>2026-06-07T06:25:29Z</time>
        <extensions>
          <gpxtpx:TrackPointExtension>
            <gpxtpx:hr>138</gpxtpx:hr>
          </gpxtpx:TrackPointExtension>
        </extensions>
      </trkpt>
      <trkpt lat="32.05904289591263" lon="118.78922416471404">
        <ele>0</ele>
        <time>2026-06-07T06:25:30Z</time>
        <extensions>
          <gpxtpx:TrackPointExtension>
            <gpxtpx:hr>138</gpxtpx:hr>
          </gpxtpx:TrackPointExtension>
        </extensions>
      </trkpt>
      <trkpt lat="32.05905937614694" lon="118.78919552210114">
        <ele>0</ele>
        <time>2026-06-07T06:25:31Z</time>
        <extensions>
          <gpxtpx:TrackPointExtension>
            <gpxtpx:hr>138</gpxtpx:hr>
          </gpxtpx:TrackPointExtension>
        </extensions>
      </trkpt>
      <trkpt lat="32.05907220085174" lon="118.78916722749958">
        <ele>0</ele>
        <time>2026-06-07T06:25:32Z</time>
        <extensions>
          <gpxtpx:TrackPointExtension>
            <gpxtpx:hr>138</gpxtpx:hr>
          </gpxtpx:TrackPointExtension>
        </extensions>
      </trkpt>
      <trkpt lat="32.05908241817266" lon="118.7891395850616">
        <ele>0</ele>
        <time>2026-06-07T06:25:33Z</time>
        <extensions>
          <gpxtpx:TrackPointExtension>
            <gpxtpx:hr>138</gpxtpx:hr>
          </gpxtpx:TrackPointExtension>
        </extensions>
      </trkpt>
      <trkpt lat="32.05909081368444" lon="118.78911301338223">
        <ele>0</ele>
        <time>2026-06-07T06:25:34Z</time>
        <extensions>
          <gpxtpx:TrackPointExtension>
            <gpxtpx:hr>138</gpxtpx:hr>
          </gpxtpx:TrackPointExtension>
        </extensions>
      </trkpt>
      <trkpt lat="32.059097810891394" lon="118.78908807620549">
        <ele>0</ele>
        <time>2026-06-07T06:25:35Z</time>
        <extensions>
          <gpxtpx:TrackPointExtension>
            <gpxtpx:hr>138</gpxtpx:hr>
          </gpxtpx:TrackPointExtension>
        </extensions>
      </trkpt>
      <trkpt lat="32.059103426758135" lon="118.78906549409317">
        <ele>0</ele>
        <time>2026-06-07T06:25:36Z</time>
        <extensions>
          <gpxtpx:TrackPointExtension>
            <gpxtpx:hr>138</gpxtpx:hr>
          </gpxtpx:TrackPointExtension>
        </extensions>
      </trkpt>
      <trkpt lat="32.059107632934726" lon="118.78904567406339">
        <ele>0</ele>
        <time>2026-06-07T06:25:37Z</time>
        <extensions>
          <gpxtpx:TrackPointExtension>
            <gpxtpx:hr>138</gpxtpx:hr>
          </gpxtpx:TrackPointExtension>
        </extensions>
      </trkpt>
      <trkpt lat="32.059110744537186" lon="118.78902824202888">
        <ele>0</ele>
        <time>2026-06-07T06:25:38Z</time>
        <extensions>
          <gpxtpx:TrackPointExtension>
            <gpxtpx:hr>138</gpxtpx:hr>
          </gpxtpx:TrackPointExtension>
        </extensions>
      </trkpt>
      <trkpt lat="32.059113044861846" lon="118.78901259169729">
        <ele>0</ele>
        <time>2026-06-07T06:25:39Z</time>
        <extensions>
          <gpxtpx:TrackPointExtension>
            <gpxtpx:hr>138</gpxtpx:hr>
          </gpxtpx:TrackPointExtension>
        </extensions>
      </trkpt>
      <trkpt lat="32.05911469034847" lon="118.78899833505652">
        <ele>0</ele>
        <time>2026-06-07T06:25:40Z</time>
        <extensions>
          <gpxtpx:TrackPointExtension>
            <gpxtpx:hr>138</gpxtpx:hr>
          </gpxtpx:TrackPointExtension>
        </extensions>
      </trkpt>
      <trkpt lat="32.059115772676584" lon="118.78898533549244">
        <ele>0</ele>
        <time>2026-06-07T06:25:41Z</time>
        <extensions>
          <gpxtpx:TrackPointExtension>
            <gpxtpx:hr>138</gpxtpx:hr>
          </gpxtpx:TrackPointExtension>
        </extensions>
      </trkpt>
      <trkpt lat="32.05911629289487" lon="118.78897329891434">
        <ele>0</ele>
        <time>2026-06-07T06:25:42Z</time>
        <extensions>
          <gpxtpx:TrackPointExtension>
            <gpxtpx:hr>138</gpxtpx:hr>
          </gpxtpx:TrackPointExtension>
        </extensions>
      </trkpt>
      <trkpt lat="32.05911592902477" lon="118.78896179508291">
        <ele>0</ele>
        <time>2026-06-07T06:25:43Z</time>
        <extensions>
          <gpxtpx:TrackPointExtension>
            <gpxtpx:hr>138</gpxtpx:hr>
          </gpxtpx:TrackPointExtension>
        </extensions>
      </trkpt>
      <trkpt lat="32.05911487641353" lon="118.78895088089953">
        <ele>0</ele>
        <time>2026-06-07T06:25:44Z</time>
        <extensions>
          <gpxtpx:TrackPointExtension>
            <gpxtpx:hr>138</gpxtpx:hr>
          </gpxtpx:TrackPointExtension>
        </extensions>
      </trkpt>
      <trkpt lat="32.05911376408532" lon="118.78894075732498">
        <ele>0</ele>
        <time>2026-06-07T06:25:45Z</time>
        <extensions>
          <gpxtpx:TrackPointExtension>
            <gpxtpx:hr>138</gpxtpx:hr>
          </gpxtpx:TrackPointExtension>
        </extensions>
      </trkpt>
      <trkpt lat="32.05911274931159" lon="118.78893148650056">
        <ele>0</ele>
        <time>2026-06-07T06:25:46Z</time>
        <extensions>
          <gpxtpx:TrackPointExtension>
            <gpxtpx:hr>138</gpxtpx:hr>
          </gpxtpx:TrackPointExtension>
        </extensions>
      </trkpt>
      <trkpt lat="32.05911189209037" lon="118.78892303532167">
        <ele>0</ele>
        <time>2026-06-07T06:25:47Z</time>
      </trkpt>
      <trkpt lat="32.05911119354247" lon="118.78891532296996">
        <ele>0</ele>
        <time>2026-06-07T06:25:48Z</time>
      </trkpt>
      <trkpt lat="32.0591106376925" lon="118.78890821935832">
        <ele>0</ele>
        <time>2026-06-07T06:25:49Z</time>
      </trkpt>
      <trkpt lat="32.05911015525204" lon="118.78890153132917">
        <ele>0</ele>
        <time>2026-06-07T06:25:50Z</time>
      </trkpt>
      <trkpt lat="32.05910955306712" lon="118.78889507569183">
        <ele>0</ele>
        <time>2026-06-07T06:25:51Z</time>
      </trkpt>
      <trkpt lat="32.05910865975774" lon="118.78888869283084">
        <ele>0</ele>
        <time>2026-06-07T06:25:52Z</time>
      </trkpt>
      <trkpt lat="32.05910746573107" lon="118.78888235030652">
        <ele>0</ele>
        <time>2026-06-07T06:25:53Z</time>
      </trkpt>
      <trkpt lat="32.059106061744515" lon="118.7888760498646">
        <ele>0</ele>
        <time>2026-06-07T06:25:54Z</time>
      </trkpt>
      <trkpt lat="32.05910449898442" lon="118.78886974478377">
        <ele>0</ele>
        <time>2026-06-07T06:25:55Z</time>
        <extensions>
          <gpxtpx:TrackPointExtension>
            <gpxtpx:hr>143</gpxtpx:hr>
          </gpxtpx:TrackPointExtension>
        </extensions>
      </trkpt>
      <trkpt lat="32.05910283171671" lon="118.78886341400727">
        <ele>0</ele>
        <time>2026-06-07T06:25:56Z</time>
        <extensions>
          <gpxtpx:TrackPointExtension>
            <gpxtpx:hr>143</gpxtpx:hr>
          </gpxtpx:TrackPointExtension>
        </extensions>
      </trkpt>
      <trkpt lat="32.05906235478224" lon="118.78887880554274">
        <ele>0</ele>
        <time>2026-06-07T06:26:22Z</time>
        <extensions>
          <gpxtpx:TrackPointExtension>
            <gpxtpx:hr>141</gpxtpx:hr>
          </gpxtpx:TrackPointExtension>
        </extensions>
      </trkpt>
      <trkpt lat="32.059066123602484" lon="118.78889363675718">
        <ele>0</ele>
        <time>2026-06-07T06:26:23Z</time>
        <extensions>
          <gpxtpx:TrackPointExtension>
            <gpxtpx:hr>141</gpxtpx:hr>
          </gpxtpx:TrackPointExtension>
        </extensions>
      </trkpt>
      <trkpt lat="32.05907009915477" lon="118.78890861998654">
        <ele>0</ele>
        <time>2026-06-07T06:26:24Z</time>
        <extensions>
          <gpxtpx:TrackPointExtension>
            <gpxtpx:hr>141</gpxtpx:hr>
          </gpxtpx:TrackPointExtension>
        </extensions>
      </trkpt>
      <trkpt lat="32.05907440949692" lon="118.78892383383997">
        <ele>0</ele>
        <time>2026-06-07T06:26:25Z</time>
        <extensions>
          <gpxtpx:TrackPointExtension>
            <gpxtpx:hr>141</gpxtpx:hr>
          </gpxtpx:TrackPointExtension>
        </extensions>
      </trkpt>
      <trkpt lat="32.05907893523999" lon="118.78893895933588">
        <ele>0</ele>
        <time>2026-06-07T06:26:26Z</time>
        <extensions>
          <gpxtpx:TrackPointExtension>
            <gpxtpx:hr>141</gpxtpx:hr>
          </gpxtpx:TrackPointExtension>
        </extensions>
      </trkpt>
      <trkpt lat="32.05908344415368" lon="118.78895332098759">
        <ele>0</ele>
        <time>2026-06-07T06:26:27Z</time>
        <extensions>
          <gpxtpx:TrackPointExtension>
            <gpxtpx:hr>141</gpxtpx:hr>
          </gpxtpx:TrackPointExtension>
        </extensions>
      </trkpt>
      <trkpt lat="32.05908770069445" lon="118.78896648104826">
        <ele>0</ele>
        <time>2026-06-07T06:26:28Z</time>
        <extensions>
          <gpxtpx:TrackPointExtension>
            <gpxtpx:hr>141</gpxtpx:hr>
          </gpxtpx:TrackPointExtension>
        </extensions>
      </trkpt>
      <trkpt lat="32.05909152105363" lon="118.78897819204852">
        <ele>0</ele>
        <time>2026-06-07T06:26:29Z</time>
        <extensions>
          <gpxtpx:TrackPointExtension>
            <gpxtpx:hr>144</gpxtpx:hr>
          </gpxtpx:TrackPointExtension>
        </extensions>
      </trkpt>
      <trkpt lat="32.059094956958475" lon="118.78898857977458">
        <ele>0</ele>
        <time>2026-06-07T06:26:30Z</time>
        <extensions>
          <gpxtpx:TrackPointExtension>
            <gpxtpx:hr>144</gpxtpx:hr>
          </gpxtpx:TrackPointExtension>
        </extensions>
      </trkpt>
      <trkpt lat="32.05909819494174" lon="118.78899809139978">
        <ele>0</ele>
        <time>2026-06-07T06:26:31Z</time>
        <extensions>
          <gpxtpx:TrackPointExtension>
            <gpxtpx:hr>144</gpxtpx:hr>
          </gpxtpx:TrackPointExtension>
        </extensions>
      </trkpt>
      <trkpt lat="32.05910118841205" lon="118.78900689666125">
        <ele>0</ele>
        <time>2026-06-07T06:26:32Z</time>
        <extensions>
          <gpxtpx:TrackPointExtension>
            <gpxtpx:hr>144</gpxtpx:hr>
          </gpxtpx:TrackPointExtension>
        </extensions>
      </trkpt>
      <trkpt lat="32.059103830952445" lon="118.78901498514566">
        <ele>0</ele>
        <time>2026-06-07T06:26:33Z</time>
        <extensions>
          <gpxtpx:TrackPointExtension>
            <gpxtpx:hr>144</gpxtpx:hr>
          </gpxtpx:TrackPointExtension>
        </extensions>
      </trkpt>
      <trkpt lat="32.059106215122725" lon="118.78902245799885">
        <ele>0</ele>
        <time>2026-06-07T06:26:34Z</time>
        <extensions>
          <gpxtpx:TrackPointExtension>
            <gpxtpx:hr>144</gpxtpx:hr>
          </gpxtpx:TrackPointExtension>
        </extensions>
      </trkpt>
      <trkpt lat="32.05910849358562" lon="118.78902945983859">
        <ele>0</ele>
        <time>2026-06-07T06:26:35Z</time>
        <extensions>
          <gpxtpx:TrackPointExtension>
            <gpxtpx:hr>144</gpxtpx:hr>
          </gpxtpx:TrackPointExtension>
        </extensions>
      </trkpt>
      <trkpt lat="32.0591107421426" lon="118.78903611950959">
        <ele>0</ele>
        <time>2026-06-07T06:26:36Z</time>
        <extensions>
          <gpxtpx:TrackPointExtension>
            <gpxtpx:hr>144</gpxtpx:hr>
          </gpxtpx:TrackPointExtension>
        </extensions>
      </trkpt>
      <trkpt lat="32.059112960404" lon="118.78904252244955">
        <ele>0</ele>
        <time>2026-06-07T06:26:37Z</time>
        <extensions>
          <gpxtpx:TrackPointExtension>
            <gpxtpx:hr>144</gpxtpx:hr>
          </gpxtpx:TrackPointExtension>
        </extensions>
      </trkpt>
      <trkpt lat="32.05911516842841" lon="118.78904875633285">
        <ele>0</ele>
        <time>2026-06-07T06:26:38Z</time>
        <extensions>
          <gpxtpx:TrackPointExtension>
            <gpxtpx:hr>144</gpxtpx:hr>
          </gpxtpx:TrackPointExtension>
        </extensions>
      </trkpt>
      <trkpt lat="32.05911738936409" lon="118.78905491463121">
        <ele>0</ele>
        <time>2026-06-07T06:26:39Z</time>
        <extensions>
          <gpxtpx:TrackPointExtension>
            <gpxtpx:hr>144</gpxtpx:hr>
          </gpxtpx:TrackPointExtension>
        </extensions>
      </trkpt>
    </trkseg>
  </trk>
</gpx>