<?xml version="1.0" encoding="UTF-8"?>
<gpx xmlns="http://www.topografix.com/GPX/1/1" xmlns:gpxtpx="http://www.garmin.com/xmlschemas/TrackPointExtension/v1" xmlns:xsi="http://www.w3.org/2001/XMLSchema-instance" xsi:schemaLocation="http://www.topografix.com/GPX/1/1 http://www.topografix.com/GPX/1/1/gpx.xsd" version="1.1" creator="gpx.py -- https://github.com/tkrajina/gpxpy">
  <trk>
    <name>gpx from keep</name>
    <type>Run</type>
    <trkseg>
      <trkpt lat="30.52216284871057" lon="114.3923895046974">
        <ele>15.35</ele>
        <time>2021-06-03T14:08:05Z</time>
      </trkpt>
      <trkpt lat="30.522152505636008" lon="114.39246205374205">
        <ele>15.92</ele>
        <time>2021-06-03T14:08:08Z</time>
      </trkpt>
      <trkpt lat="30.522074371565257" lon="114.39266066615549">
        <ele>17.4</ele>
        <time>2021-06-03T14:08:14Z</time>
      </trkpt>
      <trkpt lat="30.522071277183397" lon="114.39276976479641">
        <ele>18.32</ele>
        <time>2021-06-03T14:08:17Z</time>
      </trkpt>
      <trkpt lat="30.522120023961513" lon="114.39296666629593">
        <ele>19.2</ele>
        <time>2021-06-03T14:08:23Z</time>
      </trkpt>
      <trkpt lat="30.522176257412227" lon="114.39306405164723">
        <ele>18.13</ele>
        <time>2021-06-03T14:08:26Z</time>
      </trkpt>
      <trkpt lat="30.52225119457627" lon="114.39313398970715">
        <ele>19.49</ele>
        <time>2021-06-03T14:08:29Z</time>
      </trkpt>
      <trkpt lat="30.52241103951414" lon="114.39319119403798">
        <ele>21.97</ele>
        <time>2021-06-03T14:08:35Z</time>
      </trkpt>
      <trkpt lat="30.522611733639444" lon="114.39320097570186">
        <ele>20.07</ele>
        <time>2021-06-03T14:08:41Z</time>
      </trkpt>
      <trkpt lat="30.522820649564906" lon="114.39317567809331">
        <ele>18.26</ele>
        <time>2021-06-03T14:08:47Z</time>
      </trkpt>
      <trkpt lat="30.523118423158838" lon="114.39317948774358">
        <ele>16.27</ele>
        <time>2021-06-03T14:08:56Z</time>
      </trkpt>
      <trkpt lat="30.5233753440438" lon="114.39313097380746">
        <ele>16.3</ele>
        <time>2021-06-03T14:09:05Z</time>
      </trkpt>
      <trkpt lat="30.523465144059312" lon="114.39308517134805">
        <ele>17.35</ele>
        <time>2021-06-03T14:09:08Z</time>
      </trkpt>
      <trkpt lat="30.523600241470156" lon="114.39294164299389">
        <ele>17.92</ele>
        <time>2021-06-03T14:09:14Z</time>
      </trkpt>
      <trkpt lat="30.52364529654813" lon="114.39283402451571">
        <ele>17.65</ele>
        <time>2021-06-03T14:09:17Z</time>
      </trkpt>
      <trkpt lat="30.523652791898296" lon="114.39272892689091">
        <ele>16.56</ele>
        <time>2021-06-03T14:09:20Z</time>
      </trkpt>
      <trkpt lat="30.523613458724032" lon="114.3925466792734">
        <ele>17.53</ele>
        <time>2021-06-03T14:09:26Z</time>
      </trkpt>
      <trkpt lat="30.52355117525402" lon="114.39244908398658">
        <ele>18.37</ele>
        <time>2021-06-03T14:09:29Z</time>
      </trkpt>
      <trkpt lat="30.523410306720553" lon="114.39233285419809">
        <ele>18.95</ele>
        <time>2021-06-03T14:09:35Z</time>
      </trkpt>
      <trkpt lat="30.523139929613738" lon="114.3923129702247">
        <ele>20.02</ele>
        <time>2021-06-03T14:09:44Z</time>
      </trkpt>
      <trkpt lat="30.522886413280304" lon="114.39229573686866">
        <ele>17.08</ele>
        <time>2021-06-03T14:09:53Z</time>
      </trkpt>
      <trkpt lat="30.522533437685894" lon="114.39232816695878">
        <ele>18.76</ele>
        <time>2021-06-03T14:10:05Z</time>
      </trkpt>
      <trkpt lat="30.522361191080066" lon="114.39230664210957">
        <ele>19.52</ele>
        <time>2021-06-03T14:10:11Z</time>
      </trkpt>
      <trkpt lat="30.522289649163998" lon="114.39234389218208">
        <ele>19.0</ele>
        <time>2021-06-03T14:10:14Z</time>
      </trkpt>
      <trkpt lat="30.522109438309514" lon="114.39256030968257">
        <ele>20.33</ele>
        <time>2021-06-03T14:10:23Z</time>
      </trkpt>
      <trkpt lat="30.522081891718035" lon="114.39266102621578">
        <ele>19.7</ele>
        <time>2021-06-03T14:10:26Z</time>
      </trkpt>
      <trkpt lat="30.52209325158197" lon="114.39287263170826">
        <ele>23.1</ele>
        <time>2021-06-03T14:10:32Z</time>
      </trkpt>
      <trkpt lat="30.5221480146557" lon="114.39296853666046">
        <ele>24.07</ele>
        <time>2021-06-03T14:10:35Z</time>
      </trkpt>
      <trkpt lat="30.52221734295285" lon="114.39304354606749">
        <ele>21.99</ele>
        <time>2021-06-03T14:10:38Z</time>
      </trkpt>
      <trkpt lat="30.522394968003862" lon="114.3931430014259">
        <ele>21.73</ele>
        <time>2021-06-03T14:10:44Z</time>
      </trkpt>
      <trkpt lat="30.5227164460833" lon="114.39316491573368">
        <ele>20.64</ele>
        <time>2021-06-03T14:10:56Z</time>
      </trkpt>
      <trkpt lat="30.523028112608145" lon="114.39318061845147">
        <ele>18.52</ele>
        <time>2021-06-03T14:11:08Z</time>
      </trkpt>
      <trkpt lat="30.523273012078242" lon="114.39316897427376">
        <ele>20.14</ele>
        <time>2021-06-03T14:11:17Z</time>
      </trkpt>
      <trkpt lat="30.523445857154883" lon="114.3930990450857">
        <ele>23.17</ele>
        <time>2021-06-03T14:11:23Z</time>
      </trkpt>
      <trkpt lat="30.52351489147006" lon="114.39302983656754">
        <ele>18.22</ele>
        <time>2021-06-03T14:11:26Z</time>
      </trkpt>
      <trkpt lat="30.523604812878126" lon="114.39286248217405">
        <ele>19.6</ele>
        <time>2021-06-03T14:11:32Z</time>
      </trkpt>
      <trkpt lat="30.523616770521777" lon="114.39276698704408">
        <ele>20.42</ele>
        <time>2021-06-03T14:11:35Z</time>
      </trkpt>
      <trkpt lat="30.52359485552481" lon="114.39257635713716">
        <ele>20.0</ele>
        <time>2021-06-03T14:11:41Z</time>
      </trkpt>
      <trkpt lat="30.523483084233824" lon="114.39240473268202">
        <ele>20.71</ele>
        <time>2021-06-03T14:11:47Z</time>
      </trkpt>
      <trkpt lat="30.523414709440758" lon="114.39234428717012">
        <ele>21.32</ele>
        <time>2021-06-03T14:11:50Z</time>
      </trkpt>
      <trkpt lat="30.523084584206135" lon="114.39229203499902">
        <ele>20.91</ele>
        <time>2021-06-03T14:12:02Z</time>
      </trkpt>
      <trkpt lat="30.522793021555895" lon="114.3922919863121">
        <ele>21.47</ele>
        <time>2021-06-03T14:12:14Z</time>
      </trkpt>
      <trkpt lat="30.522463090108758" lon="114.39229855953175">
        <ele>20.85</ele>
        <time>2021-06-03T14:12:26Z</time>
      </trkpt>
      <trkpt lat="30.522379170014442" lon="114.39230140065652">
        <ele>21.15</ele>
        <time>2021-06-03T14:12:29Z</time>
      </trkpt>
      <trkpt lat="30.52230829663851" lon="114.39233239908961">
        <ele>21.46</ele>
        <time>2021-06-03T14:12:32Z</time>
      </trkpt>
      <trkpt lat="30.522179277026375" lon="114.39246694490154">
        <ele>21.14</ele>
        <time>2021-06-03T14:12:38Z</time>
      </trkpt>
      <trkpt lat="30.522126959609825" lon="114.39256517087715">
        <ele>21.93</ele>
        <time>2021-06-03T14:12:41Z</time>
      </trkpt>
      <trkpt lat="30.522092044113577" lon="114.39267082874089">
        <ele>22.67</ele>
        <time>2021-06-03T14:12:44Z</time>
      </trkpt>
      <trkpt lat="30.52210276506749" lon="114.39288707545936">
        <ele>23.7</ele>
        <time>2021-06-03T14:12:50Z</time>
      </trkpt>
      <trkpt lat="30.52213844480216" lon="114.39296952696424">
        <ele>24.23</ele>
        <time>2021-06-03T14:12:53Z</time>
      </trkpt>
      <trkpt lat="30.522202683310212" lon="114.39304562668121">
        <ele>22.83</ele>
        <time>2021-06-03T14:12:56Z</time>
      </trkpt>
      <trkpt lat="30.52235886973575" lon="114.39315173388803">
        <ele>19.5</ele>
        <time>2021-06-03T14:13:02Z</time>
      </trkpt>
      <trkpt lat="30.52268964862882" lon="114.39317673896754">
        <ele>17.89</ele>
        <time>2021-06-03T14:13:14Z</time>
      </trkpt>
      <trkpt lat="30.522765552279093" lon="114.39318930192998">
        <ele>18.81</ele>
        <time>2021-06-03T14:13:17Z</time>
      </trkpt>
      <trkpt lat="30.522844477551498" lon="114.39316622549694">
        <ele>17.75</ele>
        <time>2021-06-03T14:13:20Z</time>
      </trkpt>
      <trkpt lat="30.52308681654129" lon="114.3931950419819">
        <ele>19.98</ele>
        <time>2021-06-03T14:13:29Z</time>
      </trkpt>
      <trkpt lat="30.523406034889714" lon="114.39313338430236">
        <ele>16.78</ele>
        <time>2021-06-03T14:13:41Z</time>
      </trkpt>
      <trkpt lat="30.523485957293527" lon="114.39309809465341">
        <ele>14.32</ele>
        <time>2021-06-03T14:13:44Z</time>
      </trkpt>
      <trkpt lat="30.52357502495692" lon="114.39291494609279">
        <ele>15.42</ele>
        <time>2021-06-03T14:13:50Z</time>
      </trkpt>
      <trkpt lat="30.52360462193083" lon="114.39273091763236">
        <ele>17.96</ele>
        <time>2021-06-03T14:13:56Z</time>
      </trkpt>
      <trkpt lat="30.523589473650734" lon="114.39252599396143">
        <ele>19.7</ele>
        <time>2021-06-03T14:14:02Z</time>
      </trkpt>
      <trkpt lat="30.52355327901191" lon="114.39246501815056">
        <ele>19.3</ele>
        <time>2021-06-03T14:14:05Z</time>
      </trkpt>
      <trkpt lat="30.523466181570694" lon="114.39239402995672">
        <ele>19.55</ele>
        <time>2021-06-03T14:14:08Z</time>
      </trkpt>
      <trkpt lat="30.523381270268768" lon="114.39234910858407">
        <ele>20.02</ele>
        <time>2021-06-03T14:14:11Z</time>
      </trkpt>
      <trkpt lat="30.523145684202937" lon="114.3923323252632">
        <ele>19.57</ele>
        <time>2021-06-03T14:14:20Z</time>
      </trkpt>
      <trkpt lat="30.52299576461919" lon="114.39229722676122">
        <ele>16.76</ele>
        <time>2021-06-03T14:14:26Z</time>
      </trkpt>
      <trkpt lat="30.52271918194943" lon="114.39229651783334">
        <ele>16.71</ele>
        <time>2021-06-03T14:14:35Z</time>
      </trkpt>
      <trkpt lat="30.52238514952026" lon="114.39234172117985">
        <ele>17.17</ele>
        <time>2021-06-03T14:14:47Z</time>
      </trkpt>
      <trkpt lat="30.522290116190273" lon="114.39237384001835">
        <ele>17.56</ele>
        <time>2021-06-03T14:14:50Z</time>
      </trkpt>
      <trkpt lat="30.522154306831197" lon="114.3925096862122">
        <ele>17.46</ele>
        <time>2021-06-03T14:14:56Z</time>
      </trkpt>
      <trkpt lat="30.522082432563398" lon="114.3927922106381">
        <ele>19.35</ele>
        <time>2021-06-03T14:15:05Z</time>
      </trkpt>
      <trkpt lat="30.522112425180946" lon="114.3928871854444">
        <ele>20.26</ele>
        <time>2021-06-03T14:15:08Z</time>
      </trkpt>
      <trkpt lat="30.522217321637605" lon="114.39303796459971">
        <ele>19.89</ele>
        <time>2021-06-03T14:15:14Z</time>
      </trkpt>
      <trkpt lat="30.522330073798297" lon="114.39312765768274">
        <ele>19.21</ele>
        <time>2021-06-03T14:15:20Z</time>
      </trkpt>
      <trkpt lat="30.522386600222852" lon="114.39315273402532">
        <ele>18.16</ele>
        <time>2021-06-03T14:15:23Z</time>
      </trkpt>
      <trkpt lat="30.522468823342905" lon="114.39316280630298">
        <ele>18.71</ele>
        <time>2021-06-03T14:15:26Z</time>
      </trkpt>
      <trkpt lat="30.522533639552517" lon="114.39314424112244">
        <ele>17.71</ele>
        <time>2021-06-03T14:15:29Z</time>
      </trkpt>
      <trkpt lat="30.52284092105059" lon="114.39318119945467">
        <ele>17.53</ele>
        <time>2021-06-03T14:15:41Z</time>
      </trkpt>
      <trkpt lat="30.523190087620133" lon="114.39315325051187">
        <ele>19.16</ele>
        <time>2021-06-03T14:15:53Z</time>
      </trkpt>
      <trkpt lat="30.523363236191187" lon="114.39314054638164">
        <ele>20.54</ele>
        <time>2021-06-03T14:15:59Z</time>
      </trkpt>
      <trkpt lat="30.523445180704375" lon="114.39311412905757">
        <ele>19.63</ele>
        <time>2021-06-03T14:16:02Z</time>
      </trkpt>
      <trkpt lat="30.523555675782543" lon="114.39296166845985">
        <ele>19.58</ele>
        <time>2021-06-03T14:16:08Z</time>
      </trkpt>
      <trkpt lat="30.52361113770708" lon="114.39275523398466">
        <ele>19.12</ele>
        <time>2021-06-03T14:16:14Z</time>
      </trkpt>
      <trkpt lat="30.52361270385649" lon="114.39265370733865">
        <ele>19.62</ele>
        <time>2021-06-03T14:16:17Z</time>
      </trkpt>
      <trkpt lat="30.523570139467786" lon="114.39250891957522">
        <ele>20.99</ele>
        <time>2021-06-03T14:16:23Z</time>
      </trkpt>
      <trkpt lat="30.523402640361162" lon="114.39234867837429">
        <ele>20.14</ele>
        <time>2021-06-03T14:16:32Z</time>
      </trkpt>
      <trkpt lat="30.523341523444177" lon="114.392321531548">
        <ele>18.96</ele>
        <time>2021-06-03T14:16:35Z</time>
      </trkpt>
      <trkpt lat="30.523019583240266" lon="114.39233308603575">
        <ele>19.97</ele>
        <time>2021-06-03T14:16:47Z</time>
      </trkpt>
      <trkpt lat="30.522801007646432" lon="114.39231766299376">
        <ele>18.81</ele>
        <time>2021-06-03T14:16:56Z</time>
      </trkpt>
      <trkpt lat="30.522453292842748" lon="114.39231060272719">
        <ele>20.76</ele>
        <time>2021-06-03T14:17:08Z</time>
      </trkpt>
      <trkpt lat="30.522353376448944" lon="114.3923298482172">
        <ele>20.9</ele>
        <time>2021-06-03T14:17:11Z</time>
      </trkpt>
      <trkpt lat="30.5222714173016" lon="114.392379301533">
        <ele>22.37</ele>
        <time>2021-06-03T14:17:14Z</time>
      </trkpt>
      <trkpt lat="30.522145981426085" lon="114.39252958146326">
        <ele>20.3</ele>
        <time>2021-06-03T14:17:20Z</time>
      </trkpt>
      <trkpt lat="30.522110283742773" lon="114.3926259868973">
        <ele>20.83</ele>
        <time>2021-06-03T14:17:23Z</time>
      </trkpt>
      <trkpt lat="30.52210071452001" lon="114.3927147702297">
        <ele>20.96</ele>
        <time>2021-06-03T14:17:26Z</time>
      </trkpt>
      <trkpt lat="30.522134492498463" lon="114.39291742328875">
        <ele>20.86</ele>
        <time>2021-06-03T14:17:32Z</time>
      </trkpt>
      <trkpt lat="30.52217716517042" lon="114.39301205796967">
        <ele>22.28</ele>
        <time>2021-06-03T14:17:35Z</time>
      </trkpt>
      <trkpt lat="30.522326023424384" lon="114.39312622732473">
        <ele>22.06</ele>
        <time>2021-06-03T14:17:41Z</time>
      </trkpt>
      <trkpt lat="30.52240025026397" lon="114.3931523838712">
        <ele>22.35</ele>
        <time>2021-06-03T14:17:44Z</time>
      </trkpt>
      <trkpt lat="30.522726664432742" lon="114.39315752374166">
        <ele>23.26</ele>
        <time>2021-06-03T14:17:56Z</time>
      </trkpt>
      <trkpt lat="30.523045251944687" lon="114.3931771474599">
        <ele>23.18</ele>
        <time>2021-06-03T14:18:08Z</time>
      </trkpt>
      <trkpt lat="30.523164792554603" lon="114.3931751463901">
        <ele>19.86</ele>
        <time>2021-06-03T14:18:14Z</time>
      </trkpt>
      <trkpt lat="30.52335670804956" lon="114.39314867855153">
        <ele>19.78</ele>
        <time>2021-06-03T14:18:23Z</time>
      </trkpt>
      <trkpt lat="30.523472580170928" lon="114.39306838689895">
        <ele>17.49</ele>
        <time>2021-06-03T14:18:29Z</time>
      </trkpt>
      <trkpt lat="30.523597308423035" lon="114.392843837311">
        <ele>17.86</ele>
        <time>2021-06-03T14:18:38Z</time>
      </trkpt>
      <trkpt lat="30.52362157519546" lon="114.39274415102831">
        <ele>17.86</ele>
        <time>2021-06-03T14:18:41Z</time>
      </trkpt>
      <trkpt lat="30.523610637502145" lon="114.39258416911333">
        <ele>18.38</ele>
        <time>2021-06-03T14:18:47Z</time>
      </trkpt>
      <trkpt lat="30.523536661406137" lon="114.39247586106644">
        <ele>17.89</ele>
        <time>2021-06-03T14:18:53Z</time>
      </trkpt>
      <trkpt lat="30.523344809148714" lon="114.39234573786771">
        <ele>18.93</ele>
        <time>2021-06-03T14:19:02Z</time>
      </trkpt>
      <trkpt lat="30.523021183981697" lon="114.39233618683991">
        <ele>21.44</ele>
        <time>2021-06-03T14:19:14Z</time>
      </trkpt>
      <trkpt lat="30.522721681268635" lon="114.39233617819944">
        <ele>21.15</ele>
        <time>2021-06-03T14:19:26Z</time>
      </trkpt>
      <trkpt lat="30.522447638486966" lon="114.39233489911048">
        <ele>19.85</ele>
        <time>2021-06-03T14:19:38Z</time>
      </trkpt>
      <trkpt lat="30.52236456816365" lon="114.3923367299672">
        <ele>18.74</ele>
        <time>2021-06-03T14:19:41Z</time>
      </trkpt>
      <trkpt lat="30.522223807793722" lon="114.39242587394278">
        <ele>19.92</ele>
        <time>2021-06-03T14:19:47Z</time>
      </trkpt>
      <trkpt lat="30.522143583144448" lon="114.39253699341653">
        <ele>18.54</ele>
        <time>2021-06-03T14:19:53Z</time>
      </trkpt>
      <trkpt lat="30.522103592368577" lon="114.39262039546149">
        <ele>19.28</ele>
        <time>2021-06-03T14:19:56Z</time>
      </trkpt>
      <trkpt lat="30.52208414287204" lon="114.39270839863315">
        <ele>19.49</ele>
        <time>2021-06-03T14:19:59Z</time>
      </trkpt>
      <trkpt lat="30.522114276518636" lon="114.39293527807244">
        <ele>21.0</ele>
        <time>2021-06-03T14:20:08Z</time>
      </trkpt>
      <trkpt lat="30.52225222392796" lon="114.39308877780654">
        <ele>19.4</ele>
        <time>2021-06-03T14:20:17Z</time>
      </trkpt>
      <trkpt lat="30.52239210194024" lon="114.39315980586161">
        <ele>20.77</ele>
        <time>2021-06-03T14:20:23Z</time>
      </trkpt>
      <trkpt lat="30.522669857053124" lon="114.39317081749873">
        <ele>20.88</ele>
        <time>2021-06-03T14:20:35Z</time>
      </trkpt>
      <trkpt lat="30.522995078171686" lon="114.39316307398333">
        <ele>20.92</ele>
        <time>2021-06-03T14:20:47Z</time>
      </trkpt>
      <trkpt lat="30.523310482926718" lon="114.3931711346722">
        <ele>20.69</ele>
        <time>2021-06-03T14:20:59Z</time>
      </trkpt>
      <trkpt lat="30.52338540154276" lon="114.39316239203056">
        <ele>20.79</ele>
        <time>2021-06-03T14:21:02Z</time>
      </trkpt>
      <trkpt lat="30.52349028197402" lon="114.39307535865242">
        <ele>21.01</ele>
        <time>2021-06-03T14:21:08Z</time>
      </trkpt>
      <trkpt lat="30.523576247240324" lon="114.39292459862368">
        <ele>17.61</ele>
        <time>2021-06-03T14:21:14Z</time>
      </trkpt>
      <trkpt lat="30.523631550549315" lon="114.39272400569605">
        <ele>18.46</ele>
        <time>2021-06-03T14:21:20Z</time>
      </trkpt>
      <trkpt lat="30.523625247598666" lon="114.39262659016974">
        <ele>20.77</ele>
        <time>2021-06-03T14:21:23Z</time>
      </trkpt>
      <trkpt lat="30.523486100387792" lon="114.39238821834464">
        <ele>20.49</ele>
        <time>2021-06-03T14:21:32Z</time>
      </trkpt>
      <trkpt lat="30.523400318628198" lon="114.39234137647382">
        <ele>20.21</ele>
        <time>2021-06-03T14:21:35Z</time>
      </trkpt>
      <trkpt lat="30.52320989189726" lon="114.392320011749">
        <ele>20.16</ele>
        <time>2021-06-03T14:21:41Z</time>
      </trkpt>
      <trkpt lat="30.52302920368844" lon="114.3923346263951">
        <ele>18.46</ele>
        <time>2021-06-03T14:21:47Z</time>
      </trkpt>
      <trkpt lat="30.52274276954374" lon="114.392328005965">
        <ele>19.55</ele>
        <time>2021-06-03T14:21:56Z</time>
      </trkpt>
      <trkpt lat="30.52247097684587" lon="114.39232699693653">
        <ele>19.46</ele>
        <time>2021-06-03T14:22:05Z</time>
      </trkpt>
      <trkpt lat="30.522331011124056" lon="114.39235065376369">
        <ele>17.32</ele>
        <time>2021-06-03T14:22:11Z</time>
      </trkpt>
      <trkpt lat="30.52215650758839" lon="114.39251282702516">
        <ele>19.82</ele>
        <time>2021-06-03T14:22:20Z</time>
      </trkpt>
      <trkpt lat="30.52211218229579" lon="114.39266231641659">
        <ele>18.1</ele>
        <time>2021-06-03T14:22:26Z</time>
      </trkpt>
      <trkpt lat="30.522112857263906" lon="114.39285352660099">
        <ele>18.77</ele>
        <time>2021-06-03T14:22:32Z</time>
      </trkpt>
      <trkpt lat="30.522192877596108" lon="114.3930217504469">
        <ele>20.52</ele>
        <time>2021-06-03T14:22:38Z</time>
      </trkpt>
      <trkpt lat="30.522321176865958" lon="114.39314101123719">
        <ele>21.67</ele>
        <time>2021-06-03T14:22:44Z</time>
      </trkpt>
      <trkpt lat="30.522639625328676" lon="114.39316466601684">
        <ele>21.29</ele>
        <time>2021-06-03T14:22:56Z</time>
      </trkpt>
      <trkpt lat="30.522923379574898" lon="114.39317177659973">
        <ele>21.29</ele>
        <time>2021-06-03T14:23:08Z</time>
      </trkpt>
      <trkpt lat="30.52324530761498" lon="114.39315110969753">
        <ele>17.33</ele>
        <time>2021-06-03T14:23:23Z</time>
      </trkpt>
      <trkpt lat="30.523370596936985" lon="114.39314342710634">
        <ele>17.62</ele>
        <time>2021-06-03T14:23:29Z</time>
      </trkpt>
      <trkpt lat="30.523562864717018" lon="114.39299932832743">
        <ele>13.58</ele>
        <time>2021-06-03T14:23:38Z</time>
      </trkpt>
      <trkpt lat="30.523616385027086" lon="114.39291365556566">
        <ele>13.33</ele>
        <time>2021-06-03T14:23:41Z</time>
      </trkpt>
      <trkpt lat="30.523630129003298" lon="114.39271748399113">
        <ele>14.97</ele>
        <time>2021-06-03T14:23:47Z</time>
      </trkpt>
      <trkpt lat="30.523579643547784" lon="114.39252593399041">
        <ele>19.96</ele>
        <time>2021-06-03T14:23:53Z</time>
      </trkpt>
      <trkpt lat="30.52353712536405" lon="114.39245009431507">
        <ele>19.95</ele>
        <time>2021-06-03T14:23:56Z</time>
      </trkpt>
      <trkpt lat="30.5233920248505" lon="114.39232558237832">
        <ele>18.33</ele>
        <time>2021-06-03T14:24:02Z</time>
      </trkpt>
      <trkpt lat="30.523189273535007" lon="114.39232779387918">
        <ele>19.38</ele>
        <time>2021-06-03T14:24:08Z</time>
      </trkpt>
      <trkpt lat="30.52308979867019" lon="114.39231087990575">
        <ele>17.58</ele>
        <time>2021-06-03T14:24:11Z</time>
      </trkpt>
      <trkpt lat="30.522760052073277" lon="114.39233812853539">
        <ele>21.66</ele>
        <time>2021-06-03T14:24:20Z</time>
      </trkpt>
      <trkpt lat="30.52266625661413" lon="114.39231846381595">
        <ele>20.1</ele>
        <time>2021-06-03T14:24:23Z</time>
      </trkpt>
      <trkpt lat="30.52258921841847" lon="114.39232913695902">
        <ele>20.69</ele>
        <time>2021-06-03T14:24:26Z</time>
      </trkpt>
      <trkpt lat="30.52242062335338" lon="114.39231404377604">
        <ele>16.68</ele>
        <time>2021-06-03T14:24:32Z</time>
      </trkpt>
      <trkpt lat="30.52226977230008" lon="114.39235803597414">
        <ele>18.27</ele>
        <time>2021-06-03T14:24:38Z</time>
      </trkpt>
      <trkpt lat="30.522111935436246" lon="114.39254797643869">
        <ele>19.3</ele>
        <time>2021-06-03T14:24:47Z</time>
      </trkpt>
      <trkpt lat="30.522095321659183" lon="114.39261769479087">
        <ele>18.94</ele>
        <time>2021-06-03T14:24:50Z</time>
      </trkpt>
      <trkpt lat="30.522134935368488" lon="114.39288711532375">
        <ele>20.4</ele>
        <time>2021-06-03T14:24:59Z</time>
      </trkpt>
      <trkpt lat="30.522209100905595" lon="114.39303517390314">
        <ele>22.72</ele>
        <time>2021-06-03T14:25:05Z</time>
      </trkpt>
      <trkpt lat="30.522329922481102" lon="114.39312207621471">
        <ele>24.17</ele>
        <time>2021-06-03T14:25:11Z</time>
      </trkpt>
      <trkpt lat="30.522547002782105" lon="114.39315742453147">
        <ele>22.77</ele>
        <time>2021-06-03T14:25:20Z</time>
      </trkpt>
      <trkpt lat="30.522629539248964" lon="114.39313926937851">
        <ele>23.57</ele>
        <time>2021-06-03T14:25:23Z</time>
      </trkpt>
      <trkpt lat="30.522857393488902" lon="114.3931485007731">
        <ele>21.53</ele>
        <time>2021-06-03T14:25:32Z</time>
      </trkpt>
      <trkpt lat="30.522931419843463" lon="114.39317260678173">
        <ele>21.81</ele>
        <time>2021-06-03T14:25:35Z</time>
      </trkpt>
      <trkpt lat="30.52322915851138" lon="114.39315553093456">
        <ele>21.93</ele>
        <time>2021-06-03T14:25:47Z</time>
      </trkpt>
      <trkpt lat="30.523301458530966" lon="114.3931528398978">
        <ele>21.37</ele>
        <time>2021-06-03T14:25:50Z</time>
      </trkpt>
      <trkpt lat="30.523429215662873" lon="114.39309335366396">
        <ele>19.08</ele>
        <time>2021-06-03T14:25:56Z</time>
      </trkpt>
      <trkpt lat="30.52352750586703" lon="114.39296310896653">
        <ele>16.68</ele>
        <time>2021-06-03T14:26:02Z</time>
      </trkpt>
      <trkpt lat="30.52360041273564" lon="114.39277702975474">
        <ele>17.15</ele>
        <time>2021-06-03T14:26:08Z</time>
      </trkpt>
      <trkpt lat="30.52359593975641" lon="114.39255175068227">
        <ele>18.95</ele>
        <time>2021-06-03T14:26:14Z</time>
      </trkpt>
      <trkpt lat="30.523536636037896" lon="114.39245298507444">
        <ele>21.48</ele>
        <time>2021-06-03T14:26:17Z</time>
      </trkpt>
      <trkpt lat="30.523409705097134" lon="114.39232595239474">
        <ele>19.69</ele>
        <time>2021-06-03T14:26:23Z</time>
      </trkpt>
      <trkpt lat="30.523335718543077" lon="114.39230084616206">
        <ele>17.65</ele>
        <time>2021-06-03T14:26:26Z</time>
      </trkpt>
      <trkpt lat="30.523261887268156" lon="114.39229825582015">
        <ele>17.33</ele>
        <time>2021-06-03T14:26:29Z</time>
      </trkpt>
      <trkpt lat="30.523130142510027" lon="114.39232570360112">
        <ele>18.75</ele>
        <time>2021-06-03T14:26:35Z</time>
      </trkpt>
      <trkpt lat="30.522903773767972" lon="114.39229714715867">
        <ele>18.43</ele>
        <time>2021-06-03T14:26:44Z</time>
      </trkpt>
      <trkpt lat="30.522570604066928" lon="114.39231129237436">
        <ele>20.67</ele>
        <time>2021-06-03T14:26:59Z</time>
      </trkpt>
      <trkpt lat="30.52234419704112" lon="114.39233272901278">
        <ele>19.95</ele>
        <time>2021-06-03T14:27:08Z</time>
      </trkpt>
      <trkpt lat="30.52221397642347" lon="114.39242041255737">
        <ele>21.42</ele>
        <time>2021-06-03T14:27:14Z</time>
      </trkpt>
      <trkpt lat="30.52214852284156" lon="114.3924929118436">
        <ele>23.48</ele>
        <time>2021-06-03T14:27:17Z</time>
      </trkpt>
      <trkpt lat="30.522109473120448" lon="114.3925807950522">
        <ele>23.89</ele>
        <time>2021-06-03T14:27:20Z</time>
      </trkpt>
      <trkpt lat="30.522092428230884" lon="114.39268833333112">
        <ele>25.73</ele>
        <time>2021-06-03T14:27:23Z</time>
      </trkpt>
      <trkpt lat="30.522114478825223" lon="114.39290258948205">
        <ele>20.84</ele>
        <time>2021-06-03T14:27:32Z</time>
      </trkpt>
      <trkpt lat="30.52218357323129" lon="114.39304602687326">
        <ele>22.15</ele>
        <time>2021-06-03T14:27:38Z</time>
      </trkpt>
      <trkpt lat="30.522292600640867" lon="114.39311570470765">
        <ele>20.85</ele>
        <time>2021-06-03T14:27:44Z</time>
      </trkpt>
      <trkpt lat="30.5224567091363" lon="114.39314543178514">
        <ele>20.76</ele>
        <time>2021-06-03T14:27:50Z</time>
      </trkpt>
      <trkpt lat="30.522756834649314" lon="114.3931572835414">
        <ele>22.43</ele>
        <time>2021-06-03T14:28:02Z</time>
      </trkpt>
      <trkpt lat="30.52309502858325" lon="114.39316098297893">
        <ele>22.57</ele>
        <time>2021-06-03T14:28:17Z</time>
      </trkpt>
      <trkpt lat="30.52330657225917" lon="114.39316845398434">
        <ele>22.57</ele>
        <time>2021-06-03T14:28:26Z</time>
      </trkpt>
      <trkpt lat="30.52339082871195" lon="114.39315017879134">
        <ele>21.28</ele>
        <time>2021-06-03T14:28:29Z</time>
      </trkpt>
      <trkpt lat="30.523455338933505" lon="114.3931062269322">
        <ele>21.56</ele>
        <time>2021-06-03T14:28:32Z</time>
      </trkpt>
      <trkpt lat="30.523559209211236" lon="114.39297609223529">
        <ele>18.18</ele>
        <time>2021-06-03T14:28:38Z</time>
      </trkpt>
      <trkpt lat="30.523600588232988" lon="114.39288539821315">
        <ele>15.47</ele>
        <time>2021-06-03T14:28:41Z</time>
      </trkpt>
      <trkpt lat="30.52361043307887" lon="114.39269303766636">
        <ele>18.67</ele>
        <time>2021-06-03T14:28:47Z</time>
      </trkpt>
      <trkpt lat="30.52357792936681" lon="114.39250818934846">
        <ele>21.48</ele>
        <time>2021-06-03T14:28:53Z</time>
      </trkpt>
      <trkpt lat="30.523445584682648" lon="114.3923654525694">
        <ele>18.88</ele>
        <time>2021-06-03T14:28:59Z</time>
      </trkpt>
      <trkpt lat="30.52336627368207" lon="114.39232159145112">
        <ele>19.72</ele>
        <time>2021-06-03T14:29:02Z</time>
      </trkpt>
      <trkpt lat="30.523164345729455" lon="114.39229545553115">
        <ele>20.71</ele>
        <time>2021-06-03T14:29:11Z</time>
      </trkpt>
      <trkpt lat="30.52284982757015" lon="114.39231545219332">
        <ele>20.38</ele>
        <time>2021-06-03T14:29:26Z</time>
      </trkpt>
      <trkpt lat="30.52256144696644" lon="114.39232401574519">
        <ele>20.91</ele>
        <time>2021-06-03T14:29:38Z</time>
      </trkpt>
      <trkpt lat="30.522330256466955" lon="114.39233081857621">
        <ele>21.3</ele>
        <time>2021-06-03T14:29:47Z</time>
      </trkpt>
      <trkpt lat="30.52225047590384" lon="114.39237415027972">
        <ele>20.24</ele>
        <time>2021-06-03T14:29:50Z</time>
      </trkpt>
      <trkpt lat="30.52213138110121" lon="114.39252876131468">
        <ele>20.73</ele>
        <time>2021-06-03T14:29:56Z</time>
      </trkpt>
      <trkpt lat="30.522101299265042" lon="114.39260727203083">
        <ele>19.38</ele>
        <time>2021-06-03T14:29:59Z</time>
      </trkpt>
      <trkpt lat="30.52209659481155" lon="114.39280122293991">
        <ele>20.92</ele>
        <time>2021-06-03T14:30:05Z</time>
      </trkpt>
      <trkpt lat="30.522167703402" lon="114.39296245497248">
        <ele>20.37</ele>
        <time>2021-06-03T14:30:11Z</time>
      </trkpt>
      <trkpt lat="30.52221581100647" lon="114.39303534391738">
        <ele>22.39</ele>
        <time>2021-06-03T14:30:14Z</time>
      </trkpt>
      <trkpt lat="30.52228729621908" lon="114.39309714984984">
        <ele>22.66</ele>
        <time>2021-06-03T14:30:17Z</time>
      </trkpt>
      <trkpt lat="30.522423125667174" lon="114.39313200840509">
        <ele>20.56</ele>
        <time>2021-06-03T14:30:23Z</time>
      </trkpt>
      <trkpt lat="30.522557887352484" lon="114.39313397831151">
        <ele>22.33</ele>
        <time>2021-06-03T14:30:29Z</time>
      </trkpt>
      <trkpt lat="30.52262660494894" lon="114.39316355578374">
        <ele>20.13</ele>
        <time>2021-06-03T14:30:32Z</time>
      </trkpt>
      <trkpt lat="30.52281856121617" lon="114.39318275996703">
        <ele>21.96</ele>
        <time>2021-06-03T14:30:38Z</time>
      </trkpt>
      <trkpt lat="30.522964088702626" lon="114.39316651502985">
        <ele>21.78</ele>
        <time>2021-06-03T14:30:44Z</time>
      </trkpt>
      <trkpt lat="30.523209565045057" lon="114.39318398851434">
        <ele>19.73</ele>
        <time>2021-06-03T14:30:53Z</time>
      </trkpt>
      <trkpt lat="30.523308062678375" lon="114.39317017443044">
        <ele>21.36</ele>
        <time>2021-06-03T14:30:56Z</time>
      </trkpt>
      <trkpt lat="30.523395609161987" lon="114.39310948806167">
        <ele>21.07</ele>
        <time>2021-06-03T14:30:59Z</time>
      </trkpt>
      <trkpt lat="30.52346460287943" lon="114.39303774887689">
        <ele>21.04</ele>
        <time>2021-06-03T14:31:02Z</time>
      </trkpt>
      <trkpt lat="30.523576513511856" lon="114.3928237621334">
        <ele>17.59</ele>
        <time>2021-06-03T14:31:08Z</time>
      </trkpt>
      <trkpt lat="30.52358365745923" lon="114.39271270294789">
        <ele>17.74</ele>
        <time>2021-06-03T14:31:11Z</time>
      </trkpt>
      <trkpt lat="30.523543471459362" lon="114.39256102335135">
        <ele>17.37</ele>
        <time>2021-06-03T14:31:14Z</time>
      </trkpt>
      <trkpt lat="30.523490943296665" lon="114.3924430626835">
        <ele>18.29</ele>
        <time>2021-06-03T14:31:17Z</time>
      </trkpt>
      <trkpt lat="30.523415767933848" lon="114.39238046663522">
        <ele>19.06</ele>
        <time>2021-06-03T14:31:20Z</time>
      </trkpt>
      <trkpt lat="30.523316967372597" lon="114.39233923629283">
        <ele>19.42</ele>
        <time>2021-06-03T14:31:23Z</time>
      </trkpt>
      <trkpt lat="30.523008949078157" lon="114.39231574154547">
        <ele>20.06</ele>
        <time>2021-06-03T14:31:32Z</time>
      </trkpt>
      <trkpt lat="30.522844374362705" lon="114.39230197869284">
        <ele>20.02</ele>
        <time>2021-06-03T14:31:38Z</time>
      </trkpt>
      <trkpt lat="30.522676810170637" lon="114.3923332276313">
        <ele>20.1</ele>
        <time>2021-06-03T14:31:44Z</time>
      </trkpt>
      <trkpt lat="30.522423481794352" lon="114.39230728199387">
        <ele>20.62</ele>
        <time>2021-06-03T14:31:53Z</time>
      </trkpt>
      <trkpt lat="30.522267951957584" lon="114.39235664561852">
        <ele>20.18</ele>
        <time>2021-06-03T14:31:59Z</time>
      </trkpt>
      <trkpt lat="30.52215215000106" lon="114.39248066861974">
        <ele>20.45</ele>
        <time>2021-06-03T14:32:05Z</time>
      </trkpt>
      <trkpt lat="30.5220813177891" lon="114.39272942416311">
        <ele>21.0</ele>
        <time>2021-06-03T14:32:14Z</time>
      </trkpt>
      <trkpt lat="30.522109753633597" lon="114.3928807137564">
        <ele>20.55</ele>
        <time>2021-06-03T14:32:20Z</time>
      </trkpt>
      <trkpt lat="30.5222593219861" lon="114.39308026553503">
        <ele>19.95</ele>
        <time>2021-06-03T14:32:29Z</time>
      </trkpt>
      <trkpt lat="30.522327184415897" lon="114.39313038841442">
        <ele>20.59</ele>
        <time>2021-06-03T14:32:32Z</time>
      </trkpt>
      <trkpt lat="30.52239730053207" lon="114.39315363421368">
        <ele>19.4</ele>
        <time>2021-06-03T14:32:35Z</time>
      </trkpt>
      <trkpt lat="30.52263202986583" lon="114.39314179003055">
        <ele>23.67</ele>
        <time>2021-06-03T14:32:44Z</time>
      </trkpt>
      <trkpt lat="30.522713874977363" lon="114.39316032453691">
        <ele>24.24</ele>
        <time>2021-06-03T14:32:47Z</time>
      </trkpt>
      <trkpt lat="30.52304375222768" lon="114.39313599663579">
        <ele>22.89</ele>
        <time>2021-06-03T14:32:59Z</time>
      </trkpt>
      <trkpt lat="30.523275998496416" lon="114.39315367023202">
        <ele>28.03</ele>
        <time>2021-06-03T14:33:08Z</time>
      </trkpt>
      <trkpt lat="30.523423085300944" lon="114.39309205334969">
        <ele>28.14</ele>
        <time>2021-06-03T14:33:14Z</time>
      </trkpt>
      <trkpt lat="30.523525620436423" lon="114.39298258409455">
        <ele>21.58</ele>
        <time>2021-06-03T14:33:20Z</time>
      </trkpt>
      <trkpt lat="30.523626952641514" lon="114.39277560926116">
        <ele>20.13</ele>
        <time>2021-06-03T14:33:29Z</time>
      </trkpt>
      <trkpt lat="30.52361053476683" lon="114.39271158122385">
        <ele>18.93</ele>
        <time>2021-06-03T14:33:32Z</time>
      </trkpt>
      <trkpt lat="30.52360975840641" lon="114.39254546897304">
        <ele>18.16</ele>
        <time>2021-06-03T14:33:38Z</time>
      </trkpt>
      <trkpt lat="30.523497268407123" lon="114.39242197713287">
        <ele>20.06</ele>
        <time>2021-06-03T14:33:44Z</time>
      </trkpt>
      <trkpt lat="30.5234228153282" lon="114.39236908362341">
        <ele>19.9</ele>
        <time>2021-06-03T14:33:47Z</time>
      </trkpt>
      <trkpt lat="30.523236739216344" lon="114.39230753836317">
        <ele>20.24</ele>
        <time>2021-06-03T14:33:53Z</time>
      </trkpt>
      <trkpt lat="30.5230550721263" lon="114.39232696427239">
        <ele>20.98</ele>
        <time>2021-06-03T14:33:59Z</time>
      </trkpt>
      <trkpt lat="30.522726891545677" lon="114.39229449726967">
        <ele>21.1</ele>
        <time>2021-06-03T14:34:11Z</time>
      </trkpt>
      <trkpt lat="30.52239681622809" lon="114.39232722733392">
        <ele>24.05</ele>
        <time>2021-06-03T14:34:23Z</time>
      </trkpt>
      <trkpt lat="30.522305200407114" lon="114.39234859334174">
        <ele>23.39</ele>
        <time>2021-06-03T14:34:26Z</time>
      </trkpt>
      <trkpt lat="30.52220958228708" lon="114.39240294800454">
        <ele>23.87</ele>
        <time>2021-06-03T14:34:29Z</time>
      </trkpt>
      <trkpt lat="30.52214852311624" lon="114.39249408215021">
        <ele>22.81</ele>
        <time>2021-06-03T14:34:32Z</time>
      </trkpt>
      <trkpt lat="30.522108638962685" lon="114.39260570158572">
        <ele>20.78</ele>
        <time>2021-06-03T14:34:35Z</time>
      </trkpt>
      <trkpt lat="30.52209597130367" lon="114.39274380787131">
        <ele>20.34</ele>
        <time>2021-06-03T14:34:38Z</time>
      </trkpt>
      <trkpt lat="30.52215998061111" lon="114.39299336313249">
        <ele>22.66</ele>
        <time>2021-06-03T14:34:44Z</time>
      </trkpt>
      <trkpt lat="30.522231686370574" lon="114.393099930834">
        <ele>23.15</ele>
        <time>2021-06-03T14:34:47Z</time>
      </trkpt>
      <trkpt lat="30.522438918416192" lon="114.39314306124207">
        <ele>21.7</ele>
        <time>2021-06-03T14:34:53Z</time>
      </trkpt>
      <trkpt lat="30.522736252969967" lon="114.39315095196844">
        <ele>17.86</ele>
        <time>2021-06-03T14:35:02Z</time>
      </trkpt>
      <trkpt lat="30.52305525700627" lon="114.39315582180117">
        <ele>19.87</ele>
        <time>2021-06-03T14:35:11Z</time>
      </trkpt>
      <trkpt lat="30.523140529334626" lon="114.39316242315128">
        <ele>19.31</ele>
        <time>2021-06-03T14:35:14Z</time>
      </trkpt>
      <trkpt lat="30.52321562392906" lon="114.39313661601797">
        <ele>19.17</ele>
        <time>2021-06-03T14:35:17Z</time>
      </trkpt>
      <trkpt lat="30.523338007168146" lon="114.3931456578415">
        <ele>18.55</ele>
        <time>2021-06-03T14:35:20Z</time>
      </trkpt>
      <trkpt lat="30.52341044721895" lon="114.39310067567561">
        <ele>18.67</ele>
        <time>2021-06-03T14:35:23Z</time>
      </trkpt>
      <trkpt lat="30.523594284626046" lon="114.39287031427925">
        <ele>17.86</ele>
        <time>2021-06-03T14:35:32Z</time>
      </trkpt>
      <trkpt lat="30.523632661314647" lon="114.3927697476965">
        <ele>17.81</ele>
        <time>2021-06-03T14:35:35Z</time>
      </trkpt>
      <trkpt lat="30.523641485626033" lon="114.39270268005504">
        <ele>17.29</ele>
        <time>2021-06-03T14:35:38Z</time>
      </trkpt>
      <trkpt lat="30.523537135269734" lon="114.3924923053723">
        <ele>18.89</ele>
        <time>2021-06-03T14:35:44Z</time>
      </trkpt>
      <trkpt lat="30.523397623413985" lon="114.39236189185553">
        <ele>18.94</ele>
        <time>2021-06-03T14:35:50Z</time>
      </trkpt>
      <trkpt lat="30.52328025202719" lon="114.39231785086358">
        <ele>18.63</ele>
        <time>2021-06-03T14:35:53Z</time>
      </trkpt>
      <trkpt lat="30.522982762408102" lon="114.39228829448349">
        <ele>21.43</ele>
        <time>2021-06-03T14:36:02Z</time>
      </trkpt>
      <trkpt lat="30.522674598720226" lon="114.39232712604466">
        <ele>21.66</ele>
        <time>2021-06-03T14:36:11Z</time>
      </trkpt>
      <trkpt lat="30.522393083926065" lon="114.39227488365636">
        <ele>20.24</ele>
        <time>2021-06-03T14:36:20Z</time>
      </trkpt>
      <trkpt lat="30.522293571547948" lon="114.39226858246047">
        <ele>19.96</ele>
        <time>2021-06-03T14:36:26Z</time>
      </trkpt>
      <trkpt lat="30.522293571547948" lon="114.39226858246047">
        <ele>19.96</ele>
        <time>2021-06-03T14:36:32Z</time>
      </trkpt>
    </trkseg>
  </trk>
</gpx>