<?xml version="1.0" encoding="UTF-8"?>
<gpx xmlns="http://www.topografix.com/GPX/1/1" xmlns:gpxtpx="http://www.garmin.com/xmlschemas/TrackPointExtension/v1" xmlns:xsi="http://www.w3.org/2001/XMLSchema-instance" xsi:schemaLocation="http://www.topografix.com/GPX/1/1 http://www.topografix.com/GPX/1/1/gpx.xsd" version="1.1" creator="gpx.py -- https://github.com/tkrajina/gpxpy">
  <trk>
    <name>gpx from keep</name>
    <type>Run</type>
    <trkseg>
      <trkpt lat="35.975117579664186" lon="119.50775249803459">
        <ele>116.7</ele>
        <time>2020-06-02T13:15:39Z</time>
      </trkpt>
      <trkpt lat="35.97512609289175" lon="119.50769460297407">
        <ele>115.39</ele>
        <time>2020-06-02T13:15:42Z</time>
      </trkpt>
      <trkpt lat="35.975181926156786" lon="119.5076306378163">
        <ele>117.96</ele>
        <time>2020-06-02T13:15:48Z</time>
      </trkpt>
      <trkpt lat="35.97525646741385" lon="119.50760014950332">
        <ele>116.56</ele>
        <time>2020-06-02T13:15:54Z</time>
      </trkpt>
      <trkpt lat="35.975318975932296" lon="119.5076197370078">
        <ele>116.51</ele>
        <time>2020-06-02T13:16:00Z</time>
      </trkpt>
      <trkpt lat="35.97538034916076" lon="119.5079082709994">
        <ele>111.28</ele>
        <time>2020-06-02T13:16:12Z</time>
      </trkpt>
      <trkpt lat="35.97538565343177" lon="119.5083479616233">
        <ele>111.43</ele>
        <time>2020-06-02T13:16:21Z</time>
      </trkpt>
      <trkpt lat="35.97538098792102" lon="119.50860699803388">
        <ele>112.05</ele>
        <time>2020-06-02T13:16:30Z</time>
      </trkpt>
      <trkpt lat="35.97542441380924" lon="119.50899526135086">
        <ele>108.09</ele>
        <time>2020-06-02T13:16:45Z</time>
      </trkpt>
      <trkpt lat="35.9754520064569" lon="119.50911015015137">
        <ele>106.7</ele>
        <time>2020-06-02T13:16:48Z</time>
      </trkpt>
      <trkpt lat="35.975469065930625" lon="119.50943181918589">
        <ele>105.53</ele>
        <time>2020-06-02T13:16:54Z</time>
      </trkpt>
      <trkpt lat="35.97545772719218" lon="119.50956838610837">
        <ele>106.63</ele>
        <time>2020-06-02T13:16:57Z</time>
      </trkpt>
      <trkpt lat="35.97548770093678" lon="119.50996543671249">
        <ele>107.9</ele>
        <time>2020-06-02T13:17:06Z</time>
      </trkpt>
      <trkpt lat="35.975454793754054" lon="119.51007601611768">
        <ele>104.71</ele>
        <time>2020-06-02T13:17:09Z</time>
      </trkpt>
      <trkpt lat="35.97539559861866" lon="119.51015782868265">
        <ele>104.4</ele>
        <time>2020-06-02T13:17:12Z</time>
      </trkpt>
      <trkpt lat="35.97513972738547" lon="119.51019930778817">
        <ele>107.36</ele>
        <time>2020-06-02T13:17:21Z</time>
      </trkpt>
      <trkpt lat="35.97486904869237" lon="119.51020447073066">
        <ele>108.48</ele>
        <time>2020-06-02T13:17:30Z</time>
      </trkpt>
      <trkpt lat="35.97459289780981" lon="119.51024248043444">
        <ele>106.52</ele>
        <time>2020-06-02T13:17:39Z</time>
      </trkpt>
      <trkpt lat="35.97442547545038" lon="119.51029234754176">
        <ele>107.94</ele>
        <time>2020-06-02T13:17:45Z</time>
      </trkpt>
      <trkpt lat="35.97427005716711" lon="119.51028107066855">
        <ele>107.76</ele>
        <time>2020-06-02T13:17:51Z</time>
      </trkpt>
      <trkpt lat="35.974082046139785" lon="119.51031309983439">
        <ele>107.09</ele>
        <time>2020-06-02T13:17:57Z</time>
      </trkpt>
      <trkpt lat="35.97400182748803" lon="119.51030049213536">
        <ele>106.93</ele>
        <time>2020-06-02T13:18:00Z</time>
      </trkpt>
      <trkpt lat="35.97391344722666" lon="119.5103122820728">
        <ele>106.22</ele>
        <time>2020-06-02T13:18:03Z</time>
      </trkpt>
      <trkpt lat="35.97380730861981" lon="119.51030134453616">
        <ele>107.97</ele>
        <time>2020-06-02T13:18:06Z</time>
      </trkpt>
      <trkpt lat="35.97355030731776" lon="119.51034355354876">
        <ele>109.63</ele>
        <time>2020-06-02T13:18:15Z</time>
      </trkpt>
      <trkpt lat="35.973264197467536" lon="119.51036700482805">
        <ele>110.54</ele>
        <time>2020-06-02T13:18:24Z</time>
      </trkpt>
      <trkpt lat="35.97308982644945" lon="119.51039750395962">
        <ele>113.91</ele>
        <time>2020-06-02T13:18:30Z</time>
      </trkpt>
      <trkpt lat="35.97281370690316" lon="119.51041554565437">
        <ele>111.93</ele>
        <time>2020-06-02T13:18:42Z</time>
      </trkpt>
      <trkpt lat="35.972516539299484" lon="119.5104070903124">
        <ele>111.49</ele>
        <time>2020-06-02T13:18:54Z</time>
      </trkpt>
      <trkpt lat="35.97222184963288" lon="119.51042853189685">
        <ele>111.96</ele>
        <time>2020-06-02T13:19:06Z</time>
      </trkpt>
      <trkpt lat="35.97211599890776" lon="119.51044854121142">
        <ele>115.02</ele>
        <time>2020-06-02T13:19:09Z</time>
      </trkpt>
      <trkpt lat="35.97203845046635" lon="119.51043273381266">
        <ele>112.93</ele>
        <time>2020-06-02T13:19:12Z</time>
      </trkpt>
      <trkpt lat="35.97184827757807" lon="119.5104917102281">
        <ele>111.93</ele>
        <time>2020-06-02T13:19:18Z</time>
      </trkpt>
      <trkpt lat="35.97168259095158" lon="119.51045737584894">
        <ele>112.1</ele>
        <time>2020-06-02T13:19:24Z</time>
      </trkpt>
      <trkpt lat="35.97161006859077" lon="119.51035223746571">
        <ele>112.9</ele>
        <time>2020-06-02T13:19:27Z</time>
      </trkpt>
      <trkpt lat="35.97159272403497" lon="119.50997624543291">
        <ele>110.16</ele>
        <time>2020-06-02T13:19:36Z</time>
      </trkpt>
      <trkpt lat="35.97158693055192" lon="119.509878565189">
        <ele>107.36</ele>
        <time>2020-06-02T13:19:39Z</time>
      </trkpt>
      <trkpt lat="35.97155243674838" lon="119.509787794581">
        <ele>106.75</ele>
        <time>2020-06-02T13:19:42Z</time>
      </trkpt>
      <trkpt lat="35.97154887014684" lon="119.50942789968147">
        <ele>112.37</ele>
        <time>2020-06-02T13:19:51Z</time>
      </trkpt>
      <trkpt lat="35.97151053337227" lon="119.50922400972145">
        <ele>114.81</ele>
        <time>2020-06-02T13:19:57Z</time>
      </trkpt>
      <trkpt lat="35.97151233014472" lon="119.50911638992731">
        <ele>115.51</ele>
        <time>2020-06-02T13:20:00Z</time>
      </trkpt>
      <trkpt lat="35.97147621281896" lon="119.50891666920579">
        <ele>114.48</ele>
        <time>2020-06-02T13:20:06Z</time>
      </trkpt>
      <trkpt lat="35.97145709805653" lon="119.50850489756492">
        <ele>114.79</ele>
        <time>2020-06-02T13:20:18Z</time>
      </trkpt>
      <trkpt lat="35.97140093642084" lon="119.50820164576504">
        <ele>116.31</ele>
        <time>2020-06-02T13:20:27Z</time>
      </trkpt>
      <trkpt lat="35.9713996860399" lon="119.50786355583189">
        <ele>115.48</ele>
        <time>2020-06-02T13:20:36Z</time>
      </trkpt>
      <trkpt lat="35.971377001767756" lon="119.50776556471536">
        <ele>118.91</ele>
        <time>2020-06-02T13:20:39Z</time>
      </trkpt>
      <trkpt lat="35.9714016970797" lon="119.5076690628117">
        <ele>117.47</ele>
        <time>2020-06-02T13:20:42Z</time>
      </trkpt>
      <trkpt lat="35.971390361066156" lon="119.50741982444731">
        <ele>114.84</ele>
        <time>2020-06-02T13:20:48Z</time>
      </trkpt>
      <trkpt lat="35.971402428665115" lon="119.50728025617938">
        <ele>114.27</ele>
        <time>2020-06-02T13:20:51Z</time>
      </trkpt>
      <trkpt lat="35.97136588070918" lon="119.50706206501526">
        <ele>116.05</ele>
        <time>2020-06-02T13:20:57Z</time>
      </trkpt>
      <trkpt lat="35.97137592010278" lon="119.5066940852758">
        <ele>117.01</ele>
        <time>2020-06-02T13:21:06Z</time>
      </trkpt>
      <trkpt lat="35.971412592690086" lon="119.50663994921523">
        <ele>118.49</ele>
        <time>2020-06-02T13:21:12Z</time>
      </trkpt>
      <trkpt lat="35.97141502705655" lon="119.50655506606343">
        <ele>116.46</ele>
        <time>2020-06-02T13:21:18Z</time>
      </trkpt>
      <trkpt lat="35.97137313113735" lon="119.50628300838102">
        <ele>115.27</ele>
        <time>2020-06-02T13:21:30Z</time>
      </trkpt>
      <trkpt lat="35.97128972988785" lon="119.5059135883727">
        <ele>115.35</ele>
        <time>2020-06-02T13:21:42Z</time>
      </trkpt>
      <trkpt lat="35.97126480250945" lon="119.50586260262449">
        <ele>115.68</ele>
        <time>2020-06-02T13:21:45Z</time>
      </trkpt>
      <trkpt lat="35.97120945521062" lon="119.50581357710028">
        <ele>115.93</ele>
        <time>2020-06-02T13:21:48Z</time>
      </trkpt>
      <trkpt lat="35.97124714315577" lon="119.50542880573464">
        <ele>114.62</ele>
        <time>2020-06-02T13:22:00Z</time>
      </trkpt>
      <trkpt lat="35.97131370943532" lon="119.50528360565879">
        <ele>115.14</ele>
        <time>2020-06-02T13:22:06Z</time>
      </trkpt>
      <trkpt lat="35.97132296065382" lon="119.50503390379748">
        <ele>116.33</ele>
        <time>2020-06-02T13:22:15Z</time>
      </trkpt>
      <trkpt lat="35.971302814901094" lon="119.50494097076161">
        <ele>113.3</ele>
        <time>2020-06-02T13:22:21Z</time>
      </trkpt>
      <trkpt lat="35.971315261602186" lon="119.5047863216569">
        <ele>110.57</ele>
        <time>2020-06-02T13:22:30Z</time>
      </trkpt>
      <trkpt lat="35.97128685950272" lon="119.50436950115349">
        <ele>108.84</ele>
        <time>2020-06-02T13:22:48Z</time>
      </trkpt>
      <trkpt lat="35.9712681081288" lon="119.50391301219133">
        <ele>109.52</ele>
        <time>2020-06-02T13:23:00Z</time>
      </trkpt>
      <trkpt lat="35.97126348652382" lon="119.50369864631266">
        <ele>112.49</ele>
        <time>2020-06-02T13:23:06Z</time>
      </trkpt>
      <trkpt lat="35.97123135347967" lon="119.50352140815653">
        <ele>114.37</ele>
        <time>2020-06-02T13:23:12Z</time>
      </trkpt>
      <trkpt lat="35.97124208602744" lon="119.50345187245698">
        <ele>113.21</ele>
        <time>2020-06-02T13:23:15Z</time>
      </trkpt>
      <trkpt lat="35.97120496627857" lon="119.50317947005556">
        <ele>109.76</ele>
        <time>2020-06-02T13:23:24Z</time>
      </trkpt>
      <trkpt lat="35.97117703194917" lon="119.50273883723341">
        <ele>110.61</ele>
        <time>2020-06-02T13:23:45Z</time>
      </trkpt>
      <trkpt lat="35.971180109679224" lon="119.50250854077903">
        <ele>107.95</ele>
        <time>2020-06-02T13:23:54Z</time>
      </trkpt>
      <trkpt lat="35.97115921303283" lon="119.50241046674115">
        <ele>108.45</ele>
        <time>2020-06-02T13:23:57Z</time>
      </trkpt>
      <trkpt lat="35.971136484627465" lon="119.50205077745589">
        <ele>107.52</ele>
        <time>2020-06-02T13:24:06Z</time>
      </trkpt>
      <trkpt lat="35.97113319253763" lon="119.50179152176818">
        <ele>109.87</ele>
        <time>2020-06-02T13:24:12Z</time>
      </trkpt>
      <trkpt lat="35.971111435655956" lon="119.50169067749495">
        <ele>112.18</ele>
        <time>2020-06-02T13:24:15Z</time>
      </trkpt>
      <trkpt lat="35.97112209178134" lon="119.50147637874697">
        <ele>108.32</ele>
        <time>2020-06-02T13:24:21Z</time>
      </trkpt>
      <trkpt lat="35.971103404974926" lon="119.50136694470163">
        <ele>108.42</ele>
        <time>2020-06-02T13:24:24Z</time>
      </trkpt>
      <trkpt lat="35.97110239119505" lon="119.5011399163568">
        <ele>109.42</ele>
        <time>2020-06-02T13:24:30Z</time>
      </trkpt>
      <trkpt lat="35.97108834411432" lon="119.5010334018983">
        <ele>107.8</ele>
        <time>2020-06-02T13:24:33Z</time>
      </trkpt>
      <trkpt lat="35.971080894239165" lon="119.50063733136925">
        <ele>106.07</ele>
        <time>2020-06-02T13:24:45Z</time>
      </trkpt>
      <trkpt lat="35.97105161171648" lon="119.50033105611828">
        <ele>107.06</ele>
        <time>2020-06-02T13:24:54Z</time>
      </trkpt>
      <trkpt lat="35.97105026106846" lon="119.49990928506102">
        <ele>107.73</ele>
        <time>2020-06-02T13:25:06Z</time>
      </trkpt>
      <trkpt lat="35.971031313445" lon="119.49980124998876">
        <ele>106.47</ele>
        <time>2020-06-02T13:25:12Z</time>
      </trkpt>
      <trkpt lat="35.970955364293694" lon="119.49978251176603">
        <ele>108.72</ele>
        <time>2020-06-02T13:25:27Z</time>
      </trkpt>
      <trkpt lat="35.97097249149469" lon="119.49991149595907">
        <ele>105.82</ele>
        <time>2020-06-02T13:25:42Z</time>
      </trkpt>
      <trkpt lat="35.97099991504357" lon="119.500199052811">
        <ele>107.76</ele>
        <time>2020-06-02T13:25:57Z</time>
      </trkpt>
      <trkpt lat="35.97097058066871" lon="119.50039724409307">
        <ele>110.1</ele>
        <time>2020-06-02T13:26:03Z</time>
      </trkpt>
      <trkpt lat="35.97101379184349" lon="119.50075040678615">
        <ele>108.05</ele>
        <time>2020-06-02T13:26:15Z</time>
      </trkpt>
      <trkpt lat="35.97100913483917" lon="119.5010241833722">
        <ele>112.0</ele>
        <time>2020-06-02T13:26:24Z</time>
      </trkpt>
      <trkpt lat="35.9710577477779" lon="119.50127572999794">
        <ele>110.77</ele>
        <time>2020-06-02T13:26:33Z</time>
      </trkpt>
      <trkpt lat="35.971051668206584" lon="119.50161580226757">
        <ele>109.12</ele>
        <time>2020-06-02T13:26:42Z</time>
      </trkpt>
      <trkpt lat="35.97106300554582" lon="119.50170444737354">
        <ele>107.94</ele>
        <time>2020-06-02T13:26:45Z</time>
      </trkpt>
      <trkpt lat="35.97105557868058" lon="119.50193503490785">
        <ele>107.89</ele>
        <time>2020-06-02T13:26:51Z</time>
      </trkpt>
      <trkpt lat="35.971070855556285" lon="119.50203369924664">
        <ele>109.89</ele>
        <time>2020-06-02T13:26:54Z</time>
      </trkpt>
      <trkpt lat="35.971071759104355" lon="119.5022388776932">
        <ele>111.7</ele>
        <time>2020-06-02T13:27:00Z</time>
      </trkpt>
      <trkpt lat="35.97110498637746" lon="119.5023176027771">
        <ele>112.53</ele>
        <time>2020-06-02T13:27:03Z</time>
      </trkpt>
      <trkpt lat="35.971135936636635" lon="119.50260784552233">
        <ele>112.9</ele>
        <time>2020-06-02T13:27:12Z</time>
      </trkpt>
      <trkpt lat="35.97111480907032" lon="119.50283357235419">
        <ele>110.69</ele>
        <time>2020-06-02T13:27:21Z</time>
      </trkpt>
      <trkpt lat="35.97112048612841" lon="119.50291712723492">
        <ele>108.6</ele>
        <time>2020-06-02T13:27:24Z</time>
      </trkpt>
      <trkpt lat="35.97109802314423" lon="119.50300582212216">
        <ele>109.3</ele>
        <time>2020-06-02T13:27:27Z</time>
      </trkpt>
      <trkpt lat="35.97114425523174" lon="119.50321852840177">
        <ele>107.29</ele>
        <time>2020-06-02T13:27:36Z</time>
      </trkpt>
      <trkpt lat="35.9711306518747" lon="119.50331258268946">
        <ele>107.84</ele>
        <time>2020-06-02T13:27:39Z</time>
      </trkpt>
      <trkpt lat="35.971179068449906" lon="119.50339721673161">
        <ele>108.36</ele>
        <time>2020-06-02T13:27:42Z</time>
      </trkpt>
      <trkpt lat="35.971177368311395" lon="119.50366581954427">
        <ele>108.33</ele>
        <time>2020-06-02T13:27:54Z</time>
      </trkpt>
      <trkpt lat="35.9712088038463" lon="119.50377640194054">
        <ele>110.55</ele>
        <time>2020-06-02T13:27:57Z</time>
      </trkpt>
      <trkpt lat="35.97120863656911" lon="119.50386188931918">
        <ele>111.87</ele>
        <time>2020-06-02T13:28:00Z</time>
      </trkpt>
      <trkpt lat="35.9712310786001" lon="119.50394102911832">
        <ele>113.0</ele>
        <time>2020-06-02T13:28:03Z</time>
      </trkpt>
      <trkpt lat="35.97121442194285" lon="119.50402377251038">
        <ele>114.34</ele>
        <time>2020-06-02T13:28:06Z</time>
      </trkpt>
      <trkpt lat="35.97105861960365" lon="119.5041576185102">
        <ele>108.74</ele>
        <time>2020-06-02T13:28:18Z</time>
      </trkpt>
      <trkpt lat="35.97092726923676" lon="119.50418630824845">
        <ele>109.62</ele>
        <time>2020-06-02T13:28:24Z</time>
      </trkpt>
      <trkpt lat="35.97085347824095" lon="119.50422170679091">
        <ele>110.53</ele>
        <time>2020-06-02T13:28:27Z</time>
      </trkpt>
      <trkpt lat="35.97070349951929" lon="119.50421279931241">
        <ele>110.78</ele>
        <time>2020-06-02T13:28:36Z</time>
      </trkpt>
      <trkpt lat="35.97065912916993" lon="119.50422794885067">
        <ele>111.35</ele>
        <time>2020-06-02T13:28:39Z</time>
      </trkpt>
      <trkpt lat="35.97035280071226" lon="119.50423587222672">
        <ele>105.03</ele>
        <time>2020-06-02T13:29:00Z</time>
      </trkpt>
      <trkpt lat="35.970007990715686" lon="119.50428692315417">
        <ele>109.89</ele>
        <time>2020-06-02T13:29:12Z</time>
      </trkpt>
      <trkpt lat="35.969846320114335" lon="119.50432534259242">
        <ele>110.83</ele>
        <time>2020-06-02T13:29:18Z</time>
      </trkpt>
      <trkpt lat="35.96971034119111" lon="119.50431934474045">
        <ele>108.81</ele>
        <time>2020-06-02T13:29:24Z</time>
      </trkpt>
      <trkpt lat="35.969394222732525" lon="119.5043286481419">
        <ele>113.76</ele>
        <time>2020-06-02T13:29:45Z</time>
      </trkpt>
      <trkpt lat="35.969292041529435" lon="119.50437264642738">
        <ele>111.63</ele>
        <time>2020-06-02T13:29:51Z</time>
      </trkpt>
      <trkpt lat="35.968966812817904" lon="119.50438929943604">
        <ele>113.39</ele>
        <time>2020-06-02T13:30:06Z</time>
      </trkpt>
      <trkpt lat="35.96890412385181" lon="119.50437364131417">
        <ele>112.21</ele>
        <time>2020-06-02T13:30:09Z</time>
      </trkpt>
      <trkpt lat="35.96884042359589" lon="119.50438911106338">
        <ele>111.33</ele>
        <time>2020-06-02T13:30:12Z</time>
      </trkpt>
      <trkpt lat="35.968777724979475" lon="119.50436504351967">
        <ele>111.68</ele>
        <time>2020-06-02T13:30:15Z</time>
      </trkpt>
      <trkpt lat="35.96845948522203" lon="119.50440577478071">
        <ele>111.15</ele>
        <time>2020-06-02T13:30:27Z</time>
      </trkpt>
      <trkpt lat="35.96813705562383" lon="119.50444313631868">
        <ele>113.1</ele>
        <time>2020-06-02T13:30:39Z</time>
      </trkpt>
      <trkpt lat="35.968051416764474" lon="119.5044283584336">
        <ele>111.23</ele>
        <time>2020-06-02T13:30:42Z</time>
      </trkpt>
      <trkpt lat="35.96774030766016" lon="119.5044522207565">
        <ele>114.33</ele>
        <time>2020-06-02T13:31:00Z</time>
      </trkpt>
      <trkpt lat="35.9675426286399" lon="119.50445757291007">
        <ele>115.43</ele>
        <time>2020-06-02T13:31:15Z</time>
      </trkpt>
      <trkpt lat="35.96735084820283" lon="119.50449574271201">
        <ele>114.36</ele>
        <time>2020-06-02T13:31:24Z</time>
      </trkpt>
      <trkpt lat="35.96721356936261" lon="119.50448806499766">
        <ele>118.23</ele>
        <time>2020-06-02T13:31:30Z</time>
      </trkpt>
      <trkpt lat="35.96690839864454" lon="119.50454906464967">
        <ele>117.72</ele>
        <time>2020-06-02T13:31:42Z</time>
      </trkpt>
      <trkpt lat="35.96676513058387" lon="119.50452386823399">
        <ele>119.33</ele>
        <time>2020-06-02T13:31:51Z</time>
      </trkpt>
      <trkpt lat="35.96642525307529" lon="119.50451390326563">
        <ele>116.84</ele>
        <time>2020-06-02T13:32:15Z</time>
      </trkpt>
      <trkpt lat="35.96620247419442" lon="119.50451953571724">
        <ele>113.97</ele>
        <time>2020-06-02T13:32:30Z</time>
      </trkpt>
      <trkpt lat="35.96592541134281" lon="119.50462636178872">
        <ele>115.38</ele>
        <time>2020-06-02T13:32:42Z</time>
      </trkpt>
      <trkpt lat="35.96585948058431" lon="119.5046534707258">
        <ele>115.62</ele>
        <time>2020-06-02T13:32:45Z</time>
      </trkpt>
      <trkpt lat="35.9657392963892" lon="119.50476775418656">
        <ele>117.47</ele>
        <time>2020-06-02T13:32:51Z</time>
      </trkpt>
      <trkpt lat="35.96566654566539" lon="119.50479462320638">
        <ele>117.36</ele>
        <time>2020-06-02T13:32:54Z</time>
      </trkpt>
      <trkpt lat="35.965615233527544" lon="119.5048507998579">
        <ele>114.5</ele>
        <time>2020-06-02T13:32:57Z</time>
      </trkpt>
      <trkpt lat="35.96561787583836" lon="119.50524670111595">
        <ele>118.01</ele>
        <time>2020-06-02T13:33:09Z</time>
      </trkpt>
      <trkpt lat="35.96563145745328" lon="119.50564097149112">
        <ele>122.23</ele>
        <time>2020-06-02T13:33:21Z</time>
      </trkpt>
      <trkpt lat="35.965648500149996" lon="119.50599846382782">
        <ele>124.94</ele>
        <time>2020-06-02T13:33:33Z</time>
      </trkpt>
      <trkpt lat="35.965667111146665" lon="119.5063780436785">
        <ele>121.38</ele>
        <time>2020-06-02T13:33:54Z</time>
      </trkpt>
      <trkpt lat="35.96568684355454" lon="119.50671811595582">
        <ele>121.24</ele>
        <time>2020-06-02T13:34:06Z</time>
      </trkpt>
      <trkpt lat="35.96568235257103" lon="119.50711438320299">
        <ele>122.66</ele>
        <time>2020-06-02T13:34:18Z</time>
      </trkpt>
      <trkpt lat="35.96569743210393" lon="119.50748663140686">
        <ele>122.37</ele>
        <time>2020-06-02T13:34:30Z</time>
      </trkpt>
      <trkpt lat="35.96569147761587" lon="119.50756779449166">
        <ele>122.91</ele>
        <time>2020-06-02T13:34:33Z</time>
      </trkpt>
      <trkpt lat="35.96571943817275" lon="119.50773251983554">
        <ele>120.48</ele>
        <time>2020-06-02T13:34:39Z</time>
      </trkpt>
      <trkpt lat="35.96569781723582" lon="119.50792641309057">
        <ele>120.48</ele>
        <time>2020-06-02T13:34:45Z</time>
      </trkpt>
      <trkpt lat="35.96571240221333" lon="119.50801190533464">
        <ele>119.89</ele>
        <time>2020-06-02T13:34:48Z</time>
      </trkpt>
      <trkpt lat="35.96571772860549" lon="119.50841294922637">
        <ele>120.31</ele>
        <time>2020-06-02T13:35:00Z</time>
      </trkpt>
      <trkpt lat="35.96573165770554" lon="119.5087573774">
        <ele>117.54</ele>
        <time>2020-06-02T13:35:12Z</time>
      </trkpt>
      <trkpt lat="35.96575613071501" lon="119.5090299115904">
        <ele>114.47</ele>
        <time>2020-06-02T13:35:27Z</time>
      </trkpt>
      <trkpt lat="35.965712328573396" lon="119.5090684685095">
        <ele>116.48</ele>
        <time>2020-06-02T13:35:33Z</time>
      </trkpt>
      <trkpt lat="35.96572153713261" lon="119.50940625616302">
        <ele>120.88</ele>
        <time>2020-06-02T13:35:48Z</time>
      </trkpt>
      <trkpt lat="35.96575084223186" lon="119.5097872586997">
        <ele>117.08</ele>
        <time>2020-06-02T13:36:06Z</time>
      </trkpt>
      <trkpt lat="35.96576421042615" lon="119.50996460099941">
        <ele>118.78</ele>
        <time>2020-06-02T13:36:12Z</time>
      </trkpt>
      <trkpt lat="35.96574431482193" lon="119.51005046270542">
        <ele>120.99</ele>
        <time>2020-06-02T13:36:15Z</time>
      </trkpt>
      <trkpt lat="35.965754702126574" lon="119.51023820374513">
        <ele>121.57</ele>
        <time>2020-06-02T13:36:21Z</time>
      </trkpt>
      <trkpt lat="35.96574296565397" lon="119.51062549445933">
        <ele>122.43</ele>
        <time>2020-06-02T13:36:36Z</time>
      </trkpt>
      <trkpt lat="35.965741991947205" lon="119.5108219241644">
        <ele>123.45</ele>
        <time>2020-06-02T13:36:48Z</time>
      </trkpt>
      <trkpt lat="35.96577076533988" lon="119.51091323428753">
        <ele>122.67</ele>
        <time>2020-06-02T13:36:54Z</time>
      </trkpt>
      <trkpt lat="35.965889813189825" lon="119.51093336066688">
        <ele>119.76</ele>
        <time>2020-06-02T13:37:03Z</time>
      </trkpt>
      <trkpt lat="35.96621446175314" lon="119.51092561733454">
        <ele>119.06</ele>
        <time>2020-06-02T13:37:21Z</time>
      </trkpt>
      <trkpt lat="35.96629141130481" lon="119.51092530638536">
        <ele>118.7</ele>
        <time>2020-06-02T13:37:24Z</time>
      </trkpt>
      <trkpt lat="35.96640167297593" lon="119.51089209844451">
        <ele>119.69</ele>
        <time>2020-06-02T13:37:27Z</time>
      </trkpt>
      <trkpt lat="35.96649776145866" lon="119.51090527584405">
        <ele>118.62</ele>
        <time>2020-06-02T13:37:30Z</time>
      </trkpt>
      <trkpt lat="35.96675395184684" lon="119.51087757546391">
        <ele>116.48</ele>
        <time>2020-06-02T13:37:48Z</time>
      </trkpt>
      <trkpt lat="35.96707521919468" lon="119.5108873403469">
        <ele>119.37</ele>
        <time>2020-06-02T13:38:00Z</time>
      </trkpt>
      <trkpt lat="35.96740908964925" lon="119.51085191977582">
        <ele>117.44</ele>
        <time>2020-06-02T13:38:12Z</time>
      </trkpt>
      <trkpt lat="35.967586148327825" lon="119.51085531716267">
        <ele>121.02</ele>
        <time>2020-06-02T13:38:18Z</time>
      </trkpt>
      <trkpt lat="35.96770956103316" lon="119.51080609070482">
        <ele>118.91</ele>
        <time>2020-06-02T13:38:24Z</time>
      </trkpt>
      <trkpt lat="35.96795497965526" lon="119.51080434775348">
        <ele>117.88</ele>
        <time>2020-06-02T13:38:36Z</time>
      </trkpt>
      <trkpt lat="35.96800962192618" lon="119.51076718091072">
        <ele>117.43</ele>
        <time>2020-06-02T13:38:39Z</time>
      </trkpt>
      <trkpt lat="35.968294392835524" lon="119.51072928119893">
        <ele>117.05</ele>
        <time>2020-06-02T13:38:57Z</time>
      </trkpt>
      <trkpt lat="35.96848387160338" lon="119.51073033867087">
        <ele>119.46</ele>
        <time>2020-06-02T13:39:09Z</time>
      </trkpt>
      <trkpt lat="35.968546112387294" lon="119.51071365960048">
        <ele>119.16</ele>
        <time>2020-06-02T13:39:15Z</time>
      </trkpt>
      <trkpt lat="35.968859090332614" lon="119.51071568539562">
        <ele>118.87</ele>
        <time>2020-06-02T13:39:27Z</time>
      </trkpt>
      <trkpt lat="35.96894250916451" lon="119.5107251133561">
        <ele>118.25</ele>
        <time>2020-06-02T13:39:30Z</time>
      </trkpt>
      <trkpt lat="35.969247832088755" lon="119.5106563565539">
        <ele>114.89</ele>
        <time>2020-06-02T13:39:42Z</time>
      </trkpt>
      <trkpt lat="35.96957317155071" lon="119.51063547454983">
        <ele>115.38</ele>
        <time>2020-06-02T13:39:54Z</time>
      </trkpt>
      <trkpt lat="35.96989370137985" lon="119.51060969310805">
        <ele>116.62</ele>
        <time>2020-06-02T13:40:06Z</time>
      </trkpt>
      <trkpt lat="35.970218430909064" lon="119.5105878312064">
        <ele>115.96</ele>
        <time>2020-06-02T13:40:18Z</time>
      </trkpt>
      <trkpt lat="35.97038010783082" lon="119.51061798604347">
        <ele>119.25</ele>
        <time>2020-06-02T13:40:24Z</time>
      </trkpt>
      <trkpt lat="35.970427389477244" lon="119.5105900583089">
        <ele>118.83</ele>
        <time>2020-06-02T13:40:27Z</time>
      </trkpt>
      <trkpt lat="35.97073099890404" lon="119.51057151633361">
        <ele>119.55</ele>
        <time>2020-06-02T13:40:36Z</time>
      </trkpt>
      <trkpt lat="35.97082548947308" lon="119.51055492682741">
        <ele>117.95</ele>
        <time>2020-06-02T13:40:39Z</time>
      </trkpt>
      <trkpt lat="35.97086989846488" lon="119.51056558516757">
        <ele>114.96</ele>
        <time>2020-06-02T13:40:42Z</time>
      </trkpt>
      <trkpt lat="35.97094275559557" lon="119.51045562547942">
        <ele>113.14</ele>
        <time>2020-06-02T13:40:51Z</time>
      </trkpt>
      <trkpt lat="35.97126811223047" lon="119.51047564928051">
        <ele>111.21</ele>
        <time>2020-06-02T13:41:09Z</time>
      </trkpt>
      <trkpt lat="35.97150468137995" lon="119.51046697714291">
        <ele>110.76</ele>
        <time>2020-06-02T13:41:18Z</time>
      </trkpt>
      <trkpt lat="35.97157392454731" lon="119.51041463159062">
        <ele>111.03</ele>
        <time>2020-06-02T13:41:21Z</time>
      </trkpt>
      <trkpt lat="35.97160666827936" lon="119.51035710701534">
        <ele>109.83</ele>
        <time>2020-06-02T13:41:24Z</time>
      </trkpt>
      <trkpt lat="35.97160964637739" lon="119.50993945886898">
        <ele>113.42</ele>
        <time>2020-06-02T13:41:39Z</time>
      </trkpt>
      <trkpt lat="35.9716014866574" lon="119.50963169924398">
        <ele>111.43</ele>
        <time>2020-06-02T13:41:51Z</time>
      </trkpt>
      <trkpt lat="35.97158712028081" lon="119.50957725472963">
        <ele>111.8</ele>
        <time>2020-06-02T13:41:54Z</time>
      </trkpt>
      <trkpt lat="35.97157012417903" lon="119.50920549072464">
        <ele>113.0</ele>
        <time>2020-06-02T13:42:15Z</time>
      </trkpt>
      <trkpt lat="35.97154686363375" lon="119.50905734507148">
        <ele>110.58</ele>
        <time>2020-06-02T13:42:24Z</time>
      </trkpt>
      <trkpt lat="35.97151064840041" lon="119.50898447240176">
        <ele>111.08</ele>
        <time>2020-06-02T13:42:27Z</time>
      </trkpt>
      <trkpt lat="35.97153894250966" lon="119.50858861884397">
        <ele>112.82</ele>
        <time>2020-06-02T13:42:48Z</time>
      </trkpt>
      <trkpt lat="35.9715194042761" lon="119.50822581207947">
        <ele>109.51</ele>
        <time>2020-06-02T13:43:09Z</time>
      </trkpt>
      <trkpt lat="35.97150823916946" lon="119.50779715027411">
        <ele>111.08</ele>
        <time>2020-06-02T13:43:33Z</time>
      </trkpt>
      <trkpt lat="35.97146468686257" lon="119.50748746769845">
        <ele>110.24</ele>
        <time>2020-06-02T13:43:51Z</time>
      </trkpt>
      <trkpt lat="35.97132003041911" lon="119.507257349173">
        <ele>110.89</ele>
        <time>2020-06-02T13:44:09Z</time>
      </trkpt>
      <trkpt lat="35.97115752172569" lon="119.5072515817377">
        <ele>113.6</ele>
        <time>2020-06-02T13:44:21Z</time>
      </trkpt>
      <trkpt lat="35.971091943838694" lon="119.50722013523415">
        <ele>111.68</ele>
        <time>2020-06-02T13:44:27Z</time>
      </trkpt>
      <trkpt lat="35.97108910357295" lon="119.50704017038085">
        <ele>112.72</ele>
        <time>2020-06-02T13:44:39Z</time>
      </trkpt>
      <trkpt lat="35.97107323834108" lon="119.50695268786487">
        <ele>111.58</ele>
        <time>2020-06-02T13:44:45Z</time>
      </trkpt>
      <trkpt lat="35.971017671573314" lon="119.50689818309021">
        <ele>112.28</ele>
        <time>2020-06-02T13:44:51Z</time>
      </trkpt>
      <trkpt lat="35.970970142296885" lon="119.50688999437448">
        <ele>112.6</ele>
        <time>2020-06-02T13:44:57Z</time>
      </trkpt>
      <trkpt lat="35.97103691724849" lon="119.50692868112043">
        <ele>113.89</ele>
        <time>2020-06-02T13:45:03Z</time>
      </trkpt>
      <trkpt lat="35.97112595797445" lon="119.50702200252572">
        <ele>112.86</ele>
        <time>2020-06-02T13:45:21Z</time>
      </trkpt>
      <trkpt lat="35.97103718150307" lon="119.50703858898518">
        <ele>107.23</ele>
        <time>2020-06-02T13:45:27Z</time>
      </trkpt>
      <trkpt lat="35.97095861302447" lon="119.50696720131567">
        <ele>113.9</ele>
        <time>2020-06-02T13:45:33Z</time>
      </trkpt>
      <trkpt lat="35.97105226870945" lon="119.50687622815701">
        <ele>112.2</ele>
        <time>2020-06-02T13:45:36Z</time>
      </trkpt>
      <trkpt lat="35.971164261958975" lon="119.50687398321666">
        <ele>113.11</ele>
        <time>2020-06-02T13:45:42Z</time>
      </trkpt>
      <trkpt lat="35.971356485158985" lon="119.50679094759693">
        <ele>113.96</ele>
        <time>2020-06-02T13:45:57Z</time>
      </trkpt>
      <trkpt lat="35.97139721048268" lon="119.50668428580285">
        <ele>113.81</ele>
        <time>2020-06-02T13:46:03Z</time>
      </trkpt>
      <trkpt lat="35.971406347799324" lon="119.50634528300643">
        <ele>110.72</ele>
        <time>2020-06-02T13:46:15Z</time>
      </trkpt>
      <trkpt lat="35.971384116963556" lon="119.50596185342995">
        <ele>116.44</ele>
        <time>2020-06-02T13:46:27Z</time>
      </trkpt>
      <trkpt lat="35.97133341193867" lon="119.50565683747539">
        <ele>109.19</ele>
        <time>2020-06-02T13:46:39Z</time>
      </trkpt>
      <trkpt lat="35.971334939464455" lon="119.50528013564355">
        <ele>109.69</ele>
        <time>2020-06-02T13:46:54Z</time>
      </trkpt>
      <trkpt lat="35.971329275778665" lon="119.50491742211521">
        <ele>106.44</ele>
        <time>2020-06-02T13:47:15Z</time>
      </trkpt>
      <trkpt lat="35.9713140769786" lon="119.50466201046166">
        <ele>104.5</ele>
        <time>2020-06-02T13:47:30Z</time>
      </trkpt>
      <trkpt lat="35.97127954488801" lon="119.50448086355779">
        <ele>104.55</ele>
        <time>2020-06-02T13:47:36Z</time>
      </trkpt>
      <trkpt lat="35.97130465749151" lon="119.50417268434695">
        <ele>106.95</ele>
        <time>2020-06-02T13:47:45Z</time>
      </trkpt>
      <trkpt lat="35.97128977912816" lon="119.50388433381045">
        <ele>107.98</ele>
        <time>2020-06-02T13:47:54Z</time>
      </trkpt>
      <trkpt lat="35.97125295436792" lon="119.50349433961107">
        <ele>110.06</ele>
        <time>2020-06-02T13:48:06Z</time>
      </trkpt>
      <trkpt lat="35.97124092843377" lon="119.50338750655544">
        <ele>110.53</ele>
        <time>2020-06-02T13:48:09Z</time>
      </trkpt>
      <trkpt lat="35.97125390583823" lon="119.50318339918589">
        <ele>106.68</ele>
        <time>2020-06-02T13:48:15Z</time>
      </trkpt>
      <trkpt lat="35.97121187838935" lon="119.50311974366633">
        <ele>106.79</ele>
        <time>2020-06-02T13:48:18Z</time>
      </trkpt>
      <trkpt lat="35.97121800858812" lon="119.50282934128941">
        <ele>111.0</ele>
        <time>2020-06-02T13:48:27Z</time>
      </trkpt>
      <trkpt lat="35.97117870423308" lon="119.5026714012208">
        <ele>111.28</ele>
        <time>2020-06-02T13:48:36Z</time>
      </trkpt>
      <trkpt lat="35.97118863716597" lon="119.50258247634105">
        <ele>110.42</ele>
        <time>2020-06-02T13:48:39Z</time>
      </trkpt>
      <trkpt lat="35.97118056059146" lon="119.50248086238597">
        <ele>110.81</ele>
        <time>2020-06-02T13:48:42Z</time>
      </trkpt>
      <trkpt lat="35.97120310611383" lon="119.50230724211573">
        <ele>111.63</ele>
        <time>2020-06-02T13:48:48Z</time>
      </trkpt>
      <trkpt lat="35.97115137188436" lon="119.50213573250716">
        <ele>107.09</ele>
        <time>2020-06-02T13:49:00Z</time>
      </trkpt>
      <trkpt lat="35.971099710415416" lon="119.50219226997844">
        <ele>105.33</ele>
        <time>2020-06-02T13:49:06Z</time>
      </trkpt>
      <trkpt lat="35.97111842509193" lon="119.50235483046932">
        <ele>109.8</ele>
        <time>2020-06-02T13:49:15Z</time>
      </trkpt>
      <trkpt lat="35.971090892828585" lon="119.50242942651786">
        <ele>109.19</ele>
        <time>2020-06-02T13:49:18Z</time>
      </trkpt>
      <trkpt lat="35.97109741997004" lon="119.50251496146144">
        <ele>108.3</ele>
        <time>2020-06-02T13:49:21Z</time>
      </trkpt>
      <trkpt lat="35.971087856039176" lon="119.502634314576">
        <ele>109.98</ele>
        <time>2020-06-02T13:49:27Z</time>
      </trkpt>
      <trkpt lat="35.97110638420475" lon="119.50268523132527">
        <ele>109.98</ele>
        <time>2020-06-02T13:49:30Z</time>
      </trkpt>
      <trkpt lat="35.971095437650234" lon="119.50287788992993">
        <ele>112.71</ele>
        <time>2020-06-02T13:49:39Z</time>
      </trkpt>
      <trkpt lat="35.971131002111896" lon="119.50302928026503">
        <ele>111.74</ele>
        <time>2020-06-02T13:49:48Z</time>
      </trkpt>
      <trkpt lat="35.97112363913682" lon="119.5031138951555">
        <ele>110.64</ele>
        <time>2020-06-02T13:49:54Z</time>
      </trkpt>
      <trkpt lat="35.97109834653087" lon="119.50319044073687">
        <ele>110.46</ele>
        <time>2020-06-02T13:50:00Z</time>
      </trkpt>
      <trkpt lat="35.97113365088445" lon="119.5033389609914">
        <ele>107.36</ele>
        <time>2020-06-02T13:50:09Z</time>
      </trkpt>
      <trkpt lat="35.97116502051268" lon="119.50361026329458">
        <ele>109.21</ele>
        <time>2020-06-02T13:50:24Z</time>
      </trkpt>
      <trkpt lat="35.971160288132005" lon="119.5036731992841">
        <ele>110.82</ele>
        <time>2020-06-02T13:50:27Z</time>
      </trkpt>
      <trkpt lat="35.971203604308656" lon="119.50376532273162">
        <ele>113.54</ele>
        <time>2020-06-02T13:50:33Z</time>
      </trkpt>
      <trkpt lat="35.97122977265297" lon="119.5040563131381">
        <ele>110.93</ele>
        <time>2020-06-02T13:50:51Z</time>
      </trkpt>
      <trkpt lat="35.97117887920089" lon="119.50414948752224">
        <ele>111.37</ele>
        <time>2020-06-02T13:50:57Z</time>
      </trkpt>
      <trkpt lat="35.971199034711496" lon="119.50449670348753">
        <ele>113.95</ele>
        <time>2020-06-02T13:51:15Z</time>
      </trkpt>
      <trkpt lat="35.97118595094111" lon="119.50458757732117">
        <ele>110.78</ele>
        <time>2020-06-02T13:51:21Z</time>
      </trkpt>
      <trkpt lat="35.971243460869815" lon="119.50481320066277">
        <ele>113.07</ele>
        <time>2020-06-02T13:51:36Z</time>
      </trkpt>
      <trkpt lat="35.97125071964549" lon="119.50506634236854">
        <ele>111.49</ele>
        <time>2020-06-02T13:51:54Z</time>
      </trkpt>
      <trkpt lat="35.97126549557433" lon="119.50515493572578">
        <ele>111.81</ele>
        <time>2020-06-02T13:52:00Z</time>
      </trkpt>
      <trkpt lat="35.97125797207384" lon="119.50523320008433">
        <ele>112.11</ele>
        <time>2020-06-02T13:52:06Z</time>
      </trkpt>
      <trkpt lat="35.97127343900703" lon="119.50529833508575">
        <ele>112.75</ele>
        <time>2020-06-02T13:52:12Z</time>
      </trkpt>
      <trkpt lat="35.971252530122875" lon="119.50570544481481">
        <ele>112.52</ele>
        <time>2020-06-02T13:52:42Z</time>
      </trkpt>
      <trkpt lat="35.97126308071691" lon="119.50610415388566">
        <ele>112.15</ele>
        <time>2020-06-02T13:53:12Z</time>
      </trkpt>
      <trkpt lat="35.97128480877903" lon="119.5063405649354">
        <ele>112.54</ele>
        <time>2020-06-02T13:53:30Z</time>
      </trkpt>
      <trkpt lat="35.97131959945529" lon="119.50651969013828">
        <ele>110.99</ele>
        <time>2020-06-02T13:53:42Z</time>
      </trkpt>
      <trkpt lat="35.97132767046802" lon="119.50688332035745">
        <ele>111.78</ele>
        <time>2020-06-02T13:54:06Z</time>
      </trkpt>
      <trkpt lat="35.971339569384305" lon="119.50727411750297">
        <ele>111.02</ele>
        <time>2020-06-02T13:54:36Z</time>
      </trkpt>
      <trkpt lat="35.97134919613883" lon="119.50769141153899">
        <ele>113.63</ele>
        <time>2020-06-02T13:55:06Z</time>
      </trkpt>
      <trkpt lat="35.971359392521585" lon="119.50810175523925">
        <ele>113.46</ele>
        <time>2020-06-02T13:55:36Z</time>
      </trkpt>
      <trkpt lat="35.97138531018241" lon="119.50847679105034">
        <ele>115.06</ele>
        <time>2020-06-02T13:56:06Z</time>
      </trkpt>
      <trkpt lat="35.97143337584914" lon="119.50887188394306">
        <ele>111.5</ele>
        <time>2020-06-02T13:56:36Z</time>
      </trkpt>
      <trkpt lat="35.97146555121396" lon="119.50926241663065">
        <ele>111.52</ele>
        <time>2020-06-02T13:57:06Z</time>
      </trkpt>
      <trkpt lat="35.97148965625122" lon="119.50964843903945">
        <ele>111.19</ele>
        <time>2020-06-02T13:57:36Z</time>
      </trkpt>
      <trkpt lat="35.97151675157442" lon="119.5100201220379">
        <ele>110.98</ele>
        <time>2020-06-02T13:58:06Z</time>
      </trkpt>
      <trkpt lat="35.9715276358635" lon="119.51025268858626">
        <ele>110.54</ele>
        <time>2020-06-02T13:58:24Z</time>
      </trkpt>
      <trkpt lat="35.9716787027125" lon="119.51043205847823">
        <ele>109.12</ele>
        <time>2020-06-02T13:58:42Z</time>
      </trkpt>
      <trkpt lat="35.971996600559045" lon="119.51043511410504">
        <ele>107.39</ele>
        <time>2020-06-02T13:59:21Z</time>
      </trkpt>
      <trkpt lat="35.97229102960596" lon="119.51042275160114">
        <ele>106.6</ele>
        <time>2020-06-02T13:59:51Z</time>
      </trkpt>
      <trkpt lat="35.972609770970756" lon="119.51037431245112">
        <ele>104.88</ele>
        <time>2020-06-02T14:00:21Z</time>
      </trkpt>
      <trkpt lat="35.97290837170531" lon="119.51033678244067">
        <ele>104.22</ele>
        <time>2020-06-02T14:00:51Z</time>
      </trkpt>
      <trkpt lat="35.973228332122936" lon="119.51030190188142">
        <ele>102.79</ele>
        <time>2020-06-02T14:01:27Z</time>
      </trkpt>
      <trkpt lat="35.97354112175114" lon="119.51027922017519">
        <ele>104.21</ele>
        <time>2020-06-02T14:01:57Z</time>
      </trkpt>
      <trkpt lat="35.973832841355396" lon="119.51025875851126">
        <ele>105.41</ele>
        <time>2020-06-02T14:02:27Z</time>
      </trkpt>
      <trkpt lat="35.97411772090481" lon="119.51023969679113">
        <ele>105.71</ele>
        <time>2020-06-02T14:02:57Z</time>
      </trkpt>
      <trkpt lat="35.97440071049933" lon="119.51022011514529">
        <ele>104.04</ele>
        <time>2020-06-02T14:03:27Z</time>
      </trkpt>
      <trkpt lat="35.97471251055546" lon="119.51019106408087">
        <ele>104.43</ele>
        <time>2020-06-02T14:03:57Z</time>
      </trkpt>
      <trkpt lat="35.974801892364994" lon="119.51015612644686">
        <ele>103.8</ele>
        <time>2020-06-02T14:04:09Z</time>
      </trkpt>
      <trkpt lat="35.975089120904" lon="119.51015173321419">
        <ele>105.09</ele>
        <time>2020-06-02T14:04:39Z</time>
      </trkpt>
      <trkpt lat="35.97536667996439" lon="119.51014047079366">
        <ele>102.87</ele>
        <time>2020-06-02T14:05:21Z</time>
      </trkpt>
      <trkpt lat="35.9753262278964" lon="119.51017483786224">
        <ele>108.43</ele>
        <time>2020-06-02T14:05:39Z</time>
      </trkpt>
      <trkpt lat="35.97531689176306" lon="119.51011825365664">
        <ele>111.2</ele>
        <time>2020-06-02T14:07:15Z</time>
      </trkpt>
      <trkpt lat="35.97527700982017" lon="119.51015076090863">
        <ele>114.33</ele>
        <time>2020-06-02T14:07:30Z</time>
      </trkpt>
      <trkpt lat="35.97536086000537" lon="119.51014039087609">
        <ele>111.69</ele>
        <time>2020-06-02T14:07:42Z</time>
      </trkpt>
      <trkpt lat="35.97550937787678" lon="119.5100093720663">
        <ele>104.22</ele>
        <time>2020-06-02T14:07:54Z</time>
      </trkpt>
      <trkpt lat="35.975546332183576" lon="119.50994128835941">
        <ele>104.24</ele>
        <time>2020-06-02T14:08:00Z</time>
      </trkpt>
      <trkpt lat="35.97554658659831" lon="119.50956916489602">
        <ele>104.59</ele>
        <time>2020-06-02T14:08:30Z</time>
      </trkpt>
      <trkpt lat="35.97552963133323" lon="119.50918401214754">
        <ele>104.84</ele>
        <time>2020-06-02T14:09:09Z</time>
      </trkpt>
      <trkpt lat="35.97552053611684" lon="119.50878664963376">
        <ele>103.22</ele>
        <time>2020-06-02T14:09:39Z</time>
      </trkpt>
      <trkpt lat="35.97549170928509" lon="119.50840671493454">
        <ele>104.42</ele>
        <time>2020-06-02T14:10:09Z</time>
      </trkpt>
      <trkpt lat="35.975491480190215" lon="119.50805175686565">
        <ele>105.65</ele>
        <time>2020-06-02T14:10:39Z</time>
      </trkpt>
      <trkpt lat="35.97549163824925" lon="119.50791229922037">
        <ele>104.41</ele>
        <time>2020-06-02T14:10:51Z</time>
      </trkpt>
      <trkpt lat="35.975473252217135" lon="119.50784505537594">
        <ele>104.39</ele>
        <time>2020-06-02T14:10:57Z</time>
      </trkpt>
      <trkpt lat="35.97535601326473" lon="119.50766311277113">
        <ele>102.92</ele>
        <time>2020-06-02T14:11:15Z</time>
      </trkpt>
      <trkpt lat="35.97529821505613" lon="119.50763757572712">
        <ele>103.74</ele>
        <time>2020-06-02T14:11:21Z</time>
      </trkpt>
      <trkpt lat="35.97518514404232" lon="119.5076678345467">
        <ele>103.58</ele>
        <time>2020-06-02T14:11:33Z</time>
      </trkpt>
      <trkpt lat="35.975147371866605" lon="119.50771043132347">
        <ele>103.76</ele>
        <time>2020-06-02T14:11:39Z</time>
      </trkpt>
      <trkpt lat="35.97511360200065" lon="119.50788719626932">
        <ele>104.63</ele>
        <time>2020-06-02T14:11:57Z</time>
      </trkpt>
      <trkpt lat="35.97507367946559" lon="119.5079355425148">
        <ele>103.7</ele>
        <time>2020-06-02T14:12:03Z</time>
      </trkpt>
      <trkpt lat="35.97491046802526" lon="119.50797780086393">
        <ele>103.15</ele>
        <time>2020-06-02T14:12:21Z</time>
      </trkpt>
      <trkpt lat="35.974637689129324" lon="119.50798753349042">
        <ele>104.64</ele>
        <time>2020-06-02T14:12:51Z</time>
      </trkpt>
      <trkpt lat="35.974583039609406" lon="119.50798500441351">
        <ele>104.63</ele>
        <time>2020-06-02T14:12:57Z</time>
      </trkpt>
      <trkpt lat="35.97454411250134" lon="119.50793900898186">
        <ele>102.7</ele>
        <time>2020-06-02T14:13:03Z</time>
      </trkpt>
      <trkpt lat="35.974524566931414" lon="119.50786395584915">
        <ele>102.37</ele>
        <time>2020-06-02T14:13:12Z</time>
      </trkpt>
      <trkpt lat="35.97447417821033" lon="119.50784698798536">
        <ele>103.91</ele>
        <time>2020-06-02T14:13:18Z</time>
      </trkpt>
      <trkpt lat="35.97465464287136" lon="119.50776698714009">
        <ele>116.64</ele>
        <time>2020-06-02T14:13:41Z</time>
      </trkpt>
      <trkpt lat="35.97487736238562" lon="119.50773039303697">
        <ele>116.62</ele>
        <time>2020-06-02T14:13:58Z</time>
      </trkpt>
      <trkpt lat="35.97487309134127" lon="119.50770233618081">
        <ele>116.51</ele>
        <time>2020-06-02T14:14:11Z</time>
      </trkpt>
      <trkpt lat="35.97460400031366" lon="119.50793971229373">
        <ele>115.04</ele>
        <time>2020-06-02T14:14:14Z</time>
      </trkpt>
      <trkpt lat="35.97452244124296" lon="119.50791625212119">
        <ele>112.16</ele>
        <time>2020-06-02T14:14:20Z</time>
      </trkpt>
      <trkpt lat="35.97447151579585" lon="119.50788313168815">
        <ele>110.76</ele>
        <time>2020-06-02T14:14:23Z</time>
      </trkpt>
      <trkpt lat="35.97432927180406" lon="119.50790857417107">
        <ele>111.66</ele>
        <time>2020-06-02T14:14:38Z</time>
      </trkpt>
      <trkpt lat="35.97443057721917" lon="119.50786895661125">
        <ele>108.94</ele>
        <time>2020-06-02T14:14:56Z</time>
      </trkpt>
      <trkpt lat="35.97441956792086" lon="119.50785787772655">
        <ele>109.09</ele>
        <time>2020-06-02T14:21:08Z</time>
      </trkpt>
    </trkseg>
  </trk>
</gpx>