<?xml version="1.0" encoding="UTF-8"?>
<gpx xmlns="http://www.topografix.com/GPX/1/1" xmlns:gpxtpx="http://www.garmin.com/xmlschemas/TrackPointExtension/v1" xmlns:xsi="http://www.w3.org/2001/XMLSchema-instance" xsi:schemaLocation="http://www.topografix.com/GPX/1/1 http://www.topografix.com/GPX/1/1/gpx.xsd" version="1.1" creator="gpx.py -- https://github.com/tkrajina/gpxpy">
  <trk>
    <name>gpx from keep</name>
    <type>Run</type>
    <trkseg>
      <trkpt lat="30.522544663907084" lon="114.39226470100655">
        <ele>0.0</ele>
        <time>2022-07-27T12:49:44Z</time>
      </trkpt>
      <trkpt lat="30.52229473728741" lon="114.39229273006342">
        <ele>20.074951171875</ele>
        <time>2022-07-27T12:49:50Z</time>
      </trkpt>
      <trkpt lat="30.522176758505253" lon="114.39237476171795">
        <ele>20.5399169921875</ele>
        <time>2022-07-27T12:49:53Z</time>
      </trkpt>
      <trkpt lat="30.52209575813805" lon="114.3925108049111">
        <ele>22.13818359375</ele>
        <time>2022-07-27T12:49:59Z</time>
      </trkpt>
      <trkpt lat="30.522044744570593" lon="114.3926718532762">
        <ele>20.75860595703125</ele>
        <time>2022-07-27T12:50:05Z</time>
      </trkpt>
      <trkpt lat="30.52203273085307" lon="114.39276988166509">
        <ele>22.0889892578125</ele>
        <time>2022-07-27T12:50:08Z</time>
      </trkpt>
      <trkpt lat="30.522075685553794" lon="114.39295393049574">
        <ele>20.38165283203125</ele>
        <time>2022-07-27T12:50:14Z</time>
      </trkpt>
      <trkpt lat="30.522184629795046" lon="114.39308295881791">
        <ele>18.6676025390625</ele>
        <time>2022-07-27T12:50:20Z</time>
      </trkpt>
      <trkpt lat="30.52234856101871" lon="114.3931889761904">
        <ele>20.04571533203125</ele>
        <time>2022-07-27T12:50:26Z</time>
      </trkpt>
      <trkpt lat="30.522587483037654" lon="114.39320496014157">
        <ele>22.0550537109375</ele>
        <time>2022-07-27T12:50:35Z</time>
      </trkpt>
      <trkpt lat="30.522672452573246" lon="114.3932279596834">
        <ele>21.74578857421875</ele>
        <time>2022-07-27T12:50:38Z</time>
      </trkpt>
      <trkpt lat="30.522949365971535" lon="114.39322193366164">
        <ele>22.44036865234375</ele>
        <time>2022-07-27T12:50:47Z</time>
      </trkpt>
      <trkpt lat="30.523019344465023" lon="114.39321792633315">
        <ele>23.7728271484375</ele>
        <time>2022-07-27T12:50:50Z</time>
      </trkpt>
      <trkpt lat="30.523096324687113" lon="114.39318891083781">
        <ele>23.12646484375</ele>
        <time>2022-07-27T12:50:53Z</time>
      </trkpt>
      <trkpt lat="30.52317629969499" lon="114.39318690324495">
        <ele>22.48870849609375</ele>
        <time>2022-07-27T12:50:56Z</time>
      </trkpt>
      <trkpt lat="30.52326626585042" lon="114.3932209056618">
        <ele>22.60809326171875</ele>
        <time>2022-07-27T12:50:59Z</time>
      </trkpt>
      <trkpt lat="30.52335423815229" lon="114.39321989766994">
        <ele>21.93603515625</ele>
        <time>2022-07-27T12:51:02Z</time>
      </trkpt>
      <trkpt lat="30.523438219623394" lon="114.39316887493369">
        <ele>23.04815673828125</ele>
        <time>2022-07-27T12:51:05Z</time>
      </trkpt>
      <trkpt lat="30.523574197784026" lon="114.39303782407939">
        <ele>27.66778564453125</ele>
        <time>2022-07-27T12:51:08Z</time>
      </trkpt>
      <trkpt lat="30.523587209528444" lon="114.39294279520148">
        <ele>26.835205078125</ele>
        <time>2022-07-27T12:51:11Z</time>
      </trkpt>
      <trkpt lat="30.523627212068916" lon="114.39285376611284">
        <ele>27.0125732421875</ele>
        <time>2022-07-27T12:51:14Z</time>
      </trkpt>
      <trkpt lat="30.523635244603348" lon="114.39265570984894">
        <ele>25.130615234375</ele>
        <time>2022-07-27T12:51:20Z</time>
      </trkpt>
      <trkpt lat="30.523576293431756" lon="114.3924926706826">
        <ele>25.279541015625</ele>
        <time>2022-07-27T12:51:26Z</time>
      </trkpt>
      <trkpt lat="30.523406387978095" lon="114.3922816300672">
        <ele>26.123046875</ele>
        <time>2022-07-27T12:51:35Z</time>
      </trkpt>
      <trkpt lat="30.523337416958967" lon="114.39224562684649">
        <ele>27.00775146484375</ele>
        <time>2022-07-27T12:51:38Z</time>
      </trkpt>
      <trkpt lat="30.523174473933665" lon="114.39221863419219">
        <ele>24.3662109375</ele>
        <time>2022-07-27T12:51:44Z</time>
      </trkpt>
      <trkpt lat="30.522888555024004" lon="114.39226567120778">
        <ele>21.93499755859375</ele>
        <time>2022-07-27T12:51:56Z</time>
      </trkpt>
      <trkpt lat="30.52257165796068" lon="114.3922516953109">
        <ele>22.701416015625</ele>
        <time>2022-07-27T12:52:11Z</time>
      </trkpt>
      <trkpt lat="30.52235172463469" lon="114.39226571812605">
        <ele>22.35723876953125</ele>
        <time>2022-07-27T12:52:20Z</time>
      </trkpt>
      <trkpt lat="30.5222737441102" lon="114.39229173163989">
        <ele>23.52471923828125</ele>
        <time>2022-07-27T12:52:23Z</time>
      </trkpt>
      <trkpt lat="30.522172759766875" lon="114.39237476206742">
        <ele>20.61004638671875</ele>
        <time>2022-07-27T12:52:29Z</time>
      </trkpt>
      <trkpt lat="30.52212876058839" lon="114.39244278385826">
        <ele>20.52587890625</ele>
        <time>2022-07-27T12:52:32Z</time>
      </trkpt>
      <trkpt lat="30.522077746001433" lon="114.39260683251501">
        <ele>20.59197998046875</ele>
        <time>2022-07-27T12:52:38Z</time>
      </trkpt>
      <trkpt lat="30.52206171871619" lon="114.39278688392139">
        <ele>20.38726806640625</ele>
        <time>2022-07-27T12:52:44Z</time>
      </trkpt>
      <trkpt lat="30.522097679797685" lon="114.39294692654306">
        <ele>22.76348876953125</ele>
        <time>2022-07-27T12:52:50Z</time>
      </trkpt>
      <trkpt lat="30.52218962740354" lon="114.39308795986418">
        <ele>20.8619384765625</ele>
        <time>2022-07-27T12:52:56Z</time>
      </trkpt>
      <trkpt lat="30.522331567334703" lon="114.39318297586674">
        <ele>21.0311279296875</ele>
        <time>2022-07-27T12:53:03Z</time>
      </trkpt>
      <trkpt lat="30.522415535139494" lon="114.39321897940751">
        <ele>21.38568115234375</ele>
        <time>2022-07-27T12:53:06Z</time>
      </trkpt>
      <trkpt lat="30.52273343408562" lon="114.39322295283684">
        <ele>23.30535888671875</ele>
        <time>2022-07-27T12:53:18Z</time>
      </trkpt>
      <trkpt lat="30.52303034098625" lon="114.39321792537207">
        <ele>22.7445068359375</ele>
        <time>2022-07-27T12:53:30Z</time>
      </trkpt>
      <trkpt lat="30.523346243361544" lon="114.39320289322258">
        <ele>23.33056640625</ele>
        <time>2022-07-27T12:53:42Z</time>
      </trkpt>
      <trkpt lat="30.523428223746453" lon="114.39316287400429">
        <ele>23.33612060546875</ele>
        <time>2022-07-27T12:53:45Z</time>
      </trkpt>
      <trkpt lat="30.523619212704872" lon="114.39286476995434">
        <ele>18.2314453125</ele>
        <time>2022-07-27T12:53:57Z</time>
      </trkpt>
      <trkpt lat="30.523649228825853" lon="114.39271872609991">
        <ele>19.15557861328125</ele>
        <time>2022-07-27T12:54:03Z</time>
      </trkpt>
      <trkpt lat="30.523640257481958" lon="114.39257668777093">
        <ele>19.3155517578125</ele>
        <time>2022-07-27T12:54:09Z</time>
      </trkpt>
      <trkpt lat="30.52357730621562" lon="114.39242365221978">
        <ele>19.81768798828125</ele>
        <time>2022-07-27T12:54:15Z</time>
      </trkpt>
      <trkpt lat="30.523533331711988" lon="114.3923636402723">
        <ele>18.54315185546875</ele>
        <time>2022-07-27T12:54:18Z</time>
      </trkpt>
      <trkpt lat="30.523296429340416" lon="114.39224863119719">
        <ele>19.5107421875</ele>
        <time>2022-07-27T12:54:30Z</time>
      </trkpt>
      <trkpt lat="30.52302451519862" lon="114.39224965521889">
        <ele>20.64227294921875</ele>
        <time>2022-07-27T12:54:42Z</time>
      </trkpt>
      <trkpt lat="30.522677622098605" lon="114.39226368912925">
        <ele>21.39239501953125</ele>
        <time>2022-07-27T12:54:57Z</time>
      </trkpt>
      <trkpt lat="30.522401708854368" lon="114.39226571375754">
        <ele>22.57427978515625</ele>
        <time>2022-07-27T12:55:09Z</time>
      </trkpt>
      <trkpt lat="30.522280738362387" lon="114.39230973568512">
        <ele>21.07501220703125</ele>
        <time>2022-07-27T12:55:15Z</time>
      </trkpt>
      <trkpt lat="30.52221174901435" lon="114.3923667565633">
        <ele>21.80694580078125</ele>
        <time>2022-07-27T12:55:18Z</time>
      </trkpt>
      <trkpt lat="30.522119750007285" lon="114.39251380362099">
        <ele>20.36016845703125</ele>
        <time>2022-07-27T12:55:24Z</time>
      </trkpt>
      <trkpt lat="30.522090703447738" lon="114.39282189129342">
        <ele>17.880615234375</ele>
        <time>2022-07-27T12:55:36Z</time>
      </trkpt>
      <trkpt lat="30.522139656665768" lon="114.39300594006274">
        <ele>20.4439697265625</ele>
        <time>2022-07-27T12:55:42Z</time>
      </trkpt>
      <trkpt lat="30.522249603289776" lon="114.39311996414256">
        <ele>20.7008056640625</ele>
        <time>2022-07-27T12:55:48Z</time>
      </trkpt>
      <trkpt lat="30.52239654160816" lon="114.39321598015847">
        <ele>20.37774658203125</ele>
        <time>2022-07-27T12:55:54Z</time>
      </trkpt>
      <trkpt lat="30.52246851605684" lon="114.39323397932873">
        <ele>21.13104248046875</ele>
        <time>2022-07-27T12:55:57Z</time>
      </trkpt>
      <trkpt lat="30.522794417326836" lon="114.39320694266098">
        <ele>21.1715087890625</ele>
        <time>2022-07-27T12:56:10Z</time>
      </trkpt>
      <trkpt lat="30.523108322159903" lon="114.39318090737784">
        <ele>22.10760498046875</ele>
        <time>2022-07-27T12:56:22Z</time>
      </trkpt>
      <trkpt lat="30.52336024831567" lon="114.39314387424722">
        <ele>22.4029541015625</ele>
        <time>2022-07-27T12:56:31Z</time>
      </trkpt>
      <trkpt lat="30.52349521673507" lon="114.39307484190488">
        <ele>21.6376953125</ele>
        <time>2022-07-27T12:56:37Z</time>
      </trkpt>
      <trkpt lat="30.5235592051803" lon="114.39302182068704">
        <ele>21.15521240234375</ele>
        <time>2022-07-27T12:56:40Z</time>
      </trkpt>
      <trkpt lat="30.523628209164055" lon="114.39286877031215">
        <ele>20.041748046875</ele>
        <time>2022-07-27T12:56:46Z</time>
      </trkpt>
      <trkpt lat="30.52365223002233" lon="114.39270672249458">
        <ele>19.487060546875</ele>
        <time>2022-07-27T12:56:52Z</time>
      </trkpt>
      <trkpt lat="30.523608272811586" lon="114.39254868296896">
        <ele>19.6290283203125</ele>
        <time>2022-07-27T12:56:58Z</time>
      </trkpt>
      <trkpt lat="30.523515331229913" lon="114.39239565024579">
        <ele>18.50811767578125</ele>
        <time>2022-07-27T12:57:04Z</time>
      </trkpt>
      <trkpt lat="30.523384390021096" lon="114.39230663844945">
        <ele>21.24566650390625</ele>
        <time>2022-07-27T12:57:10Z</time>
      </trkpt>
      <trkpt lat="30.523235446461538" lon="114.39225963934818">
        <ele>23.0001220703125</ele>
        <time>2022-07-27T12:57:16Z</time>
      </trkpt>
      <trkpt lat="30.522897551584734" lon="114.39226867119272">
        <ele>22.1337890625</ele>
        <time>2022-07-27T12:57:31Z</time>
      </trkpt>
      <trkpt lat="30.522778591774134" lon="114.39225567825082">
        <ele>22.8968505859375</ele>
        <time>2022-07-27T12:57:37Z</time>
      </trkpt>
      <trkpt lat="30.522592635121633" lon="114.39227890484298">
        <ele>0.0</ele>
        <time>2022-07-27T12:57:46Z</time>
      </trkpt>
      <trkpt lat="30.52208078222733" lon="114.3924087790508">
        <ele>75.5899658203125</ele>
        <time>2022-07-27T12:58:21Z</time>
      </trkpt>
      <trkpt lat="30.522125678439192" lon="114.3929029113874">
        <ele>23.2645263671875</ele>
        <time>2022-07-27T12:58:28Z</time>
      </trkpt>
      <trkpt lat="30.52218364145938" lon="114.39301393856223">
        <ele>23.3446044921875</ele>
        <time>2022-07-27T12:58:34Z</time>
      </trkpt>
      <trkpt lat="30.522280595287345" lon="114.39310895815588">
        <ele>22.851318359375</ele>
        <time>2022-07-27T12:58:40Z</time>
      </trkpt>
      <trkpt lat="30.522426538781637" lon="114.3931739648566">
        <ele>24.916748046875</ele>
        <time>2022-07-27T12:58:46Z</time>
      </trkpt>
      <trkpt lat="30.522748435658702" lon="114.3931829394338">
        <ele>22.25054931640625</ele>
        <time>2022-07-27T12:58:58Z</time>
      </trkpt>
      <trkpt lat="30.523042342242576" lon="114.39318591465117">
        <ele>28.11102294921875</ele>
        <time>2022-07-27T12:59:10Z</time>
      </trkpt>
      <trkpt lat="30.52329326616662" lon="114.39316488640037">
        <ele>26.69976806640625</ele>
        <time>2022-07-27T12:59:19Z</time>
      </trkpt>
      <trkpt lat="30.523384241840905" lon="114.39313687005529">
        <ele>27.82440185546875</ele>
        <time>2022-07-27T12:59:22Z</time>
      </trkpt>
      <trkpt lat="30.52354821783916" lon="114.39296680557632">
        <ele>26.8603515625</ele>
        <time>2022-07-27T12:59:31Z</time>
      </trkpt>
      <trkpt lat="30.523622230445774" lon="114.39275773937248">
        <ele>24.0294189453125</ele>
        <time>2022-07-27T12:59:40Z</time>
      </trkpt>
      <trkpt lat="30.52362324388461" lon="114.39268071780869">
        <ele>23.2518310546875</ele>
        <time>2022-07-27T12:59:43Z</time>
      </trkpt>
      <trkpt lat="30.523559307909075" lon="114.39244465936073">
        <ele>20.89703369140625</ele>
        <time>2022-07-27T12:59:52Z</time>
      </trkpt>
      <trkpt lat="30.5235133409606" lon="114.39234863809892">
        <ele>21.87286376953125</ele>
        <time>2022-07-27T12:59:55Z</time>
      </trkpt>
      <trkpt lat="30.523406389559003" lon="114.39227362800636">
        <ele>23.26446533203125</ele>
        <time>2022-07-27T13:00:01Z</time>
      </trkpt>
      <trkpt lat="30.523212453343188" lon="114.39226164187133">
        <ele>22.93792724609375</ele>
        <time>2022-07-27T13:00:10Z</time>
      </trkpt>
      <trkpt lat="30.523140471377296" lon="114.3922856543401">
        <ele>23.010498046875</ele>
        <time>2022-07-27T13:00:13Z</time>
      </trkpt>
      <trkpt lat="30.522851561779813" lon="114.39229068088127">
        <ele>23.35369873046875</ele>
        <time>2022-07-27T13:00:26Z</time>
      </trkpt>
      <trkpt lat="30.52256265466288" lon="114.39228270406728">
        <ele>22.2095947265625</ele>
        <time>2022-07-27T13:00:38Z</time>
      </trkpt>
      <trkpt lat="30.5223447136655" lon="114.39233273606656">
        <ele>21.222412109375</ele>
        <time>2022-07-27T13:00:50Z</time>
      </trkpt>
      <trkpt lat="30.522249731810067" lon="114.392393760332">
        <ele>19.2730712890625</ele>
        <time>2022-07-27T13:00:56Z</time>
      </trkpt>
      <trkpt lat="30.522131732282926" lon="114.39258882288235">
        <ele>18.56805419921875</ele>
        <time>2022-07-27T13:01:05Z</time>
      </trkpt>
      <trkpt lat="30.522106724479677" lon="114.39267484868942">
        <ele>19.406005859375</ele>
        <time>2022-07-27T13:01:08Z</time>
      </trkpt>
      <trkpt lat="30.522108692910123" lon="114.39284989768802">
        <ele>19.9471435546875</ele>
        <time>2022-07-27T13:01:14Z</time>
      </trkpt>
      <trkpt lat="30.522127674062492" lon="114.39292491755562">
        <ele>20.132568359375</ele>
        <time>2022-07-27T13:01:17Z</time>
      </trkpt>
      <trkpt lat="30.522203630356046" lon="114.39304294533676">
        <ele>21.62652587890625</ele>
        <time>2022-07-27T13:01:23Z</time>
      </trkpt>
      <trkpt lat="30.522378553772977" lon="114.39317496935124">
        <ele>23.51092529296875</ele>
        <time>2022-07-27T13:01:32Z</time>
      </trkpt>
      <trkpt lat="30.522652461561847" lon="114.3932109562779">
        <ele>21.9998779296875</ele>
        <time>2022-07-27T13:01:44Z</time>
      </trkpt>
      <trkpt lat="30.522895391106555" lon="114.39317092297776">
        <ele>23.88134765625</ele>
        <time>2022-07-27T13:01:53Z</time>
      </trkpt>
      <trkpt lat="30.522973363745802" lon="114.39318792128282">
        <ele>23.14044189453125</ele>
        <time>2022-07-27T13:01:56Z</time>
      </trkpt>
      <trkpt lat="30.52328726567874" lon="114.39317989143713">
        <ele>20.72943115234375</ele>
        <time>2022-07-27T13:02:11Z</time>
      </trkpt>
      <trkpt lat="30.523376240211093" lon="114.39316287854764">
        <ele>23.32672119140625</ele>
        <time>2022-07-27T13:02:17Z</time>
      </trkpt>
      <trkpt lat="30.523508217701757" lon="114.3930438316128">
        <ele>22.45379638671875</ele>
        <time>2022-07-27T13:02:26Z</time>
      </trkpt>
      <trkpt lat="30.523586227656672" lon="114.39283876541933">
        <ele>20.67083740234375</ele>
        <time>2022-07-27T13:02:35Z</time>
      </trkpt>
      <trkpt lat="30.523575280481687" lon="114.39256368991792">
        <ele>20.630615234375</ele>
        <time>2022-07-27T13:02:47Z</time>
      </trkpt>
      <trkpt lat="30.52350732953811" lon="114.39241765674896">
        <ele>20.99481201171875</ele>
        <time>2022-07-27T13:02:53Z</time>
      </trkpt>
      <trkpt lat="30.523410377479188" lon="114.39232864188749">
        <ele>22.2283935546875</ele>
        <time>2022-07-27T13:02:59Z</time>
      </trkpt>
      <trkpt lat="30.523293424146004" lon="114.39227963942493">
        <ele>22.48583984375</ele>
        <time>2022-07-27T13:03:05Z</time>
      </trkpt>
      <trkpt lat="30.523222448197902" lon="114.39227164356835">
        <ele>22.33953857421875</ele>
        <time>2022-07-27T13:03:08Z</time>
      </trkpt>
      <trkpt lat="30.523158465090923" lon="114.39228865354157">
        <ele>21.81219482421875</ele>
        <time>2022-07-27T13:03:11Z</time>
      </trkpt>
      <trkpt lat="30.522975524551086" lon="114.39228066746722">
        <ele>21.21722412109375</ele>
        <time>2022-07-27T13:03:21Z</time>
      </trkpt>
      <trkpt lat="30.522850559537797" lon="114.39230368432973">
        <ele>21.78997802734375</ele>
        <time>2022-07-27T13:03:27Z</time>
      </trkpt>
      <trkpt lat="30.522544653464305" lon="114.39231771469407">
        <ele>21.13232421875</ele>
        <time>2022-07-27T13:03:42Z</time>
      </trkpt>
      <trkpt lat="30.52234671108397" lon="114.3923427384968">
        <ele>22.49365234375</ele>
        <time>2022-07-27T13:03:51Z</time>
      </trkpt>
      <trkpt lat="30.522223733296343" lon="114.39242877184505">
        <ele>23.77044677734375</ele>
        <time>2022-07-27T13:03:57Z</time>
      </trkpt>
      <trkpt lat="30.52212873636757" lon="114.3925718185171">
        <ele>22.66339111328125</ele>
        <time>2022-07-27T13:04:03Z</time>
      </trkpt>
      <trkpt lat="30.52213168947406" lon="114.39282788941539">
        <ele>24.75439453125</ele>
        <time>2022-07-27T13:04:12Z</time>
      </trkpt>
      <trkpt lat="30.52218064757121" lon="114.39298292975975">
        <ele>25.316162109375</ele>
        <time>2022-07-27T13:04:18Z</time>
      </trkpt>
      <trkpt lat="30.522284591602105" lon="114.39312396227821">
        <ele>25.39141845703125</ele>
        <time>2022-07-27T13:04:24Z</time>
      </trkpt>
      <trkpt lat="30.52244253040012" lon="114.39319496978842">
        <ele>24.7301025390625</ele>
        <time>2022-07-27T13:04:30Z</time>
      </trkpt>
      <trkpt lat="30.52277743079498" lon="114.39315592878147">
        <ele>24.204833984375</ele>
        <time>2022-07-27T13:04:42Z</time>
      </trkpt>
      <trkpt lat="30.522965373610305" lon="114.3931419081601">
        <ele>23.0960693359375</ele>
        <time>2022-07-27T13:04:48Z</time>
      </trkpt>
      <trkpt lat="30.523157306340835" lon="114.39318290369924">
        <ele>25.3975830078125</ele>
        <time>2022-07-27T13:04:54Z</time>
      </trkpt>
      <trkpt lat="30.523441234653724" lon="114.39306984514305">
        <ele>27.23663330078125</ele>
        <time>2022-07-27T13:05:06Z</time>
      </trkpt>
      <trkpt lat="30.5235322193891" lon="114.39298781309351">
        <ele>27.8707275390625</ele>
        <time>2022-07-27T13:05:12Z</time>
      </trkpt>
      <trkpt lat="30.523620218969675" lon="114.39282675903581">
        <ele>22.07122802734375</ele>
        <time>2022-07-27T13:05:24Z</time>
      </trkpt>
      <trkpt lat="30.52358627829521" lon="114.39255668705817">
        <ele>13.36749267578125</ele>
        <time>2022-07-27T13:05:36Z</time>
      </trkpt>
      <trkpt lat="30.523555303293055" lon="114.39247566796884">
        <ele>15.4063720703125</ele>
        <time>2022-07-27T13:05:39Z</time>
      </trkpt>
      <trkpt lat="30.52346435453602" lon="114.39235864499294">
        <ele>20.25628662109375</ele>
        <time>2022-07-27T13:05:45Z</time>
      </trkpt>
      <trkpt lat="30.523407378820025" lon="114.39232664162958">
        <ele>20.56719970703125</ele>
        <time>2022-07-27T13:05:48Z</time>
      </trkpt>
      <trkpt lat="30.523157462062102" lon="114.39230565802421">
        <ele>21.16522216796875</ele>
        <time>2022-07-27T13:06:01Z</time>
      </trkpt>
      <trkpt lat="30.523093480346624" lon="114.39231566620803">
        <ele>21.05963134765625</ele>
        <time>2022-07-27T13:06:04Z</time>
      </trkpt>
      <trkpt lat="30.522992517597" lon="114.39228866804542">
        <ele>22.1416015625</ele>
        <time>2022-07-27T13:06:10Z</time>
      </trkpt>
      <trkpt lat="30.522665622723476" lon="114.39227969429476">
        <ele>21.4598388671875</ele>
        <time>2022-07-27T13:06:31Z</time>
      </trkpt>
      <trkpt lat="30.52248967279145" lon="114.39230771690656">
        <ele>22.31268310546875</ele>
        <time>2022-07-27T13:06:40Z</time>
      </trkpt>
      <trkpt lat="30.522374708307577" lon="114.39231172799072">
        <ele>21.2750244140625</ele>
        <time>2022-07-27T13:06:46Z</time>
      </trkpt>
      <trkpt lat="30.522169739504754" lon="114.39248579173982">
        <ele>19.66375732421875</ele>
        <time>2022-07-27T13:06:58Z</time>
      </trkpt>
      <trkpt lat="30.522105734242174" lon="114.3926228344505">
        <ele>22.7008056640625</ele>
        <time>2022-07-27T13:07:04Z</time>
      </trkpt>
      <trkpt lat="30.52214267359041" lon="114.392899909039">
        <ele>18.24798583984375</ele>
        <time>2022-07-27T13:07:19Z</time>
      </trkpt>
      <trkpt lat="30.522213632162472" lon="114.39301293564806">
        <ele>21.72857666015625</ele>
        <time>2022-07-27T13:07:25Z</time>
      </trkpt>
      <trkpt lat="30.522321581380094" lon="114.39311495636117">
        <ele>20.7578125</ele>
        <time>2022-07-27T13:07:28Z</time>
      </trkpt>
      <trkpt lat="30.52243553897073" lon="114.39315495836182">
        <ele>18.2218017578125</ele>
        <time>2022-07-27T13:07:34Z</time>
      </trkpt>
      <trkpt lat="30.52272444387693" lon="114.3931789403257">
        <ele>19.14849853515625</ele>
        <time>2022-07-27T13:07:52Z</time>
      </trkpt>
      <trkpt lat="30.52302734793858" lon="114.39317991415366">
        <ele>22.23419189453125</ele>
        <time>2022-07-27T13:08:13Z</time>
      </trkpt>
      <trkpt lat="30.523156308246165" lon="114.39317290077558">
        <ele>21.599365234375</ele>
        <time>2022-07-27T13:08:22Z</time>
      </trkpt>
      <trkpt lat="30.52324327865229" lon="114.39318589708955">
        <ele>21.83001708984375</ele>
        <time>2022-07-27T13:08:28Z</time>
      </trkpt>
      <trkpt lat="30.523413250757983" lon="114.39302583461804">
        <ele>23.26763916015625</ele>
        <time>2022-07-27T13:08:40Z</time>
      </trkpt>
      <trkpt lat="30.523536238482478" lon="114.39286777806439">
        <ele>22.9913330078125</ele>
        <time>2022-07-27T13:08:50Z</time>
      </trkpt>
      <trkpt lat="30.52355924318473" lon="114.39279875642944">
        <ele>21.15142822265625</ele>
        <time>2022-07-27T13:08:53Z</time>
      </trkpt>
      <trkpt lat="30.52354928317752" lon="114.39259370035346">
        <ele>19.26715087890625</ele>
        <time>2022-07-27T13:08:59Z</time>
      </trkpt>
      <trkpt lat="30.52343935049893" lon="114.39242066348366">
        <ele>22.34893798828125</ele>
        <time>2022-07-27T13:09:05Z</time>
      </trkpt>
      <trkpt lat="30.52329341178692" lon="114.39234265575583">
        <ele>23.6201171875</ele>
        <time>2022-07-27T13:09:11Z</time>
      </trkpt>
      <trkpt lat="30.52312646794985" lon="114.39232566592152">
        <ele>23.9189453125</ele>
        <time>2022-07-27T13:09:20Z</time>
      </trkpt>
      <trkpt lat="30.52281156755152" lon="114.39232569344377">
        <ele>23.40460205078125</ele>
        <time>2022-07-27T13:09:35Z</time>
      </trkpt>
      <trkpt lat="30.522681606674812" lon="114.39233570740366">
        <ele>24.96051025390625</ele>
        <time>2022-07-27T13:09:41Z</time>
      </trkpt>
      <trkpt lat="30.52258164393746" lon="114.39230670860941">
        <ele>24.09954833984375</ele>
        <time>2022-07-27T13:09:47Z</time>
      </trkpt>
      <trkpt lat="30.522505666562644" lon="114.3923137170638">
        <ele>24.8101806640625</ele>
        <time>2022-07-27T13:09:50Z</time>
      </trkpt>
      <trkpt lat="30.522231730963828" lon="114.39242777088123">
        <ele>25.1041259765625</ele>
        <time>2022-07-27T13:10:02Z</time>
      </trkpt>
      <trkpt lat="30.522159727886898" lon="114.39256481390733">
        <ele>25.15130615234375</ele>
        <time>2022-07-27T13:10:08Z</time>
      </trkpt>
      <trkpt lat="30.522134697456664" lon="114.39277687472416">
        <ele>23.06134033203125</ele>
        <time>2022-07-27T13:10:14Z</time>
      </trkpt>
      <trkpt lat="30.522157662736095" lon="114.39293591811484">
        <ele>23.099609375</ele>
        <time>2022-07-27T13:10:20Z</time>
      </trkpt>
      <trkpt lat="30.522215626241415" lon="114.39304494487757">
        <ele>22.59869384765625</ele>
        <time>2022-07-27T13:10:26Z</time>
      </trkpt>
      <trkpt lat="30.5223955544815" lon="114.39313695646467">
        <ele>24.42950439453125</ele>
        <time>2022-07-27T13:10:35Z</time>
      </trkpt>
      <trkpt lat="30.52268745572539" lon="114.39317794325726">
        <ele>21.443603515625</ele>
        <time>2022-07-27T13:10:51Z</time>
      </trkpt>
      <trkpt lat="30.522843410736172" lon="114.39315092151547">
        <ele>21.40118408203125</ele>
        <time>2022-07-27T13:11:03Z</time>
      </trkpt>
      <trkpt lat="30.523052347221935" lon="114.39313489846454">
        <ele>22.2559814453125</ele>
        <time>2022-07-27T13:11:13Z</time>
      </trkpt>
      <trkpt lat="30.523230289784234" lon="114.39314188500674">
        <ele>21.20501708984375</ele>
        <time>2022-07-27T13:11:22Z</time>
      </trkpt>
      <trkpt lat="30.523330260545162" lon="114.39312687178465">
        <ele>21.88287353515625</ele>
        <time>2022-07-27T13:11:25Z</time>
      </trkpt>
      <trkpt lat="30.523410248572162" lon="114.39304484046997">
        <ele>21.53082275390625</ele>
        <time>2022-07-27T13:11:31Z</time>
      </trkpt>
      <trkpt lat="30.523478233991085" lon="114.39300282219561">
        <ele>22.8240966796875</ele>
        <time>2022-07-27T13:11:34Z</time>
      </trkpt>
      <trkpt lat="30.52358322843362" lon="114.39283976596616">
        <ele>19.19293212890625</ele>
        <time>2022-07-27T13:11:44Z</time>
      </trkpt>
      <trkpt lat="30.523601242784995" lon="114.39272573224727">
        <ele>18.72662353515625</ele>
        <time>2022-07-27T13:11:50Z</time>
      </trkpt>
      <trkpt lat="30.52354829891784" lon="114.39251067796047">
        <ele>20.5391845703125</ele>
        <time>2022-07-27T13:11:59Z</time>
      </trkpt>
      <trkpt lat="30.52347734114985" lon="114.39240665646517">
        <ele>22.514892578125</ele>
        <time>2022-07-27T13:12:05Z</time>
      </trkpt>
      <trkpt lat="30.523392380251906" lon="114.39234364736662">
        <ele>20.6080322265625</ele>
        <time>2022-07-27T13:12:11Z</time>
      </trkpt>
      <trkpt lat="30.523233437817716" lon="114.39230665164284">
        <ele>20.78814697265625</ele>
        <time>2022-07-27T13:12:23Z</time>
      </trkpt>
      <trkpt lat="30.523145465073327" lon="114.39230966010891">
        <ele>20.81365966796875</ele>
        <time>2022-07-27T13:12:29Z</time>
      </trkpt>
      <trkpt lat="30.523079480083776" lon="114.39233967367163">
        <ele>21.82318115234375</ele>
        <time>2022-07-27T13:12:32Z</time>
      </trkpt>
      <trkpt lat="30.522754583415644" lon="114.39233670128597">
        <ele>22.182861328125</ele>
        <time>2022-07-27T13:12:44Z</time>
      </trkpt>
      <trkpt lat="30.522460676661733" lon="114.39233472645222">
        <ele>23.878662109375</ele>
        <time>2022-07-27T13:12:53Z</time>
      </trkpt>
      <trkpt lat="30.522370706241574" lon="114.39232873275431">
        <ele>25.45013427734375</ele>
        <time>2022-07-27T13:12:59Z</time>
      </trkpt>
      <trkpt lat="30.522303724068568" lon="114.39234574303613">
        <ele>25.8870849609375</ele>
        <time>2022-07-27T13:13:02Z</time>
      </trkpt>
      <trkpt lat="30.522158735835195" lon="114.39252380290588">
        <ele>22.5257568359375</ele>
        <time>2022-07-27T13:13:20Z</time>
      </trkpt>
      <trkpt lat="30.522108709719138" lon="114.39275387052963">
        <ele>22.80609130859375</ele>
        <time>2022-07-27T13:13:29Z</time>
      </trkpt>
      <trkpt lat="30.522128684012543" lon="114.39286490022441">
        <ele>22.56201171875</ele>
        <time>2022-07-27T13:13:36Z</time>
      </trkpt>
      <trkpt lat="30.522257609380382" lon="114.39306694770227">
        <ele>18.69573974609375</ele>
        <time>2022-07-27T13:13:50Z</time>
      </trkpt>
      <trkpt lat="30.5224205462693" lon="114.39313895487878">
        <ele>19.99908447265625</ele>
        <time>2022-07-27T13:13:59Z</time>
      </trkpt>
      <trkpt lat="30.52276443570273" lon="114.39315092841771">
        <ele>19.01141357421875</ele>
        <time>2022-07-27T13:14:23Z</time>
      </trkpt>
      <trkpt lat="30.522844408342984" lon="114.39316392532952">
        <ele>17.1083984375</ele>
        <time>2022-07-27T13:14:26Z</time>
      </trkpt>
      <trkpt lat="30.52301135890395" lon="114.39314290444042">
        <ele>16.72052001953125</ele>
        <time>2022-07-27T13:14:38Z</time>
      </trkpt>
      <trkpt lat="30.52333825399881" lon="114.39315187856658">
        <ele>21.368896484375</ele>
        <time>2022-07-27T13:15:02Z</time>
      </trkpt>
      <trkpt lat="30.523458226333307" lon="114.39308784899121">
        <ele>19.60150146484375</ele>
        <time>2022-07-27T13:15:11Z</time>
      </trkpt>
      <trkpt lat="30.523550215192834" lon="114.39297880889566">
        <ele>24.3359375</ele>
        <time>2022-07-27T13:15:20Z</time>
      </trkpt>
      <trkpt lat="30.52360722204523" lon="114.3928327618772">
        <ele>23.98101806640625</ele>
        <time>2022-07-27T13:15:29Z</time>
      </trkpt>
      <trkpt lat="30.52360625035345" lon="114.39267471763259">
        <ele>24.3150634765625</ele>
        <time>2022-07-27T13:15:38Z</time>
      </trkpt>
      <trkpt lat="30.523550294353978" lon="114.39253168344209">
        <ele>21.6094970703125</ele>
        <time>2022-07-27T13:15:47Z</time>
      </trkpt>
      <trkpt lat="30.52349232817963" lon="114.39244966654368">
        <ele>23.1968994140625</ele>
        <time>2022-07-27T13:15:53Z</time>
      </trkpt>
      <trkpt lat="30.523312409677953" lon="114.39232264889058">
        <ele>21.641845703125</ele>
        <time>2022-07-27T13:16:06Z</time>
      </trkpt>
      <trkpt lat="30.522991511822458" lon="114.39231967615817">
        <ele>24.74615478515625</ele>
        <time>2022-07-27T13:16:30Z</time>
      </trkpt>
      <trkpt lat="30.522669614180764" lon="114.39231670351319">
        <ele>26.86859130859375</ele>
        <time>2022-07-27T13:16:54Z</time>
      </trkpt>
      <trkpt lat="30.522401694700406" lon="114.39233773238836">
        <ele>21.20263671875</ele>
        <time>2022-07-27T13:17:15Z</time>
      </trkpt>
      <trkpt lat="30.522190714227744" lon="114.39258581690997">
        <ele>21.094970703125</ele>
        <time>2022-07-27T13:17:24Z</time>
      </trkpt>
      <trkpt lat="30.5221127114757" lon="114.3927368654173">
        <ele>21.55712890625</ele>
        <time>2022-07-27T13:17:27Z</time>
      </trkpt>
      <trkpt lat="30.522127676443887" lon="114.39291091351649">
        <ele>18.884033203125</ele>
        <time>2022-07-27T13:17:35Z</time>
      </trkpt>
      <trkpt lat="30.52226960232947" lon="114.39308695257799">
        <ele>21.88909912109375</ele>
        <time>2022-07-27T13:17:41Z</time>
      </trkpt>
      <trkpt lat="30.52261148564077" lon="114.3931409387898">
        <ele>19.181640625</ele>
        <time>2022-07-27T13:17:53Z</time>
      </trkpt>
      <trkpt lat="30.52292138320549" lon="114.39316892010471">
        <ele>19.854248046875</ele>
        <time>2022-07-27T13:18:05Z</time>
      </trkpt>
      <trkpt lat="30.523180305445397" lon="114.3931428896747">
        <ele>12.28607177734375</ele>
        <time>2022-07-27T13:18:19Z</time>
      </trkpt>
      <trkpt lat="30.523308262376226" lon="114.39315888328782">
        <ele>12.80535888671875</ele>
        <time>2022-07-27T13:18:25Z</time>
      </trkpt>
      <trkpt lat="30.523577205802727" lon="114.39298380799453">
        <ele>20.81207275390625</ele>
        <time>2022-07-27T13:18:41Z</time>
      </trkpt>
      <trkpt lat="30.52365021874738" lon="114.3927737414246">
        <ele>19.7618408203125</ele>
        <time>2022-07-27T13:18:50Z</time>
      </trkpt>
      <trkpt lat="30.523651240622513" lon="114.39264970679675">
        <ele>19.619384765625</ele>
        <time>2022-07-27T13:18:56Z</time>
      </trkpt>
      <trkpt lat="30.52356331141647" lon="114.39241965238483">
        <ele>19.90313720703125</ele>
        <time>2022-07-27T13:19:08Z</time>
      </trkpt>
      <trkpt lat="30.523434377533878" lon="114.39228962968467">
        <ele>19.78289794921875</ele>
        <time>2022-07-27T13:19:17Z</time>
      </trkpt>
      <trkpt lat="30.523359411388316" lon="114.39223862313298">
        <ele>19.85906982421875</ele>
        <time>2022-07-27T13:19:23Z</time>
      </trkpt>
      <trkpt lat="30.523122487587305" lon="114.39223264230696">
        <ele>18.18994140625</ele>
        <time>2022-07-27T13:19:35Z</time>
      </trkpt>
      <trkpt lat="30.522998522824555" lon="114.39225265825957">
        <ele>19.9639892578125</ele>
        <time>2022-07-27T13:19:41Z</time>
      </trkpt>
      <trkpt lat="30.52280058800416" lon="114.3922396722301">
        <ele>22.86639404296875</ele>
        <time>2022-07-27T13:19:50Z</time>
      </trkpt>
      <trkpt lat="30.52272861474905" lon="114.39221967341503">
        <ele>24.562255859375</ele>
        <time>2022-07-27T13:19:56Z</time>
      </trkpt>
      <trkpt lat="30.52248969103498" lon="114.39221569327788">
        <ele>25.1173095703125</ele>
        <time>2022-07-27T13:20:14Z</time>
      </trkpt>
      <trkpt lat="30.522281746128762" lon="114.39226872501325">
        <ele>24.6656494140625</ele>
        <time>2022-07-27T13:20:29Z</time>
      </trkpt>
      <trkpt lat="30.52223075413669" lon="114.3923097400536">
        <ele>21.48651123046875</ele>
        <time>2022-07-27T13:20:32Z</time>
      </trkpt>
      <trkpt lat="30.52216675587512" lon="114.39240477048175">
        <ele>18.5775146484375</ele>
        <time>2022-07-27T13:20:35Z</time>
      </trkpt>
      <trkpt lat="30.52212274756277" lon="114.39252180551233">
        <ele>16.02655029296875</ele>
        <time>2022-07-27T13:20:38Z</time>
      </trkpt>
      <trkpt lat="30.522076719101218" lon="114.39275787444814">
        <ele>18.5096435546875</ele>
        <time>2022-07-27T13:20:44Z</time>
      </trkpt>
      <trkpt lat="30.522090696685385" lon="114.392860902401">
        <ele>19.5093994140625</ele>
        <time>2022-07-27T13:20:47Z</time>
      </trkpt>
      <trkpt lat="30.522123669744037" lon="114.39295792746346">
        <ele>19.903076171875</ele>
        <time>2022-07-27T13:20:50Z</time>
      </trkpt>
      <trkpt lat="30.522237605785694" lon="114.39312796757883">
        <ele>21.228271484375</ele>
        <time>2022-07-27T13:20:57Z</time>
      </trkpt>
      <trkpt lat="30.522320567483106" lon="114.39320398316667">
        <ele>19.54913330078125</ele>
        <time>2022-07-27T13:21:00Z</time>
      </trkpt>
      <trkpt lat="30.522450521739252" lon="114.39323398090136">
        <ele>17.19134521484375</ele>
        <time>2022-07-27T13:21:06Z</time>
      </trkpt>
      <trkpt lat="30.522773419096897" lon="114.39323795389673">
        <ele>19.17120361328125</ele>
        <time>2022-07-27T13:21:18Z</time>
      </trkpt>
      <trkpt lat="30.522990357736735" lon="114.39319192100426">
        <ele>19.47412109375</ele>
        <time>2022-07-27T13:21:24Z</time>
      </trkpt>
      <trkpt lat="30.523105320258118" lon="114.39319891307024">
        <ele>20.7525634765625</ele>
        <time>2022-07-27T13:21:27Z</time>
      </trkpt>
      <trkpt lat="30.523210282474217" lon="114.3932279126781">
        <ele>21.11981201171875</ele>
        <time>2022-07-27T13:21:30Z</time>
      </trkpt>
      <trkpt lat="30.523319248290264" lon="114.39322590254764">
        <ele>19.364501953125</ele>
        <time>2022-07-27T13:21:33Z</time>
      </trkpt>
      <trkpt lat="30.52343321993382" lon="114.39317687777744">
        <ele>18.82122802734375</ele>
        <time>2022-07-27T13:21:36Z</time>
      </trkpt>
      <trkpt lat="30.523603199072614" lon="114.3929748030994">
        <ele>19.2109375</ele>
        <time>2022-07-27T13:21:45Z</time>
      </trkpt>
      <trkpt lat="30.52366321621638" lon="114.39276473775676">
        <ele>16.85052490234375</ele>
        <time>2022-07-27T13:21:59Z</time>
      </trkpt>
      <trkpt lat="30.5236712395703" lon="114.39262069707843">
        <ele>19.08197021484375</ele>
        <time>2022-07-27T13:22:08Z</time>
      </trkpt>
      <trkpt lat="30.52359829593475" lon="114.39244265542192">
        <ele>17.84637451171875</ele>
        <time>2022-07-27T13:22:22Z</time>
      </trkpt>
      <trkpt lat="30.5235403302707" lon="114.39235963861405">
        <ele>17.54498291015625</ele>
        <time>2022-07-27T13:22:28Z</time>
      </trkpt>
      <trkpt lat="30.523437381722967" lon="114.39226362272605">
        <ele>19.42376708984375</ele>
        <time>2022-07-27T13:22:37Z</time>
      </trkpt>
      <trkpt lat="30.523375406920895" lon="114.39223562096805">
        <ele>19.5460205078125</ele>
        <time>2022-07-27T13:22:43Z</time>
      </trkpt>
      <trkpt lat="30.52308650317508" lon="114.39221164009885">
        <ele>20.203857421875</ele>
        <time>2022-07-27T13:23:08Z</time>
      </trkpt>
      <trkpt lat="30.52277260164675" lon="114.39221566855181">
        <ele>22.8934326171875</ele>
        <time>2022-07-27T13:23:32Z</time>
      </trkpt>
      <trkpt lat="30.522465699012574" lon="114.39221369486563">
        <ele>22.84857177734375</ele>
        <time>2022-07-27T13:23:56Z</time>
      </trkpt>
      <trkpt lat="30.522265756936832" lon="114.3922397189735">
        <ele>27.853271484375</ele>
        <time>2022-07-27T13:24:09Z</time>
      </trkpt>
      <trkpt lat="30.522131780469895" lon="114.3923347551969">
        <ele>25.932373046875</ele>
        <time>2022-07-27T13:24:24Z</time>
      </trkpt>
      <trkpt lat="30.52201377763768" lon="114.39254482124386">
        <ele>21.1123046875</ele>
        <time>2022-07-27T13:24:38Z</time>
      </trkpt>
      <trkpt lat="30.52199976492524" lon="114.39263784783074">
        <ele>19.24078369140625</ele>
        <time>2022-07-27T13:24:50Z</time>
      </trkpt>
      <trkpt lat="30.521972788331244" lon="114.39255682807524">
        <ele>19.19287109375</ele>
        <time>2022-07-27T13:24:59Z</time>
      </trkpt>
      <trkpt lat="30.522017843555247" lon="114.39219772994119">
        <ele>20.5887451171875</ele>
        <time>2022-07-27T13:25:23Z</time>
      </trkpt>
      <trkpt lat="30.52199986504146" lon="114.39211971186795">
        <ele>21.39739990234375</ele>
        <time>2022-07-27T13:25:29Z</time>
      </trkpt>
      <trkpt lat="30.52195389084724" lon="114.39206470221019">
        <ele>20.30517578125</ele>
        <time>2022-07-27T13:25:35Z</time>
      </trkpt>
      <trkpt lat="30.522025861146727" lon="114.39209870435712">
        <ele>16.71502685546875</ele>
        <time>2022-07-27T13:25:41Z</time>
      </trkpt>
      <trkpt lat="30.522058837692008" lon="114.39216271750735">
        <ele>16.33001708984375</ele>
        <time>2022-07-27T13:25:47Z</time>
      </trkpt>
      <trkpt lat="30.522106816499893" lon="114.39219272089717">
        <ele>15.2818603515625</ele>
        <time>2022-07-27T13:25:53Z</time>
      </trkpt>
      <trkpt lat="30.522204813359718" lon="114.39205667830323">
        <ele>0.0</ele>
        <time>2022-07-27T13:26:08Z</time>
      </trkpt>
    </trkseg>
  </trk>
</gpx>