<?xml version="1.0" encoding="UTF-8"?>
<gpx xmlns="http://www.topografix.com/GPX/1/1" xmlns:gpxtpx="http://www.garmin.com/xmlschemas/TrackPointExtension/v1" xmlns:xsi="http://www.w3.org/2001/XMLSchema-instance" xsi:schemaLocation="http://www.topografix.com/GPX/1/1 http://www.topografix.com/GPX/1/1/gpx.xsd" version="1.1" creator="gpx.py -- https://github.com/tkrajina/gpxpy">
  <trk>
    <name>gpx from keep</name>
    <type>Run</type>
    <trkseg>
      <trkpt lat="36.02717607736504" lon="119.4007980245206">
        <ele>61.3819580078125</ele>
        <time>2023-06-15T12:53:58Z</time>
      </trkpt>
      <trkpt lat="36.02688013021467" lon="119.4007150127211">
        <ele>61.4095458984375</ele>
        <time>2023-06-15T12:54:16Z</time>
      </trkpt>
      <trkpt lat="36.026580185548625" lon="119.40063900550949">
        <ele>62.1243896484375</ele>
        <time>2023-06-15T12:54:34Z</time>
      </trkpt>
      <trkpt lat="36.026296261265834" lon="119.40069706857632">
        <ele>62.125732421875</ele>
        <time>2023-06-15T12:54:52Z</time>
      </trkpt>
      <trkpt lat="36.02621228384533" lon="119.40071508772266">
        <ele>60.8826904296875</ele>
        <time>2023-06-15T12:54:58Z</time>
      </trkpt>
      <trkpt lat="36.025900358166986" lon="119.40072913032144">
        <ele>58.10089111328125</ele>
        <time>2023-06-15T12:55:19Z</time>
      </trkpt>
      <trkpt lat="36.02575039268107" lon="119.40072914716258">
        <ele>57.73590087890625</ele>
        <time>2023-06-15T12:55:28Z</time>
      </trkpt>
      <trkpt lat="36.02570040728646" lon="119.40074616198183">
        <ele>56.60198974609375</ele>
        <time>2023-06-15T12:55:31Z</time>
      </trkpt>
      <trkpt lat="36.02546145900584" lon="119.4007281790686">
        <ele>55.82415771484375</ele>
        <time>2023-06-15T12:55:46Z</time>
      </trkpt>
      <trkpt lat="36.025178513487965" lon="119.4006691790229">
        <ele>57.341552734375</ele>
        <time>2023-06-15T12:56:04Z</time>
      </trkpt>
      <trkpt lat="36.02490655543284" lon="119.40055214704346">
        <ele>58.19464111328125</ele>
        <time>2023-06-15T12:56:22Z</time>
      </trkpt>
      <trkpt lat="36.02463158880313" lon="119.4003760853289">
        <ele>54.3424072265625</ele>
        <time>2023-06-15T12:56:43Z</time>
      </trkpt>
      <trkpt lat="36.024377618568714" lon="119.40019902249132">
        <ele>57.34588623046875</ele>
        <time>2023-06-15T12:57:01Z</time>
      </trkpt>
      <trkpt lat="36.024192644027444" lon="119.40008898737676">
        <ele>60.90911865234375</ele>
        <time>2023-06-15T12:57:13Z</time>
      </trkpt>
      <trkpt lat="36.024172656519895" lon="119.40014001544753">
        <ele>61.06353759765625</ele>
        <time>2023-06-15T12:57:19Z</time>
      </trkpt>
      <trkpt lat="36.024443621875704" lon="119.40031407423507">
        <ele>58.83294677734375</ele>
        <time>2023-06-15T12:57:37Z</time>
      </trkpt>
      <trkpt lat="36.02470559272061" lon="119.40050014207227">
        <ele>60.33172607421875</ele>
        <time>2023-06-15T12:57:55Z</time>
      </trkpt>
      <trkpt lat="36.024969552161224" lon="119.40061617407218">
        <ele>60.426025390625</ele>
        <time>2023-06-15T12:58:10Z</time>
      </trkpt>
      <trkpt lat="36.02512751951323" lon="119.40063716757331">
        <ele>57.579833984375</ele>
        <time>2023-06-15T12:58:19Z</time>
      </trkpt>
      <trkpt lat="36.02527449408472" lon="119.40068417631568">
        <ele>55.2783203125</ele>
        <time>2023-06-15T12:58:28Z</time>
      </trkpt>
      <trkpt lat="36.025598432954695" lon="119.40075817994155">
        <ele>59.8724365234375</ele>
        <time>2023-06-15T12:58:49Z</time>
      </trkpt>
      <trkpt lat="36.025663419464216" lon="119.40076617698688">
        <ele>59.69073486328125</ele>
        <time>2023-06-15T12:58:52Z</time>
      </trkpt>
      <trkpt lat="36.025934347257206" lon="119.40071211731482">
        <ele>56.0126953125</ele>
        <time>2023-06-15T12:59:07Z</time>
      </trkpt>
      <trkpt lat="36.02610330674715" lon="119.40070309348198">
        <ele>59.2935791015625</ele>
        <time>2023-06-15T12:59:16Z</time>
      </trkpt>
      <trkpt lat="36.02615529695761" lon="119.40071509412239">
        <ele>57.88720703125</ele>
        <time>2023-06-15T12:59:19Z</time>
      </trkpt>
      <trkpt lat="36.026202283249845" lon="119.40069908020887">
        <ele>59.8819580078125</ele>
        <time>2023-06-15T12:59:22Z</time>
      </trkpt>
      <trkpt lat="36.026250273473764" lon="119.40070607859631">
        <ele>60.02789306640625</ele>
        <time>2023-06-15T12:59:25Z</time>
      </trkpt>
      <trkpt lat="36.02639523327721" lon="119.40066804184718">
        <ele>58.711181640625</ele>
        <time>2023-06-15T12:59:34Z</time>
      </trkpt>
      <trkpt lat="36.02644622208494" lon="119.40067103773406">
        <ele>56.77691650390625</ele>
        <time>2023-06-15T12:59:37Z</time>
      </trkpt>
      <trkpt lat="36.027194054764806" lon="119.40069696774995">
        <ele>0.0</ele>
        <time>2023-06-15T13:01:01Z</time>
      </trkpt>
      <trkpt lat="36.02784200390318" lon="119.40120817790581">
        <ele>52.4981689453125</ele>
        <time>2023-06-15T13:01:13Z</time>
      </trkpt>
      <trkpt lat="36.02791099744767" lon="119.40125419634967">
        <ele>53.9210205078125</ele>
        <time>2023-06-15T13:01:19Z</time>
      </trkpt>
      <trkpt lat="36.028001004899956" lon="119.40138926380035">
        <ele>56.609130859375</ele>
        <time>2023-06-15T13:01:31Z</time>
      </trkpt>
      <trkpt lat="36.02807403505208" lon="119.40160638242656">
        <ele>58.4429931640625</ele>
        <time>2023-06-15T13:01:49Z</time>
      </trkpt>
      <trkpt lat="36.028123070746844" lon="119.40181450098699">
        <ele>58.22576904296875</ele>
        <time>2023-06-15T13:02:07Z</time>
      </trkpt>
      <trkpt lat="36.02811321726436" lon="119.40240686861046">
        <ele>0.0</ele>
        <time>2023-06-15T13:02:31Z</time>
      </trkpt>
      <trkpt lat="36.028172140156656" lon="119.40215370292876">
        <ele>66.75701904296875</ele>
        <time>2023-06-15T13:02:34Z</time>
      </trkpt>
      <trkpt lat="36.02826714786642" lon="119.4022727666246">
        <ele>62.65289306640625</ele>
        <time>2023-06-15T13:02:40Z</time>
      </trkpt>
      <trkpt lat="36.02835618996164" lon="119.40251691161417">
        <ele>62.61431884765625</ele>
        <time>2023-06-15T13:02:52Z</time>
      </trkpt>
      <trkpt lat="36.028398187397585" lon="119.40254392425558">
        <ele>60.5885009765625</ele>
        <time>2023-06-15T13:02:55Z</time>
      </trkpt>
      <trkpt lat="36.02845420105581" lon="119.40264398261313">
        <ele>57.69891357421875</ele>
        <time>2023-06-15T13:03:01Z</time>
      </trkpt>
      <trkpt lat="36.02846121773871" lon="119.40271202610951">
        <ele>61.8677978515625</ele>
        <time>2023-06-15T13:03:04Z</time>
      </trkpt>
      <trkpt lat="36.02849322560658" lon="119.40276805918137">
        <ele>62.13873291015625</ele>
        <time>2023-06-15T13:03:07Z</time>
      </trkpt>
      <trkpt lat="36.0285442232001" lon="119.40280207580284">
        <ele>62.608642578125</ele>
        <time>2023-06-15T13:03:10Z</time>
      </trkpt>
      <trkpt lat="36.028660241900376" lon="119.40296517082584">
        <ele>58.57421875</ele>
        <time>2023-06-15T13:03:22Z</time>
      </trkpt>
      <trkpt lat="36.02868625918995" lon="119.4030472228313">
        <ele>59.7659912109375</ele>
        <time>2023-06-15T13:03:28Z</time>
      </trkpt>
      <trkpt lat="36.02874724832314" lon="119.40305822337963">
        <ele>59.76617431640625</ele>
        <time>2023-06-15T13:03:49Z</time>
      </trkpt>
      <trkpt lat="36.02878525395198" lon="119.40310825282228">
        <ele>60.357666015625</ele>
        <time>2023-06-15T13:03:55Z</time>
      </trkpt>
      <trkpt lat="36.02878037123043" lon="119.40349952188092">
        <ele>56.97491455078125</ele>
        <time>2023-06-15T13:04:19Z</time>
      </trkpt>
      <trkpt lat="36.02875850282894" lon="119.403901809452">
        <ele>53.93896484375</ele>
        <time>2023-06-15T13:04:40Z</time>
      </trkpt>
      <trkpt lat="36.02870653820259" lon="119.4039738673221">
        <ele>55.2445068359375</ele>
        <time>2023-06-15T13:04:46Z</time>
      </trkpt>
      <trkpt lat="36.028532609771354" lon="119.40406995669069">
        <ele>56.10760498046875</ele>
        <time>2023-06-15T13:04:58Z</time>
      </trkpt>
      <trkpt lat="36.02830571313953" lon="119.40422309455558">
        <ele>56.0445556640625</ele>
        <time>2023-06-15T13:05:13Z</time>
      </trkpt>
      <trkpt lat="36.02815081451629" lon="119.40441525486605">
        <ele>56.70220947265625</ele>
        <time>2023-06-15T13:05:28Z</time>
      </trkpt>
      <trkpt lat="36.02805986016389" lon="119.40448631845942">
        <ele>57.78607177734375</ele>
        <time>2023-06-15T13:05:34Z</time>
      </trkpt>
      <trkpt lat="36.027901979607414" lon="119.40472051414676">
        <ele>57.8314208984375</ele>
        <time>2023-06-15T13:05:49Z</time>
      </trkpt>
      <trkpt lat="36.02774915426617" lon="119.4050988253613">
        <ele>57.30291748046875</ele>
        <time>2023-06-15T13:06:13Z</time>
      </trkpt>
      <trkpt lat="36.02771023384381" lon="119.40528397661151">
        <ele>58.8748779296875</ele>
        <time>2023-06-15T13:06:22Z</time>
      </trkpt>
      <trkpt lat="36.027670288099294" lon="119.40540007418842">
        <ele>59.71075439453125</ele>
        <time>2023-06-15T13:06:28Z</time>
      </trkpt>
      <trkpt lat="36.02763641202658" lon="119.40569231571948">
        <ele>61.5635986328125</ele>
        <time>2023-06-15T13:06:43Z</time>
      </trkpt>
      <trkpt lat="36.027578441561715" lon="119.40573235517157">
        <ele>61.666259765625</ele>
        <time>2023-06-15T13:06:49Z</time>
      </trkpt>
      <trkpt lat="36.027506465426136" lon="119.40575037810673">
        <ele>61.22216796875</ele>
        <time>2023-06-15T13:06:55Z</time>
      </trkpt>
      <trkpt lat="36.02730344198197" lon="119.40557625808135">
        <ele>64.4747314453125</ele>
        <time>2023-06-15T13:07:10Z</time>
      </trkpt>
      <trkpt lat="36.027271426272" lon="119.4055182144528">
        <ele>63.27642822265625</ele>
        <time>2023-06-15T13:07:13Z</time>
      </trkpt>
      <trkpt lat="36.02721542135382" lon="119.40547318423404">
        <ele>59.0863037109375</ele>
        <time>2023-06-15T13:07:19Z</time>
      </trkpt>
      <trkpt lat="36.027158386291475" lon="119.40535009144156">
        <ele>60.98406982421875</ele>
        <time>2023-06-15T13:07:28Z</time>
      </trkpt>
      <trkpt lat="36.02712731313516" lon="119.40514092835362">
        <ele>59.4266357421875</ele>
        <time>2023-06-15T13:07:40Z</time>
      </trkpt>
      <trkpt lat="36.02718419078755" lon="119.40484769262837">
        <ele>59.38592529296875</ele>
        <time>2023-06-15T13:07:55Z</time>
      </trkpt>
      <trkpt lat="36.027190128511144" lon="119.40467956266724">
        <ele>57.3839111328125</ele>
        <time>2023-06-15T13:08:04Z</time>
      </trkpt>
      <trkpt lat="36.027120086380464" lon="119.40451544586446">
        <ele>56.9964599609375</ele>
        <time>2023-06-15T13:08:13Z</time>
      </trkpt>
      <trkpt lat="36.02698607638997" lon="119.40439837290694">
        <ele>57.741455078125</ele>
        <time>2023-06-15T13:08:22Z</time>
      </trkpt>
      <trkpt lat="36.02681509433846" lon="119.40433634578574">
        <ele>55.5906982421875</ele>
        <time>2023-06-15T13:08:34Z</time>
      </trkpt>
      <trkpt lat="36.02662114066854" lon="119.40434137128996">
        <ele>55.44873046875</ele>
        <time>2023-06-15T13:08:46Z</time>
      </trkpt>
      <trkpt lat="36.026573124709564" lon="119.40426231795622">
        <ele>57.70440673828125</ele>
        <time>2023-06-15T13:08:52Z</time>
      </trkpt>
      <trkpt lat="36.02654498879049" lon="119.40383100697805">
        <ele>50.6654052734375</ele>
        <time>2023-06-15T13:09:16Z</time>
      </trkpt>
      <trkpt lat="36.026564907293825" lon="119.40358683157989">
        <ele>53.27349853515625</ele>
        <time>2023-06-15T13:09:31Z</time>
      </trkpt>
      <trkpt lat="36.026593868355356" lon="119.40348175485236">
        <ele>57.7275390625</ele>
        <time>2023-06-15T13:09:37Z</time>
      </trkpt>
      <trkpt lat="36.02659584153285" lon="119.40339469422521">
        <ele>55.29937744140625</ele>
        <time>2023-06-15T13:09:43Z</time>
      </trkpt>
      <trkpt lat="36.026552843009874" lon="119.40336667970388">
        <ele>56.047119140625</ele>
        <time>2023-06-15T13:09:46Z</time>
      </trkpt>
      <trkpt lat="36.0264468646929" lon="119.40335768539373">
        <ele>57.287353515625</ele>
        <time>2023-06-15T13:09:52Z</time>
      </trkpt>
      <trkpt lat="36.02639489893225" lon="119.40343174242531">
        <ele>58.917724609375</ele>
        <time>2023-06-15T13:09:58Z</time>
      </trkpt>
      <trkpt lat="36.026445939623805" lon="119.4036028561893">
        <ele>61.9891357421875</ele>
        <time>2023-06-15T13:10:07Z</time>
      </trkpt>
      <trkpt lat="36.02641700034565" lon="119.40377498130786">
        <ele>60.5601806640625</ele>
        <time>2023-06-15T13:10:16Z</time>
      </trkpt>
      <trkpt lat="36.02643611741885" lon="119.40414724848799">
        <ele>61.95074462890625</ele>
        <time>2023-06-15T13:10:34Z</time>
      </trkpt>
      <trkpt lat="36.02646521704654" lon="119.40445847642101">
        <ele>59.8013916015625</ele>
        <time>2023-06-15T13:10:52Z</time>
      </trkpt>
      <trkpt lat="36.02638033024036" lon="119.40472268652852">
        <ele>62.37060546875</ele>
        <time>2023-06-15T13:11:07Z</time>
      </trkpt>
      <trkpt lat="36.026436400383155" lon="119.40494985586976">
        <ele>62.016357421875</ele>
        <time>2023-06-15T13:11:19Z</time>
      </trkpt>
      <trkpt lat="36.02660946619301" lon="119.40523005712382">
        <ele>58.2838134765625</ele>
        <time>2023-06-15T13:11:37Z</time>
      </trkpt>
      <trkpt lat="36.02669850452679" lon="119.40538216879705">
        <ele>57.61724853515625</ele>
        <time>2023-06-15T13:11:46Z</time>
      </trkpt>
      <trkpt lat="36.0267565494416" lon="119.40553028201253">
        <ele>57.863037109375</ele>
        <time>2023-06-15T13:11:55Z</time>
      </trkpt>
      <trkpt lat="36.02693864349928" lon="119.40586653802589">
        <ele>58.79827880859375</ele>
        <time>2023-06-15T13:12:16Z</time>
      </trkpt>
      <trkpt lat="36.02699865575191" lon="119.40592958384033">
        <ele>56.5565185546875</ele>
        <time>2023-06-15T13:12:22Z</time>
      </trkpt>
      <trkpt lat="36.0271717635131" lon="119.40627885962442">
        <ele>60.3299560546875</ele>
        <time>2023-06-15T13:12:53Z</time>
      </trkpt>
      <trkpt lat="36.027339839696" lon="119.40654206781466">
        <ele>58.064208984375</ele>
        <time>2023-06-15T13:13:14Z</time>
      </trkpt>
      <trkpt lat="36.02755589752883" lon="119.40678225420399">
        <ele>59.33966064453125</ele>
        <time>2023-06-15T13:13:32Z</time>
      </trkpt>
      <trkpt lat="36.0278079394914" lon="119.40700042009256">
        <ele>54.50335693359375</ele>
        <time>2023-06-15T13:13:53Z</time>
      </trkpt>
      <trkpt lat="36.02785396051331" lon="119.4070684760518">
        <ele>55.24407958984375</ele>
        <time>2023-06-15T13:13:59Z</time>
      </trkpt>
      <trkpt lat="36.02791297078669" lon="119.40711951544466">
        <ele>56.85479736328125</ele>
        <time>2023-06-15T13:14:05Z</time>
      </trkpt>
      <trkpt lat="36.02796402841369" lon="119.40726664318133">
        <ele>58.2933349609375</ele>
        <time>2023-06-15T13:14:17Z</time>
      </trkpt>
      <trkpt lat="36.02816204698088" lon="119.40740074369158">
        <ele>56.90643310546875</ele>
        <time>2023-06-15T13:14:32Z</time>
      </trkpt>
      <trkpt lat="36.0282450777032" lon="119.40750382941175">
        <ele>61.951416015625</ele>
        <time>2023-06-15T13:14:38Z</time>
      </trkpt>
      <trkpt lat="36.028431070551704" lon="119.40757687625864">
        <ele>59.93402099609375</ele>
        <time>2023-06-15T13:14:50Z</time>
      </trkpt>
      <trkpt lat="36.02850509922712" lon="119.4076699546698">
        <ele>63.18804931640625</ele>
        <time>2023-06-15T13:14:56Z</time>
      </trkpt>
      <trkpt lat="36.0286000946956" lon="119.40770497677093">
        <ele>62.90478515625</ele>
        <time>2023-06-15T13:15:02Z</time>
      </trkpt>
      <trkpt lat="36.02863811126039" lon="119.40775602037169">
        <ele>62.93487548828125</ele>
        <time>2023-06-15T13:15:05Z</time>
      </trkpt>
      <trkpt lat="36.028728119496044" lon="119.40781406488674">
        <ele>66.2015380859375</ele>
        <time>2023-06-15T13:15:11Z</time>
      </trkpt>
      <trkpt lat="36.02882710876459" lon="119.4078380764318">
        <ele>66.75531005859375</ele>
        <time>2023-06-15T13:15:17Z</time>
      </trkpt>
      <trkpt lat="36.028871113703474" lon="119.40786809985966">
        <ele>66.2490234375</ele>
        <time>2023-06-15T13:15:20Z</time>
      </trkpt>
      <trkpt lat="36.0291580997571" lon="119.40797116543064">
        <ele>67.6573486328125</ele>
        <time>2023-06-15T13:15:38Z</time>
      </trkpt>
      <trkpt lat="36.029208060975755" lon="119.40791710847981">
        <ele>63.9971923828125</ele>
        <time>2023-06-15T13:15:44Z</time>
      </trkpt>
      <trkpt lat="36.02929103234402" lon="119.40789808114039">
        <ele>62.0299072265625</ele>
        <time>2023-06-15T13:15:50Z</time>
      </trkpt>
      <trkpt lat="36.02937202180859" lon="119.40791408722666">
        <ele>62.19189453125</ele>
        <time>2023-06-15T13:15:56Z</time>
      </trkpt>
      <trkpt lat="36.029542007541224" lon="119.40796311471779">
        <ele>61.83624267578125</ele>
        <time>2023-06-15T13:16:05Z</time>
      </trkpt>
      <trkpt lat="36.029690962712664" lon="119.40794207801966">
        <ele>62.0498046875</ele>
        <time>2023-06-15T13:16:14Z</time>
      </trkpt>
      <trkpt lat="36.029804900268054" lon="119.40786999692834">
        <ele>58.40435791015625</ele>
        <time>2023-06-15T13:16:20Z</time>
      </trkpt>
      <trkpt lat="36.02994084900027" lon="119.40782994384963">
        <ele>59.68017578125</ele>
        <time>2023-06-15T13:16:29Z</time>
      </trkpt>
      <trkpt lat="36.03005976741073" lon="119.4077208279113">
        <ele>58.2799072265625</ele>
        <time>2023-06-15T13:16:38Z</time>
      </trkpt>
      <trkpt lat="36.03014773237067" lon="119.40769078991977">
        <ele>58.828369140625</ele>
        <time>2023-06-15T13:16:44Z</time>
      </trkpt>
      <trkpt lat="36.03023966843742" lon="119.40760369835154">
        <ele>60.2161865234375</ele>
        <time>2023-06-15T13:16:53Z</time>
      </trkpt>
      <trkpt lat="36.030337630285466" lon="119.4075716575785">
        <ele>64.8096923828125</ele>
        <time>2023-06-15T13:16:59Z</time>
      </trkpt>
      <trkpt lat="36.030583462611915" lon="119.40734141768789">
        <ele>59.56414794921875</ele>
        <time>2023-06-15T13:17:20Z</time>
      </trkpt>
      <trkpt lat="36.03071133799231" lon="119.40714022027777">
        <ele>61.0333251953125</ele>
        <time>2023-06-15T13:17:32Z</time>
      </trkpt>
      <trkpt lat="36.030788223673206" lon="119.40693202464344">
        <ele>58.76007080078125</ele>
        <time>2023-06-15T13:17:44Z</time>
      </trkpt>
      <trkpt lat="36.030828198425006" lon="119.40689698893117">
        <ele>59.773193359375</ele>
        <time>2023-06-15T13:17:47Z</time>
      </trkpt>
      <trkpt lat="36.03091602941139" lon="119.40656668810531">
        <ele>56.81243896484375</ele>
        <time>2023-06-15T13:18:11Z</time>
      </trkpt>
      <trkpt lat="36.03100187219791" lon="119.4062514065207">
        <ele>58.34027099609375</ele>
        <time>2023-06-15T13:18:29Z</time>
      </trkpt>
      <trkpt lat="36.03099883442452" lon="119.40616133020187">
        <ele>56.90087890625</ele>
        <time>2023-06-15T13:18:35Z</time>
      </trkpt>
      <trkpt lat="36.03106576624356" lon="119.40603621698037">
        <ele>55.95941162109375</ele>
        <time>2023-06-15T13:18:44Z</time>
      </trkpt>
      <trkpt lat="36.0310877182078" lon="119.40593312808282">
        <ele>57.5831298828125</ele>
        <time>2023-06-15T13:18:50Z</time>
      </trkpt>
      <trkpt lat="36.03107057999183" lon="119.4055838416376">
        <ele>57.3328857421875</ele>
        <time>2023-06-15T13:19:08Z</time>
      </trkpt>
      <trkpt lat="36.031002468943775" lon="119.40526058858195">
        <ele>59.1925048828125</ele>
        <time>2023-06-15T13:19:26Z</time>
      </trkpt>
      <trkpt lat="36.0308973551941" lon="119.40489431215497">
        <ele>55.39703369140625</ele>
        <time>2023-06-15T13:19:47Z</time>
      </trkpt>
      <trkpt lat="36.030802297749666" lon="119.4046761547746">
        <ele>56.46978759765625</ele>
        <time>2023-06-15T13:19:59Z</time>
      </trkpt>
      <trkpt lat="36.03067626003705" lon="119.40448802617178">
        <ele>56.324951171875</ele>
        <time>2023-06-15T13:20:11Z</time>
      </trkpt>
      <trkpt lat="36.030594254797435" lon="119.40441898349049">
        <ele>57.15716552734375</ele>
        <time>2023-06-15T13:20:17Z</time>
      </trkpt>
      <trkpt lat="36.03039721934895" lon="119.4041828301846">
        <ele>56.31658935546875</ele>
        <time>2023-06-15T13:20:35Z</time>
      </trkpt>
      <trkpt lat="36.03016121334444" lon="119.40400172428575">
        <ele>58.5911865234375</ele>
        <time>2023-06-15T13:20:53Z</time>
      </trkpt>
      <trkpt lat="36.02988923250042" lon="119.403868658726">
        <ele>60.1016845703125</ele>
        <time>2023-06-15T13:21:11Z</time>
      </trkpt>
      <trkpt lat="36.02962626054084" lon="119.40376761594862">
        <ele>61.03302001953125</ele>
        <time>2023-06-15T13:21:29Z</time>
      </trkpt>
      <trkpt lat="36.02944929704559" lon="119.40375462655612">
        <ele>62.83062744140625</ele>
        <time>2023-06-15T13:21:41Z</time>
      </trkpt>
      <trkpt lat="36.029287337412626" lon="119.40376465186951">
        <ele>60.00103759765625</ele>
        <time>2023-06-15T13:21:56Z</time>
      </trkpt>
      <trkpt lat="36.02924832486974" lon="119.40369660790587">
        <ele>59.10400390625</ele>
        <time>2023-06-15T13:22:02Z</time>
      </trkpt>
      <trkpt lat="36.02911938139337" lon="119.40378168285733">
        <ele>61.085693359375</ele>
        <time>2023-06-15T13:22:08Z</time>
      </trkpt>
      <trkpt lat="36.02900841549574" lon="119.4038087146127">
        <ele>62.2618408203125</ele>
        <time>2023-06-15T13:22:14Z</time>
      </trkpt>
      <trkpt lat="36.0289704111546" lon="119.40376768959757">
        <ele>64.519287109375</ele>
        <time>2023-06-15T13:22:20Z</time>
      </trkpt>
      <trkpt lat="36.02901836575883" lon="119.40365860682759">
        <ele>64.0286865234375</ele>
        <time>2023-06-15T13:22:32Z</time>
      </trkpt>
      <trkpt lat="36.029041309153044" lon="119.40349248769527">
        <ele>56.6192626953125</ele>
        <time>2023-06-15T13:22:44Z</time>
      </trkpt>
      <trkpt lat="36.02908827527521" lon="119.40341642958039">
        <ele>56.1920166015625</ele>
        <time>2023-06-15T13:22:50Z</time>
      </trkpt>
      <trkpt lat="36.029367177370325" lon="119.40330332030044">
        <ele>57.30126953125</ele>
        <time>2023-06-15T13:23:14Z</time>
      </trkpt>
      <trkpt lat="36.029531114931864" lon="119.40321924440742">
        <ele>55.61236572265625</ele>
        <time>2023-06-15T13:23:26Z</time>
      </trkpt>
      <trkpt lat="36.02971802452118" lon="119.40305511234268">
        <ele>56.0753173828125</ele>
        <time>2023-06-15T13:23:41Z</time>
      </trkpt>
      <trkpt lat="36.02988590521604" lon="119.40276590146729">
        <ele>58.41046142578125</ele>
        <time>2023-06-15T13:23:59Z</time>
      </trkpt>
      <trkpt lat="36.030038796741614" lon="119.40249070597395">
        <ele>57.0791015625</ele>
        <time>2023-06-15T13:24:14Z</time>
      </trkpt>
      <trkpt lat="36.03012174063032" lon="119.40234660499206">
        <ele>61.2529296875</ele>
        <time>2023-06-15T13:24:23Z</time>
      </trkpt>
      <trkpt lat="36.030188686644216" lon="119.4021925007409">
        <ele>56.670166015625</ele>
        <time>2023-06-15T13:24:32Z</time>
      </trkpt>
      <trkpt lat="36.030236597160346" lon="119.40186529441355">
        <ele>54.26190185546875</ele>
        <time>2023-06-15T13:24:50Z</time>
      </trkpt>
      <trkpt lat="36.03022357368307" lon="119.40175022664545">
        <ele>56.16400146484375</ele>
        <time>2023-06-15T13:24:56Z</time>
      </trkpt>
      <trkpt lat="36.0296234661591" lon="119.4005246029787">
        <ele>0.0</ele>
        <time>2023-06-15T13:25:59Z</time>
      </trkpt>
      <trkpt lat="36.029676463043366" lon="119.4005766246395">
        <ele>0.0</ele>
        <time>2023-06-15T13:26:05Z</time>
      </trkpt>
      <trkpt lat="36.029627463341924" lon="119.40051359670801">
        <ele>70.1019287109375</ele>
        <time>2023-06-15T13:26:11Z</time>
      </trkpt>
      <trkpt lat="36.029605458298384" lon="119.40045456807032">
        <ele>64.68994140625</ele>
        <time>2023-06-15T13:26:17Z</time>
      </trkpt>
      <trkpt lat="36.02946347695854" lon="119.4003715405859">
        <ele>63.2049560546875</ele>
        <time>2023-06-15T13:26:29Z</time>
      </trkpt>
      <trkpt lat="36.0293154934214" lon="119.40026450179008">
        <ele>64.79290771484375</ele>
        <time>2023-06-15T13:26:47Z</time>
      </trkpt>
      <trkpt lat="36.02918051497733" lon="119.4002054866695">
        <ele>60.13153076171875</ele>
        <time>2023-06-15T13:26:59Z</time>
      </trkpt>
      <trkpt lat="36.02909553306807" lon="119.40019649161262">
        <ele>60.95111083984375</ele>
        <time>2023-06-15T13:27:05Z</time>
      </trkpt>
      <trkpt lat="36.029048546875714" lon="119.40021550661054">
        <ele>62.41790771484375</ele>
        <time>2023-06-15T13:27:08Z</time>
      </trkpt>
      <trkpt lat="36.02873161903781" lon="119.40021154015886">
        <ele>58.801513671875</ele>
        <time>2023-06-15T13:27:29Z</time>
      </trkpt>
      <trkpt lat="36.028438690004734" lon="119.40023458484829">
        <ele>60.911865234375</ele>
        <time>2023-06-15T13:27:47Z</time>
      </trkpt>
      <trkpt lat="36.02819076583385" lon="119.40035067260476">
        <ele>58.6162109375</ele>
        <time>2023-06-15T13:28:05Z</time>
      </trkpt>
      <trkpt lat="36.02807581034994" lon="119.4004587419766">
        <ele>59.55828857421875</ele>
        <time>2023-06-15T13:28:14Z</time>
      </trkpt>
      <trkpt lat="36.027839914820554" lon="119.40074392062166">
        <ele>60.589599609375</ele>
        <time>2023-06-15T13:28:35Z</time>
      </trkpt>
      <trkpt lat="36.027662988140825" lon="119.40091903618888">
        <ele>61.8360595703125</ele>
        <time>2023-06-15T13:28:50Z</time>
      </trkpt>
      <trkpt lat="36.02761101605162" lon="119.40100208801766">
        <ele>61.78228759765625</ele>
        <time>2023-06-15T13:28:56Z</time>
      </trkpt>
      <trkpt lat="36.02755103120175" lon="119.40100909865099">
        <ele>61.48626708984375</ele>
        <time>2023-06-15T13:29:02Z</time>
      </trkpt>
      <trkpt lat="36.02752004457205" lon="119.40104111997933">
        <ele>61.44720458984375</ele>
        <time>2023-06-15T13:29:14Z</time>
      </trkpt>
      <trkpt lat="36.027521037513836" lon="119.40100610034915">
        <ele>66.4302978515625</ele>
        <time>2023-06-15T13:35:08Z</time>
      </trkpt>
      <trkpt lat="36.02739304374912" lon="119.40088504777778">
        <ele>61.17803955078125</ele>
        <time>2023-06-15T13:35:20Z</time>
      </trkpt>
      <trkpt lat="36.02730905273476" lon="119.40083002705379">
        <ele>59.0738525390625</ele>
        <time>2023-06-15T13:35:29Z</time>
      </trkpt>
      <trkpt lat="36.027207071534825" lon="119.40080502485576">
        <ele>59.0191650390625</ele>
        <time>2023-06-15T13:35:35Z</time>
      </trkpt>
      <trkpt lat="36.02710808070018" lon="119.40073099577238">
        <ele>59.9383544921875</ele>
        <time>2023-06-15T13:35:41Z</time>
      </trkpt>
      <trkpt lat="36.02688411956719" lon="119.40066098318127">
        <ele>61.994873046875</ele>
        <time>2023-06-15T13:35:56Z</time>
      </trkpt>
      <trkpt lat="36.0265891834788" lon="119.40063900449898">
        <ele>60.5350341796875</ele>
        <time>2023-06-15T13:36:14Z</time>
      </trkpt>
      <trkpt lat="36.026419219735786" lon="119.40062301501825">
        <ele>63.50994873046875</ele>
        <time>2023-06-15T13:36:23Z</time>
      </trkpt>
      <trkpt lat="36.026108296969234" lon="119.40065506708676">
        <ele>62.0684814453125</ele>
        <time>2023-06-15T13:36:44Z</time>
      </trkpt>
      <trkpt lat="36.025808375161674" lon="119.40070612822207">
        <ele>64.90533447265625</ele>
        <time>2023-06-15T13:37:02Z</time>
      </trkpt>
      <trkpt lat="36.0256894034495" lon="119.40071114428201">
        <ele>61.7662353515625</ele>
        <time>2023-06-15T13:37:11Z</time>
      </trkpt>
      <trkpt lat="36.0254124546243" lon="119.40064113771946">
        <ele>59.4736328125</ele>
        <time>2023-06-15T13:37:29Z</time>
      </trkpt>
      <trkpt lat="36.02509651483197" lon="119.40057013527966">
        <ele>61.19610595703125</ele>
        <time>2023-06-15T13:37:50Z</time>
      </trkpt>
      <trkpt lat="36.02510552457766" lon="119.40063717004328">
        <ele>61.372802734375</ele>
        <time>2023-06-15T13:37:56Z</time>
      </trkpt>
      <trkpt lat="36.02531048886429" lon="119.40070118143623">
        <ele>64.72637939453125</ele>
        <time>2023-06-15T13:38:08Z</time>
      </trkpt>
      <trkpt lat="36.02560042356803" lon="119.40070915319447">
        <ele>60.29974365234375</ele>
        <time>2023-06-15T13:38:26Z</time>
      </trkpt>
      <trkpt lat="36.025915356355306" lon="119.40073813350882">
        <ele>63.98687744140625</ele>
        <time>2023-06-15T13:38:50Z</time>
      </trkpt>
      <trkpt lat="36.02621228167238" lon="119.40070308124389">
        <ele>63.283203125</ele>
        <time>2023-06-15T13:39:08Z</time>
      </trkpt>
      <trkpt lat="36.02655620309156" lon="119.40070604423951">
        <ele>66.227783203125</ele>
        <time>2023-06-15T13:39:29Z</time>
      </trkpt>
      <trkpt lat="36.02682114269391" lon="119.40070901610515">
        <ele>63.29998779296875</ele>
        <time>2023-06-15T13:39:47Z</time>
      </trkpt>
      <trkpt lat="36.027020106780924" lon="119.4007630229985">
        <ele>64.00830078125</ele>
        <time>2023-06-15T13:39:59Z</time>
      </trkpt>
      <trkpt lat="36.02710708806426" lon="119.40077001703217">
        <ele>64.38922119140625</ele>
        <time>2023-06-15T13:40:05Z</time>
      </trkpt>
      <trkpt lat="36.027410043439055" lon="119.40090405632606">
        <ele>62.9736328125</ele>
        <time>2023-06-15T13:40:29Z</time>
      </trkpt>
      <trkpt lat="36.027493028737695" lon="119.40092705969256">
        <ele>60.1934814453125</ele>
        <time>2023-06-15T13:40:35Z</time>
      </trkpt>
      <trkpt lat="36.027721012794224" lon="119.40111413834228">
        <ele>60.96441650390625</ele>
        <time>2023-06-15T13:40:53Z</time>
      </trkpt>
      <trkpt lat="36.02795600242748" lon="119.40132823368164">
        <ele>63.25189208984375</ele>
        <time>2023-06-15T13:41:17Z</time>
      </trkpt>
      <trkpt lat="36.02803101980197" lon="119.40149131971287">
        <ele>65.323974609375</ele>
        <time>2023-06-15T13:41:29Z</time>
      </trkpt>
      <trkpt lat="36.02804704258312" lon="119.40161238900255">
        <ele>66.39111328125</ele>
        <time>2023-06-15T13:41:35Z</time>
      </trkpt>
      <trkpt lat="36.02816709593481" lon="119.40196558764444">
        <ele>65.017822265625</ele>
        <time>2023-06-15T13:41:53Z</time>
      </trkpt>
      <trkpt lat="36.0281751084051" lon="119.40202562350088">
        <ele>64.2940673828125</ele>
        <time>2023-06-15T13:41:56Z</time>
      </trkpt>
      <trkpt lat="36.02831015921777" lon="119.40235681477054">
        <ele>64.65570068359375</ele>
        <time>2023-06-15T13:42:14Z</time>
      </trkpt>
      <trkpt lat="36.0283401795666" lon="119.40246287882061">
        <ele>64.9744873046875</ele>
        <time>2023-06-15T13:42:20Z</time>
      </trkpt>
      <trkpt lat="36.02838919394227" lon="119.4025609362157">
        <ele>64.2608642578125</ele>
        <time>2023-06-15T13:42:26Z</time>
      </trkpt>
      <trkpt lat="36.02839921048383" lon="119.4026319810009">
        <ele>67.00860595703125</ele>
        <time>2023-06-15T13:42:29Z</time>
      </trkpt>
      <trkpt lat="36.02843922631273" lon="119.40272503707511">
        <ele>65.23419189453125</ele>
        <time>2023-06-15T13:42:35Z</time>
      </trkpt>
      <trkpt lat="36.02864324242618" lon="119.40295316472874">
        <ele>64.7210693359375</ele>
        <time>2023-06-15T13:42:53Z</time>
      </trkpt>
      <trkpt lat="36.02869323516664" lon="119.40296816912355">
        <ele>62.833984375</ele>
        <time>2023-06-15T13:42:56Z</time>
      </trkpt>
      <trkpt lat="36.028740241940284" lon="119.40303020535045">
        <ele>61.89208984375</ele>
        <time>2023-06-15T13:43:02Z</time>
      </trkpt>
      <trkpt lat="36.02876225779365" lon="119.40310325202728">
        <ele>62.720703125</ele>
        <time>2023-06-15T13:43:08Z</time>
      </trkpt>
      <trkpt lat="36.02875037323384" lon="119.4034835140916">
        <ele>63.2989501953125</ele>
        <time>2023-06-15T13:43:32Z</time>
      </trkpt>
      <trkpt lat="36.02872748931686" lon="119.40383776692862">
        <ele>63.90069580078125</ele>
        <time>2023-06-15T13:43:53Z</time>
      </trkpt>
      <trkpt lat="36.02872551851739" lon="119.40392683119016">
        <ele>63.6298828125</ele>
        <time>2023-06-15T13:43:59Z</time>
      </trkpt>
      <trkpt lat="36.02866755239851" lon="119.40398988330317">
        <ele>63.39117431640625</ele>
        <time>2023-06-15T13:44:05Z</time>
      </trkpt>
      <trkpt lat="36.02842166158595" lon="119.40414902701272">
        <ele>62.2669677734375</ele>
        <time>2023-06-15T13:44:23Z</time>
      </trkpt>
      <trkpt lat="36.02824174378879" lon="119.40427013652977">
        <ele>64.36273193359375</ele>
        <time>2023-06-15T13:44:35Z</time>
      </trkpt>
      <trkpt lat="36.02802288340652" lon="119.40452835432352">
        <ele>62.6912841796875</ele>
        <time>2023-06-15T13:44:53Z</time>
      </trkpt>
      <trkpt lat="36.02784703986376" lon="119.40485162130281">
        <ele>66.667724609375</ele>
        <time>2023-06-15T13:45:11Z</time>
      </trkpt>
      <trkpt lat="36.027723176517256" lon="119.40514186224394">
        <ele>65.9520263671875</ele>
        <time>2023-06-15T13:45:26Z</time>
      </trkpt>
      <trkpt lat="36.027717199599316" lon="119.4051989081019">
        <ele>65.7293701171875</ele>
        <time>2023-06-15T13:45:29Z</time>
      </trkpt>
      <trkpt lat="36.027687223731235" lon="119.40524394727197">
        <ele>66.40478515625</ele>
        <time>2023-06-15T13:45:32Z</time>
      </trkpt>
      <trkpt lat="36.02762936146744" lon="119.4055622100736">
        <ele>65.805908203125</ele>
        <time>2023-06-15T13:45:50Z</time>
      </trkpt>
      <trkpt lat="36.02763139583602" lon="119.40564928096987">
        <ele>63.850830078125</ele>
        <time>2023-06-15T13:45:56Z</time>
      </trkpt>
      <trkpt lat="36.02761043055459" lon="119.40572334415987">
        <ele>65.36920166015625</ele>
        <time>2023-06-15T13:46:02Z</time>
      </trkpt>
      <trkpt lat="36.02754143992952" lon="119.40570733872529">
        <ele>60.2999267578125</ele>
        <time>2023-06-15T13:46:08Z</time>
      </trkpt>
      <trkpt lat="36.027371443949946" lon="119.40562028639889">
        <ele>60.1986083984375</ele>
        <time>2023-06-15T13:46:23Z</time>
      </trkpt>
      <trkpt lat="36.027311430977896" lon="119.40555323843512">
        <ele>60.611083984375</ele>
        <time>2023-06-15T13:46:29Z</time>
      </trkpt>
      <trkpt lat="36.02719736451854" lon="119.40531706059845">
        <ele>63.20989990234375</ele>
        <time>2023-06-15T13:46:41Z</time>
      </trkpt>
      <trkpt lat="36.02714737485163" lon="119.40531406380791">
        <ele>63.246337890625</ele>
        <time>2023-06-15T13:46:47Z</time>
      </trkpt>
      <trkpt lat="36.027167337886546" lon="119.40522999449038">
        <ele>62.90618896484375</ele>
        <time>2023-06-15T13:46:59Z</time>
      </trkpt>
      <trkpt lat="36.027148261977324" lon="119.40501782913095">
        <ele>65.37744140625</ele>
        <time>2023-06-15T13:47:08Z</time>
      </trkpt>
      <trkpt lat="36.0271841842022" lon="119.40482967869931">
        <ele>60.80718994140625</ele>
        <time>2023-06-15T13:47:17Z</time>
      </trkpt>
      <trkpt lat="36.027130072511724" lon="119.4044824198427">
        <ele>62.88323974609375</ele>
        <time>2023-06-15T13:47:32Z</time>
      </trkpt>
      <trkpt lat="36.027009050074305" lon="119.40433732475377">
        <ele>61.885009765625</ele>
        <time>2023-06-15T13:47:41Z</time>
      </trkpt>
      <trkpt lat="36.02677506469249" lon="119.40422226568366">
        <ele>61.348876953125</ele>
        <time>2023-06-15T13:47:56Z</time>
      </trkpt>
      <trkpt lat="36.02662112116073" lon="119.40428432888535">
        <ele>60.83880615234375</ele>
        <time>2023-06-15T13:48:08Z</time>
      </trkpt>
      <trkpt lat="36.02657111093022" lon="119.40422028710599">
        <ele>61.2733154296875</ele>
        <time>2023-06-15T13:48:14Z</time>
      </trkpt>
      <trkpt lat="36.02654099452488" lon="119.40384601818207">
        <ele>57.4410400390625</ele>
        <time>2023-06-15T13:48:35Z</time>
      </trkpt>
      <trkpt lat="36.026545919730374" lon="119.40361285200257">
        <ele>54.32684326171875</ele>
        <time>2023-06-15T13:48:47Z</time>
      </trkpt>
      <trkpt lat="36.02659887790682" lon="119.40351677871219">
        <ele>59.1795654296875</ele>
        <time>2023-06-15T13:48:53Z</time>
      </trkpt>
      <trkpt lat="36.026599840612924" lon="119.40339469377618">
        <ele>58.83221435546875</ele>
        <time>2023-06-15T13:48:59Z</time>
      </trkpt>
      <trkpt lat="36.026566835297935" lon="119.40335166778527">
        <ele>59.84423828125</ele>
        <time>2023-06-15T13:49:02Z</time>
      </trkpt>
      <trkpt lat="36.02651984192386" lon="119.40333766341585">
        <ele>62.71636962890625</ele>
        <time>2023-06-15T13:49:05Z</time>
      </trkpt>
      <trkpt lat="36.02647085917286" lon="119.4033576826995">
        <ele>62.85894775390625</ele>
        <time>2023-06-15T13:49:08Z</time>
      </trkpt>
      <trkpt lat="36.02642988121767" lon="119.40339971632011">
        <ele>63.22186279296875</ele>
        <time>2023-06-15T13:49:11Z</time>
      </trkpt>
      <trkpt lat="36.026401906424155" lon="119.40346176248242">
        <ele>63.9583740234375</ele>
        <time>2023-06-15T13:49:14Z</time>
      </trkpt>
      <trkpt lat="36.026397927203604" lon="119.40352680826642">
        <ele>62.65826416015625</ele>
        <time>2023-06-15T13:49:17Z</time>
      </trkpt>
      <trkpt lat="36.026438952125154" lon="119.40363788163666">
        <ele>63.04718017578125</ele>
        <time>2023-06-15T13:49:23Z</time>
      </trkpt>
      <trkpt lat="36.02642308649184" lon="119.40404517532089">
        <ele>65.8326416015625</ele>
        <time>2023-06-15T13:49:44Z</time>
      </trkpt>
      <trkpt lat="36.02647412614958" lon="119.40419928249479">
        <ele>65.474853515625</ele>
        <time>2023-06-15T13:49:56Z</time>
      </trkpt>
      <trkpt lat="36.02649317870908" lon="119.40436640431504">
        <ele>65.08905029296875</ele>
        <time>2023-06-15T13:50:08Z</time>
      </trkpt>
      <trkpt lat="36.02647223538987" lon="119.4045155186038">
        <ele>64.82183837890625</ele>
        <time>2023-06-15T13:50:17Z</time>
      </trkpt>
      <trkpt lat="36.0265202832913" lon="119.40468163940507">
        <ele>64.30322265625</ele>
        <time>2023-06-15T13:50:29Z</time>
      </trkpt>
      <trkpt lat="36.02656829820169" lon="119.40475368923724">
        <ele>66.1705322265625</ele>
        <time>2023-06-15T13:50:35Z</time>
      </trkpt>
      <trkpt lat="36.02657731684073" lon="119.40481073215213">
        <ele>66.5205078125</ele>
        <time>2023-06-15T13:50:38Z</time>
      </trkpt>
      <trkpt lat="36.02673339161022" lon="119.40510894729552">
        <ele>61.875732421875</ele>
        <time>2023-06-15T13:51:05Z</time>
      </trkpt>
      <trkpt lat="36.02694945462386" lon="119.40540215672995">
        <ele>64.51910400390625</ele>
        <time>2023-06-15T13:51:23Z</time>
      </trkpt>
      <trkpt lat="36.027029462539204" lon="119.4054692018724">
        <ele>66.54266357421875</ele>
        <time>2023-06-15T13:51:29Z</time>
      </trkpt>
      <trkpt lat="36.027125505317244" lon="119.40563232383471">
        <ele>63.77032470703125</ele>
        <time>2023-06-15T13:51:41Z</time>
      </trkpt>
      <trkpt lat="36.027218520255474" lon="119.40572238733544">
        <ele>62.6375732421875</ele>
        <time>2023-06-15T13:51:53Z</time>
      </trkpt>
      <trkpt lat="36.0273165524768" lon="119.40585648727826">
        <ele>62.6304931640625</ele>
        <time>2023-06-15T13:52:05Z</time>
      </trkpt>
      <trkpt lat="36.02745652977398" lon="119.40587949070957">
        <ele>66.071533203125</ele>
        <time>2023-06-15T13:52:18Z</time>
      </trkpt>
      <trkpt lat="36.027684468303214" lon="119.40585744680448">
        <ele>66.677978515625</ele>
        <time>2023-06-15T13:52:36Z</time>
      </trkpt>
      <trkpt lat="36.0277504387552" lon="119.40582241031794">
        <ele>66.35980224609375</ele>
        <time>2023-06-15T13:52:42Z</time>
      </trkpt>
      <trkpt lat="36.027972298214024" lon="119.40560120340123">
        <ele>59.89569091796875</ele>
        <time>2023-06-15T13:53:03Z</time>
      </trkpt>
      <trkpt lat="36.02820614426918" lon="119.40534697139621">
        <ele>63.38037109375</ele>
        <time>2023-06-15T13:53:21Z</time>
      </trkpt>
      <trkpt lat="36.02829308026262" lon="119.40523287048526">
        <ele>64.11260986328125</ele>
        <time>2023-06-15T13:53:30Z</time>
      </trkpt>
      <trkpt lat="36.02845693992096" lon="119.40496063759505">
        <ele>68.144287109375</ele>
        <time>2023-06-15T13:53:54Z</time>
      </trkpt>
      <trkpt lat="36.02860578346363" lon="119.40462436173503">
        <ele>68.36212158203125</ele>
        <time>2023-06-15T13:54:12Z</time>
      </trkpt>
      <trkpt lat="36.02863871492774" lon="119.40445122711218">
        <ele>66.54541015625</ele>
        <time>2023-06-15T13:54:21Z</time>
      </trkpt>
      <trkpt lat="36.02870064619119" lon="119.40429310207207">
        <ele>66.47637939453125</ele>
        <time>2023-06-15T13:54:30Z</time>
      </trkpt>
      <trkpt lat="36.02874756337276" lon="119.40407893912773">
        <ele>61.80682373046875</ele>
        <time>2023-06-15T13:54:42Z</time>
      </trkpt>
      <trkpt lat="36.02883447406862" lon="119.40386677573265">
        <ele>65.99493408203125</ele>
        <time>2023-06-15T13:55:00Z</time>
      </trkpt>
      <trkpt lat="36.02885542520416" lon="119.40372867474409">
        <ele>64.52252197265625</ele>
        <time>2023-06-15T13:55:09Z</time>
      </trkpt>
      <trkpt lat="36.02890535417505" lon="119.40353753440431">
        <ele>64.57916259765625</ele>
        <time>2023-06-15T13:55:18Z</time>
      </trkpt>
      <trkpt lat="36.02887324821024" lon="119.40315827679319">
        <ele>64.892822265625</ele>
        <time>2023-06-15T13:55:42Z</time>
      </trkpt>
      <trkpt lat="36.02882820698338" lon="119.40297816064604">
        <ele>65.2745361328125</ele>
        <time>2023-06-15T13:55:54Z</time>
      </trkpt>
      <trkpt lat="36.028741164009126" lon="119.40275102018823">
        <ele>71.21441650390625</ele>
        <time>2023-06-15T13:56:09Z</time>
      </trkpt>
      <trkpt lat="36.0287661121024" lon="119.40257890549951">
        <ele>70.52203369140625</ele>
        <time>2023-06-15T13:56:21Z</time>
      </trkpt>
      <trkpt lat="36.028749099952435" lon="119.40251786813198">
        <ele>70.2008056640625</ele>
        <time>2023-06-15T13:56:24Z</time>
      </trkpt>
      <trkpt lat="36.02874807783105" lon="119.40243181322938">
        <ele>68.73699951171875</ele>
        <time>2023-06-15T13:56:30Z</time>
      </trkpt>
      <trkpt lat="36.02892103346407" lon="119.40241378234366">
        <ele>68.407958984375</ele>
        <time>2023-06-15T13:56:42Z</time>
      </trkpt>
      <trkpt lat="36.029004999843224" lon="119.40235773737092">
        <ele>68.154052734375</ele>
        <time>2023-06-15T13:56:48Z</time>
      </trkpt>
      <trkpt lat="36.02925898493519" lon="119.40252581600936">
        <ele>68.417236328125</ele>
        <time>2023-06-15T13:57:06Z</time>
      </trkpt>
      <trkpt lat="36.029309976637954" lon="119.40253881864173">
        <ele>68.789794921875</ele>
        <time>2023-06-15T13:57:12Z</time>
      </trkpt>
      <trkpt lat="36.02933996528982" lon="119.4025218043448">
        <ele>67.54852294921875</ele>
        <time>2023-06-15T13:57:15Z</time>
      </trkpt>
    </trkseg>
  </trk>
</gpx>