<?xml version="1.0" encoding="UTF-8"?>
<gpx xmlns="http://www.topografix.com/GPX/1/1" xmlns:gpxtpx="http://www.garmin.com/xmlschemas/TrackPointExtension/v1" xmlns:xsi="http://www.w3.org/2001/XMLSchema-instance" xsi:schemaLocation="http://www.topografix.com/GPX/1/1 http://www.topografix.com/GPX/1/1/gpx.xsd" version="1.1" creator="gpx.py -- https://github.com/tkrajina/gpxpy">
  <trk>
    <name>gpx from keep</name>
    <type>Run</type>
    <trkseg>
      <trkpt lat="35.975019036450966" lon="119.50771517290444">
        <ele>101.62957763671875</ele>
        <time>2022-01-16T09:45:39Z</time>
      </trkpt>
      <trkpt lat="35.97508385393595" lon="119.5076222854359">
        <ele>101.48992919921875</ele>
        <time>2022-01-16T09:45:45Z</time>
      </trkpt>
      <trkpt lat="35.975157827603915" lon="119.50760021490412">
        <ele>101.71136474609375</ele>
        <time>2022-01-16T09:45:48Z</time>
      </trkpt>
      <trkpt lat="35.97521789767031" lon="119.50755335956089">
        <ele>102.32720947265625</ele>
        <time>2022-01-16T09:45:51Z</time>
      </trkpt>
      <trkpt lat="35.97537587069204" lon="119.5075062212209">
        <ele>102.39715576171875</ele>
        <time>2022-01-16T09:45:57Z</time>
      </trkpt>
      <trkpt lat="35.975434041509466" lon="119.50745909365388">
        <ele>101.10345458984375</ele>
        <time>2022-01-16T09:46:00Z</time>
      </trkpt>
      <trkpt lat="35.97548213490211" lon="119.50730437796456">
        <ele>103.11663818359375</ele>
        <time>2022-01-16T09:46:06Z</time>
      </trkpt>
      <trkpt lat="35.97548791120065" lon="119.50723927900786">
        <ele>100.29974365234375</ele>
        <time>2022-01-16T09:46:09Z</time>
      </trkpt>
      <trkpt lat="35.97545786258084" lon="119.50716519539735">
        <ele>102.0264892578125</ele>
        <time>2022-01-16T09:46:12Z</time>
      </trkpt>
      <trkpt lat="35.975463888989694" lon="119.50700013335236">
        <ele>101.23175048828125</ele>
        <time>2022-01-16T09:46:18Z</time>
      </trkpt>
      <trkpt lat="35.97541698881566" lon="119.50672803161459">
        <ele>99.5576171875</ele>
        <time>2022-01-16T09:46:30Z</time>
      </trkpt>
      <trkpt lat="35.975418149535706" lon="119.5063834706633">
        <ele>97.8018798828125</ele>
        <time>2022-01-16T09:46:45Z</time>
      </trkpt>
      <trkpt lat="35.9753861673716" lon="119.50602011772766">
        <ele>99.19140625</ele>
        <time>2022-01-16T09:47:00Z</time>
      </trkpt>
      <trkpt lat="35.975383079167635" lon="119.50579948871003">
        <ele>99.39111328125</ele>
        <time>2022-01-16T09:47:09Z</time>
      </trkpt>
      <trkpt lat="35.97540694822869" lon="119.50570823804176">
        <ele>99.499267578125</ele>
        <time>2022-01-16T09:47:12Z</time>
      </trkpt>
      <trkpt lat="35.975394973001926" lon="119.50560146535844">
        <ele>101.3912353515625</ele>
        <time>2022-01-16T09:47:15Z</time>
      </trkpt>
      <trkpt lat="35.97540823542462" lon="119.50550013749158">
        <ele>101.4752197265625</ele>
        <time>2022-01-16T09:47:18Z</time>
      </trkpt>
      <trkpt lat="35.9753560499603" lon="119.50509211260722">
        <ele>102.20831298828125</ele>
        <time>2022-01-16T09:47:33Z</time>
      </trkpt>
      <trkpt lat="35.97534998337178" lon="119.50459746271817">
        <ele>101.8248291015625</ele>
        <time>2022-01-16T09:47:51Z</time>
      </trkpt>
      <trkpt lat="35.97532116548968" lon="119.5042055027952">
        <ele>103.39532470703125</ele>
        <time>2022-01-16T09:48:06Z</time>
      </trkpt>
      <trkpt lat="35.97530693203903" lon="119.5039772445159">
        <ele>101.56573486328125</ele>
        <time>2022-01-16T09:48:18Z</time>
      </trkpt>
      <trkpt lat="35.97539634094716" lon="119.50394754467395">
        <ele>102.366943359375</ele>
        <time>2022-01-16T09:48:21Z</time>
      </trkpt>
      <trkpt lat="35.97566626612458" lon="119.50397448170241">
        <ele>104.50390625</ele>
        <time>2022-01-16T09:48:33Z</time>
      </trkpt>
      <trkpt lat="35.97593127703731" lon="119.50389845706879">
        <ele>101.16455078125</ele>
        <time>2022-01-16T09:48:48Z</time>
      </trkpt>
      <trkpt lat="35.97606295159357" lon="119.50385458850444">
        <ele>101.41009521484375</ele>
        <time>2022-01-16T09:49:00Z</time>
      </trkpt>
      <trkpt lat="35.97630127272701" lon="119.50383249932618">
        <ele>101.17950439453125</ele>
        <time>2022-01-16T09:49:18Z</time>
      </trkpt>
      <trkpt lat="35.97636895815475" lon="119.50379354064144">
        <ele>100.62493896484375</ele>
        <time>2022-01-16T09:49:21Z</time>
      </trkpt>
      <trkpt lat="35.976580155914725" lon="119.50377036484278">
        <ele>103.48321533203125</ele>
        <time>2022-01-16T09:49:30Z</time>
      </trkpt>
      <trkpt lat="35.97663811345775" lon="119.50374339223005">
        <ele>103.51446533203125</ele>
        <time>2022-01-16T09:49:33Z</time>
      </trkpt>
      <trkpt lat="35.976751214222475" lon="119.50374664861603">
        <ele>101.556884765625</ele>
        <time>2022-01-16T09:49:39Z</time>
      </trkpt>
      <trkpt lat="35.976981089529396" lon="119.50371148574328">
        <ele>100.4219970703125</ele>
        <time>2022-01-16T09:49:54Z</time>
      </trkpt>
      <trkpt lat="35.97705923102127" lon="119.50372346231183">
        <ele>101.73187255859375</ele>
        <time>2022-01-16T09:49:57Z</time>
      </trkpt>
      <trkpt lat="35.97736710063696" lon="119.50365042913215">
        <ele>99.44415283203125</ele>
        <time>2022-01-16T09:50:09Z</time>
      </trkpt>
      <trkpt lat="35.97751619725414" lon="119.50362862197379">
        <ele>101.53936767578125</ele>
        <time>2022-01-16T09:50:15Z</time>
      </trkpt>
      <trkpt lat="35.977709000810286" lon="119.50362151899732">
        <ele>105.12823486328125</ele>
        <time>2022-01-16T09:50:24Z</time>
      </trkpt>
      <trkpt lat="35.97803803544281" lon="119.5035522968873">
        <ele>103.59808349609375</ele>
        <time>2022-01-16T09:50:39Z</time>
      </trkpt>
      <trkpt lat="35.97821836132844" lon="119.50354437809521">
        <ele>105.08917236328125</ele>
        <time>2022-01-16T09:50:48Z</time>
      </trkpt>
      <trkpt lat="35.9783079818719" lon="119.50349452143027">
        <ele>104.64764404296875</ele>
        <time>2022-01-16T09:50:54Z</time>
      </trkpt>
      <trkpt lat="35.97860725593268" lon="119.50344954499542">
        <ele>101.4486083984375</ele>
        <time>2022-01-16T09:51:09Z</time>
      </trkpt>
      <trkpt lat="35.97882424876426" lon="119.50336834986437">
        <ele>97.7156982421875</ele>
        <time>2022-01-16T09:51:21Z</time>
      </trkpt>
      <trkpt lat="35.978896211345514" lon="119.50330841668486">
        <ele>96.865966796875</ele>
        <time>2022-01-16T09:51:27Z</time>
      </trkpt>
      <trkpt lat="35.978950199149004" lon="119.50340647052406">
        <ele>99.9794921875</ele>
        <time>2022-01-16T09:51:33Z</time>
      </trkpt>
      <trkpt lat="35.97900296606728" lon="119.50355028555563">
        <ele>98.75830078125</ele>
        <time>2022-01-16T09:51:36Z</time>
      </trkpt>
      <trkpt lat="35.979028997071204" lon="119.50382430440965">
        <ele>97.75164794921875</ele>
        <time>2022-01-16T09:51:42Z</time>
      </trkpt>
      <trkpt lat="35.97910509624966" lon="119.50378752390124">
        <ele>98.90826416015625</ele>
        <time>2022-01-16T09:51:45Z</time>
      </trkpt>
      <trkpt lat="35.97911905008635" lon="119.50364533622196">
        <ele>100.45819091796875</ele>
        <time>2022-01-16T09:51:54Z</time>
      </trkpt>
      <trkpt lat="35.9790990874144" lon="119.50358949894846">
        <ele>100.39013671875</ele>
        <time>2022-01-16T09:51:57Z</time>
      </trkpt>
      <trkpt lat="35.979111273009984" lon="119.50349143806868">
        <ele>99.32501220703125</ele>
        <time>2022-01-16T09:52:03Z</time>
      </trkpt>
      <trkpt lat="35.97908724502488" lon="119.50316130629577">
        <ele>98.43890380859375</ele>
        <time>2022-01-16T09:52:18Z</time>
      </trkpt>
      <trkpt lat="35.97908537903868" lon="119.50280556675331">
        <ele>102.71759033203125</ele>
        <time>2022-01-16T09:52:33Z</time>
      </trkpt>
      <trkpt lat="35.97908022709773" lon="119.50243947588156">
        <ele>103.84173583984375</ele>
        <time>2022-01-16T09:52:54Z</time>
      </trkpt>
      <trkpt lat="35.97909728629637" lon="119.50224743910981">
        <ele>102.04510498046875</ele>
        <time>2022-01-16T09:53:06Z</time>
      </trkpt>
      <trkpt lat="35.97906529795036" lon="119.50197750373704">
        <ele>103.3663330078125</ele>
        <time>2022-01-16T09:53:21Z</time>
      </trkpt>
      <trkpt lat="35.97912802456893" lon="119.50191266795929">
        <ele>101.12335205078125</ele>
        <time>2022-01-16T09:53:27Z</time>
      </trkpt>
      <trkpt lat="35.97907924004894" lon="119.50174052224838">
        <ele>99.1953125</ele>
        <time>2022-01-16T09:53:33Z</time>
      </trkpt>
      <trkpt lat="35.97908415413921" lon="119.50156864292896">
        <ele>98.1904296875</ele>
        <time>2022-01-16T09:53:39Z</time>
      </trkpt>
      <trkpt lat="35.9790633955619" lon="119.5013362953058">
        <ele>99.83819580078125</ele>
        <time>2022-01-16T09:53:45Z</time>
      </trkpt>
      <trkpt lat="35.9790730284418" lon="119.50101841300771">
        <ele>102.9739990234375</ele>
        <time>2022-01-16T09:53:57Z</time>
      </trkpt>
      <trkpt lat="35.97910135508122" lon="119.50078551459768">
        <ele>102.00494384765625</ele>
        <time>2022-01-16T09:54:09Z</time>
      </trkpt>
      <trkpt lat="35.97909140055135" lon="119.50044747648515">
        <ele>103.0355224609375</ele>
        <time>2022-01-16T09:54:27Z</time>
      </trkpt>
      <trkpt lat="35.979110318181206" lon="119.50006040393853">
        <ele>101.48052978515625</ele>
        <time>2022-01-16T09:54:48Z</time>
      </trkpt>
      <trkpt lat="35.979132271434544" lon="119.49996451911022">
        <ele>102.50262451171875</ele>
        <time>2022-01-16T09:54:54Z</time>
      </trkpt>
      <trkpt lat="35.97912924407244" lon="119.49985855839924">
        <ele>100.7559814453125</ele>
        <time>2022-01-16T09:55:00Z</time>
      </trkpt>
      <trkpt lat="35.979161296575015" lon="119.49978446388167">
        <ele>97.75946044921875</ele>
        <time>2022-01-16T09:55:03Z</time>
      </trkpt>
      <trkpt lat="35.97914624115628" lon="119.49946440289732">
        <ele>99.90399169921875</ele>
        <time>2022-01-16T09:55:21Z</time>
      </trkpt>
      <trkpt lat="35.97915893780818" lon="119.49926555391825">
        <ele>99.4268798828125</ele>
        <time>2022-01-16T09:55:33Z</time>
      </trkpt>
      <trkpt lat="35.97919812755276" lon="119.49912935259741">
        <ele>94.841552734375</ele>
        <time>2022-01-16T09:55:42Z</time>
      </trkpt>
      <trkpt lat="35.979214096223686" lon="119.49893649571965">
        <ele>93.7611083984375</ele>
        <time>2022-01-16T09:55:54Z</time>
      </trkpt>
      <trkpt lat="35.9792041689754" lon="119.49888147313509">
        <ele>96.55712890625</ele>
        <time>2022-01-16T09:55:57Z</time>
      </trkpt>
      <trkpt lat="35.97924311084244" lon="119.4985712115501">
        <ele>94.9989013671875</ele>
        <time>2022-01-16T09:56:12Z</time>
      </trkpt>
      <trkpt lat="35.979237063937" lon="119.49845326531361">
        <ele>95.17486572265625</ele>
        <time>2022-01-16T09:56:18Z</time>
      </trkpt>
      <trkpt lat="35.97927326227773" lon="119.49804167276291">
        <ele>95.298095703125</ele>
        <time>2022-01-16T09:56:39Z</time>
      </trkpt>
      <trkpt lat="35.9792971692849" lon="119.49796458238002">
        <ele>95.29052734375</ele>
        <time>2022-01-16T09:56:45Z</time>
      </trkpt>
      <trkpt lat="35.9793052590677" lon="119.49767638749091">
        <ele>98.24163818359375</ele>
        <time>2022-01-16T09:57:00Z</time>
      </trkpt>
      <trkpt lat="35.97936416303405" lon="119.49733071152305">
        <ele>94.65386962890625</ele>
        <time>2022-01-16T09:57:21Z</time>
      </trkpt>
      <trkpt lat="35.97934511509091" lon="119.49721848671663">
        <ele>97.52935791015625</ele>
        <time>2022-01-16T09:57:27Z</time>
      </trkpt>
      <trkpt lat="35.979379116581335" lon="119.4971615523879">
        <ele>98.58837890625</ele>
        <time>2022-01-16T09:57:30Z</time>
      </trkpt>
      <trkpt lat="35.97941619031956" lon="119.49704360115078">
        <ele>95.8896484375</ele>
        <time>2022-01-16T09:57:36Z</time>
      </trkpt>
      <trkpt lat="35.97941211778416" lon="119.49695125954463">
        <ele>95.88226318359375</ele>
        <time>2022-01-16T09:57:42Z</time>
      </trkpt>
      <trkpt lat="35.979463145118515" lon="119.49678345839133">
        <ele>93.82952880859375</ele>
        <time>2022-01-16T09:57:51Z</time>
      </trkpt>
      <trkpt lat="35.979493988225954" lon="119.49648627153458">
        <ele>96.91937255859375</ele>
        <time>2022-01-16T09:58:09Z</time>
      </trkpt>
      <trkpt lat="35.97955425956233" lon="119.49614468095056">
        <ele>96.18817138671875</ele>
        <time>2022-01-16T09:58:27Z</time>
      </trkpt>
      <trkpt lat="35.979576269081875" lon="119.49588644755198">
        <ele>96.5565185546875</ele>
        <time>2022-01-16T09:58:42Z</time>
      </trkpt>
      <trkpt lat="35.979608380980665" lon="119.49583250973407">
        <ele>95.5716552734375</ele>
        <time>2022-01-16T09:58:45Z</time>
      </trkpt>
      <trkpt lat="35.97962332839477" lon="119.49566144369038">
        <ele>95.1107177734375</ele>
        <time>2022-01-16T09:58:54Z</time>
      </trkpt>
      <trkpt lat="35.97965629620876" lon="119.49562167035056">
        <ele>96.15460205078125</ele>
        <time>2022-01-16T09:58:57Z</time>
      </trkpt>
      <trkpt lat="35.97983741111328" lon="119.49560557930157">
        <ele>95.63372802734375</ele>
        <time>2022-01-16T09:59:09Z</time>
      </trkpt>
      <trkpt lat="35.97990541607412" lon="119.49558323546448">
        <ele>96.96893310546875</ele>
        <time>2022-01-16T09:59:15Z</time>
      </trkpt>
      <trkpt lat="35.97992803914443" lon="119.4955303882643">
        <ele>97.77728271484375</ele>
        <time>2022-01-16T09:59:18Z</time>
      </trkpt>
      <trkpt lat="35.97996410068051" lon="119.49516455714775">
        <ele>95.44317626953125</ele>
        <time>2022-01-16T09:59:36Z</time>
      </trkpt>
      <trkpt lat="35.979943347153345" lon="119.49493547482165">
        <ele>93.91943359375</ele>
        <time>2022-01-16T09:59:51Z</time>
      </trkpt>
      <trkpt lat="35.979971360865406" lon="119.49487145884702">
        <ele>93.34320068359375</ele>
        <time>2022-01-16T09:59:54Z</time>
      </trkpt>
      <trkpt lat="35.98017303991952" lon="119.49483956662672">
        <ele>91.10198974609375</ele>
        <time>2022-01-16T10:00:09Z</time>
      </trkpt>
      <trkpt lat="35.980244136364874" lon="119.49485345105225">
        <ele>91.84210205078125</ele>
        <time>2022-01-16T10:00:15Z</time>
      </trkpt>
      <trkpt lat="35.98047427944016" lon="119.49481746980163">
        <ele>93.15167236328125</ele>
        <time>2022-01-16T10:00:33Z</time>
      </trkpt>
      <trkpt lat="35.98051215818272" lon="119.49478750218341">
        <ele>94.6339111328125</ele>
        <time>2022-01-16T10:00:36Z</time>
      </trkpt>
      <trkpt lat="35.980556128732374" lon="119.49479948279361">
        <ele>95.2139892578125</ele>
        <time>2022-01-16T10:00:39Z</time>
      </trkpt>
      <trkpt lat="35.98084221284675" lon="119.494697303375">
        <ele>101.6033935546875</ele>
        <time>2022-01-16T10:01:00Z</time>
      </trkpt>
      <trkpt lat="35.981022291030214" lon="119.49469728376751">
        <ele>94.1033935546875</ele>
        <time>2022-01-16T10:01:12Z</time>
      </trkpt>
      <trkpt lat="35.981327292455724" lon="119.49466347353153">
        <ele>95.3646240234375</ele>
        <time>2022-01-16T10:01:33Z</time>
      </trkpt>
      <trkpt lat="35.981550339578895" lon="119.49461251131233">
        <ele>92.0604248046875</ele>
        <time>2022-01-16T10:01:51Z</time>
      </trkpt>
      <trkpt lat="35.9815752479683" lon="119.49450763639781">
        <ele>91.61981201171875</ele>
        <time>2022-01-16T10:01:57Z</time>
      </trkpt>
      <trkpt lat="35.98158528025043" lon="119.49432540286851">
        <ele>90.946533203125</ele>
        <time>2022-01-16T10:02:09Z</time>
      </trkpt>
      <trkpt lat="35.9815712633376" lon="119.49426329828539">
        <ele>90.1131591796875</ele>
        <time>2022-01-16T10:02:12Z</time>
      </trkpt>
      <trkpt lat="35.98156639754237" lon="119.49399635158086">
        <ele>89.47760009765625</ele>
        <time>2022-01-16T10:02:27Z</time>
      </trkpt>
      <trkpt lat="35.98157432562464" lon="119.49365449503033">
        <ele>89.7017822265625</ele>
        <time>2022-01-16T10:02:48Z</time>
      </trkpt>
      <trkpt lat="35.981581301326905" lon="119.49353845407346">
        <ele>86.21502685546875</ele>
        <time>2022-01-16T10:02:57Z</time>
      </trkpt>
      <trkpt lat="35.9815564242975" lon="119.49338155741565">
        <ele>88.25634765625</ele>
        <time>2022-01-16T10:03:06Z</time>
      </trkpt>
      <trkpt lat="35.981580267001824" lon="119.49310153319155">
        <ele>89.88665771484375</ele>
        <time>2022-01-16T10:03:24Z</time>
      </trkpt>
      <trkpt lat="35.98156016853367" lon="119.4928193348293">
        <ele>88.34295654296875</ele>
        <time>2022-01-16T10:03:42Z</time>
      </trkpt>
      <trkpt lat="35.98156522025252" lon="119.49287626467937">
        <ele>87.582763671875</ele>
        <time>2022-01-16T10:04:00Z</time>
      </trkpt>
      <trkpt lat="35.98156522025252" lon="119.49287626467937">
        <ele>87.582763671875</ele>
        <time>2022-01-16T10:04:02Z</time>
      </trkpt>
    </trkseg>
  </trk>
</gpx>