<?xml version="1.0" encoding="UTF-8"?>
<gpx xmlns="http://www.topografix.com/GPX/1/1" xmlns:gpxtpx="http://www.garmin.com/xmlschemas/TrackPointExtension/v1" xmlns:xsi="http://www.w3.org/2001/XMLSchema-instance" xsi:schemaLocation="http://www.topografix.com/GPX/1/1 http://www.topografix.com/GPX/1/1/gpx.xsd" version="1.1" creator="gpx.py -- https://github.com/tkrajina/gpxpy">
  <trk>
    <name>gpx from keep</name>
    <type>Run</type>
    <trkseg>
      <trkpt lat="36.02745404018593" lon="119.40094007125495">
        <ele>66.6259765625</ele>
        <time>2023-05-17T12:14:54Z</time>
      </trkpt>
      <trkpt lat="36.027373043449494" lon="119.40085903574675">
        <ele>66.7882080078125</ele>
        <time>2023-05-17T12:15:00Z</time>
      </trkpt>
      <trkpt lat="36.02708609050667" lon="119.40075701233135">
        <ele>65.416748046875</ele>
        <time>2023-05-17T12:15:15Z</time>
      </trkpt>
      <trkpt lat="36.026968104380494" lon="119.40068398612016">
        <ele>66.213134765625</ele>
        <time>2023-05-17T12:15:21Z</time>
      </trkpt>
      <trkpt lat="36.02668816517449" lon="119.40066400679981">
        <ele>64.322998046875</ele>
        <time>2023-05-17T12:15:36Z</time>
      </trkpt>
      <trkpt lat="36.0265291983464" lon="119.40064501445241">
        <ele>62.17950439453125</ele>
        <time>2023-05-17T12:15:45Z</time>
      </trkpt>
      <trkpt lat="36.02622827169069" lon="119.40066806059744">
        <ele>64.26251220703125</ele>
        <time>2023-05-17T12:16:00Z</time>
      </trkpt>
      <trkpt lat="36.02594734499142" lon="119.40071611801596">
        <ele>62.34417724609375</ele>
        <time>2023-05-17T12:16:15Z</time>
      </trkpt>
      <trkpt lat="36.02566141498296" lon="119.400739162568">
        <ele>63.70135498046875</ele>
        <time>2023-05-17T12:16:30Z</time>
      </trkpt>
      <trkpt lat="36.025524446145894" lon="119.40073717686637">
        <ele>65.15655517578125</ele>
        <time>2023-05-17T12:16:36Z</time>
      </trkpt>
      <trkpt lat="36.02519850798823" lon="119.40066417408998">
        <ele>64.55499267578125</ele>
        <time>2023-05-17T12:16:54Z</time>
      </trkpt>
      <trkpt lat="36.02498554900867" lon="119.40061917388003">
        <ele>63.90838623046875</ele>
        <time>2023-05-17T12:17:06Z</time>
      </trkpt>
      <trkpt lat="36.02472158629374" lon="119.40048413183351">
        <ele>65.0606689453125</ele>
        <time>2023-05-17T12:17:21Z</time>
      </trkpt>
      <trkpt lat="36.02461860235896" lon="119.4004391197304">
        <ele>61.619384765625</ele>
        <time>2023-05-17T12:17:27Z</time>
      </trkpt>
      <trkpt lat="36.024367628846306" lon="119.40024904924144">
        <ele>64.2523193359375</ele>
        <time>2023-05-17T12:17:42Z</time>
      </trkpt>
      <trkpt lat="36.02411865149211" lon="119.40002596398504">
        <ele>59.018310546875</ele>
        <time>2023-05-17T12:18:00Z</time>
      </trkpt>
      <trkpt lat="36.023874674784466" lon="119.39979987950088">
        <ele>59.96026611328125</ele>
        <time>2023-05-17T12:18:18Z</time>
      </trkpt>
      <trkpt lat="36.02380267862254" lon="119.39970784286415">
        <ele>58.4429931640625</ele>
        <time>2023-05-17T12:18:24Z</time>
      </trkpt>
      <trkpt lat="36.02608530101082" lon="119.40064806591255">
        <ele>0.0</ele>
        <time>2023-05-17T12:20:55Z</time>
      </trkpt>
      <trkpt lat="36.026477214058616" lon="119.40066603156538">
        <ele>67.29815673828125</ele>
        <time>2023-05-17T12:21:17Z</time>
      </trkpt>
      <trkpt lat="36.026567197672314" lon="119.40069003437598">
        <ele>66.1591796875</ele>
        <time>2023-05-17T12:21:23Z</time>
      </trkpt>
      <trkpt lat="36.02670016546562" lon="119.40068101459578">
        <ele>63.32916259765625</ele>
        <time>2023-05-17T12:21:35Z</time>
      </trkpt>
      <trkpt lat="36.02697111056157" lon="119.40072200628674">
        <ele>60.2947998046875</ele>
        <time>2023-05-17T12:21:50Z</time>
      </trkpt>
      <trkpt lat="36.027246067403595" lon="119.40083103467421">
        <ele>61.2840576171875</ele>
        <time>2023-05-17T12:22:05Z</time>
      </trkpt>
      <trkpt lat="36.02753403142255" lon="119.40099008999006">
        <ele>64.02484130859375</ele>
        <time>2023-05-17T12:22:20Z</time>
      </trkpt>
      <trkpt lat="36.027789006776885" lon="119.40116215778501">
        <ele>62.69146728515625</ele>
        <time>2023-05-17T12:22:35Z</time>
      </trkpt>
      <trkpt lat="36.02797999712148" lon="119.4013292315618">
        <ele>62.751953125</ele>
        <time>2023-05-17T12:22:47Z</time>
      </trkpt>
      <trkpt lat="36.02820098963477" lon="119.40153232461958">
        <ele>63.70697021484375</ele>
        <time>2023-05-17T12:23:02Z</time>
      </trkpt>
      <trkpt lat="36.028308983717714" lon="119.40161836313169">
        <ele>63.558837890625</ele>
        <time>2023-05-17T12:23:08Z</time>
      </trkpt>
      <trkpt lat="36.028512959015416" lon="119.40171739903744">
        <ele>62.39215087890625</ele>
        <time>2023-05-17T12:23:20Z</time>
      </trkpt>
      <trkpt lat="36.02870992466862" lon="119.40176540563209">
        <ele>64.34405517578125</ele>
        <time>2023-05-17T12:23:32Z</time>
      </trkpt>
      <trkpt lat="36.02899585739127" lon="119.40175836932382">
        <ele>65.06298828125</ele>
        <time>2023-05-17T12:23:47Z</time>
      </trkpt>
      <trkpt lat="36.02924179953901" lon="119.4017523381081">
        <ele>64.6365966796875</ele>
        <time>2023-05-17T12:24:02Z</time>
      </trkpt>
      <trkpt lat="36.02934978113364" lon="119.40178034277098">
        <ele>65.5496826171875</ele>
        <time>2023-05-17T12:24:08Z</time>
      </trkpt>
      <trkpt lat="36.02962071549327" lon="119.4017653033418">
        <ele>66.08099365234375</ele>
        <time>2023-05-17T12:24:23Z</time>
      </trkpt>
      <trkpt lat="36.02984166385419" lon="119.40176127612872">
        <ele>66.0511474609375</ele>
        <time>2023-05-17T12:24:35Z</time>
      </trkpt>
      <trkpt lat="36.02997064179632" lon="119.40179428145302">
        <ele>63.023193359375</ele>
        <time>2023-05-17T12:24:41Z</time>
      </trkpt>
      <trkpt lat="36.03009061494598" lon="119.40179726978246">
        <ele>64.52777099609375</ele>
        <time>2023-05-17T12:24:53Z</time>
      </trkpt>
      <trkpt lat="36.03037357155552" lon="119.40189029417864">
        <ele>63.8671875</ele>
        <time>2023-05-17T12:25:17Z</time>
      </trkpt>
      <trkpt lat="36.03045355063149" lon="119.40187927852583">
        <ele>63.5865478515625</ele>
        <time>2023-05-17T12:25:23Z</time>
      </trkpt>
      <trkpt lat="36.030495533553136" lon="119.40184725444577">
        <ele>64.95245361328125</ele>
        <time>2023-05-17T12:25:32Z</time>
      </trkpt>
      <trkpt lat="36.03051054433798" lon="119.40190828972398">
        <ele>64.34197998046875</ele>
        <time>2023-05-17T12:25:38Z</time>
      </trkpt>
      <trkpt lat="36.030561543948735" lon="119.4019563132306">
        <ele>63.55780029296875</ele>
        <time>2023-05-17T12:25:44Z</time>
      </trkpt>
      <trkpt lat="36.03066258011762" lon="119.4022014531331">
        <ele>65.41571044921875</ele>
        <time>2023-05-17T12:26:08Z</time>
      </trkpt>
      <trkpt lat="36.030532520667194" lon="119.40182823882114">
        <ele>64.029052734375</ele>
        <time>2023-05-17T12:27:32Z</time>
      </trkpt>
      <trkpt lat="36.030411534192005" lon="119.40176621512204">
        <ele>60.1417236328125</ele>
        <time>2023-05-17T12:27:44Z</time>
      </trkpt>
      <trkpt lat="36.030239580065796" lon="119.40179425124764">
        <ele>56.60919189453125</ele>
        <time>2023-05-17T12:27:53Z</time>
      </trkpt>
      <trkpt lat="36.03016359521276" lon="119.40178425377219">
        <ele>59.25396728515625</ele>
        <time>2023-05-17T12:27:56Z</time>
      </trkpt>
      <trkpt lat="36.03011561519418" lon="119.40182328263043">
        <ele>59.22552490234375</ele>
        <time>2023-05-17T12:27:59Z</time>
      </trkpt>
      <trkpt lat="36.030061708635806" lon="119.40216349693638">
        <ele>61.87042236328125</ele>
        <time>2023-05-17T12:28:14Z</time>
      </trkpt>
      <trkpt lat="36.029897826497354" lon="119.40248071540236">
        <ele>62.5140380859375</ele>
        <time>2023-05-17T12:28:29Z</time>
      </trkpt>
      <trkpt lat="36.02972692839078" lon="119.40271688723361">
        <ele>65.011962890625</ele>
        <time>2023-05-17T12:28:41Z</time>
      </trkpt>
      <trkpt lat="36.02966295831224" lon="119.40277293110047">
        <ele>66.095703125</ele>
        <time>2023-05-17T12:28:47Z</time>
      </trkpt>
      <trkpt lat="36.029462059149786" lon="119.40297008411966">
        <ele>63.4107666015625</ele>
        <time>2023-05-17T12:28:59Z</time>
      </trkpt>
      <trkpt lat="36.02922913763832" lon="119.40305816926369">
        <ele>60.92083740234375</ele>
        <time>2023-05-17T12:29:11Z</time>
      </trkpt>
      <trkpt lat="36.02898722174028" lon="119.40315726331569">
        <ele>62.1990966796875</ele>
        <time>2023-05-17T12:29:23Z</time>
      </trkpt>
      <trkpt lat="36.02885529256114" lon="119.40329537229245">
        <ele>65.3472900390625</ele>
        <time>2023-05-17T12:29:32Z</time>
      </trkpt>
      <trkpt lat="36.02875636637208" lon="119.4034655008833">
        <ele>63.8399658203125</ele>
        <time>2023-05-17T12:29:41Z</time>
      </trkpt>
      <trkpt lat="36.02872548753075" lon="119.40383076213563">
        <ele>65.9144287109375</ele>
        <time>2023-05-17T12:29:56Z</time>
      </trkpt>
      <trkpt lat="36.02872150776762" lon="119.4038908056824">
        <ele>67.23419189453125</ele>
        <time>2023-05-17T12:29:59Z</time>
      </trkpt>
      <trkpt lat="36.02867853256379" lon="119.40393684368995">
        <ele>66.53955078125</ele>
        <time>2023-05-17T12:30:02Z</time>
      </trkpt>
      <trkpt lat="36.028446647150886" lon="119.4041230051242">
        <ele>65.149169921875</ele>
        <time>2023-05-17T12:30:17Z</time>
      </trkpt>
      <trkpt lat="36.02830371664481" lon="119.4042321014322">
        <ele>64.38983154296875</ele>
        <time>2023-05-17T12:30:26Z</time>
      </trkpt>
      <trkpt lat="36.02806086413777" lon="119.40449832739708">
        <ele>63.3187255859375</ele>
        <time>2023-05-17T12:30:41Z</time>
      </trkpt>
      <trkpt lat="36.02795193727697" lon="119.40463444277127">
        <ele>62.46295166015625</ele>
        <time>2023-05-17T12:30:47Z</time>
      </trkpt>
      <trkpt lat="36.027808090148966" lon="119.40496371279079">
        <ele>62.80828857421875</ele>
        <time>2023-05-17T12:31:02Z</time>
      </trkpt>
      <trkpt lat="36.02777811380496" lon="119.40500875135899">
        <ele>62.1968994140625</ele>
        <time>2023-05-17T12:31:05Z</time>
      </trkpt>
      <trkpt lat="36.027668254318144" lon="119.4053120037251">
        <ele>63.9708251953125</ele>
        <time>2023-05-17T12:31:23Z</time>
      </trkpt>
      <trkpt lat="36.02760342122832" lon="119.40569632271367">
        <ele>65.030029296875</ele>
        <time>2023-05-17T12:31:41Z</time>
      </trkpt>
      <trkpt lat="36.02757157792369" lon="119.40605862783232">
        <ele>60.55120849609375</ele>
        <time>2023-05-17T12:31:56Z</time>
      </trkpt>
      <trkpt lat="36.02761967692791" lon="119.40631684190298">
        <ele>61.880615234375</ele>
        <time>2023-05-17T12:32:05Z</time>
      </trkpt>
      <trkpt lat="36.02768079328933" lon="119.40661409238687">
        <ele>65.5595703125</ele>
        <time>2023-05-17T12:32:17Z</time>
      </trkpt>
      <trkpt lat="36.02783391088011" lon="119.4069513732942">
        <ele>64.155029296875</ele>
        <time>2023-05-17T12:32:32Z</time>
      </trkpt>
      <trkpt lat="36.027887961097846" lon="119.40708648845938">
        <ele>63.6131591796875</ele>
        <time>2023-05-17T12:32:38Z</time>
      </trkpt>
      <trkpt lat="36.028118047957705" lon="119.40738173116512">
        <ele>60.02801513671875</ele>
        <time>2023-05-17T12:32:53Z</time>
      </trkpt>
      <trkpt lat="36.02824308594023" lon="119.4075198444533">
        <ele>62.95855712890625</ele>
        <time>2023-05-17T12:33:02Z</time>
      </trkpt>
      <trkpt lat="36.02850710666495" lon="119.40768596941402">
        <ele>62.18780517578125</ele>
        <time>2023-05-17T12:33:17Z</time>
      </trkpt>
      <trkpt lat="36.02867412291142" lon="119.40779605397688">
        <ele>60.8607177734375</ele>
        <time>2023-05-17T12:33:29Z</time>
      </trkpt>
      <trkpt lat="36.02895609820164" lon="119.40787609789308">
        <ele>60.38262939453125</ele>
        <time>2023-05-17T12:33:41Z</time>
      </trkpt>
      <trkpt lat="36.02909008756648" lon="119.4079161207738">
        <ele>60.84674072265625</ele>
        <time>2023-05-17T12:33:50Z</time>
      </trkpt>
      <trkpt lat="36.02920805996715" lon="119.40791510658154">
        <ele>59.34014892578125</ele>
        <time>2023-05-17T12:33:56Z</time>
      </trkpt>
      <trkpt lat="36.02932304517272" lon="119.40793811551883">
        <ele>60.961669921875</ele>
        <time>2023-05-17T12:34:02Z</time>
      </trkpt>
      <trkpt lat="36.02944701316803" lon="119.40793109495088">
        <ele>62.46826171875</ele>
        <time>2023-05-17T12:34:08Z</time>
      </trkpt>
      <trkpt lat="36.02972890667445" lon="119.40784798464864">
        <ele>59.98541259765625</ele>
        <time>2023-05-17T12:34:23Z</time>
      </trkpt>
      <trkpt lat="36.029975810027636" lon="119.40776788148874">
        <ele>67.46173095703125</ele>
        <time>2023-05-17T12:34:35Z</time>
      </trkpt>
      <trkpt lat="36.0300577867318" lon="119.40775886382146">
        <ele>66.79058837890625</ele>
        <time>2023-05-17T12:34:38Z</time>
      </trkpt>
      <trkpt lat="36.03010575982806" lon="119.40772682837753">
        <ele>63.56256103515625</ele>
        <time>2023-05-17T12:34:41Z</time>
      </trkpt>
      <trkpt lat="36.030319606627415" lon="119.40751460670924">
        <ele>62.8958740234375</ele>
        <time>2023-05-17T12:34:56Z</time>
      </trkpt>
      <trkpt lat="36.03034356864425" lon="119.40744754208403">
        <ele>64.01373291015625</ele>
        <time>2023-05-17T12:34:59Z</time>
      </trkpt>
      <trkpt lat="36.030486459096885" lon="119.4072873791734">
        <ele>60.13006591796875</ele>
        <time>2023-05-17T12:35:08Z</time>
      </trkpt>
      <trkpt lat="36.03064535454168" lon="119.407143230401">
        <ele>61.61346435546875</ele>
        <time>2023-05-17T12:35:17Z</time>
      </trkpt>
      <trkpt lat="36.03069626552386" lon="119.40697707521588">
        <ele>55.5281982421875</ele>
        <time>2023-05-17T12:35:26Z</time>
      </trkpt>
      <trkpt lat="36.03077619159581" lon="119.40685595828221">
        <ele>56.9056396484375</ele>
        <time>2023-05-17T12:35:32Z</time>
      </trkpt>
      <trkpt lat="36.03086004580666" lon="119.40657470137128">
        <ele>57.42559814453125</ele>
        <time>2023-05-17T12:35:44Z</time>
      </trkpt>
      <trkpt lat="36.030896005703276" lon="119.40650263464306">
        <ele>57.1971435546875</ele>
        <time>2023-05-17T12:35:47Z</time>
      </trkpt>
      <trkpt lat="36.03093689613379" lon="119.40627243177005">
        <ele>57.57037353515625</ele>
        <time>2023-05-17T12:35:56Z</time>
      </trkpt>
      <trkpt lat="36.030945730080674" lon="119.40588310228634">
        <ele>54.14166259765625</ele>
        <time>2023-05-17T12:36:11Z</time>
      </trkpt>
      <trkpt lat="36.030939595690995" lon="119.40554782699456">
        <ele>53.1697998046875</ele>
        <time>2023-05-17T12:36:23Z</time>
      </trkpt>
      <trkpt lat="36.030936565886954" lon="119.4054707648041">
        <ele>51.84686279296875</ele>
        <time>2023-05-17T12:36:26Z</time>
      </trkpt>
      <trkpt lat="36.03088351747245" lon="119.40531564591153">
        <ele>53.3294677734375</ele>
        <time>2023-05-17T12:36:32Z</time>
      </trkpt>
      <trkpt lat="36.03082449135304" lon="119.40521257033194">
        <ele>51.6800537109375</ele>
        <time>2023-05-17T12:36:38Z</time>
      </trkpt>
      <trkpt lat="36.03072139556672" lon="119.40489433191402">
        <ele>55.41796875</ele>
        <time>2023-05-17T12:36:50Z</time>
      </trkpt>
      <trkpt lat="36.03064534886517" lon="119.40471820456624">
        <ele>58.77130126953125</ele>
        <time>2023-05-17T12:36:56Z</time>
      </trkpt>
      <trkpt lat="36.03045028402051" lon="119.40440799141051">
        <ele>57.8482666015625</ele>
        <time>2023-05-17T12:37:11Z</time>
      </trkpt>
      <trkpt lat="36.03039327089224" lon="119.40433194101954">
        <ele>58.55718994140625</ele>
        <time>2023-05-17T12:37:14Z</time>
      </trkpt>
      <trkpt lat="36.03022827026731" lon="119.40421887571313">
        <ele>59.903564453125</ele>
        <time>2023-05-17T12:37:23Z</time>
      </trkpt>
      <trkpt lat="36.03017727825459" lon="119.40420787331716">
        <ele>58.83837890625</ele>
        <time>2023-05-17T12:37:26Z</time>
      </trkpt>
      <trkpt lat="36.03009227257072" lon="119.40413282766791">
        <ele>57.62640380859375</ele>
        <time>2023-05-17T12:37:32Z</time>
      </trkpt>
      <trkpt lat="36.02998929420419" lon="119.40412683483018">
        <ele>56.6800537109375</ele>
        <time>2023-05-17T12:37:38Z</time>
      </trkpt>
      <trkpt lat="36.029735307177255" lon="119.40398976340146">
        <ele>58.44342041015625</ele>
        <time>2023-05-17T12:37:53Z</time>
      </trkpt>
      <trkpt lat="36.029534333406595" lon="119.4039287418098">
        <ele>58.40338134765625</ele>
        <time>2023-05-17T12:38:08Z</time>
      </trkpt>
      <trkpt lat="36.029237401267494" lon="119.40392777443152">
        <ele>62.8841552734375</ele>
        <time>2023-05-17T12:38:23Z</time>
      </trkpt>
      <trkpt lat="36.0289284885263" lon="119.4039778452984">
        <ele>61.64996337890625</ele>
        <time>2023-05-17T12:38:41Z</time>
      </trkpt>
      <trkpt lat="36.02868754093183" lon="119.40396886583227">
        <ele>60.3126220703125</ele>
        <time>2023-05-17T12:38:53Z</time>
      </trkpt>
      <trkpt lat="36.028420651121905" lon="119.40411700364497">
        <ele>61.7010498046875</ele>
        <time>2023-05-17T12:39:08Z</time>
      </trkpt>
      <trkpt lat="36.02837667762313" lon="119.40416604456196">
        <ele>63.611083984375</ele>
        <time>2023-05-17T12:39:11Z</time>
      </trkpt>
      <trkpt lat="36.02821375840255" lon="119.40429415748635">
        <ele>64.169921875</ele>
        <time>2023-05-17T12:39:20Z</time>
      </trkpt>
      <trkpt lat="36.02817478792823" lon="119.40435420654094">
        <ele>61.75048828125</ele>
        <time>2023-05-17T12:39:23Z</time>
      </trkpt>
      <trkpt lat="36.027965927291106" lon="119.40461542672746">
        <ele>62.87200927734375</ele>
        <time>2023-05-17T12:39:38Z</time>
      </trkpt>
      <trkpt lat="36.0278010677069" lon="119.40489866293467">
        <ele>62.0931396484375</ele>
        <time>2023-05-17T12:39:53Z</time>
      </trkpt>
      <trkpt lat="36.02766023801175" lon="119.40526496705002">
        <ele>62.47894287109375</ele>
        <time>2023-05-17T12:40:08Z</time>
      </trkpt>
      <trkpt lat="36.02759240359293" lon="119.40564628288783">
        <ele>62.97412109375</ele>
        <time>2023-05-17T12:40:20Z</time>
      </trkpt>
      <trkpt lat="36.0275624607003" lon="119.40577038834665">
        <ele>62.9837646484375</ele>
        <time>2023-05-17T12:40:26Z</time>
      </trkpt>
      <trkpt lat="36.02747448704793" lon="119.4057854106333">
        <ele>63.7933349609375</ele>
        <time>2023-05-17T12:40:32Z</time>
      </trkpt>
      <trkpt lat="36.027319476411726" lon="119.40567133404315">
        <ele>61.9388427734375</ele>
        <time>2023-05-17T12:40:41Z</time>
      </trkpt>
      <trkpt lat="36.02717344880134" lon="119.40551822545282">
        <ele>59.884033203125</ele>
        <time>2023-05-17T12:40:53Z</time>
      </trkpt>
      <trkpt lat="36.02706438195205" lon="119.40528304832463">
        <ele>61.97662353515625</ele>
        <time>2023-05-17T12:41:02Z</time>
      </trkpt>
      <trkpt lat="36.02688930586256" lon="119.40497582532471">
        <ele>58.26861572265625</ele>
        <time>2023-05-17T12:41:17Z</time>
      </trkpt>
      <trkpt lat="36.02681728066821" lon="119.40486274544577">
        <ele>60.29779052734375</ele>
        <time>2023-05-17T12:41:23Z</time>
      </trkpt>
      <trkpt lat="36.02666221143782" lon="119.40457153967085">
        <ele>59.29736328125</ele>
        <time>2023-05-17T12:41:35Z</time>
      </trkpt>
      <trkpt lat="36.026592189581976" lon="119.40446346592688">
        <ele>58.8916015625</ele>
        <time>2023-05-17T12:41:41Z</time>
      </trkpt>
      <trkpt lat="36.02657016859279" lon="119.404388412119">
        <ele>59.1444091796875</ele>
        <time>2023-05-17T12:41:44Z</time>
      </trkpt>
      <trkpt lat="36.02635713190956" lon="119.4041362492796">
        <ele>54.4537353515625</ele>
        <time>2023-05-17T12:43:02Z</time>
      </trkpt>
      <trkpt lat="36.02639325602085" lon="119.40452253276115">
        <ele>62.769775390625</ele>
        <time>2023-05-17T12:43:23Z</time>
      </trkpt>
      <trkpt lat="36.0263293604224" lon="119.40477373145583">
        <ele>63.3330078125</ele>
        <time>2023-05-17T12:43:35Z</time>
      </trkpt>
      <trkpt lat="36.02633441458754" lon="119.40492484783304">
        <ele>64.9957275390625</ele>
        <time>2023-05-17T12:43:41Z</time>
      </trkpt>
      <trkpt lat="36.026353441058774" lon="119.40500791053043">
        <ele>64.6640625</ele>
        <time>2023-05-17T12:43:47Z</time>
      </trkpt>
      <trkpt lat="36.026452485474294" lon="119.40518603977357">
        <ele>64.60760498046875</ele>
        <time>2023-05-17T12:43:59Z</time>
      </trkpt>
      <trkpt lat="36.026542491586554" lon="119.4052560853617">
        <ele>63.96649169921875</ele>
        <time>2023-05-17T12:44:05Z</time>
      </trkpt>
      <trkpt lat="36.02672357853008" lon="119.40558432971085">
        <ele>61.5994873046875</ele>
        <time>2023-05-17T12:44:23Z</time>
      </trkpt>
      <trkpt lat="36.02688465591588" lon="119.40586654408688">
        <ele>61.89373779296875</ele>
        <time>2023-05-17T12:44:38Z</time>
      </trkpt>
      <trkpt lat="36.02704874938353" lon="119.4061797889853">
        <ele>64.23828125</ele>
        <time>2023-05-17T12:44:53Z</time>
      </trkpt>
      <trkpt lat="36.02723681760381" lon="119.40643798912116">
        <ele>63.30120849609375</ele>
        <time>2023-05-17T12:45:08Z</time>
      </trkpt>
      <trkpt lat="36.027429891723685" lon="119.40670520040987">
        <ele>66.21978759765625</ele>
        <time>2023-05-17T12:45:23Z</time>
      </trkpt>
      <trkpt lat="36.02751590989654" lon="119.4067892648861">
        <ele>65.16278076171875</ele>
        <time>2023-05-17T12:45:29Z</time>
      </trkpt>
      <trkpt lat="36.02756390794422" lon="119.40680927720778">
        <ele>63.38330078125</ele>
        <time>2023-05-17T12:45:32Z</time>
      </trkpt>
      <trkpt lat="36.02780298577018" lon="119.40709750792264">
        <ele>64.796142578125</ele>
        <time>2023-05-17T12:45:47Z</time>
      </trkpt>
      <trkpt lat="36.0278350056037" lon="119.407155556769">
        <ele>64.0029296875</ele>
        <time>2023-05-17T12:45:50Z</time>
      </trkpt>
      <trkpt lat="36.027918027121686" lon="119.40724162555962">
        <ele>63.2371826171875</ele>
        <time>2023-05-17T12:45:56Z</time>
      </trkpt>
      <trkpt lat="36.02794205536923" lon="119.4073126876668">
        <ele>63.60498046875</ele>
        <time>2023-05-17T12:46:02Z</time>
      </trkpt>
      <trkpt lat="36.028172087194065" lon="119.40748882372681">
        <ele>66.1181640625</ele>
        <time>2023-05-17T12:46:20Z</time>
      </trkpt>
      <trkpt lat="36.0284081155942" lon="119.40765795433916">
        <ele>65.6673583984375</ele>
        <time>2023-05-17T12:46:35Z</time>
      </trkpt>
      <trkpt lat="36.02857412745235" lon="119.40775903037462">
        <ele>64.23382568359375</ele>
        <time>2023-05-17T12:46:44Z</time>
      </trkpt>
      <trkpt lat="36.02881111294005" lon="119.40783907917216">
        <ele>65.0693359375</ele>
        <time>2023-05-17T12:46:56Z</time>
      </trkpt>
      <trkpt lat="36.0290650551102" lon="119.40784005161052">
        <ele>62.30841064453125</ele>
        <time>2023-05-17T12:47:08Z</time>
      </trkpt>
      <trkpt lat="36.029366014117564" lon="119.40789607082695">
        <ele>61.95501708984375</ele>
        <time>2023-05-17T12:47:23Z</time>
      </trkpt>
      <trkpt lat="36.02943100473473" lon="119.40790707396326">
        <ele>61.30902099609375</ele>
        <time>2023-05-17T12:47:26Z</time>
      </trkpt>
      <trkpt lat="36.029706924269405" lon="119.407873010767">
        <ele>63.43603515625</ele>
        <time>2023-05-17T12:47:38Z</time>
      </trkpt>
      <trkpt lat="36.030027783681156" lon="119.40773884839633">
        <ele>66.3367919921875</ele>
        <time>2023-05-17T12:47:56Z</time>
      </trkpt>
      <trkpt lat="36.030313652928" lon="119.40760669284015">
        <ele>65.50933837890625</ele>
        <time>2023-05-17T12:48:11Z</time>
      </trkpt>
      <trkpt lat="36.0303666250979" lon="119.40757465711235">
        <ele>65.07525634765625</ele>
        <time>2023-05-17T12:48:14Z</time>
      </trkpt>
      <trkpt lat="36.03039257870597" lon="119.40749157722678">
        <ele>62.20928955078125</ele>
        <time>2023-05-17T12:48:17Z</time>
      </trkpt>
      <trkpt lat="36.03052647664617" lon="119.40734342591861">
        <ele>61.238037109375</ele>
        <time>2023-05-17T12:48:26Z</time>
      </trkpt>
      <trkpt lat="36.03056441556307" lon="119.40723332118272">
        <ele>59.2916259765625</ele>
        <time>2023-05-17T12:48:32Z</time>
      </trkpt>
      <trkpt lat="36.03065933773305" lon="119.40711420260568">
        <ele>59.2239990234375</ele>
        <time>2023-05-17T12:48:38Z</time>
      </trkpt>
      <trkpt lat="36.03068027751824" lon="119.40699509314243">
        <ele>57.591552734375</ele>
        <time>2023-05-17T12:48:44Z</time>
      </trkpt>
      <trkpt lat="36.03074322021628" lon="119.40690200292833">
        <ele>59.7340087890625</ele>
        <time>2023-05-17T12:48:47Z</time>
      </trkpt>
      <trkpt lat="36.03088604428417" lon="119.40658470718266">
        <ele>62.23187255859375</ele>
        <time>2023-05-17T12:48:59Z</time>
      </trkpt>
      <trkpt lat="36.03092787802278" lon="119.40622539263526">
        <ele>64.6002197265625</ele>
        <time>2023-05-17T12:49:11Z</time>
      </trkpt>
      <trkpt lat="36.03096872274165" lon="119.40587809553848">
        <ele>66.03955078125</ele>
        <time>2023-05-17T12:49:26Z</time>
      </trkpt>
      <trkpt lat="36.03097164528302" lon="119.4056899395979">
        <ele>65.8427734375</ele>
        <time>2023-05-17T12:49:38Z</time>
      </trkpt>
      <trkpt lat="36.030932542837675" lon="119.40540971595829">
        <ele>64.2401123046875</ele>
        <time>2023-05-17T12:49:56Z</time>
      </trkpt>
      <trkpt lat="36.03084246168643" lon="119.40514551516345">
        <ele>65.71453857421875</ele>
        <time>2023-05-17T12:50:11Z</time>
      </trkpt>
      <trkpt lat="36.03070237242426" lon="119.40481927592809">
        <ele>63.95416259765625</ele>
        <time>2023-05-17T12:50:35Z</time>
      </trkpt>
      <trkpt lat="36.03050832637918" lon="119.40456710477291">
        <ele>61.6253662109375</ele>
        <time>2023-05-17T12:50:50Z</time>
      </trkpt>
      <trkpt lat="36.03039229836789" lon="119.40441100017063">
        <ele>61.28887939453125</ele>
        <time>2023-05-17T12:50:59Z</time>
      </trkpt>
      <trkpt lat="36.03012328794746" lon="119.40419987347734">
        <ele>60.24285888671875</ele>
        <time>2023-05-17T12:51:14Z</time>
      </trkpt>
      <trkpt lat="36.03000128245103" lon="119.40409981370125">
        <ele>62.26220703125</ele>
        <time>2023-05-17T12:51:20Z</time>
      </trkpt>
      <trkpt lat="36.02969630958299" lon="119.40396975327867">
        <ele>64.7244873046875</ele>
        <time>2023-05-17T12:51:35Z</time>
      </trkpt>
      <trkpt lat="36.029399353373904" lon="119.40389473244541">
        <ele>65.0975341796875</ele>
        <time>2023-05-17T12:51:50Z</time>
      </trkpt>
      <trkpt lat="36.02927437367681" lon="119.40386872777219">
        <ele>65.176513671875</ele>
        <time>2023-05-17T12:51:56Z</time>
      </trkpt>
      <trkpt lat="36.029019411691586" lon="119.40380471051682">
        <ele>65.359130859375</ele>
        <time>2023-05-17T12:52:11Z</time>
      </trkpt>
      <trkpt lat="36.028964425919455" lon="119.40380972026786">
        <ele>65.763671875</ele>
        <time>2023-05-17T12:52:14Z</time>
      </trkpt>
      <trkpt lat="36.0289743441798" lon="119.403556539967">
        <ele>64.9322509765625</ele>
        <time>2023-05-17T12:52:26Z</time>
      </trkpt>
      <trkpt lat="36.02892331921488" lon="119.40343646197809">
        <ele>64.42633056640625</ele>
        <time>2023-05-17T12:52:32Z</time>
      </trkpt>
      <trkpt lat="36.02887832078245" lon="119.40340744692189">
        <ele>63.3685302734375</ele>
        <time>2023-05-17T12:52:35Z</time>
      </trkpt>
      <trkpt lat="36.02882130541863" lon="119.40331238778346">
        <ele>62.6453857421875</ele>
        <time>2023-05-17T12:52:41Z</time>
      </trkpt>
      <trkpt lat="36.02879425534716" lon="119.40312025992311">
        <ele>61.65625</ele>
        <time>2023-05-17T12:52:53Z</time>
      </trkpt>
      <trkpt lat="36.028744247011225" lon="119.40305121900849">
        <ele>63.901123046875</ele>
        <time>2023-05-17T12:52:59Z</time>
      </trkpt>
      <trkpt lat="36.02848625363018" lon="119.40286412323461">
        <ele>65.40423583984375</ele>
        <time>2023-05-17T12:53:17Z</time>
      </trkpt>
      <trkpt lat="36.02844223187045" lon="119.4027480517924">
        <ele>64.29705810546875</ele>
        <time>2023-05-17T12:53:23Z</time>
      </trkpt>
      <trkpt lat="36.028294241828384" lon="119.40265901032255">
        <ele>64.50213623046875</ele>
        <time>2023-05-17T12:53:32Z</time>
      </trkpt>
      <trkpt lat="36.02820123581404" lon="119.40255595410106">
        <ele>63.92144775390625</ele>
        <time>2023-05-17T12:53:38Z</time>
      </trkpt>
      <trkpt lat="36.02808320933496" lon="119.40234883519466">
        <ele>62.15435791015625</ele>
        <time>2023-05-17T12:53:47Z</time>
      </trkpt>
      <trkpt lat="36.028002174069954" lon="119.40213270897621">
        <ele>57.6466064453125</ele>
        <time>2023-05-17T12:53:53Z</time>
      </trkpt>
      <trkpt lat="36.02798513278204" lon="119.40194459526292">
        <ele>60.264892578125</ele>
        <time>2023-05-17T12:53:59Z</time>
      </trkpt>
      <trkpt lat="36.0279231084364" lon="119.40177850179519">
        <ele>60.2418212890625</ele>
        <time>2023-05-17T12:54:05Z</time>
      </trkpt>
      <trkpt lat="36.02791006700209" lon="119.40158038550464">
        <ele>63.48614501953125</ele>
        <time>2023-05-17T12:54:11Z</time>
      </trkpt>
      <trkpt lat="36.02795699948863" lon="119.40131522610102">
        <ele>64.36029052734375</ele>
        <time>2023-05-17T12:54:20Z</time>
      </trkpt>
      <trkpt lat="36.02794496191699" lon="119.40111711487981">
        <ele>65.60693359375</ele>
        <time>2023-05-17T12:54:32Z</time>
      </trkpt>
      <trkpt lat="36.02810586789478" lon="119.4008209326463">
        <ele>61.7261962890625</ele>
        <time>2023-05-17T12:54:47Z</time>
      </trkpt>
      <trkpt lat="36.02833776912011" lon="119.40056877073783">
        <ele>60.68231201171875</ele>
        <time>2023-05-17T12:55:02Z</time>
      </trkpt>
      <trkpt lat="36.02852070034924" lon="119.40041266788099">
        <ele>65.620361328125</ele>
        <time>2023-05-17T12:55:14Z</time>
      </trkpt>
      <trkpt lat="36.028640669103375" lon="119.4003906429091">
        <ele>65.68365478515625</ele>
        <time>2023-05-17T12:55:26Z</time>
      </trkpt>
      <trkpt lat="36.028884596920946" lon="119.40029256462674">
        <ele>68.467041015625</ele>
        <time>2023-05-17T12:55:41Z</time>
      </trkpt>
      <trkpt lat="36.029200530732496" lon="119.4003315493274">
        <ele>66.437255859375</ele>
        <time>2023-05-17T12:55:59Z</time>
      </trkpt>
      <trkpt lat="36.02950648511152" lon="119.40047859181782">
        <ele>67.4146728515625</ele>
        <time>2023-05-17T12:56:14Z</time>
      </trkpt>
      <trkpt lat="36.0296464694042" lon="119.40057362641112">
        <ele>62.73846435546875</ele>
        <time>2023-05-17T12:56:23Z</time>
      </trkpt>
      <trkpt lat="36.02984846968807" lon="119.40083174293962">
        <ele>65.840087890625</ele>
        <time>2023-05-17T12:56:38Z</time>
      </trkpt>
      <trkpt lat="36.02997850163211" lon="119.40115090566175">
        <ele>67.63287353515625</ele>
        <time>2023-05-17T12:56:53Z</time>
      </trkpt>
      <trkpt lat="36.030070549205846" lon="119.40148108481407">
        <ele>67.61004638671875</ele>
        <time>2023-05-17T12:57:08Z</time>
      </trkpt>
      <trkpt lat="36.03013655671424" lon="119.40158513839437">
        <ele>66.39544677734375</ele>
        <time>2023-05-17T12:57:14Z</time>
      </trkpt>
      <trkpt lat="36.03017158130063" lon="119.40173122111882">
        <ele>66.064208984375</ele>
        <time>2023-05-17T12:57:20Z</time>
      </trkpt>
      <trkpt lat="36.030308569292664" lon="119.40181625674023">
        <ele>62.39190673828125</ele>
        <time>2023-05-17T12:57:32Z</time>
      </trkpt>
      <trkpt lat="36.03045353694548" lon="119.40182024286867">
        <ele>65.7086181640625</ele>
        <time>2023-05-17T12:57:44Z</time>
      </trkpt>
      <trkpt lat="36.03040754014175" lon="119.40178822877685">
        <ele>65.9014892578125</ele>
        <time>2023-05-17T12:57:53Z</time>
      </trkpt>
      <trkpt lat="36.03007061358065" lon="119.40177125641128">
        <ele>68.50830078125</ele>
        <time>2023-05-17T12:58:17Z</time>
      </trkpt>
      <trkpt lat="36.02991264869942" lon="119.40176627115382">
        <ele>67.7227783203125</ele>
        <time>2023-05-17T12:58:29Z</time>
      </trkpt>
      <trkpt lat="36.02981575065882" lon="119.40210448795303">
        <ele>66.5196533203125</ele>
        <time>2023-05-17T12:58:44Z</time>
      </trkpt>
      <trkpt lat="36.02967683692829" lon="119.40232364042636">
        <ele>65.75262451171875</ele>
        <time>2023-05-17T12:58:56Z</time>
      </trkpt>
      <trkpt lat="36.029422951483504" lon="119.40254180788446">
        <ele>66.78277587890625</ele>
        <time>2023-05-17T12:59:11Z</time>
      </trkpt>
      <trkpt lat="36.029111035523314" lon="119.40258887322284">
        <ele>65.8245849609375</ele>
        <time>2023-05-17T12:59:26Z</time>
      </trkpt>
      <trkpt lat="36.02884307209333" lon="119.4024938421828">
        <ele>63.27130126953125</ele>
        <time>2023-05-17T12:59:38Z</time>
      </trkpt>
      <trkpt lat="36.02863008928" lon="119.40237078770996">
        <ele>64.79974365234375</ele>
        <time>2023-05-17T12:59:50Z</time>
      </trkpt>
      <trkpt lat="36.028449062112365" lon="119.40209463525666">
        <ele>62.9384765625</ele>
        <time>2023-05-17T13:00:05Z</time>
      </trkpt>
      <trkpt lat="36.02836802510538" lon="119.40186050124599">
        <ele>64.2916259765625</ele>
        <time>2023-05-17T13:00:14Z</time>
      </trkpt>
      <trkpt lat="36.028326976263216" lon="119.40160335224824">
        <ele>65.6527099609375</ele>
        <time>2023-05-17T13:00:23Z</time>
      </trkpt>
      <trkpt lat="36.02837291795499" lon="119.40138221798493">
        <ele>66.94921875</ele>
        <time>2023-05-17T13:00:32Z</time>
      </trkpt>
      <trkpt lat="36.02846286571066" lon="119.40123012068992">
        <ele>66.039794921875</ele>
        <time>2023-05-17T13:00:38Z</time>
      </trkpt>
      <trkpt lat="36.02845685008461" lon="119.40114607373987">
        <ele>65.259033203125</ele>
        <time>2023-05-17T13:00:41Z</time>
      </trkpt>
      <trkpt lat="36.02850380718987" lon="119.40098297718656">
        <ele>63.3006591796875</ele>
        <time>2023-05-17T13:00:47Z</time>
      </trkpt>
      <trkpt lat="36.0285697678416" lon="119.40085589969848">
        <ele>63.7012939453125</ele>
        <time>2023-05-17T13:00:53Z</time>
      </trkpt>
      <trkpt lat="36.02870671145133" lon="119.40072081082158">
        <ele>63.95166015625</ele>
        <time>2023-05-17T13:01:02Z</time>
      </trkpt>
      <trkpt lat="36.028995625727255" lon="119.40061272031541">
        <ele>65.74365234375</ele>
        <time>2023-05-17T13:01:17Z</time>
      </trkpt>
      <trkpt lat="36.02912359192928" lon="119.40058769259743">
        <ele>65.2171630859375</ele>
        <time>2023-05-17T13:01:23Z</time>
      </trkpt>
      <trkpt lat="36.029424529529614" lon="119.40062567909598">
        <ele>66.27197265625</ele>
        <time>2023-05-17T13:01:38Z</time>
      </trkpt>
      <trkpt lat="36.02948051951748" lon="119.40064168137862">
        <ele>67.09686279296875</ele>
        <time>2023-05-17T13:01:41Z</time>
      </trkpt>
      <trkpt lat="36.02970250806434" lon="119.40085777357163">
        <ele>66.28326416015625</ele>
        <time>2023-05-17T13:01:56Z</time>
      </trkpt>
      <trkpt lat="36.02973950958316" lon="119.40091079855732">
        <ele>66.2513427734375</ele>
        <time>2023-05-17T13:01:59Z</time>
      </trkpt>
      <trkpt lat="36.02981052802511" lon="119.40108989017473">
        <ele>64.7435302734375</ele>
        <time>2023-05-17T13:02:08Z</time>
      </trkpt>
      <trkpt lat="36.02983957185964" lon="119.40133802788814">
        <ele>67.46478271484375</ele>
        <time>2023-05-17T13:02:17Z</time>
      </trkpt>
      <trkpt lat="36.0297796290028" lon="119.4015411526027">
        <ele>69.76971435546875</ele>
        <time>2023-05-17T13:02:26Z</time>
      </trkpt>
      <trkpt lat="36.029706668468584" lon="119.40164422155091">
        <ele>67.99224853515625</ele>
        <time>2023-05-17T13:02:32Z</time>
      </trkpt>
      <trkpt lat="36.0296506913934" lon="119.40168925456904">
        <ele>68.05340576171875</ele>
        <time>2023-05-17T13:02:35Z</time>
      </trkpt>
      <trkpt lat="36.02952172618777" lon="119.40171228276019">
        <ele>69.498779296875</ele>
        <time>2023-05-17T13:02:41Z</time>
      </trkpt>
      <trkpt lat="36.0294707363159" lon="119.4017052843121">
        <ele>69.99053955078125</ele>
        <time>2023-05-17T13:02:44Z</time>
      </trkpt>
      <trkpt lat="36.02938173685444" lon="119.40161624146967">
        <ele>69.52117919921875</ele>
        <time>2023-05-17T13:02:53Z</time>
      </trkpt>
      <trkpt lat="36.02931874601429" lon="119.40159223437247">
        <ele>70.44415283203125</ele>
        <time>2023-05-17T13:02:59Z</time>
      </trkpt>
      <trkpt lat="36.02923072789599" lon="119.40141514074702">
        <ele>69.85076904296875</ele>
        <time>2023-05-17T13:03:11Z</time>
      </trkpt>
      <trkpt lat="36.02924967602727" lon="119.40118600732558">
        <ele>69.29742431640625</ele>
        <time>2023-05-17T13:03:20Z</time>
      </trkpt>
      <trkpt lat="36.02928165542278" lon="119.40111996644386">
        <ele>68.87774658203125</ele>
        <time>2023-05-17T13:03:23Z</time>
      </trkpt>
      <trkpt lat="36.02942459145173" lon="119.40096086156518">
        <ele>68.0181884765625</ele>
        <time>2023-05-17T13:03:32Z</time>
      </trkpt>
      <trkpt lat="36.02954055735601" lon="119.40092182697111">
        <ele>68.30645751953125</ele>
        <time>2023-05-17T13:03:38Z</time>
      </trkpt>
      <trkpt lat="36.0297685126788" lon="119.40096182349141">
        <ele>68.78692626953125</ele>
        <time>2023-05-17T13:03:50Z</time>
      </trkpt>
      <trkpt lat="36.02981349908671" lon="119.40094480902515">
        <ele>67.3035888671875</ele>
        <time>2023-05-17T13:03:53Z</time>
      </trkpt>
      <trkpt lat="36.029850482776666" lon="119.40090378223512">
        <ele>67.29766845703125</ele>
        <time>2023-05-17T13:03:56Z</time>
      </trkpt>
      <trkpt lat="36.02987446577553" lon="119.40084274603886">
        <ele>68.232666015625</ele>
        <time>2023-05-17T13:03:59Z</time>
      </trkpt>
      <trkpt lat="36.029868454352446" lon="119.40077370907089">
        <ele>67.9183349609375</ele>
        <time>2023-05-17T13:04:02Z</time>
      </trkpt>
      <trkpt lat="36.02965545176301" lon="119.40048357772156">
        <ele>66.89129638671875</ele>
        <time>2023-05-17T13:04:20Z</time>
      </trkpt>
      <trkpt lat="36.02941148228908" lon="119.40033152563365">
        <ele>63.895751953125</ele>
        <time>2023-05-17T13:04:35Z</time>
      </trkpt>
      <trkpt lat="36.02909553672035" lon="119.40021950338173">
        <ele>67.349365234375</ele>
        <time>2023-05-17T13:04:50Z</time>
      </trkpt>
      <trkpt lat="36.02896956263463" lon="119.40020050780609">
        <ele>67.50958251953125</ele>
        <time>2023-05-17T13:04:56Z</time>
      </trkpt>
      <trkpt lat="36.028867593234075" lon="119.40024554232431">
        <ele>66.91729736328125</ele>
        <time>2023-05-17T13:05:02Z</time>
      </trkpt>
      <trkpt lat="36.028581659401496" lon="119.40024857598108">
        <ele>69.84515380859375</ele>
        <time>2023-05-17T13:05:14Z</time>
      </trkpt>
      <trkpt lat="36.02846568813811" lon="119.40026159569314">
        <ele>67.6671142578125</ele>
        <time>2023-05-17T13:05:20Z</time>
      </trkpt>
      <trkpt lat="36.02814378745997" lon="119.40041571178337">
        <ele>65.35687255859375</ele>
        <time>2023-05-17T13:05:42Z</time>
      </trkpt>
      <trkpt lat="36.0278548970843" lon="119.4006648763048">
        <ele>65.125732421875</ele>
        <time>2023-05-17T13:06:03Z</time>
      </trkpt>
      <trkpt lat="36.027810911687276" lon="119.40068989469854">
        <ele>64.7840576171875</ele>
        <time>2023-05-17T13:06:06Z</time>
      </trkpt>
      <trkpt lat="36.02776492135768" lon="119.40068489717012">
        <ele>66.802001953125</ele>
        <time>2023-05-17T13:06:09Z</time>
      </trkpt>
      <trkpt lat="36.02755492871777" lon="119.40045079627248">
        <ele>67.1583251953125</ele>
        <time>2023-05-17T13:06:27Z</time>
      </trkpt>
      <trkpt lat="36.02750893170408" lon="119.40040577785358">
        <ele>65.8135986328125</ele>
        <time>2023-05-17T13:06:30Z</time>
      </trkpt>
      <trkpt lat="36.027459939790546" lon="119.40038677343207">
        <ele>67.78515625</ele>
        <time>2023-05-17T13:06:33Z</time>
      </trkpt>
      <trkpt lat="36.02730394858359" lon="119.40022070511452">
        <ele>66.4134521484375</ele>
        <time>2023-05-17T13:06:45Z</time>
      </trkpt>
      <trkpt lat="36.0271479506141" lon="119.40000161176707">
        <ele>67.419921875</ele>
        <time>2023-05-17T13:07:00Z</time>
      </trkpt>
      <trkpt lat="36.02684301169569" lon="119.3999406156147">
        <ele>63.58050537109375</ele>
        <time>2023-05-17T13:07:18Z</time>
      </trkpt>
      <trkpt lat="36.02658505641507" lon="119.3998395947116">
        <ele>65.57666015625</ele>
        <time>2023-05-17T13:07:33Z</time>
      </trkpt>
      <trkpt lat="36.02647407558009" lon="119.39979458513959">
        <ele>64.69451904296875</ele>
        <time>2023-05-17T13:07:39Z</time>
      </trkpt>
      <trkpt lat="36.026154154412104" lon="119.3998316391793">
        <ele>65.1614990234375</ele>
        <time>2023-05-17T13:07:51Z</time>
      </trkpt>
      <trkpt lat="36.026076172782325" lon="119.39983464940889">
        <ele>66.9599609375</ele>
        <time>2023-05-17T13:07:54Z</time>
      </trkpt>
      <trkpt lat="36.02588820369456" lon="119.3997466275576">
        <ele>67.40185546875</ele>
        <time>2023-05-17T13:08:03Z</time>
      </trkpt>
      <trkpt lat="36.02581221364301" lon="119.39969160946215">
        <ele>66.77801513671875</ele>
        <time>2023-05-17T13:08:06Z</time>
      </trkpt>
      <trkpt lat="36.025650221354724" lon="119.39946552001726">
        <ele>70.01177978515625</ele>
        <time>2023-05-17T13:08:15Z</time>
      </trkpt>
      <trkpt lat="36.02553623341515" lon="119.39935047914967">
        <ele>68.9189453125</ele>
        <time>2023-05-17T13:08:21Z</time>
      </trkpt>
      <trkpt lat="36.025438239734726" lon="119.39921242673287">
        <ele>69.991455078125</ele>
        <time>2023-05-17T13:08:27Z</time>
      </trkpt>
      <trkpt lat="36.02538724692485" lon="119.39917241427642">
        <ele>70.16326904296875</ele>
        <time>2023-05-17T13:08:30Z</time>
      </trkpt>
      <trkpt lat="36.02524927644094" lon="119.39915242071339">
        <ele>67.60540771484375</ele>
        <time>2023-05-17T13:08:36Z</time>
      </trkpt>
      <trkpt lat="36.02516129038988" lon="119.39909540490287">
        <ele>67.65960693359375</ele>
        <time>2023-05-17T13:08:42Z</time>
      </trkpt>
      <trkpt lat="36.0250822947289" lon="119.39896535586135">
        <ele>70.451904296875</ele>
        <time>2023-05-17T13:08:54Z</time>
      </trkpt>
      <trkpt lat="36.02501330508184" lon="119.39891133983184">
        <ele>70.77032470703125</ele>
        <time>2023-05-17T13:09:00Z</time>
      </trkpt>
      <trkpt lat="36.024871336059356" lon="119.3988943483241">
        <ele>67.0416259765625</ele>
        <time>2023-05-17T13:09:12Z</time>
      </trkpt>
      <trkpt lat="36.02481734313066" lon="119.3988403308255">
        <ele>66.91534423828125</ele>
        <time>2023-05-17T13:09:18Z</time>
      </trkpt>
      <trkpt lat="36.02463938158137" lon="119.39881433952495">
        <ele>69.53399658203125</ele>
        <time>2023-05-17T13:09:30Z</time>
      </trkpt>
      <trkpt lat="36.024452427278895" lon="119.39884137224195">
        <ele>67.6728515625</ele>
        <time>2023-05-17T13:09:42Z</time>
      </trkpt>
      <trkpt lat="36.02438144226115" lon="119.39882737413097">
        <ele>67.74615478515625</ele>
        <time>2023-05-17T13:09:48Z</time>
      </trkpt>
      <trkpt lat="36.02432145932255" lon="119.39886039522285">
        <ele>68.49798583984375</ele>
        <time>2023-05-17T13:09:54Z</time>
      </trkpt>
      <trkpt lat="36.02430447222292" lon="119.39894943615174">
        <ele>67.41998291015625</ele>
        <time>2023-05-17T13:10:00Z</time>
      </trkpt>
      <trkpt lat="36.02433749162439" lon="119.39919854397671">
        <ele>69.908935546875</ele>
        <time>2023-05-17T13:10:15Z</time>
      </trkpt>
      <trkpt lat="36.02428654636317" lon="119.3995517137823">
        <ele>65.563232421875</ele>
        <time>2023-05-17T13:10:39Z</time>
      </trkpt>
      <trkpt lat="36.02424059131537" lon="119.3998058413427">
        <ele>68.920166015625</ele>
        <time>2023-05-17T13:10:54Z</time>
      </trkpt>
      <trkpt lat="36.024212649491005" lon="119.40015401807169">
        <ele>67.73284912109375</ele>
        <time>2023-05-17T13:11:18Z</time>
      </trkpt>
      <trkpt lat="36.02422665843898" lon="119.40023105582941">
        <ele>66.1068115234375</ele>
        <time>2023-05-17T13:11:24Z</time>
      </trkpt>
      <trkpt lat="36.0243626351599" lon="119.40028106627821">
        <ele>65.59619140625</ele>
        <time>2023-05-17T13:11:36Z</time>
      </trkpt>
      <trkpt lat="36.02470059249919" lon="119.40049213841061">
        <ele>68.73345947265625</ele>
        <time>2023-05-17T13:11:54Z</time>
      </trkpt>
      <trkpt lat="36.024909554568076" lon="119.40055114617563">
        <ele>62.50091552734375</ele>
        <time>2023-05-17T13:12:06Z</time>
      </trkpt>
      <trkpt lat="36.025012543855965" lon="119.4006251740586">
        <ele>62.857666015625</ele>
        <time>2023-05-17T13:12:12Z</time>
      </trkpt>
      <trkpt lat="36.02531548753273" lon="119.40070018033546">
        <ele>67.09906005859375</ele>
        <time>2023-05-17T13:12:27Z</time>
      </trkpt>
      <trkpt lat="36.02558042907658" lon="119.4007141581401">
        <ele>68.74237060546875</ele>
        <time>2023-05-17T13:12:39Z</time>
      </trkpt>
      <trkpt lat="36.02564142122892" lon="119.40074816969003">
        <ele>72.0687255859375</ele>
        <time>2023-05-17T13:12:42Z</time>
      </trkpt>
      <trkpt lat="36.02586237717046" lon="119.40078516497367">
        <ele>71.85614013671875</ele>
        <time>2023-05-17T13:12:51Z</time>
      </trkpt>
      <trkpt lat="36.0259963432105" lon="119.4007681406859">
        <ele>67.7247314453125</ele>
        <time>2023-05-17T13:12:57Z</time>
      </trkpt>
      <trkpt lat="36.02604932315884" lon="119.4007251114288">
        <ele>67.756591796875</ele>
        <time>2023-05-17T13:13:00Z</time>
      </trkpt>
      <trkpt lat="36.02632525351276" lon="119.40069106208598">
        <ele>67.18194580078125</ele>
        <time>2023-05-17T13:13:12Z</time>
      </trkpt>
      <trkpt lat="36.026633181053334" lon="119.40068202265681">
        <ele>66.78387451171875</ele>
        <time>2023-05-17T13:13:27Z</time>
      </trkpt>
      <trkpt lat="36.026924128303285" lon="119.40076003214874">
        <ele>69.69964599609375</ele>
        <time>2023-05-17T13:13:51Z</time>
      </trkpt>
      <trkpt lat="36.02719708278215" lon="119.4008530522189">
        <ele>68.09954833984375</ele>
        <time>2023-05-17T13:14:09Z</time>
      </trkpt>
      <trkpt lat="36.027515036370566" lon="119.40099309379094">
        <ele>64.11285400390625</ele>
        <time>2023-05-17T13:14:30Z</time>
      </trkpt>
      <trkpt lat="36.027629029567656" lon="119.40109213630494">
        <ele>65.110595703125</ele>
        <time>2023-05-17T13:14:39Z</time>
      </trkpt>
      <trkpt lat="36.027826010838865" lon="119.40122418879875">
        <ele>64.09063720703125</ele>
        <time>2023-05-17T13:14:54Z</time>
      </trkpt>
      <trkpt lat="36.02792001593061" lon="119.4013532521128">
        <ele>64.79669189453125</ele>
        <time>2023-05-17T13:15:06Z</time>
      </trkpt>
      <trkpt lat="36.027901074803445" lon="119.40160640185084">
        <ele>61.7584228515625</ele>
        <time>2023-05-17T13:15:21Z</time>
      </trkpt>
      <trkpt lat="36.027977145770656" lon="119.40199162487906">
        <ele>62.5169677734375</ele>
        <time>2023-05-17T13:15:39Z</time>
      </trkpt>
      <trkpt lat="36.028079198605454" lon="119.40230280660569">
        <ele>63.79937744140625</ele>
        <time>2023-05-17T13:15:54Z</time>
      </trkpt>
      <trkpt lat="36.02813121672906" lon="119.40242087549697">
        <ele>63.88714599609375</ele>
        <time>2023-05-17T13:16:00Z</time>
      </trkpt>
      <trkpt lat="36.028336235669194" lon="119.40267201406358">
        <ele>64.832275390625</ele>
        <time>2023-05-17T13:16:15Z</time>
      </trkpt>
      <trkpt lat="36.02847223370982" lon="119.40278006941895">
        <ele>63.669677734375</ele>
        <time>2023-05-17T13:16:24Z</time>
      </trkpt>
      <trkpt lat="36.0286112410774" lon="119.40292214767777">
        <ele>66.34210205078125</ele>
        <time>2023-05-17T13:16:33Z</time>
      </trkpt>
      <trkpt lat="36.02872924275899" lon="119.40302420255941">
        <ele>65.00262451171875</ele>
        <time>2023-05-17T13:16:42Z</time>
      </trkpt>
      <trkpt lat="36.028745253937814" lon="119.40307623572308">
        <ele>65.7503662109375</ele>
        <time>2023-05-17T13:16:45Z</time>
      </trkpt>
      <trkpt lat="36.028745360094085" lon="119.40343648196217">
        <ele>65.5682373046875</ele>
        <time>2023-05-17T13:17:03Z</time>
      </trkpt>
      <trkpt lat="36.02871748072767" lon="119.40380374370652">
        <ele>65.2523193359375</ele>
        <time>2023-05-17T13:17:21Z</time>
      </trkpt>
      <trkpt lat="36.02870450521477" lon="119.4038707932023">
        <ele>64.579345703125</ele>
        <time>2023-05-17T13:17:24Z</time>
      </trkpt>
      <trkpt lat="36.02859657461326" lon="119.40400790434443">
        <ele>64.2254638671875</ele>
        <time>2023-05-17T13:17:33Z</time>
      </trkpt>
      <trkpt lat="36.02834468934175" lon="119.4041790577223">
        <ele>64.20965576171875</ele>
        <time>2023-05-17T13:17:48Z</time>
      </trkpt>
      <trkpt lat="36.02813281553214" lon="119.404406250141">
        <ele>65.59033203125</ele>
        <time>2023-05-17T13:18:03Z</time>
      </trkpt>
      <trkpt lat="36.02792896117039" lon="119.40468648506636">
        <ele>66.039794921875</ele>
        <time>2023-05-17T13:18:18Z</time>
      </trkpt>
      <trkpt lat="36.027783077746" lon="119.40491467739862">
        <ele>66.13824462890625</ele>
        <time>2023-05-17T13:18:30Z</time>
      </trkpt>
      <trkpt lat="36.02766924288072" lon="119.4052829804146">
        <ele>68.0267333984375</ele>
        <time>2023-05-17T13:18:45Z</time>
      </trkpt>
      <trkpt lat="36.02760239205708" lon="119.40562326292535">
        <ele>65.6812744140625</ele>
        <time>2023-05-17T13:18:57Z</time>
      </trkpt>
      <trkpt lat="36.02760241539726" lon="119.4056813104928">
        <ele>63.1378173828125</ele>
        <time>2023-05-17T13:19:00Z</time>
      </trkpt>
      <trkpt lat="36.02756744490208" lon="119.40573435805575">
        <ele>63.86944580078125</ele>
        <time>2023-05-17T13:19:03Z</time>
      </trkpt>
      <trkpt lat="36.02750946555033" lon="119.40575237942154">
        <ele>65.98687744140625</ele>
        <time>2023-05-17T13:19:06Z</time>
      </trkpt>
      <trkpt lat="36.027440475311614" lon="119.40573737478545">
        <ele>65.86346435546875</ele>
        <time>2023-05-17T13:19:09Z</time>
      </trkpt>
      <trkpt lat="36.02734746554195" lon="119.40566032187046">
        <ele>65.5257568359375</ele>
        <time>2023-05-17T13:19:15Z</time>
      </trkpt>
      <trkpt lat="36.027162381097455" lon="119.40533908216386">
        <ele>60.30462646484375</ele>
        <time>2023-05-17T13:19:33Z</time>
      </trkpt>
      <trkpt lat="36.0271233273624" lon="119.40517595652334">
        <ele>61.94464111328125</ele>
        <time>2023-05-17T13:19:42Z</time>
      </trkpt>
      <trkpt lat="36.027131221341335" lon="119.40489773736621">
        <ele>62.32171630859375</ele>
        <time>2023-05-17T13:19:54Z</time>
      </trkpt>
      <trkpt lat="36.027152167174755" lon="119.40476263060634">
        <ele>66.07281494140625</ele>
        <time>2023-05-17T13:20:00Z</time>
      </trkpt>
      <trkpt lat="36.02714312929019" lon="119.40465154655129">
        <ele>65.70904541015625</ele>
        <time>2023-05-17T13:20:06Z</time>
      </trkpt>
      <trkpt lat="36.026994076974255" lon="119.40440537725195">
        <ele>65.46795654296875</ele>
        <time>2023-05-17T13:20:21Z</time>
      </trkpt>
      <trkpt lat="36.026817084283834" lon="119.40430832471573">
        <ele>66.32232666015625</ele>
        <time>2023-05-17T13:20:30Z</time>
      </trkpt>
      <trkpt lat="36.02635600802316" lon="119.40375497389904">
        <ele>66.4818115234375</ele>
        <time>2023-05-17T13:22:06Z</time>
      </trkpt>
      <trkpt lat="36.026367032297365" lon="119.40383903269404">
        <ele>70.92791748046875</ele>
        <time>2023-05-17T13:22:09Z</time>
      </trkpt>
      <trkpt lat="36.02640403569403" lon="119.40387605510946">
        <ele>67.12139892578125</ele>
        <time>2023-05-17T13:22:12Z</time>
      </trkpt>
      <trkpt lat="36.02646811844303" lon="119.40417226327689">
        <ele>65.5712890625</ele>
        <time>2023-05-17T13:22:27Z</time>
      </trkpt>
      <trkpt lat="36.02665320820481" lon="119.4045565293079">
        <ele>68.76287841796875</ele>
        <time>2023-05-17T13:22:51Z</time>
      </trkpt>
      <trkpt lat="36.02683827987828" lon="119.40487375161916">
        <ele>66.90313720703125</ele>
        <time>2023-05-17T13:23:09Z</time>
      </trkpt>
      <trkpt lat="36.02696538164618" lon="119.40522301159307">
        <ele>66.34466552734375</ele>
        <time>2023-05-17T13:23:27Z</time>
      </trkpt>
      <trkpt lat="36.02707742323861" lon="119.40539713833383">
        <ele>65.042236328125</ele>
        <time>2023-05-17T13:23:36Z</time>
      </trkpt>
      <trkpt lat="36.02712842836549" lon="119.40544016730276">
        <ele>65.98284912109375</ele>
        <time>2023-05-17T13:23:39Z</time>
      </trkpt>
      <trkpt lat="36.027154445250666" lon="119.40549821134705">
        <ele>65.96063232421875</ele>
        <time>2023-05-17T13:23:42Z</time>
      </trkpt>
      <trkpt lat="36.02729847640315" lon="119.40565932654988">
        <ele>63.70965576171875</ele>
        <time>2023-05-17T13:23:54Z</time>
      </trkpt>
      <trkpt lat="36.02751047999866" lon="119.40578840907588">
        <ele>63.86956787109375</ele>
        <time>2023-05-17T13:24:09Z</time>
      </trkpt>
      <trkpt lat="36.02775741099437" lon="119.40575835654077">
        <ele>63.81494140625</ele>
        <time>2023-05-17T13:24:24Z</time>
      </trkpt>
      <trkpt lat="36.027870363913465" lon="119.40570630097322">
        <ele>64.31195068359375</ele>
        <time>2023-05-17T13:24:30Z</time>
      </trkpt>
      <trkpt lat="36.02807622939089" lon="119.40548809974435">
        <ele>63.10986328125</ele>
        <time>2023-05-17T13:24:42Z</time>
      </trkpt>
      <trkpt lat="36.02826610261505" lon="119.40527490700974">
        <ele>60.6253662109375</ele>
        <time>2023-05-17T13:24:54Z</time>
      </trkpt>
      <trkpt lat="36.02829307374848" lon="119.40521585695686">
        <ele>59.31591796875</ele>
        <time>2023-05-17T13:24:57Z</time>
      </trkpt>
      <trkpt lat="36.02830104522459" lon="119.40514580052697">
        <ele>57.01983642578125</ele>
        <time>2023-05-17T13:25:00Z</time>
      </trkpt>
      <trkpt lat="36.02835501049772" lon="119.40508674787647">
        <ele>59.2930908203125</ele>
        <time>2023-05-17T13:25:03Z</time>
      </trkpt>
      <trkpt lat="36.02852286883639" lon="119.40480851216334">
        <ele>60.9991455078125</ele>
        <time>2023-05-17T13:25:15Z</time>
      </trkpt>
      <trkpt lat="36.02860877779168" lon="119.4046103507404">
        <ele>63.26898193359375</ele>
        <time>2023-05-17T13:25:24Z</time>
      </trkpt>
      <trkpt lat="36.02859675858683" lon="119.40454830502249">
        <ele>64.06005859375</ele>
        <time>2023-05-17T13:25:30Z</time>
      </trkpt>
      <trkpt lat="36.02871161683709" lon="119.40421404232951">
        <ele>62.064453125</ele>
        <time>2023-05-17T13:25:51Z</time>
      </trkpt>
      <trkpt lat="36.028728567404805" lon="119.4040779405301">
        <ele>62.04400634765625</ele>
        <time>2023-05-17T13:25:57Z</time>
      </trkpt>
      <trkpt lat="36.02882949073608" lon="119.40391481085403">
        <ele>64.3443603515625</ele>
        <time>2023-05-17T13:26:06Z</time>
      </trkpt>
      <trkpt lat="36.02882647075582" lon="119.40385076513986">
        <ele>64.49932861328125</ele>
        <time>2023-05-17T13:26:09Z</time>
      </trkpt>
      <trkpt lat="36.028851446760584" lon="119.40379372151499">
        <ele>63.43621826171875</ele>
        <time>2023-05-17T13:26:12Z</time>
      </trkpt>
      <trkpt lat="36.02887239023133" lon="119.40362960274491">
        <ele>61.50927734375</ele>
        <time>2023-05-17T13:26:21Z</time>
      </trkpt>
      <trkpt lat="36.028811284655305" lon="119.4032343354791">
        <ele>61.10406494140625</ele>
        <time>2023-05-17T13:26:39Z</time>
      </trkpt>
      <trkpt lat="36.028807243430826" lon="119.40308923752615">
        <ele>61.59417724609375</ele>
        <time>2023-05-17T13:26:45Z</time>
      </trkpt>
      <trkpt lat="36.02875216311707" lon="119.40275702288633">
        <ele>62.2081298828125</ele>
        <time>2023-05-17T13:27:00Z</time>
      </trkpt>
      <trkpt lat="36.0287221384288" lon="119.40263994992677">
        <ele>61.34075927734375</ele>
        <time>2023-05-17T13:27:06Z</time>
      </trkpt>
      <trkpt lat="36.02871109097966" lon="119.40244982886371">
        <ele>62.1646728515625</ele>
        <time>2023-05-17T13:27:18Z</time>
      </trkpt>
      <trkpt lat="36.02891706635261" lon="119.40253686148046">
        <ele>62.3704833984375</ele>
        <time>2023-05-17T13:27:36Z</time>
      </trkpt>
      <trkpt lat="36.02895405628059" lon="119.40253085346788">
        <ele>62.6898193359375</ele>
        <time>2023-05-17T13:27:39Z</time>
      </trkpt>
    </trkseg>
  </trk>
</gpx>