<?xml version="1.0" encoding="UTF-8"?>
<gpx xmlns="http://www.topografix.com/GPX/1/1" xmlns:gpxtpx="http://www.garmin.com/xmlschemas/TrackPointExtension/v1" xmlns:xsi="http://www.w3.org/2001/XMLSchema-instance" xsi:schemaLocation="http://www.topografix.com/GPX/1/1 http://www.topografix.com/GPX/1/1/gpx.xsd" version="1.1" creator="gpx.py -- https://github.com/tkrajina/gpxpy">
  <trk>
    <name>gpx from keep</name>
    <type>Run</type>
    <trkseg>
      <trkpt lat="31.107101835482638" lon="121.38094304815185">
        <ele>6.227100634016097</ele>
        <time>2024-07-06T12:53:58Z</time>
      </trkpt>
      <trkpt lat="31.106979911497156" lon="121.38089325717264">
        <ele>10.24892077408731</ele>
        <time>2024-07-06T12:54:04Z</time>
      </trkpt>
      <trkpt lat="31.106906734113036" lon="121.38089684864475">
        <ele>9.133350905962288</ele>
        <time>2024-07-06T12:54:07Z</time>
      </trkpt>
      <trkpt lat="31.106741760896053" lon="121.38097028338515">
        <ele>8.006824593991041</ele>
        <time>2024-07-06T12:54:13Z</time>
      </trkpt>
      <trkpt lat="31.106627007776357" lon="121.38095628745621">
        <ele>7.453310661017895</ele>
        <time>2024-07-06T12:54:19Z</time>
      </trkpt>
      <trkpt lat="31.106566981948884" lon="121.380979582686">
        <ele>7.8805269645527005</ele>
        <time>2024-07-06T12:54:22Z</time>
      </trkpt>
      <trkpt lat="31.106515267748993" lon="121.38102758303702">
        <ele>8.081200597807765</ele>
        <time>2024-07-06T12:54:25Z</time>
      </trkpt>
      <trkpt lat="31.10646297732184" lon="121.38117700116706">
        <ele>6.422782024368644</ele>
        <time>2024-07-06T12:54:31Z</time>
      </trkpt>
      <trkpt lat="31.10645572787277" lon="121.38127964685306">
        <ele>8.064391589723527</ele>
        <time>2024-07-06T12:54:34Z</time>
      </trkpt>
      <trkpt lat="31.1065020568574" lon="121.38159746363262">
        <ele>8.597384555265307</ele>
        <time>2024-07-06T12:54:46Z</time>
      </trkpt>
      <trkpt lat="31.10650827939289" lon="121.38166541049453">
        <ele>9.754932649433613</ele>
        <time>2024-07-06T12:54:49Z</time>
      </trkpt>
      <trkpt lat="31.10644815205189" lon="121.38174726456089">
        <ele>9.731758695095778</ele>
        <time>2024-07-06T12:54:52Z</time>
      </trkpt>
      <trkpt lat="31.1064064159905" lon="121.38198087799687">
        <ele>10.851386429741979</ele>
        <time>2024-07-06T12:54:58Z</time>
      </trkpt>
      <trkpt lat="31.106365625014643" lon="121.38205521985297">
        <ele>10.763085703365505</ele>
        <time>2024-07-06T12:55:01Z</time>
      </trkpt>
      <trkpt lat="31.106368666701417" lon="121.38215888479493">
        <ele>9.996325579471886</ele>
        <time>2024-07-06T12:55:04Z</time>
      </trkpt>
      <trkpt lat="31.106258219804314" lon="121.38233563022996">
        <ele>10.463380970992148</ele>
        <time>2024-07-06T12:55:10Z</time>
      </trkpt>
      <trkpt lat="31.106260760534727" lon="121.38241966971088">
        <ele>9.77642819751054</ele>
        <time>2024-07-06T12:55:13Z</time>
      </trkpt>
      <trkpt lat="31.106223647810992" lon="121.38251127280763">
        <ele>10.100037763826549</ele>
        <time>2024-07-06T12:55:16Z</time>
      </trkpt>
      <trkpt lat="31.106210421050246" lon="121.38262084535133">
        <ele>9.445363622158766</ele>
        <time>2024-07-06T12:55:19Z</time>
      </trkpt>
      <trkpt lat="31.106163157064525" lon="121.38274824522094">
        <ele>9.18690815102309</ele>
        <time>2024-07-06T12:55:25Z</time>
      </trkpt>
      <trkpt lat="31.106243602076596" lon="121.38284579960049">
        <ele>8.61774533148855</ele>
        <time>2024-07-06T12:55:28Z</time>
      </trkpt>
      <trkpt lat="31.106351951275684" lon="121.38287139324545">
        <ele>7.692835812456906</ele>
        <time>2024-07-06T12:55:31Z</time>
      </trkpt>
      <trkpt lat="31.1064207809495" lon="121.38293039281854">
        <ele>7.487653340213001</ele>
        <time>2024-07-06T12:55:34Z</time>
      </trkpt>
      <trkpt lat="31.106606532128602" lon="121.38296746809633">
        <ele>9.542716540396214</ele>
        <time>2024-07-06T12:55:40Z</time>
      </trkpt>
      <trkpt lat="31.106706497197223" lon="121.38287782821303">
        <ele>9.583451203070581</ele>
        <time>2024-07-06T12:55:46Z</time>
      </trkpt>
      <trkpt lat="31.106817900473004" lon="121.3829013803102">
        <ele>11.03754700254649</ele>
        <time>2024-07-06T12:55:50Z</time>
      </trkpt>
      <trkpt lat="31.106898223293957" lon="121.38293916531275">
        <ele>12.492988879792392</ele>
        <time>2024-07-06T12:55:53Z</time>
      </trkpt>
      <trkpt lat="31.106964068894474" lon="121.38290400547399">
        <ele>12.174241794273257</ele>
        <time>2024-07-06T12:55:56Z</time>
      </trkpt>
      <trkpt lat="31.107021598437193" lon="121.38294144204878">
        <ele>10.982507803477347</ele>
        <time>2024-07-06T12:55:59Z</time>
      </trkpt>
      <trkpt lat="31.10701087782034" lon="121.38305538515098">
        <ele>7.503171670250595</ele>
        <time>2024-07-06T12:56:02Z</time>
      </trkpt>
      <trkpt lat="31.1069779285401" lon="121.38317807105764">
        <ele>8.755859474651515</ele>
        <time>2024-07-06T12:56:05Z</time>
      </trkpt>
      <trkpt lat="31.107216163538137" lon="121.38324873320641">
        <ele>7.602723413147032</ele>
        <time>2024-07-06T12:56:14Z</time>
      </trkpt>
      <trkpt lat="31.10729439883005" lon="121.38332111429699">
        <ele>7.58120815269649</ele>
        <time>2024-07-06T12:56:17Z</time>
      </trkpt>
      <trkpt lat="31.107363568458965" lon="121.38330509467542">
        <ele>6.563768717460334</ele>
        <time>2024-07-06T12:56:20Z</time>
      </trkpt>
      <trkpt lat="31.107406503298005" lon="121.38323892159372">
        <ele>7.597487264312804</ele>
        <time>2024-07-06T12:56:23Z</time>
      </trkpt>
      <trkpt lat="31.107399943369263" lon="121.38314613053358">
        <ele>8.62236163020134</ele>
        <time>2024-07-06T12:56:26Z</time>
      </trkpt>
      <trkpt lat="31.10748108632425" lon="121.38307825345294">
        <ele>9.385321903042495</ele>
        <time>2024-07-06T12:56:32Z</time>
      </trkpt>
      <trkpt lat="31.107516935197072" lon="121.38300265706526">
        <ele>8.699785832315683</ele>
        <time>2024-07-06T12:56:38Z</time>
      </trkpt>
      <trkpt lat="31.10755230176058" lon="121.38296804860606">
        <ele>7.748671418987215</ele>
        <time>2024-07-06T12:56:41Z</time>
      </trkpt>
      <trkpt lat="31.10757385536374" lon="121.3828768092564">
        <ele>8.130162085406482</ele>
        <time>2024-07-06T12:56:44Z</time>
      </trkpt>
      <trkpt lat="31.1075690288265" lon="121.38273243385078">
        <ele>8.23582766763866</ele>
        <time>2024-07-06T12:56:47Z</time>
      </trkpt>
      <trkpt lat="31.107601800236427" lon="121.38262852226732">
        <ele>9.093963683582842</ele>
        <time>2024-07-06T12:56:50Z</time>
      </trkpt>
      <trkpt lat="31.10758110126973" lon="121.38249138446119">
        <ele>9.175322758965194</ele>
        <time>2024-07-06T12:56:56Z</time>
      </trkpt>
      <trkpt lat="31.107480502319362" lon="121.38234940984003">
        <ele>8.733085517771542</ele>
        <time>2024-07-06T12:57:02Z</time>
      </trkpt>
      <trkpt lat="31.1075152380827" lon="121.38221154060162">
        <ele>8.556876322254539</ele>
        <time>2024-07-06T12:57:08Z</time>
      </trkpt>
      <trkpt lat="31.10756507564832" lon="121.38217617014514">
        <ele>8.117098070681095</ele>
        <time>2024-07-06T12:57:11Z</time>
      </trkpt>
      <trkpt lat="31.107624158852683" lon="121.38193552322976">
        <ele>7.731114382855594</ele>
        <time>2024-07-06T12:57:17Z</time>
      </trkpt>
      <trkpt lat="31.10776891765649" lon="121.38169941770404">
        <ele>8.692908241413534</ele>
        <time>2024-07-06T12:57:26Z</time>
      </trkpt>
      <trkpt lat="31.10774548497862" lon="121.38163151395305">
        <ele>8.699824703857303</ele>
        <time>2024-07-06T12:57:29Z</time>
      </trkpt>
      <trkpt lat="31.10781615435994" lon="121.38145547462734">
        <ele>8.386262217536569</ele>
        <time>2024-07-06T12:57:35Z</time>
      </trkpt>
      <trkpt lat="31.10781190619876" lon="121.38120965270095">
        <ele>7.670459606684744</ele>
        <time>2024-07-06T12:57:44Z</time>
      </trkpt>
      <trkpt lat="31.107822963937778" lon="121.3811379087321">
        <ele>7.642416567541659</ele>
        <time>2024-07-06T12:57:47Z</time>
      </trkpt>
      <trkpt lat="31.107787589243756" lon="121.38105678047089">
        <ele>8.304831977002323</ele>
        <time>2024-07-06T12:57:50Z</time>
      </trkpt>
      <trkpt lat="31.107709136208236" lon="121.38096150498535">
        <ele>9.584822940640152</ele>
        <time>2024-07-06T12:57:54Z</time>
      </trkpt>
      <trkpt lat="31.1075426257753" lon="121.38101573765705">
        <ele>9.501288492232561</ele>
        <time>2024-07-06T12:58:02Z</time>
      </trkpt>
      <trkpt lat="31.10747353914413" lon="121.38096239767084">
        <ele>8.321457448415458</ele>
        <time>2024-07-06T12:58:06Z</time>
      </trkpt>
      <trkpt lat="31.10731524316597" lon="121.38091579125089">
        <ele>7.500514643266797</ele>
        <time>2024-07-06T12:58:12Z</time>
      </trkpt>
      <trkpt lat="31.1072309290537" lon="121.38091886874525">
        <ele>6.993363343179226</ele>
        <time>2024-07-06T12:58:15Z</time>
      </trkpt>
      <trkpt lat="31.107099353887733" lon="121.38104350790826">
        <ele>7.203354679048061</ele>
        <time>2024-07-06T12:58:21Z</time>
      </trkpt>
      <trkpt lat="31.107002177453264" lon="121.38106300464761">
        <ele>6.2509665954858065</ele>
        <time>2024-07-06T12:58:24Z</time>
      </trkpt>
      <trkpt lat="31.106902271338488" lon="121.38105021071242">
        <ele>10.101015470921993</ele>
        <time>2024-07-06T12:58:27Z</time>
      </trkpt>
      <trkpt lat="31.106842503838028" lon="121.3810752451262">
        <ele>9.398015241138637</ele>
        <time>2024-07-06T12:58:30Z</time>
      </trkpt>
      <trkpt lat="31.106739497782318" lon="121.38106416894436">
        <ele>10.760691652074456</ele>
        <time>2024-07-06T12:58:33Z</time>
      </trkpt>
      <trkpt lat="31.106678188545775" lon="121.38099994269248">
        <ele>11.791036176495254</ele>
        <time>2024-07-06T12:58:36Z</time>
      </trkpt>
      <trkpt lat="31.106597283736537" lon="121.3809980186723">
        <ele>11.729461598210037</ele>
        <time>2024-07-06T12:58:39Z</time>
      </trkpt>
      <trkpt lat="31.10652107629085" lon="121.38107276690164">
        <ele>12.793958767317235</ele>
        <time>2024-07-06T12:58:42Z</time>
      </trkpt>
      <trkpt lat="31.10652609281753" lon="121.38116777481837">
        <ele>11.233751824125648</ele>
        <time>2024-07-06T12:58:45Z</time>
      </trkpt>
      <trkpt lat="31.10657210045803" lon="121.38132594745755">
        <ele>13.160600091330707</ele>
        <time>2024-07-06T12:58:54Z</time>
      </trkpt>
      <trkpt lat="31.106510436157613" lon="121.3814144916974">
        <ele>10.41248394176364</ele>
        <time>2024-07-06T12:58:57Z</time>
      </trkpt>
      <trkpt lat="31.10650461475957" lon="121.38157390386623">
        <ele>11.16833043564111</ele>
        <time>2024-07-06T12:59:00Z</time>
      </trkpt>
      <trkpt lat="31.10642052248951" lon="121.38176831428254">
        <ele>9.713686573319137</ele>
        <time>2024-07-06T12:59:06Z</time>
      </trkpt>
      <trkpt lat="31.10642349900213" lon="121.38185902308415">
        <ele>10.829662311822176</ele>
        <time>2024-07-06T12:59:09Z</time>
      </trkpt>
      <trkpt lat="31.106307972634276" lon="121.38211797998787">
        <ele>11.54039797745645</ele>
        <time>2024-07-06T12:59:18Z</time>
      </trkpt>
      <trkpt lat="31.106284309317648" lon="121.38220987285389">
        <ele>11.162638899870217</ele>
        <time>2024-07-06T12:59:21Z</time>
      </trkpt>
      <trkpt lat="31.106207646171484" lon="121.38226181096258">
        <ele>10.238937279209495</ele>
        <time>2024-07-06T12:59:24Z</time>
      </trkpt>
      <trkpt lat="31.106205196980973" lon="121.38233226717418">
        <ele>9.764849302358925</ele>
        <time>2024-07-06T12:59:27Z</time>
      </trkpt>
      <trkpt lat="31.106236561374512" lon="121.382428548732">
        <ele>8.054502769373357</ele>
        <time>2024-07-06T12:59:33Z</time>
      </trkpt>
      <trkpt lat="31.106186375455902" lon="121.3825239304616">
        <ele>9.70463681500405</ele>
        <time>2024-07-06T12:59:36Z</time>
      </trkpt>
      <trkpt lat="31.10618580716178" lon="121.38268311987356">
        <ele>8.32796984538436</ele>
        <time>2024-07-06T12:59:39Z</time>
      </trkpt>
      <trkpt lat="31.106251053195862" lon="121.38276055900268">
        <ele>9.301022217608988</ele>
        <time>2024-07-06T12:59:42Z</time>
      </trkpt>
      <trkpt lat="31.10628308107169" lon="121.38286751314126">
        <ele>11.337737571448088</ele>
        <time>2024-07-06T12:59:45Z</time>
      </trkpt>
      <trkpt lat="31.10647508746349" lon="121.38293817879517">
        <ele>10.770707690156996</ele>
        <time>2024-07-06T12:59:51Z</time>
      </trkpt>
      <trkpt lat="31.106576236298732" lon="121.38292422204313">
        <ele>12.144558823667467</ele>
        <time>2024-07-06T12:59:54Z</time>
      </trkpt>
      <trkpt lat="31.106647169029365" lon="121.38288672757054">
        <ele>12.248395052738488</ele>
        <time>2024-07-06T12:59:57Z</time>
      </trkpt>
      <trkpt lat="31.106755409536262" lon="121.38286353555286">
        <ele>12.014235927723348</ele>
        <time>2024-07-06T13:00:01Z</time>
      </trkpt>
      <trkpt lat="31.106956836785177" lon="121.38299477731964">
        <ele>11.522219778969884</ele>
        <time>2024-07-06T13:00:09Z</time>
      </trkpt>
      <trkpt lat="31.106985428479703" lon="121.38312499535799">
        <ele>10.360864374786615</ele>
        <time>2024-07-06T13:00:13Z</time>
      </trkpt>
      <trkpt lat="31.107026789311174" lon="121.38321767950123">
        <ele>9.422190206125379</ele>
        <time>2024-07-06T13:00:17Z</time>
      </trkpt>
      <trkpt lat="31.107049789925515" lon="121.38333658024078">
        <ele>10.368576825596392</ele>
        <time>2024-07-06T13:00:20Z</time>
      </trkpt>
      <trkpt lat="31.107118417027245" lon="121.38337873179613">
        <ele>11.416070364415646</ele>
        <time>2024-07-06T13:00:23Z</time>
      </trkpt>
      <trkpt lat="31.107213065990972" lon="121.38338285117186">
        <ele>10.549642688594759</ele>
        <time>2024-07-06T13:00:26Z</time>
      </trkpt>
      <trkpt lat="31.10746512047634" lon="121.38325739209586">
        <ele>12.090287459082901</ele>
        <time>2024-07-06T13:00:35Z</time>
      </trkpt>
      <trkpt lat="31.107512612965923" lon="121.3831742823983">
        <ele>11.912630821578205</ele>
        <time>2024-07-06T13:00:38Z</time>
      </trkpt>
      <trkpt lat="31.107511218452018" lon="121.38307162005435">
        <ele>14.816242492757738</ele>
        <time>2024-07-06T13:00:41Z</time>
      </trkpt>
      <trkpt lat="31.107469021892747" lon="121.38299303821726">
        <ele>13.920016673393548</ele>
        <time>2024-07-06T13:00:44Z</time>
      </trkpt>
      <trkpt lat="31.107542345902214" lon="121.3828947602249">
        <ele>10.76016219239682</ele>
        <time>2024-07-06T13:00:50Z</time>
      </trkpt>
      <trkpt lat="31.10757627889568" lon="121.38276223794679">
        <ele>11.68061559367925</ele>
        <time>2024-07-06T13:00:53Z</time>
      </trkpt>
      <trkpt lat="31.10757961100316" lon="121.38244633308969">
        <ele>8.970933659933507</ele>
        <time>2024-07-06T13:01:02Z</time>
      </trkpt>
      <trkpt lat="31.107535206578195" lon="121.38237983920902">
        <ele>10.100679319351912</ele>
        <time>2024-07-06T13:01:05Z</time>
      </trkpt>
      <trkpt lat="31.107523683646647" lon="121.38227718402489">
        <ele>8.628432683646679</ele>
        <time>2024-07-06T13:01:08Z</time>
      </trkpt>
      <trkpt lat="31.10756096528253" lon="121.38210222542962">
        <ele>9.88484536204487</ele>
        <time>2024-07-06T13:01:14Z</time>
      </trkpt>
      <trkpt lat="31.107690081202566" lon="121.38180361202288">
        <ele>7.801691348664463</ele>
        <time>2024-07-06T13:01:26Z</time>
      </trkpt>
      <trkpt lat="31.10778949520975" lon="121.3818286824546">
        <ele>7.379279411397874</ele>
        <time>2024-07-06T13:01:29Z</time>
      </trkpt>
      <trkpt lat="31.10784400226958" lon="121.38181573186635">
        <ele>6.3039350267499685</ele>
        <time>2024-07-06T13:01:32Z</time>
      </trkpt>
      <trkpt lat="31.10783594585442" lon="121.38164565901795">
        <ele>7.141660789959133</ele>
        <time>2024-07-06T13:01:35Z</time>
      </trkpt>
      <trkpt lat="31.10778993833745" lon="121.38150042911245">
        <ele>7.991503749974072</ele>
        <time>2024-07-06T13:01:38Z</time>
      </trkpt>
      <trkpt lat="31.107758242947167" lon="121.38145679522007">
        <ele>8.47037756536156</ele>
        <time>2024-07-06T13:01:41Z</time>
      </trkpt>
      <trkpt lat="31.107777099383917" lon="121.38140174875275">
        <ele>8.879932863637805</ele>
        <time>2024-07-06T13:01:47Z</time>
      </trkpt>
      <trkpt lat="31.10776258295644" lon="121.38129246431343">
        <ele>9.131236482411623</ele>
        <time>2024-07-06T13:01:53Z</time>
      </trkpt>
      <trkpt lat="31.10783875030069" lon="121.38118164149441">
        <ele>6.510120611637831</ele>
        <time>2024-07-06T13:01:59Z</time>
      </trkpt>
      <trkpt lat="31.10784081528354" lon="121.38107369706024">
        <ele>7.017506482079625</ele>
        <time>2024-07-06T13:02:02Z</time>
      </trkpt>
      <trkpt lat="31.10775118846697" lon="121.38100807892135">
        <ele>7.004133077338338</ele>
        <time>2024-07-06T13:02:06Z</time>
      </trkpt>
      <trkpt lat="31.107653351955108" lon="121.3809896232455">
        <ele>8.28349704388529</ele>
        <time>2024-07-06T13:02:10Z</time>
      </trkpt>
      <trkpt lat="31.107455861364233" lon="121.38101212650135">
        <ele>9.20806167460978</ele>
        <time>2024-07-06T13:02:18Z</time>
      </trkpt>
      <trkpt lat="31.10728921465805" lon="121.38097334079737">
        <ele>9.22387529257685</ele>
        <time>2024-07-06T13:02:24Z</time>
      </trkpt>
      <trkpt lat="31.107211981883363" lon="121.38102091718204">
        <ele>8.276110286824405</ele>
        <time>2024-07-06T13:02:27Z</time>
      </trkpt>
      <trkpt lat="31.106969592988207" lon="121.38093676474503">
        <ele>8.440221617929637</ele>
        <time>2024-07-06T13:02:36Z</time>
      </trkpt>
      <trkpt lat="31.106895509917585" lon="121.3809811993577">
        <ele>8.045878225937486</ele>
        <time>2024-07-06T13:02:39Z</time>
      </trkpt>
      <trkpt lat="31.106805020494818" lon="121.3809745162426">
        <ele>7.9457968370988965</ele>
        <time>2024-07-06T13:02:42Z</time>
      </trkpt>
      <trkpt lat="31.106735483002524" lon="121.38094076289653">
        <ele>8.330056154169142</ele>
        <time>2024-07-06T13:02:45Z</time>
      </trkpt>
      <trkpt lat="31.106570165505858" lon="121.3809498341204">
        <ele>9.549298920668662</ele>
        <time>2024-07-06T13:02:51Z</time>
      </trkpt>
      <trkpt lat="31.106406767286803" lon="121.38105605764174">
        <ele>9.14810831937939</ele>
        <time>2024-07-06T13:02:57Z</time>
      </trkpt>
      <trkpt lat="31.106490335607074" lon="121.3813681008422">
        <ele>10.585563289932907</ele>
        <time>2024-07-06T13:03:06Z</time>
      </trkpt>
      <trkpt lat="31.106474724443704" lon="121.38148885967797">
        <ele>9.264981565997005</ele>
        <time>2024-07-06T13:03:09Z</time>
      </trkpt>
      <trkpt lat="31.106536088486518" lon="121.3815645753725">
        <ele>9.551035796292126</ele>
        <time>2024-07-06T13:03:12Z</time>
      </trkpt>
      <trkpt lat="31.106465528866625" lon="121.38177445935851">
        <ele>8.084352949634194</ele>
        <time>2024-07-06T13:03:18Z</time>
      </trkpt>
      <trkpt lat="31.106272466262585" lon="121.38209320714108">
        <ele>5.472034086473286</ele>
        <time>2024-07-06T13:03:27Z</time>
      </trkpt>
      <trkpt lat="31.1063023795287" lon="121.38217269388531">
        <ele>7.417634847573936</ele>
        <time>2024-07-06T13:03:33Z</time>
      </trkpt>
      <trkpt lat="31.106247490006705" lon="121.38227732737711">
        <ele>9.248451211489737</ele>
        <time>2024-07-06T13:03:39Z</time>
      </trkpt>
      <trkpt lat="31.10625089014839" lon="121.38240053545535">
        <ele>8.283525969833136</ele>
        <time>2024-07-06T13:03:45Z</time>
      </trkpt>
      <trkpt lat="31.106210805216215" lon="121.38245063599352">
        <ele>8.966043825261295</ele>
        <time>2024-07-06T13:03:51Z</time>
      </trkpt>
      <trkpt lat="31.10615421344621" lon="121.38256682753098">
        <ele>11.783602578565478</ele>
        <time>2024-07-06T13:03:57Z</time>
      </trkpt>
      <trkpt lat="31.106191312121798" lon="121.38273582518896">
        <ele>10.216909333132207</ele>
        <time>2024-07-06T13:04:03Z</time>
      </trkpt>
      <trkpt lat="31.10617501220364" lon="121.38286524724165">
        <ele>10.972910253331065</ele>
        <time>2024-07-06T13:04:13Z</time>
      </trkpt>
      <trkpt lat="31.10619603456542" lon="121.3829129955922">
        <ele>9.125962236896157</ele>
        <time>2024-07-06T13:04:17Z</time>
      </trkpt>
      <trkpt lat="31.106326668135125" lon="121.3830167654643">
        <ele>11.406488409265876</ele>
        <time>2024-07-06T13:04:28Z</time>
      </trkpt>
      <trkpt lat="31.106417964245278" lon="121.38302858790637">
        <ele>11.504278936423361</ele>
        <time>2024-07-06T13:04:31Z</time>
      </trkpt>
      <trkpt lat="31.106483408617084" lon="121.38300098328709">
        <ele>12.676768698729575</ele>
        <time>2024-07-06T13:04:34Z</time>
      </trkpt>
      <trkpt lat="31.106599104748724" lon="121.38291959242046">
        <ele>11.857941172085702</ele>
        <time>2024-07-06T13:04:40Z</time>
      </trkpt>
      <trkpt lat="31.106663522209345" lon="121.38289290461489">
        <ele>9.494646622799337</ele>
        <time>2024-07-06T13:04:52Z</time>
      </trkpt>
      <trkpt lat="31.106777884608363" lon="121.38292821465379">
        <ele>7.535405641421676</ele>
        <time>2024-07-06T13:04:58Z</time>
      </trkpt>
      <trkpt lat="31.10699760232937" lon="121.3830259356892">
        <ele>12.538280423730612</ele>
        <time>2024-07-06T13:05:13Z</time>
      </trkpt>
      <trkpt lat="31.106995134775328" lon="121.38309685992209">
        <ele>11.336467381566763</ele>
        <time>2024-07-06T13:05:19Z</time>
      </trkpt>
      <trkpt lat="31.107019665109995" lon="121.3831539920233">
        <ele>11.304010026156902</ele>
        <time>2024-07-06T13:05:22Z</time>
      </trkpt>
      <trkpt lat="31.107030244936272" lon="121.38323620958">
        <ele>10.642079951241612</ele>
        <time>2024-07-06T13:05:28Z</time>
      </trkpt>
      <trkpt lat="31.10708414792995" lon="121.38329226687642">
        <ele>10.760053874924779</ele>
        <time>2024-07-06T13:05:37Z</time>
      </trkpt>
      <trkpt lat="31.107180789545556" lon="121.38334475253941">
        <ele>12.338238148018718</ele>
        <time>2024-07-06T13:05:46Z</time>
      </trkpt>
      <trkpt lat="31.107253937684984" lon="121.38331371879934">
        <ele>11.59715808648616</ele>
        <time>2024-07-06T13:05:52Z</time>
      </trkpt>
      <trkpt lat="31.107386022541412" lon="121.38320733693696">
        <ele>11.441494095139205</ele>
        <time>2024-07-06T13:06:04Z</time>
      </trkpt>
      <trkpt lat="31.10748515847356" lon="121.38314836516044">
        <ele>11.420830939896405</ele>
        <time>2024-07-06T13:06:10Z</time>
      </trkpt>
      <trkpt lat="31.107542489053404" lon="121.38307747762838">
        <ele>9.417588703334332</ele>
        <time>2024-07-06T13:06:16Z</time>
      </trkpt>
      <trkpt lat="31.107556245802627" lon="121.38299523007093">
        <ele>8.375274340622127</ele>
        <time>2024-07-06T13:06:20Z</time>
      </trkpt>
      <trkpt lat="31.107597609274364" lon="121.38293150261444">
        <ele>8.543958779424429</ele>
        <time>2024-07-06T13:06:24Z</time>
      </trkpt>
      <trkpt lat="31.107677530826326" lon="121.38289538127366">
        <ele>9.58746032975614</ele>
        <time>2024-07-06T13:06:28Z</time>
      </trkpt>
      <trkpt lat="31.107680291381975" lon="121.38283411774952">
        <ele>8.768745922483504</ele>
        <time>2024-07-06T13:06:32Z</time>
      </trkpt>
      <trkpt lat="31.10776486963971" lon="121.38269842573061">
        <ele>8.537169491872191</ele>
        <time>2024-07-06T13:06:38Z</time>
      </trkpt>
      <trkpt lat="31.10760963735538" lon="121.3824610987899">
        <ele>5.54501136392355</ele>
        <time>2024-07-06T13:06:53Z</time>
      </trkpt>
      <trkpt lat="31.107547527104288" lon="121.38241900651244">
        <ele>4.188519316725433</ele>
        <time>2024-07-06T13:06:56Z</time>
      </trkpt>
      <trkpt lat="31.107516212710483" lon="121.38230791115556">
        <ele>3.5998820923268795</ele>
        <time>2024-07-06T13:06:59Z</time>
      </trkpt>
      <trkpt lat="31.107524163160544" lon="121.38220986064854">
        <ele>4.137857686728239</ele>
        <time>2024-07-06T13:07:02Z</time>
      </trkpt>
      <trkpt lat="31.107512280740966" lon="121.38210186501381">
        <ele>3.7833522856235504</ele>
        <time>2024-07-06T13:07:05Z</time>
      </trkpt>
      <trkpt lat="31.107540225614603" lon="121.38200568361687">
        <ele>3.2609692104160786</ele>
        <time>2024-07-06T13:07:08Z</time>
      </trkpt>
      <trkpt lat="31.10764782523314" lon="121.38189736882339">
        <ele>3.7955774068832397</ele>
        <time>2024-07-06T13:07:11Z</time>
      </trkpt>
      <trkpt lat="31.107670655016143" lon="121.38179858065774">
        <ele>3.330741354264319</ele>
        <time>2024-07-06T13:07:14Z</time>
      </trkpt>
      <trkpt lat="31.107666893208854" lon="121.3817196433346">
        <ele>5.419306341558695</ele>
        <time>2024-07-06T13:07:17Z</time>
      </trkpt>
      <trkpt lat="31.10771775831395" lon="121.38163619102203">
        <ele>6.478270348161459</ele>
        <time>2024-07-06T13:07:20Z</time>
      </trkpt>
      <trkpt lat="31.10782258984388" lon="121.38159721198335">
        <ele>7.099396747536957</ele>
        <time>2024-07-06T13:07:23Z</time>
      </trkpt>
      <trkpt lat="31.107832247584046" lon="121.38149996973597">
        <ele>7.3604330169036984</ele>
        <time>2024-07-06T13:07:26Z</time>
      </trkpt>
      <trkpt lat="31.107796038514625" lon="121.38136942063076">
        <ele>7.5824300879612565</ele>
        <time>2024-07-06T13:07:29Z</time>
      </trkpt>
      <trkpt lat="31.107808927312316" lon="121.3811402071356">
        <ele>7.7706109853461385</ele>
        <time>2024-07-06T13:07:35Z</time>
      </trkpt>
      <trkpt lat="31.107681518351775" lon="121.3810028241134">
        <ele>8.40890125464648</ele>
        <time>2024-07-06T13:07:41Z</time>
      </trkpt>
      <trkpt lat="31.107615061457125" lon="121.38105302846735">
        <ele>8.913617257028818</ele>
        <time>2024-07-06T13:07:44Z</time>
      </trkpt>
      <trkpt lat="31.107442823912354" lon="121.38098374368128">
        <ele>9.538762865588069</ele>
        <time>2024-07-06T13:07:50Z</time>
      </trkpt>
      <trkpt lat="31.107376280612055" lon="121.3808848561386">
        <ele>7.3769476460292935</ele>
        <time>2024-07-06T13:07:53Z</time>
      </trkpt>
      <trkpt lat="31.107215102453573" lon="121.38096705088165">
        <ele>7.813304292969406</ele>
        <time>2024-07-06T13:07:59Z</time>
      </trkpt>
      <trkpt lat="31.107143543781973" lon="121.38102114776412">
        <ele>5.718745465390384</ele>
        <time>2024-07-06T13:08:02Z</time>
      </trkpt>
      <trkpt lat="31.107014505563164" lon="121.38098335551649">
        <ele>3.9930828120559454</ele>
        <time>2024-07-06T13:08:08Z</time>
      </trkpt>
      <trkpt lat="31.106931498390196" lon="121.3809175606771">
        <ele>4.300821121782064</ele>
        <time>2024-07-06T13:08:11Z</time>
      </trkpt>
      <trkpt lat="31.106749616110935" lon="121.3809193858333">
        <ele>5.811402600258589</ele>
        <time>2024-07-06T13:08:17Z</time>
      </trkpt>
      <trkpt lat="31.106602681234396" lon="121.38095242948528">
        <ele>5.868525789119303</ele>
        <time>2024-07-06T13:08:24Z</time>
      </trkpt>
      <trkpt lat="31.10650416392921" lon="121.38101880156499">
        <ele>5.995076806284487</ele>
        <time>2024-07-06T13:08:28Z</time>
      </trkpt>
      <trkpt lat="31.10649615448315" lon="121.38113838135585">
        <ele>6.931139170192182</ele>
        <time>2024-07-06T13:08:32Z</time>
      </trkpt>
      <trkpt lat="31.10644913503578" lon="121.38121614737271">
        <ele>6.116781287826598</ele>
        <time>2024-07-06T13:08:36Z</time>
      </trkpt>
      <trkpt lat="31.1064252873606" lon="121.38141319287811">
        <ele>7.306784005835652</ele>
        <time>2024-07-06T13:08:42Z</time>
      </trkpt>
      <trkpt lat="31.10643357678976" lon="121.38150067775263">
        <ele>7.788021435961127</ele>
        <time>2024-07-06T13:08:45Z</time>
      </trkpt>
      <trkpt lat="31.106415339566002" lon="121.38160156250788">
        <ele>6.692646622657776</ele>
        <time>2024-07-06T13:08:48Z</time>
      </trkpt>
      <trkpt lat="31.106361170808277" lon="121.38166760450403">
        <ele>6.848628671839833</ele>
        <time>2024-07-06T13:08:51Z</time>
      </trkpt>
      <trkpt lat="31.10632894647399" lon="121.38199029885536">
        <ele>5.500460140407085</ele>
        <time>2024-07-06T13:09:00Z</time>
      </trkpt>
      <trkpt lat="31.106294622928775" lon="121.38210590100987">
        <ele>6.34124584775418</ele>
        <time>2024-07-06T13:09:03Z</time>
      </trkpt>
      <trkpt lat="31.106300767953318" lon="121.38232614914688">
        <ele>8.124167759902775</ele>
        <time>2024-07-06T13:09:09Z</time>
      </trkpt>
      <trkpt lat="31.106214039187734" lon="121.38234673877362">
        <ele>8.05863438732922</ele>
        <time>2024-07-06T13:09:15Z</time>
      </trkpt>
      <trkpt lat="31.106282752442894" lon="121.38259036329973">
        <ele>8.073527283966541</ele>
        <time>2024-07-06T13:09:21Z</time>
      </trkpt>
      <trkpt lat="31.10622097027866" lon="121.3827818404904">
        <ele>8.726960272528231</ele>
        <time>2024-07-06T13:09:27Z</time>
      </trkpt>
      <trkpt lat="31.106242753636355" lon="121.38298438460959">
        <ele>10.263068857602775</ele>
        <time>2024-07-06T13:09:36Z</time>
      </trkpt>
      <trkpt lat="31.1063185592984" lon="121.38301814370021">
        <ele>10.525043205358088</ele>
        <time>2024-07-06T13:09:39Z</time>
      </trkpt>
      <trkpt lat="31.106336379128084" lon="121.38296576126176">
        <ele>9.81876759044826</ele>
        <time>2024-07-06T13:09:42Z</time>
      </trkpt>
      <trkpt lat="31.106352592743942" lon="121.3830452934883">
        <ele>10.152883384376764</ele>
        <time>2024-07-06T13:09:45Z</time>
      </trkpt>
      <trkpt lat="31.106405336914957" lon="121.38299074475611">
        <ele>11.768095405772328</ele>
        <time>2024-07-06T13:09:51Z</time>
      </trkpt>
      <trkpt lat="31.106616944374753" lon="121.38287602677008">
        <ele>10.819235661998391</ele>
        <time>2024-07-06T13:10:03Z</time>
      </trkpt>
      <trkpt lat="31.106660824221905" lon="121.38289839614316">
        <ele>10.261549497954547</ele>
        <time>2024-07-06T13:10:06Z</time>
      </trkpt>
      <trkpt lat="31.106802544192387" lon="121.38288584935565">
        <ele>11.276315278373659</ele>
        <time>2024-07-06T13:10:21Z</time>
      </trkpt>
      <trkpt lat="31.106871538266457" lon="121.38291405751102">
        <ele>10.51581696048379</ele>
        <time>2024-07-06T13:10:24Z</time>
      </trkpt>
      <trkpt lat="31.106936241674266" lon="121.38297740392308">
        <ele>7.9693574560806155</ele>
        <time>2024-07-06T13:10:31Z</time>
      </trkpt>
      <trkpt lat="31.10697325391836" lon="121.38314573288756">
        <ele>7.266606468707323</ele>
        <time>2024-07-06T13:10:43Z</time>
      </trkpt>
      <trkpt lat="31.107049717163203" lon="121.38326530724936">
        <ele>9.35512938350439</ele>
        <time>2024-07-06T13:10:55Z</time>
      </trkpt>
      <trkpt lat="31.10711511930562" lon="121.38331452578323">
        <ele>8.125007003545761</ele>
        <time>2024-07-06T13:11:01Z</time>
      </trkpt>
      <trkpt lat="31.10719130133989" lon="121.38334616903008">
        <ele>5.6176988780498505</ele>
        <time>2024-07-06T13:11:07Z</time>
      </trkpt>
      <trkpt lat="31.10743711054141" lon="121.38329500986272">
        <ele>8.456656181253493</ele>
        <time>2024-07-06T13:11:28Z</time>
      </trkpt>
      <trkpt lat="31.107494457224917" lon="121.38322738468486">
        <ele>6.731072732247412</ele>
        <time>2024-07-06T13:11:40Z</time>
      </trkpt>
      <trkpt lat="31.10766125127448" lon="121.38285618248376">
        <ele>7.288732593879104</ele>
        <time>2024-07-06T13:11:52Z</time>
      </trkpt>
      <trkpt lat="31.107667052279023" lon="121.38273322579154">
        <ele>8.64512098673731</ele>
        <time>2024-07-06T13:11:58Z</time>
      </trkpt>
      <trkpt lat="31.10765184010506" lon="121.38263770300738">
        <ele>8.13312467560172</ele>
        <time>2024-07-06T13:12:04Z</time>
      </trkpt>
      <trkpt lat="31.107659774472157" lon="121.38257275784514">
        <ele>7.4068703558295965</ele>
        <time>2024-07-06T13:12:07Z</time>
      </trkpt>
      <trkpt lat="31.107568907060003" lon="121.38226838476314">
        <ele>6.0079123405739665</ele>
        <time>2024-07-06T13:12:22Z</time>
      </trkpt>
      <trkpt lat="31.107706099766066" lon="121.38197900499821">
        <ele>6.572910200804472</ele>
        <time>2024-07-06T13:12:47Z</time>
      </trkpt>
      <trkpt lat="31.10772744529287" lon="121.38180591365332">
        <ele>4.295514618977904</ele>
        <time>2024-07-06T13:13:02Z</time>
      </trkpt>
      <trkpt lat="31.10777172458342" lon="121.38171618091198">
        <ele>2.65311305783689</ele>
        <time>2024-07-06T13:13:08Z</time>
      </trkpt>
      <trkpt lat="31.107819102162367" lon="121.3815479659096">
        <ele>4.158503758721054</ele>
        <time>2024-07-06T13:13:14Z</time>
      </trkpt>
      <trkpt lat="31.107853984541" lon="121.38150479656855">
        <ele>3.244221232831478</ele>
        <time>2024-07-06T13:13:17Z</time>
      </trkpt>
      <trkpt lat="31.107878497348832" lon="121.38139967620067">
        <ele>4.599358757957816</ele>
        <time>2024-07-06T13:13:26Z</time>
      </trkpt>
      <trkpt lat="31.107864739292765" lon="121.38132459393465">
        <ele>5.393036903813481</ele>
        <time>2024-07-06T13:13:32Z</time>
      </trkpt>
      <trkpt lat="31.10788937864625" lon="121.3812455420789">
        <ele>6.415456572547555</ele>
        <time>2024-07-06T13:13:35Z</time>
      </trkpt>
      <trkpt lat="31.10787190604643" lon="121.38108636608774">
        <ele>6.646341594867408</ele>
        <time>2024-07-06T13:13:44Z</time>
      </trkpt>
      <trkpt lat="31.107806119172764" lon="121.38101469454485">
        <ele>9.442680563777685</ele>
        <time>2024-07-06T13:13:53Z</time>
      </trkpt>
      <trkpt lat="31.10755765631291" lon="121.38088342802934">
        <ele>10.0202466417104</ele>
        <time>2024-07-06T13:14:08Z</time>
      </trkpt>
      <trkpt lat="31.107480593845835" lon="121.38085549595866">
        <ele>10.84077109862119</ele>
        <time>2024-07-06T13:14:11Z</time>
      </trkpt>
      <trkpt lat="31.10743810562374" lon="121.38081899892246">
        <ele>10.647030927240849</ele>
        <time>2024-07-06T13:14:14Z</time>
      </trkpt>
      <trkpt lat="31.10738490949137" lon="121.38085681155687">
        <ele>10.24359033536166</ele>
        <time>2024-07-06T13:14:17Z</time>
      </trkpt>
      <trkpt lat="31.107369357772615" lon="121.38090899075178">
        <ele>9.688702397048473</ele>
        <time>2024-07-06T13:14:20Z</time>
      </trkpt>
      <trkpt lat="31.10731896106095" lon="121.38097041663154">
        <ele>5.590336309745908</ele>
        <time>2024-07-06T13:14:26Z</time>
      </trkpt>
      <trkpt lat="31.10730967980491" lon="121.3809569217306">
        <ele>12.167538238689303</ele>
        <time>2024-07-06T13:36:46Z</time>
      </trkpt>
      <trkpt lat="31.107259933377232" lon="121.38093584713545">
        <ele>7.780881840735674</ele>
        <time>2024-07-06T13:36:52Z</time>
      </trkpt>
      <trkpt lat="31.107175269845776" lon="121.38097866526086">
        <ele>7.916265582665801</ele>
        <time>2024-07-06T13:36:58Z</time>
      </trkpt>
      <trkpt lat="31.10712481053683" lon="121.38094439407139">
        <ele>7.754772184416652</ele>
        <time>2024-07-06T13:37:01Z</time>
      </trkpt>
      <trkpt lat="31.107068817188072" lon="121.38095595647295">
        <ele>7.03306021168828</ele>
        <time>2024-07-06T13:37:07Z</time>
      </trkpt>
      <trkpt lat="31.106864455514312" lon="121.38091001683158">
        <ele>6.592054773122072</ele>
        <time>2024-07-06T13:37:19Z</time>
      </trkpt>
      <trkpt lat="31.106796260797804" lon="121.38093988506283">
        <ele>5.9099785359576344</ele>
        <time>2024-07-06T13:37:22Z</time>
      </trkpt>
      <trkpt lat="31.106587189430996" lon="121.38091183872012">
        <ele>7.316327384673059</ele>
        <time>2024-07-06T13:37:31Z</time>
      </trkpt>
      <trkpt lat="31.106538645824493" lon="121.38097092055735">
        <ele>8.136623381637037</ele>
        <time>2024-07-06T13:37:34Z</time>
      </trkpt>
      <trkpt lat="31.106513218355385" lon="121.3811058168023">
        <ele>7.685391323640943</ele>
        <time>2024-07-06T13:37:40Z</time>
      </trkpt>
      <trkpt lat="31.106466178708466" lon="121.38118116455342">
        <ele>8.557427560910583</ele>
        <time>2024-07-06T13:37:43Z</time>
      </trkpt>
      <trkpt lat="31.10640863923846" lon="121.38143002399849">
        <ele>8.980147598311305</ele>
        <time>2024-07-06T13:37:50Z</time>
      </trkpt>
      <trkpt lat="31.10641959359857" lon="121.38164782445233">
        <ele>8.137858588248491</ele>
        <time>2024-07-06T13:37:56Z</time>
      </trkpt>
      <trkpt lat="31.106347088773756" lon="121.38184083901295">
        <ele>7.796257357113063</ele>
        <time>2024-07-06T13:38:02Z</time>
      </trkpt>
      <trkpt lat="31.10636431312329" lon="121.38196749872431">
        <ele>6.084483099170029</ele>
        <time>2024-07-06T13:38:05Z</time>
      </trkpt>
      <trkpt lat="31.106342236851116" lon="121.38207606227957">
        <ele>5.377236253581941</ele>
        <time>2024-07-06T13:38:08Z</time>
      </trkpt>
      <trkpt lat="31.10627760456322" lon="121.3821623747737">
        <ele>5.808944827876985</ele>
        <time>2024-07-06T13:38:11Z</time>
      </trkpt>
      <trkpt lat="31.10626342420722" lon="121.38224269188714">
        <ele>7.341971818357706</ele>
        <time>2024-07-06T13:38:14Z</time>
      </trkpt>
      <trkpt lat="31.106275488461286" lon="121.38233179817239">
        <ele>8.195476378314197</ele>
        <time>2024-07-06T13:38:17Z</time>
      </trkpt>
      <trkpt lat="31.1061904798647" lon="121.3825802086306">
        <ele>6.2501884661614895</ele>
        <time>2024-07-06T13:38:26Z</time>
      </trkpt>
      <trkpt lat="31.106227540392762" lon="121.38278442947902">
        <ele>6.621963870711625</ele>
        <time>2024-07-06T13:38:32Z</time>
      </trkpt>
      <trkpt lat="31.10622807478306" lon="121.3828627099314">
        <ele>6.328637410886586</ele>
        <time>2024-07-06T13:38:35Z</time>
      </trkpt>
      <trkpt lat="31.106310250295518" lon="121.38297388797207">
        <ele>7.614116710610688</ele>
        <time>2024-07-06T13:38:41Z</time>
      </trkpt>
      <trkpt lat="31.106388414276655" lon="121.38303331273852">
        <ele>8.769552585668862</ele>
        <time>2024-07-06T13:38:44Z</time>
      </trkpt>
      <trkpt lat="31.106451156990268" lon="121.38304531654114">
        <ele>8.78915401082486</ele>
        <time>2024-07-06T13:38:47Z</time>
      </trkpt>
      <trkpt lat="31.106485905521588" lon="121.38290870148097">
        <ele>7.993124186061323</ele>
        <time>2024-07-06T13:38:50Z</time>
      </trkpt>
      <trkpt lat="31.106561917194526" lon="121.38287885685634">
        <ele>8.123723492026329</ele>
        <time>2024-07-06T13:38:53Z</time>
      </trkpt>
      <trkpt lat="31.1067660910153" lon="121.38287179132142">
        <ele>7.869762545451522</ele>
        <time>2024-07-06T13:39:02Z</time>
      </trkpt>
      <trkpt lat="31.10695547723775" lon="121.3829287084681">
        <ele>8.189381110481918</ele>
        <time>2024-07-06T13:39:11Z</time>
      </trkpt>
      <trkpt lat="31.10697676104335" lon="121.383023592855">
        <ele>7.97362663783133</ele>
        <time>2024-07-06T13:39:14Z</time>
      </trkpt>
      <trkpt lat="31.10697429167944" lon="121.38310932204315">
        <ele>8.431401616893709</ele>
        <time>2024-07-06T13:39:17Z</time>
      </trkpt>
      <trkpt lat="31.107001677167972" lon="121.3832339725957">
        <ele>7.5878260880708694</ele>
        <time>2024-07-06T13:39:20Z</time>
      </trkpt>
      <trkpt lat="31.107036364286706" lon="121.38330369024376">
        <ele>7.356529167853296</ele>
        <time>2024-07-06T13:39:23Z</time>
      </trkpt>
      <trkpt lat="31.10711612122215" lon="121.38339537352515">
        <ele>7.343079835176468</ele>
        <time>2024-07-06T13:39:26Z</time>
      </trkpt>
      <trkpt lat="31.10718313480581" lon="121.38343109796291">
        <ele>8.19737218786031</ele>
        <time>2024-07-06T13:39:29Z</time>
      </trkpt>
      <trkpt lat="31.107327323460485" lon="121.38331696057584">
        <ele>10.29677186254412</ele>
        <time>2024-07-06T13:39:35Z</time>
      </trkpt>
      <trkpt lat="31.1074082752524" lon="121.38331690254988">
        <ele>9.918020134791732</ele>
        <time>2024-07-06T13:39:38Z</time>
      </trkpt>
      <trkpt lat="31.107487089039207" lon="121.38324650854963">
        <ele>10.578915772028267</ele>
        <time>2024-07-06T13:39:41Z</time>
      </trkpt>
      <trkpt lat="31.107525080767488" lon="121.38315052384797">
        <ele>10.851060388609767</ele>
        <time>2024-07-06T13:39:44Z</time>
      </trkpt>
      <trkpt lat="31.107519261863345" lon="121.38307824832292">
        <ele>11.066064855083823</ele>
        <time>2024-07-06T13:39:47Z</time>
      </trkpt>
      <trkpt lat="31.107571758251922" lon="121.38290097750465">
        <ele>9.784711821004748</ele>
        <time>2024-07-06T13:39:54Z</time>
      </trkpt>
      <trkpt lat="31.107546915801368" lon="121.38282132723548">
        <ele>9.472852090373635</ele>
        <time>2024-07-06T13:39:57Z</time>
      </trkpt>
      <trkpt lat="31.107562860368965" lon="121.38257955910808">
        <ele>9.711433821357787</ele>
        <time>2024-07-06T13:40:08Z</time>
      </trkpt>
      <trkpt lat="31.10751696746609" lon="121.38243928273069">
        <ele>10.15323696937412</ele>
        <time>2024-07-06T13:40:14Z</time>
      </trkpt>
      <trkpt lat="31.107487154389194" lon="121.3823977109914">
        <ele>10.094352643936872</ele>
        <time>2024-07-06T13:40:17Z</time>
      </trkpt>
      <trkpt lat="31.10747845377014" lon="121.38225499049868">
        <ele>9.017582843080163</ele>
        <time>2024-07-06T13:40:23Z</time>
      </trkpt>
      <trkpt lat="31.10762182256143" lon="121.38187866946322">
        <ele>7.880457207560539</ele>
        <time>2024-07-06T13:40:35Z</time>
      </trkpt>
      <trkpt lat="31.1077205922346" lon="121.38168769727044">
        <ele>8.138529291376472</ele>
        <time>2024-07-06T13:40:44Z</time>
      </trkpt>
      <trkpt lat="31.10773509189591" lon="121.38153865776718">
        <ele>8.3499993737787</ele>
        <time>2024-07-06T13:40:50Z</time>
      </trkpt>
      <trkpt lat="31.107780368459547" lon="121.38146779215474">
        <ele>8.2517616963014</ele>
        <time>2024-07-06T13:40:53Z</time>
      </trkpt>
      <trkpt lat="31.107837941786467" lon="121.38142291475636">
        <ele>8.671404765918851</ele>
        <time>2024-07-06T13:40:56Z</time>
      </trkpt>
      <trkpt lat="31.10779495082422" lon="121.38130503702571">
        <ele>7.920897248201072</ele>
        <time>2024-07-06T13:41:05Z</time>
      </trkpt>
      <trkpt lat="31.10782904515082" lon="121.38116263125204">
        <ele>7.351427409797907</ele>
        <time>2024-07-06T13:41:11Z</time>
      </trkpt>
      <trkpt lat="31.107768425356596" lon="121.38101504023905">
        <ele>7.35789711587131</ele>
        <time>2024-07-06T13:41:17Z</time>
      </trkpt>
      <trkpt lat="31.107591046028585" lon="121.38090656724913">
        <ele>7.821593512780964</ele>
        <time>2024-07-06T13:41:26Z</time>
      </trkpt>
      <trkpt lat="31.107466590465428" lon="121.3809035370579">
        <ele>8.289805436506867</ele>
        <time>2024-07-06T13:41:32Z</time>
      </trkpt>
      <trkpt lat="31.10737999448854" lon="121.3808796413712">
        <ele>8.12030426133424</ele>
        <time>2024-07-06T13:41:35Z</time>
      </trkpt>
      <trkpt lat="31.107168416145374" lon="121.38090109035406">
        <ele>8.582715441472828</ele>
        <time>2024-07-06T13:41:44Z</time>
      </trkpt>
      <trkpt lat="31.107114080527477" lon="121.38086900336681">
        <ele>8.786318046040833</ele>
        <time>2024-07-06T13:41:47Z</time>
      </trkpt>
      <trkpt lat="31.106979341944392" lon="121.38091347582726">
        <ele>8.002502856776118</ele>
        <time>2024-07-06T13:41:53Z</time>
      </trkpt>
      <trkpt lat="31.10675200585987" lon="121.38093448134175">
        <ele>6.698275142349303</ele>
        <time>2024-07-06T13:42:04Z</time>
      </trkpt>
      <trkpt lat="31.10669737498243" lon="121.38091247240978">
        <ele>6.062145138159394</ele>
        <time>2024-07-06T13:42:08Z</time>
      </trkpt>
      <trkpt lat="31.106585214697585" lon="121.38094083338066">
        <ele>6.141496457159519</ele>
        <time>2024-07-06T13:42:16Z</time>
      </trkpt>
      <trkpt lat="31.106550525884366" lon="121.38102001545452">
        <ele>5.792867775075138</ele>
        <time>2024-07-06T13:42:20Z</time>
      </trkpt>
      <trkpt lat="31.10654778207789" lon="121.38112606534969">
        <ele>5.671742960810661</ele>
        <time>2024-07-06T13:42:23Z</time>
      </trkpt>
      <trkpt lat="31.106506974623947" lon="121.38119060783227">
        <ele>5.996572430245578</ele>
        <time>2024-07-06T13:42:26Z</time>
      </trkpt>
      <trkpt lat="31.10655733586681" lon="121.38127199094725">
        <ele>7.243654869496822</ele>
        <time>2024-07-06T13:42:29Z</time>
      </trkpt>
      <trkpt lat="31.106515535486523" lon="121.38132875518683">
        <ele>7.555077132768929</ele>
        <time>2024-07-06T13:42:32Z</time>
      </trkpt>
      <trkpt lat="31.10649302503959" lon="121.3814045495288">
        <ele>8.051553627476096</ele>
        <time>2024-07-06T13:42:35Z</time>
      </trkpt>
      <trkpt lat="31.10647377566837" lon="121.38164995432047">
        <ele>8.069622157141566</ele>
        <time>2024-07-06T13:42:44Z</time>
      </trkpt>
      <trkpt lat="31.10644516403954" lon="121.38173609458363">
        <ele>9.37403747998178</ele>
        <time>2024-07-06T13:42:47Z</time>
      </trkpt>
      <trkpt lat="31.106424850310436" lon="121.38201580335165">
        <ele>6.174107000231743</ele>
        <time>2024-07-06T13:42:56Z</time>
      </trkpt>
      <trkpt lat="31.106335272289638" lon="121.38206059611935">
        <ele>4.963551783002913</ele>
        <time>2024-07-06T13:42:59Z</time>
      </trkpt>
      <trkpt lat="31.10626059199859" lon="121.38229827969884">
        <ele>3.8113971929997206</ele>
        <time>2024-07-06T13:43:08Z</time>
      </trkpt>
      <trkpt lat="31.106254953249582" lon="121.3823674720674">
        <ele>1.2882425105199218</ele>
        <time>2024-07-06T13:43:11Z</time>
      </trkpt>
      <trkpt lat="31.106228745105987" lon="121.38243873213321">
        <ele>2.0764850256964564</ele>
        <time>2024-07-06T13:43:14Z</time>
      </trkpt>
      <trkpt lat="31.106229148770964" lon="121.38249543615777">
        <ele>2.5336407739669085</ele>
        <time>2024-07-06T13:43:17Z</time>
      </trkpt>
      <trkpt lat="31.106279176966734" lon="121.38263576293383">
        <ele>4.448728133924305</ele>
        <time>2024-07-06T13:43:23Z</time>
      </trkpt>
      <trkpt lat="31.106396742857267" lon="121.38270101595363">
        <ele>6.127321588806808</ele>
        <time>2024-07-06T13:43:35Z</time>
      </trkpt>
      <trkpt lat="31.106523865863494" lon="121.38268992265968">
        <ele>5.127439271658659</ele>
        <time>2024-07-06T13:43:44Z</time>
      </trkpt>
      <trkpt lat="31.106584481504864" lon="121.38270029430048">
        <ele>4.5945116970688105</ele>
        <time>2024-07-06T13:43:50Z</time>
      </trkpt>
      <trkpt lat="31.106572286938597" lon="121.38275229402683">
        <ele>5.212989471852779</ele>
        <time>2024-07-06T13:43:53Z</time>
      </trkpt>
      <trkpt lat="31.106585034666203" lon="121.38272716257468">
        <ele>6.964830473996699</ele>
        <time>2024-07-06T13:44:02Z</time>
      </trkpt>
      <trkpt lat="31.106766573989706" lon="121.38281671410238">
        <ele>1.2821559365838766</ele>
        <time>2024-07-06T14:00:38Z</time>
      </trkpt>
      <trkpt lat="31.10673818576124" lon="121.3831148503305">
        <ele>4.766995740123093</ele>
        <time>2024-07-06T14:00:54Z</time>
      </trkpt>
      <trkpt lat="31.106743846147058" lon="121.38320778723862">
        <ele>4.322485179640353</ele>
        <time>2024-07-06T14:00:58Z</time>
      </trkpt>
      <trkpt lat="31.10680659111213" lon="121.38323284093372">
        <ele>5.630239431746304</ele>
        <time>2024-07-06T14:01:02Z</time>
      </trkpt>
      <trkpt lat="31.1068634691649" lon="121.38348968610742">
        <ele>8.815161343663931</ele>
        <time>2024-07-06T14:01:21Z</time>
      </trkpt>
      <trkpt lat="31.106979321503786" lon="121.38361182138124">
        <ele>7.390174916014075</ele>
        <time>2024-07-06T14:01:33Z</time>
      </trkpt>
      <trkpt lat="31.10702513246525" lon="121.38368458606458">
        <ele>8.225510075688362</ele>
        <time>2024-07-06T14:01:39Z</time>
      </trkpt>
      <trkpt lat="31.107099906777478" lon="121.38366632115189">
        <ele>5.911859333515167</ele>
        <time>2024-07-06T14:01:45Z</time>
      </trkpt>
      <trkpt lat="31.107234877129265" lon="121.38369352160251">
        <ele>9.066755136474967</ele>
        <time>2024-07-06T14:01:51Z</time>
      </trkpt>
      <trkpt lat="31.107515967021655" lon="121.38365548279748">
        <ele>10.760362603701651</ele>
        <time>2024-07-06T14:02:09Z</time>
      </trkpt>
      <trkpt lat="31.107472785783912" lon="121.38387016347419">
        <ele>8.852424686774611</ele>
        <time>2024-07-06T14:02:27Z</time>
      </trkpt>
      <trkpt lat="31.107516735879376" lon="121.38398887942367">
        <ele>6.722032990306616</ele>
        <time>2024-07-06T14:02:33Z</time>
      </trkpt>
      <trkpt lat="31.107480033227628" lon="121.38412300025446">
        <ele>6.225355302914977</ele>
        <time>2024-07-06T14:02:42Z</time>
      </trkpt>
      <trkpt lat="31.107507543104127" lon="121.38430277180743">
        <ele>5.812845290638506</ele>
        <time>2024-07-06T14:02:51Z</time>
      </trkpt>
      <trkpt lat="31.107495922342768" lon="121.38436168462859">
        <ele>6.778029045090079</ele>
        <time>2024-07-06T14:02:54Z</time>
      </trkpt>
      <trkpt lat="31.10744804684221" lon="121.38445134908044">
        <ele>8.835221188142896</ele>
        <time>2024-07-06T14:03:01Z</time>
      </trkpt>
      <trkpt lat="31.107424910348435" lon="121.38453710917042">
        <ele>9.471098331734538</ele>
        <time>2024-07-06T14:03:11Z</time>
      </trkpt>
      <trkpt lat="31.107359264668986" lon="121.3845939733901">
        <ele>10.45686352532357</ele>
        <time>2024-07-06T14:03:23Z</time>
      </trkpt>
      <trkpt lat="31.107408242860686" lon="121.38454628239185">
        <ele>11.639417731203139</ele>
        <time>2024-07-06T14:03:32Z</time>
      </trkpt>
      <trkpt lat="31.10757243763257" lon="121.38449507693593">
        <ele>10.89408474136144</ele>
        <time>2024-07-06T14:03:47Z</time>
      </trkpt>
      <trkpt lat="31.10770965266873" lon="121.38452946280799">
        <ele>9.285362992435694</ele>
        <time>2024-07-06T14:04:03Z</time>
      </trkpt>
      <trkpt lat="31.107758830370365" lon="121.3845093509469">
        <ele>9.214929622597992</ele>
        <time>2024-07-06T14:04:06Z</time>
      </trkpt>
      <trkpt lat="31.107711914829064" lon="121.38450388359865">
        <ele>8.117251818068326</ele>
        <time>2024-07-06T14:04:33Z</time>
      </trkpt>
      <trkpt lat="31.107632887067926" lon="121.38437306186796">
        <ele>4.941332841292024</ele>
        <time>2024-07-06T14:04:48Z</time>
      </trkpt>
      <trkpt lat="31.107569373283255" lon="121.38421721008461">
        <ele>3.3875118354335427</ele>
        <time>2024-07-06T14:05:00Z</time>
      </trkpt>
      <trkpt lat="31.107545439925595" lon="121.38403028005541">
        <ele>2.2769120763987303</ele>
        <time>2024-07-06T14:05:13Z</time>
      </trkpt>
      <trkpt lat="31.107518921903832" lon="121.38396353329574">
        <ele>2.8881183732300997</ele>
        <time>2024-07-06T14:05:16Z</time>
      </trkpt>
      <trkpt lat="31.107454156942314" lon="121.38389852054588">
        <ele>3.825592588633299</ele>
        <time>2024-07-06T14:05:19Z</time>
      </trkpt>
      <trkpt lat="31.10738953372373" lon="121.3838656487304">
        <ele>1.9846050487831235</ele>
        <time>2024-07-06T14:05:22Z</time>
      </trkpt>
      <trkpt lat="31.107144513066295" lon="121.38383341444063">
        <ele>1.6748490622267127</ele>
        <time>2024-07-06T14:05:28Z</time>
      </trkpt>
      <trkpt lat="31.107017935571868" lon="121.38387787032015">
        <ele>2.8512345971539617</ele>
        <time>2024-07-06T14:05:31Z</time>
      </trkpt>
      <trkpt lat="31.106700415458736" lon="121.38379312081888">
        <ele>5.690419317223132</ele>
        <time>2024-07-06T14:05:40Z</time>
      </trkpt>
      <trkpt lat="31.1066110147264" lon="121.38381720542047">
        <ele>6.243037538602948</ele>
        <time>2024-07-06T14:05:43Z</time>
      </trkpt>
      <trkpt lat="31.10657260306683" lon="121.38374138249628">
        <ele>6.174934982322156</ele>
        <time>2024-07-06T14:05:46Z</time>
      </trkpt>
      <trkpt lat="31.10652528669568" lon="121.38369134603352">
        <ele>9.42035775911063</ele>
        <time>2024-07-06T14:05:52Z</time>
      </trkpt>
      <trkpt lat="31.106615054447765" lon="121.38358494663547">
        <ele>8.777402471750975</ele>
        <time>2024-07-06T14:05:58Z</time>
      </trkpt>
      <trkpt lat="31.10664668850539" lon="121.3834981547689">
        <ele>8.028683099895716</ele>
        <time>2024-07-06T14:06:01Z</time>
      </trkpt>
      <trkpt lat="31.106723378085903" lon="121.38346734450337">
        <ele>8.74455074314028</ele>
        <time>2024-07-06T14:06:04Z</time>
      </trkpt>
      <trkpt lat="31.106858828064787" lon="121.38352462882354">
        <ele>10.343413774855435</ele>
        <time>2024-07-06T14:06:10Z</time>
      </trkpt>
      <trkpt lat="31.106957780705123" lon="121.38350999771818">
        <ele>9.819031871855259</ele>
        <time>2024-07-06T14:06:13Z</time>
      </trkpt>
      <trkpt lat="31.10701977715423" lon="121.38356148706">
        <ele>10.579188794828951</ele>
        <time>2024-07-06T14:06:16Z</time>
      </trkpt>
      <trkpt lat="31.107134248510704" lon="121.38346497564626">
        <ele>9.471941265277565</ele>
        <time>2024-07-06T14:06:22Z</time>
      </trkpt>
      <trkpt lat="31.107322651834757" lon="121.38351613132942">
        <ele>7.791136575862765</ele>
        <time>2024-07-06T14:06:28Z</time>
      </trkpt>
      <trkpt lat="31.107395176466706" lon="121.38355159684646">
        <ele>6.283541309647262</ele>
        <time>2024-07-06T14:06:31Z</time>
      </trkpt>
      <trkpt lat="31.107469975745772" lon="121.38353183168397">
        <ele>9.267937089316547</ele>
        <time>2024-07-06T14:06:34Z</time>
      </trkpt>
      <trkpt lat="31.10749554391565" lon="121.38346996533532">
        <ele>9.817681674845517</ele>
        <time>2024-07-06T14:06:37Z</time>
      </trkpt>
      <trkpt lat="31.10748576480374" lon="121.38340854046062">
        <ele>11.16953239403665</ele>
        <time>2024-07-06T14:06:40Z</time>
      </trkpt>
      <trkpt lat="31.107540230025805" lon="121.38331728075153">
        <ele>13.564807620830834</ele>
        <time>2024-07-06T14:06:46Z</time>
      </trkpt>
      <trkpt lat="31.107619684627792" lon="121.38307302860419">
        <ele>12.933685106225312</ele>
        <time>2024-07-06T14:06:55Z</time>
      </trkpt>
      <trkpt lat="31.10774736973589" lon="121.38281154960794">
        <ele>11.642961933277547</ele>
        <time>2024-07-06T14:07:04Z</time>
      </trkpt>
      <trkpt lat="31.107775895932452" lon="121.38244173070863">
        <ele>13.88811585213989</ele>
        <time>2024-07-06T14:07:14Z</time>
      </trkpt>
      <trkpt lat="31.10782415267933" lon="121.38217206142093">
        <ele>12.944443277083337</ele>
        <time>2024-07-06T14:07:20Z</time>
      </trkpt>
      <trkpt lat="31.1078422089856" lon="121.38183463808184">
        <ele>11.673060178756714</ele>
        <time>2024-07-06T14:07:29Z</time>
      </trkpt>
      <trkpt lat="31.107866710987093" lon="121.38172042010024">
        <ele>12.40241727232933</ele>
        <time>2024-07-06T14:07:32Z</time>
      </trkpt>
      <trkpt lat="31.107837337468247" lon="121.38156392722492">
        <ele>11.496734032407403</ele>
        <time>2024-07-06T14:07:38Z</time>
      </trkpt>
      <trkpt lat="31.107856613321886" lon="121.38144483715135">
        <ele>11.109502508305013</ele>
        <time>2024-07-06T14:07:41Z</time>
      </trkpt>
      <trkpt lat="31.1078953562414" lon="121.38134339059003">
        <ele>10.549700673669577</ele>
        <time>2024-07-06T14:07:44Z</time>
      </trkpt>
      <trkpt lat="31.10784148752753" lon="121.3812579714139">
        <ele>11.747924994677305</ele>
        <time>2024-07-06T14:07:47Z</time>
      </trkpt>
      <trkpt lat="31.107963256207285" lon="121.38096883606946">
        <ele>9.50907632149756</ele>
        <time>2024-07-06T14:08:02Z</time>
      </trkpt>
      <trkpt lat="31.107918893448122" lon="121.38086073405047">
        <ele>8.246807725168765</ele>
        <time>2024-07-06T14:08:05Z</time>
      </trkpt>
      <trkpt lat="31.10786129071493" lon="121.38087299514004">
        <ele>7.03830602299422</ele>
        <time>2024-07-06T14:08:08Z</time>
      </trkpt>
      <trkpt lat="31.107823448726393" lon="121.38084139192182">
        <ele>6.552734042517841</ele>
        <time>2024-07-06T14:08:11Z</time>
      </trkpt>
      <trkpt lat="31.10778514374417" lon="121.38087857518697">
        <ele>6.247690945863724</ele>
        <time>2024-07-06T14:08:14Z</time>
      </trkpt>
      <trkpt lat="31.10783750370311" lon="121.38100523862731">
        <ele>5.7255461579188704</ele>
        <time>2024-07-06T14:08:17Z</time>
      </trkpt>
      <trkpt lat="31.10795287039661" lon="121.38102833913163">
        <ele>6.854056767188013</ele>
        <time>2024-07-06T14:08:26Z</time>
      </trkpt>
    </trkseg>
  </trk>
</gpx>