<?xml version="1.0" encoding="UTF-8"?>
<gpx xmlns="http://www.topografix.com/GPX/1/1" xmlns:gpxtpx="http://www.garmin.com/xmlschemas/TrackPointExtension/v1" xmlns:xsi="http://www.w3.org/2001/XMLSchema-instance" xsi:schemaLocation="http://www.topografix.com/GPX/1/1 http://www.topografix.com/GPX/1/1/gpx.xsd" version="1.1" creator="gpx.py -- https://github.com/tkrajina/gpxpy">
  <trk>
    <name>gpx from keep</name>
    <type>Run</type>
    <trkseg>
      <trkpt lat="36.03018456883669" lon="119.40168919460753">
        <ele>70.184814453125</ele>
        <time>2023-07-11T13:42:21Z</time>
      </trkpt>
      <trkpt lat="36.03012158239478" lon="119.40168519930106">
        <ele>72.8582763671875</ele>
        <time>2023-07-11T13:42:27Z</time>
      </trkpt>
      <trkpt lat="36.03006955159263" lon="119.40149109076432">
        <ele>70.53466796875</ele>
        <time>2023-07-11T13:42:36Z</time>
      </trkpt>
      <trkpt lat="36.0300615227941" lon="119.401347008141">
        <ele>66.028564453125</ele>
        <time>2023-07-11T13:42:42Z</time>
      </trkpt>
      <trkpt lat="36.029945483481086" lon="119.40102083641165">
        <ele>68.3753662109375</ele>
        <time>2023-07-11T13:42:57Z</time>
      </trkpt>
      <trkpt lat="36.029920477215484" lon="119.40095880476076">
        <ele>67.9017333984375</ele>
        <time>2023-07-11T13:43:00Z</time>
      </trkpt>
      <trkpt lat="36.02986747887492" lon="119.40090378032615">
        <ele>68.62158203125</ele>
        <time>2023-07-11T13:43:03Z</time>
      </trkpt>
      <trkpt lat="36.02976645137836" lon="119.40062764176257">
        <ele>66.431396484375</ele>
        <time>2023-07-11T13:43:15Z</time>
      </trkpt>
      <trkpt lat="36.029506465263175" lon="119.40036053003064">
        <ele>67.7701416015625</ele>
        <time>2023-07-11T13:43:30Z</time>
      </trkpt>
      <trkpt lat="36.0294584700224" lon="119.4003225156902">
        <ele>66.936279296875</ele>
        <time>2023-07-11T13:43:33Z</time>
      </trkpt>
      <trkpt lat="36.02915551897472" lon="119.40019448385308">
        <ele>68.12310791015625</ele>
        <time>2023-07-11T13:43:48Z</time>
      </trkpt>
      <trkpt lat="36.029102525478095" lon="119.40015847144726">
        <ele>68.2557373046875</ele>
        <time>2023-07-11T13:43:51Z</time>
      </trkpt>
      <trkpt lat="36.02904754710534" lon="119.40021550672282">
        <ele>66.56829833984375</ele>
        <time>2023-07-11T13:43:54Z</time>
      </trkpt>
      <trkpt lat="36.028868585353436" lon="119.40019751761398">
        <ele>67.39703369140625</ele>
        <time>2023-07-11T13:44:03Z</time>
      </trkpt>
      <trkpt lat="36.028784607660825" lon="119.40021653676764">
        <ele>65.94049072265625</ele>
        <time>2023-07-11T13:44:09Z</time>
      </trkpt>
      <trkpt lat="36.02873061641358" lon="119.40019353106617">
        <ele>65.9832763671875</ele>
        <time>2023-07-11T13:44:12Z</time>
      </trkpt>
      <trkpt lat="36.02869461667398" lon="119.40014250912694">
        <ele>65.57275390625</ele>
        <time>2023-07-11T13:44:15Z</time>
      </trkpt>
      <trkpt lat="36.0286466284785" lon="119.40014751705765">
        <ele>64.93072509765625</ele>
        <time>2023-07-11T13:44:18Z</time>
      </trkpt>
      <trkpt lat="36.028592645899614" lon="119.40017953941543">
        <ele>68.42431640625</ele>
        <time>2023-07-11T13:44:21Z</time>
      </trkpt>
      <trkpt lat="36.028527674864385" lon="119.40026759182048">
        <ele>70.26458740234375</ele>
        <time>2023-07-11T13:44:24Z</time>
      </trkpt>
      <trkpt lat="36.02824674951023" lon="119.40032965541488">
        <ele>68.98236083984375</ele>
        <time>2023-07-11T13:44:39Z</time>
      </trkpt>
      <trkpt lat="36.02812479031485" lon="119.40040670920862">
        <ele>68.237060546875</ele>
        <time>2023-07-11T13:44:45Z</time>
      </trkpt>
      <trkpt lat="36.02800783988565" lon="119.40053979238762">
        <ele>66.19921875</ele>
        <time>2023-07-11T13:44:54Z</time>
      </trkpt>
      <trkpt lat="36.02784989841242" lon="119.40066587740367">
        <ele>66.12152099609375</ele>
        <time>2023-07-11T13:45:03Z</time>
      </trkpt>
      <trkpt lat="36.027770915671454" lon="119.4006608835874">
        <ele>64.66790771484375</ele>
        <time>2023-07-11T13:45:09Z</time>
      </trkpt>
      <trkpt lat="36.027531935192286" lon="119.4004578025339">
        <ele>63.6634521484375</ele>
        <time>2023-07-11T13:45:24Z</time>
      </trkpt>
      <trkpt lat="36.02741595090539" lon="119.40039278150407">
        <ele>64.80255126953125</ele>
        <time>2023-07-11T13:45:30Z</time>
      </trkpt>
      <trkpt lat="36.02733594554642" lon="119.40024771537661">
        <ele>65.43524169921875</ele>
        <time>2023-07-11T13:45:36Z</time>
      </trkpt>
      <trkpt lat="36.02715395253697" lon="119.40002362210834">
        <ele>66.2847900390625</ele>
        <time>2023-07-11T13:45:48Z</time>
      </trkpt>
      <trkpt lat="36.027095958248836" lon="119.39997260312776">
        <ele>67.65380859375</ele>
        <time>2023-07-11T13:45:51Z</time>
      </trkpt>
      <trkpt lat="36.02703896810125" lon="119.39995059857615">
        <ele>68.5894775390625</ele>
        <time>2023-07-11T13:45:54Z</time>
      </trkpt>
      <trkpt lat="36.02689500401778" lon="119.39996962420179">
        <ele>69.368896484375</ele>
        <time>2023-07-11T13:46:03Z</time>
      </trkpt>
      <trkpt lat="36.02670003757873" lon="119.39989260789798">
        <ele>67.23345947265625</ele>
        <time>2023-07-11T13:46:15Z</time>
      </trkpt>
      <trkpt lat="36.02638808235765" lon="119.399700549134">
        <ele>67.68170166015625</ele>
        <time>2023-07-11T13:46:33Z</time>
      </trkpt>
      <trkpt lat="36.0263210939713" lon="119.39967254315158">
        <ele>67.95465087890625</ele>
        <time>2023-07-11T13:46:36Z</time>
      </trkpt>
      <trkpt lat="36.02619611010066" lon="119.39957751169378">
        <ele>67.84033203125</ele>
        <time>2023-07-11T13:46:45Z</time>
      </trkpt>
      <trkpt lat="36.025876172130104" lon="119.39948750499335">
        <ele>66.7144775390625</ele>
        <time>2023-07-11T13:47:00Z</time>
      </trkpt>
      <trkpt lat="36.02573119291547" lon="119.39938647397534">
        <ele>68.94140625</ele>
        <time>2023-07-11T13:47:12Z</time>
      </trkpt>
      <trkpt lat="36.02561521559716" lon="119.39935347167011">
        <ele>69.399658203125</ele>
        <time>2023-07-11T13:47:18Z</time>
      </trkpt>
      <trkpt lat="36.02550423009606" lon="119.39926044126027">
        <ele>70.167236328125</ele>
        <time>2023-07-11T13:47:24Z</time>
      </trkpt>
      <trkpt lat="36.02547023168327" lon="119.39920642040676">
        <ele>69.76470947265625</ele>
        <time>2023-07-11T13:47:27Z</time>
      </trkpt>
      <trkpt lat="36.02537225003903" lon="119.39916941460055">
        <ele>66.5533447265625</ele>
        <time>2023-07-11T13:47:33Z</time>
      </trkpt>
      <trkpt lat="36.02516028296481" lon="119.39902437326893">
        <ele>66.0457763671875</ele>
        <time>2023-07-11T13:47:45Z</time>
      </trkpt>
      <trkpt lat="36.02511928714589" lon="119.3989743556857">
        <ele>65.0269775390625</ele>
        <time>2023-07-11T13:47:48Z</time>
      </trkpt>
      <trkpt lat="36.025042305184016" lon="119.3989773656585">
        <ele>65.997802734375</ele>
        <time>2023-07-11T13:47:51Z</time>
      </trkpt>
      <trkpt lat="36.02484434318202" lon="119.3989033552985">
        <ele>67.76092529296875</ele>
        <time>2023-07-11T13:48:00Z</time>
      </trkpt>
      <trkpt lat="36.02465038795277" lon="119.39890437751893">
        <ele>72.3135986328125</ele>
        <time>2023-07-11T13:48:12Z</time>
      </trkpt>
      <trkpt lat="36.024428434876924" lon="119.39886238408118">
        <ele>68.88775634765625</ele>
        <time>2023-07-11T13:48:24Z</time>
      </trkpt>
      <trkpt lat="36.02433346055341" lon="119.39890041135773">
        <ele>67.94415283203125</ele>
        <time>2023-07-11T13:48:30Z</time>
      </trkpt>
      <trkpt lat="36.024315470720815" lon="119.39895943932876">
        <ele>66.57647705078125</ele>
        <time>2023-07-11T13:48:33Z</time>
      </trkpt>
      <trkpt lat="36.024333482139" lon="119.39910550236286">
        <ele>67.9908447265625</ele>
        <time>2023-07-11T13:48:45Z</time>
      </trkpt>
      <trkpt lat="36.02793803342578" lon="119.40145530916509">
        <ele>75.83526611328125</ele>
        <time>2023-07-11T13:53:47Z</time>
      </trkpt>
      <trkpt lat="36.02804105687564" lon="119.40167042404408">
        <ele>66.2774658203125</ele>
        <time>2023-07-11T13:53:59Z</time>
      </trkpt>
      <trkpt lat="36.028094120556695" lon="119.40199861603053">
        <ele>65.62066650390625</ele>
        <time>2023-07-11T13:54:11Z</time>
      </trkpt>
      <trkpt lat="36.028243166485275" lon="119.40232480206538">
        <ele>65.204833984375</ele>
        <time>2023-07-11T13:54:26Z</time>
      </trkpt>
      <trkpt lat="36.02826917808831" lon="119.40239384283433">
        <ele>65.21435546875</ele>
        <time>2023-07-11T13:54:29Z</time>
      </trkpt>
      <trkpt lat="36.028781353947764" lon="119.40344348278136">
        <ele>66.63763427734375</ele>
        <time>2023-07-11T13:55:32Z</time>
      </trkpt>
      <trkpt lat="36.028785399022986" lon="119.40359358716285">
        <ele>63.325439453125</ele>
        <time>2023-07-11T13:55:38Z</time>
      </trkpt>
      <trkpt lat="36.02871651506711" lon="119.40390981993399">
        <ele>66.457275390625</ele>
        <time>2023-07-11T13:55:50Z</time>
      </trkpt>
      <trkpt lat="36.02847163041942" lon="119.40408997815355">
        <ele>66.54248046875</ele>
        <time>2023-07-11T13:56:05Z</time>
      </trkpt>
      <trkpt lat="36.028262728096585" lon="119.40423811047219">
        <ele>66.67828369140625</ele>
        <time>2023-07-11T13:56:17Z</time>
      </trkpt>
      <trkpt lat="36.02809285013245" lon="119.40447930947956">
        <ele>66.6650390625</ele>
        <time>2023-07-11T13:56:29Z</time>
      </trkpt>
      <trkpt lat="36.02757643836906" lon="119.40572334797619">
        <ele>81.37469482421875</ele>
        <time>2023-07-11T13:57:23Z</time>
      </trkpt>
      <trkpt lat="36.02750343774805" lon="119.40568032078332">
        <ele>67.77001953125</ele>
        <time>2023-07-11T13:57:26Z</time>
      </trkpt>
      <trkpt lat="36.027416448875584" lon="119.40565831248453">
        <ele>66.53509521484375</ele>
        <time>2023-07-11T13:57:32Z</time>
      </trkpt>
      <trkpt lat="36.02732044206626" lon="119.40558626433399">
        <ele>68.536376953125</ele>
        <time>2023-07-11T13:57:38Z</time>
      </trkpt>
      <trkpt lat="36.02716438685679" lon="119.40535509478343">
        <ele>68.19842529296875</ele>
        <time>2023-07-11T13:57:50Z</time>
      </trkpt>
      <trkpt lat="36.02710028575137" lon="119.4050518612086">
        <ele>66.2716064453125</ele>
        <time>2023-07-11T13:58:02Z</time>
      </trkpt>
      <trkpt lat="36.027091249389855" lon="119.40494878156709">
        <ele>65.91461181640625</ele>
        <time>2023-07-11T13:58:05Z</time>
      </trkpt>
      <trkpt lat="36.02712122511476" lon="119.40490174159794">
        <ele>62.1094970703125</ele>
        <time>2023-07-11T13:58:08Z</time>
      </trkpt>
      <trkpt lat="36.02714116318709" lon="119.40474461799911">
        <ele>62.2938232421875</ele>
        <time>2023-07-11T13:58:17Z</time>
      </trkpt>
      <trkpt lat="36.02713812936755" lon="119.40464854482323">
        <ele>63.6927490234375</ele>
        <time>2023-07-11T13:58:23Z</time>
      </trkpt>
      <trkpt lat="36.027117100806535" lon="119.40455447570744">
        <ele>65.4039306640625</ele>
        <time>2023-07-11T13:58:29Z</time>
      </trkpt>
      <trkpt lat="36.027015081862615" lon="119.4044333958946">
        <ele>65.92926025390625</ele>
        <time>2023-07-11T13:58:38Z</time>
      </trkpt>
      <trkpt lat="36.026918074433404" lon="119.4043473424251">
        <ele>67.04571533203125</ele>
        <time>2023-07-11T13:58:44Z</time>
      </trkpt>
      <trkpt lat="36.026780085278055" lon="119.4042863125218">
        <ele>66.2174072265625</ele>
        <time>2023-07-11T13:58:50Z</time>
      </trkpt>
      <trkpt lat="36.026583139122366" lon="119.40431135321433">
        <ele>67.26470947265625</ele>
        <time>2023-07-11T13:58:59Z</time>
      </trkpt>
      <trkpt lat="36.02655716950963" lon="119.4043824090899">
        <ele>68.9559326171875</ele>
        <time>2023-07-11T13:59:11Z</time>
      </trkpt>
      <trkpt lat="36.026412235172565" lon="119.40447549516615">
        <ele>68.7991943359375</ele>
        <time>2023-07-11T13:59:29Z</time>
      </trkpt>
      <trkpt lat="36.026424224384876" lon="119.40445247651105">
        <ele>86.75341796875</ele>
        <time>2023-07-11T14:00:56Z</time>
      </trkpt>
    </trkseg>
  </trk>
</gpx>