<?xml version="1.0" encoding="UTF-8"?>
<gpx xmlns="http://www.topografix.com/GPX/1/1" xmlns:gpxtpx="http://www.garmin.com/xmlschemas/TrackPointExtension/v1" xmlns:xsi="http://www.w3.org/2001/XMLSchema-instance" xsi:schemaLocation="http://www.topografix.com/GPX/1/1 http://www.topografix.com/GPX/1/1/gpx.xsd" version="1.1" creator="gpx.py -- https://github.com/tkrajina/gpxpy">
  <trk>
    <name>gpx from keep</name>
    <type>Run</type>
    <trkseg>
      <trkpt lat="30.522124748993146" lon="114.3925108023774">
        <ele>0.0</ele>
        <time>2022-07-21T13:35:59Z</time>
      </trkpt>
      <trkpt lat="30.522077719494206" lon="114.39275387323806">
        <ele>24.613525390625</ele>
        <time>2022-07-21T13:36:02Z</time>
      </trkpt>
      <trkpt lat="30.522098681681054" lon="114.3929339226909">
        <ele>25.8212890625</ele>
        <time>2022-07-21T13:36:08Z</time>
      </trkpt>
      <trkpt lat="30.522162641478793" lon="114.39305395216195">
        <ele>23.8369140625</ele>
        <time>2022-07-21T13:36:14Z</time>
      </trkpt>
      <trkpt lat="30.52224260259999" lon="114.39313797013119">
        <ele>21.696044921875</ele>
        <time>2022-07-21T13:36:20Z</time>
      </trkpt>
      <trkpt lat="30.52242653041171" lon="114.3932269808727">
        <ele>21.44219970703125</ele>
        <time>2022-07-21T13:36:32Z</time>
      </trkpt>
      <trkpt lat="30.52270444293429" lon="114.39322495597723">
        <ele>22.20257568359375</ele>
        <time>2022-07-21T13:36:47Z</time>
      </trkpt>
      <trkpt lat="30.522798414802974" lon="114.3932149447331">
        <ele>21.5045166015625</ele>
        <time>2022-07-21T13:36:50Z</time>
      </trkpt>
      <trkpt lat="30.523011343860222" lon="114.39323793310261">
        <ele>21.2657470703125</ele>
        <time>2022-07-21T13:36:56Z</time>
      </trkpt>
      <trkpt lat="30.52325326777041" lon="114.39323491104699">
        <ele>22.69622802734375</ele>
        <time>2022-07-21T13:37:05Z</time>
      </trkpt>
      <trkpt lat="30.5232104547696" lon="114.39225764101913">
        <ele>0.0</ele>
        <time>2022-07-21T13:37:56Z</time>
      </trkpt>
      <trkpt lat="30.52290855008944" lon="114.39225866766233">
        <ele>0.0</ele>
        <time>2022-07-21T13:38:02Z</time>
      </trkpt>
      <trkpt lat="30.522591472233163" lon="114.39326597832923">
        <ele>-13.4517822265625</ele>
        <time>2022-07-21T13:39:15Z</time>
      </trkpt>
      <trkpt lat="30.52270944465832" lon="114.39320394918012">
        <ele>16.72247314453125</ele>
        <time>2022-07-21T13:39:21Z</time>
      </trkpt>
      <trkpt lat="30.522771426331786" lon="114.39319594134585">
        <ele>17.885009765625</ele>
        <time>2022-07-21T13:39:24Z</time>
      </trkpt>
      <trkpt lat="30.522763398385898" lon="114.39317688436516">
        <ele>0.0</ele>
        <time>2022-07-21T13:39:27Z</time>
      </trkpt>
      <trkpt lat="30.523035346521226" lon="114.39317291134749">
        <ele>19.27410888671875</ele>
        <time>2022-07-21T13:39:39Z</time>
      </trkpt>
      <trkpt lat="30.523338255119977" lon="114.39314487646887">
        <ele>22.98480224609375</ele>
        <time>2022-07-21T13:39:54Z</time>
      </trkpt>
      <trkpt lat="30.52351421006421" lon="114.39307884142964">
        <ele>19.62469482421875</ele>
        <time>2022-07-21T13:40:01Z</time>
      </trkpt>
      <trkpt lat="30.523586211029478" lon="114.39293579326197">
        <ele>21.49786376953125</ele>
        <time>2022-07-21T13:40:10Z</time>
      </trkpt>
      <trkpt lat="30.523629221007454" lon="114.39279875031329">
        <ele>17.754150390625</ele>
        <time>2022-07-21T13:40:13Z</time>
      </trkpt>
      <trkpt lat="30.52363323675987" lon="114.39270272304184">
        <ele>18.6134033203125</ele>
        <time>2022-07-21T13:40:16Z</time>
      </trkpt>
      <trkpt lat="30.52359727611072" lon="114.39254968420079">
        <ele>20.10858154296875</ele>
        <time>2022-07-21T13:40:23Z</time>
      </trkpt>
      <trkpt lat="30.523469350045332" lon="114.39237364848415">
        <ele>18.229736328125</ele>
        <time>2022-07-21T13:40:32Z</time>
      </trkpt>
      <trkpt lat="30.523412372946" lon="114.39234864692368">
        <ele>17.00421142578125</ele>
        <time>2022-07-21T13:40:35Z</time>
      </trkpt>
      <trkpt lat="30.523110472034134" lon="114.39233066861969">
        <ele>15.8978271484375</ele>
        <time>2022-07-21T13:40:44Z</time>
      </trkpt>
      <trkpt lat="30.52284255404607" lon="114.39234469568241">
        <ele>16.9267578125</ele>
        <time>2022-07-21T13:40:53Z</time>
      </trkpt>
      <trkpt lat="30.52274758660344" lon="114.39233170059593">
        <ele>20.1202392578125</ele>
        <time>2022-07-21T13:40:56Z</time>
      </trkpt>
      <trkpt lat="30.52218864806626" lon="114.39296492381882">
        <ele>21.0621337890625</ele>
        <time>2022-07-21T13:41:43Z</time>
      </trkpt>
      <trkpt lat="30.522276597845718" lon="114.39310095612485">
        <ele>19.1180419921875</ele>
        <time>2022-07-21T13:41:49Z</time>
      </trkpt>
      <trkpt lat="30.522340569594384" lon="114.39315096546228">
        <ele>20.27020263671875</ele>
        <time>2022-07-21T13:41:52Z</time>
      </trkpt>
      <trkpt lat="30.522412542247118" lon="114.39317996788608">
        <ele>20.92083740234375</ele>
        <time>2022-07-21T13:41:55Z</time>
      </trkpt>
      <trkpt lat="30.522686452714044" lon="114.39319894967842">
        <ele>21.7469482421875</ele>
        <time>2022-07-21T13:42:07Z</time>
      </trkpt>
      <trkpt lat="30.522897387774204" lon="114.39318792792298">
        <ele>22.291259765625</ele>
        <time>2022-07-21T13:42:16Z</time>
      </trkpt>
      <trkpt lat="30.523225282449093" lon="114.39319790228359">
        <ele>22.84991455078125</ele>
        <time>2022-07-21T13:42:31Z</time>
      </trkpt>
      <trkpt lat="30.52340623391205" lon="114.39314286992867">
        <ele>21.47930908203125</ele>
        <time>2022-07-21T13:42:40Z</time>
      </trkpt>
      <trkpt lat="30.52352721168365" lon="114.39304382995272">
        <ele>22.5408935546875</ele>
        <time>2022-07-21T13:42:46Z</time>
      </trkpt>
      <trkpt lat="30.52357520626909" lon="114.392984808461">
        <ele>22.28826904296875</ele>
        <time>2022-07-21T13:42:49Z</time>
      </trkpt>
      <trkpt lat="30.523619227336948" lon="114.39278074610523">
        <ele>19.80572509765625</ele>
        <time>2022-07-21T13:42:58Z</time>
      </trkpt>
      <trkpt lat="30.523603266438478" lon="114.39259169508966">
        <ele>17.480712890625</ele>
        <time>2022-07-21T13:43:07Z</time>
      </trkpt>
      <trkpt lat="30.5224976740036" lon="114.39228871129433">
        <ele>0.0</ele>
        <time>2022-07-21T13:44:02Z</time>
      </trkpt>
      <trkpt lat="30.522254731196362" lon="114.39238875857977">
        <ele>0.0</ele>
        <time>2022-07-21T13:44:11Z</time>
      </trkpt>
      <trkpt lat="30.522157856498215" lon="114.39240179196722">
        <ele>0.0</ele>
        <time>2022-07-21T13:44:17Z</time>
      </trkpt>
      <trkpt lat="30.522145919125247" lon="114.39265794006289">
        <ele>23.07470703125</ele>
        <time>2022-07-21T13:44:23Z</time>
      </trkpt>
      <trkpt lat="30.52210871398336" lon="114.39272986380966">
        <ele>21.63970947265625</ele>
        <time>2022-07-21T13:44:26Z</time>
      </trkpt>
      <trkpt lat="30.522117687309084" lon="114.39286590147142">
        <ele>22.99041748046875</ele>
        <time>2022-07-21T13:44:32Z</time>
      </trkpt>
      <trkpt lat="30.522169649036186" lon="114.39299493422416">
        <ele>19.9100341796875</ele>
        <time>2022-07-21T13:44:38Z</time>
      </trkpt>
      <trkpt lat="30.522332571479033" lon="114.39315496736079">
        <ele>21.54437255859375</ele>
        <time>2022-07-21T13:44:48Z</time>
      </trkpt>
      <trkpt lat="30.52248851540383" lon="114.39319796667544">
        <ele>23.8685302734375</ele>
        <time>2022-07-21T13:44:54Z</time>
      </trkpt>
      <trkpt lat="30.522759432500337" lon="114.39318093787016">
        <ele>23.5479736328125</ele>
        <time>2022-07-21T13:45:03Z</time>
      </trkpt>
      <trkpt lat="30.523043339079408" lon="114.39320391999844">
        <ele>21.4163818359375</ele>
        <time>2022-07-21T13:45:18Z</time>
      </trkpt>
      <trkpt lat="30.523325255240756" lon="114.39316988510743">
        <ele>24.34197998046875</ele>
        <time>2022-07-21T13:45:33Z</time>
      </trkpt>
      <trkpt lat="30.52338623992376" lon="114.39314487227502">
        <ele>26.659423828125</ele>
        <time>2022-07-21T13:45:36Z</time>
      </trkpt>
      <trkpt lat="30.523555217303784" lon="114.39295680205828">
        <ele>21.6812744140625</ele>
        <time>2022-07-21T13:45:48Z</time>
      </trkpt>
      <trkpt lat="30.523615233549155" lon="114.39275273858082">
        <ele>22.0841064453125</ele>
        <time>2022-07-21T13:45:57Z</time>
      </trkpt>
      <trkpt lat="30.52358128752631" lon="114.39251567642195">
        <ele>20.771728515625</ele>
        <time>2022-07-21T13:46:09Z</time>
      </trkpt>
      <trkpt lat="30.523552307844287" lon="114.39245666316373">
        <ele>20.7635498046875</ele>
        <time>2022-07-21T13:46:12Z</time>
      </trkpt>
      <trkpt lat="30.523473344147074" lon="114.39239765444219">
        <ele>17.64080810546875</ele>
        <time>2022-07-21T13:46:18Z</time>
      </trkpt>
      <trkpt lat="30.52329341393258" lon="114.3923316528906">
        <ele>19.802001953125</ele>
        <time>2022-07-21T13:46:27Z</time>
      </trkpt>
      <trkpt lat="30.52310247691195" lon="114.39231866620023">
        <ele>17.3106689453125</ele>
        <time>2022-07-21T13:46:36Z</time>
      </trkpt>
      <trkpt lat="30.523032494364383" lon="114.39234267856014">
        <ele>17.2996826171875</ele>
        <time>2022-07-21T13:46:40Z</time>
      </trkpt>
      <trkpt lat="30.522744586380362" lon="114.39233770242016">
        <ele>17.63409423828125</ele>
        <time>2022-07-21T13:46:57Z</time>
      </trkpt>
      <trkpt lat="30.52263962463748" lon="114.39231170483751">
        <ele>18.36199951171875</ele>
        <time>2022-07-21T13:47:03Z</time>
      </trkpt>
      <trkpt lat="30.522383698628005" lon="114.39234673630745">
        <ele>18.61944580078125</ele>
        <time>2022-07-21T13:47:16Z</time>
      </trkpt>
      <trkpt lat="30.522262726361358" lon="114.39240076103975">
        <ele>19.0137939453125</ele>
        <time>2022-07-21T13:47:22Z</time>
      </trkpt>
      <trkpt lat="30.52218073811339" lon="114.39247478783768">
        <ele>21.416748046875</ele>
        <time>2022-07-21T13:47:25Z</time>
      </trkpt>
      <trkpt lat="30.522113738327896" lon="114.39258682390987">
        <ele>23.660400390625</ele>
        <time>2022-07-21T13:47:31Z</time>
      </trkpt>
      <trkpt lat="30.52213168323886" lon="114.39286389967637">
        <ele>23.77130126953125</ele>
        <time>2022-07-21T13:47:43Z</time>
      </trkpt>
      <trkpt lat="30.52217165040988" lon="114.39298293054607">
        <ele>22.701904296875</ele>
        <time>2022-07-21T13:47:49Z</time>
      </trkpt>
      <trkpt lat="30.52227559848574" lon="114.39309895561756">
        <ele>21.925048828125</ele>
        <time>2022-07-21T13:48:00Z</time>
      </trkpt>
      <trkpt lat="30.522438534675636" lon="114.39317596441009">
        <ele>19.60614013671875</ele>
        <time>2022-07-21T13:48:09Z</time>
      </trkpt>
      <trkpt lat="30.522644464561473" lon="114.39320795606898">
        <ele>22.5185546875</ele>
        <time>2022-07-21T13:48:18Z</time>
      </trkpt>
      <trkpt lat="30.52291737813329" lon="114.39320893251956">
        <ele>24.1402587890625</ele>
        <time>2022-07-21T13:48:33Z</time>
      </trkpt>
      <trkpt lat="30.523239274866665" lon="114.39321790711149">
        <ele>25.9599609375</ele>
        <time>2022-07-21T13:48:48Z</time>
      </trkpt>
      <trkpt lat="30.523416225634833" lon="114.39317487866076">
        <ele>24.65411376953125</ele>
        <time>2022-07-21T13:48:57Z</time>
      </trkpt>
      <trkpt lat="30.52354620582988" lon="114.39304282799804">
        <ele>24.2491455078125</ele>
        <time>2022-07-21T13:49:06Z</time>
      </trkpt>
      <trkpt lat="30.523622228148557" lon="114.39277074302665">
        <ele>18.38909912109375</ele>
        <time>2022-07-21T13:49:18Z</time>
      </trkpt>
      <trkpt lat="30.52358927512028" lon="114.3925686900523">
        <ele>22.1995849609375</ele>
        <time>2022-07-21T13:49:28Z</time>
      </trkpt>
      <trkpt lat="30.523474348268383" lon="114.39237464830956">
        <ele>23.73553466796875</ele>
        <time>2022-07-21T13:49:34Z</time>
      </trkpt>
      <trkpt lat="30.523360395853842" lon="114.39231564287941">
        <ele>22.54119873046875</ele>
        <time>2022-07-21T13:49:40Z</time>
      </trkpt>
      <trkpt lat="30.523174457666045" lon="114.3923006552447">
        <ele>22.31170654296875</ele>
        <time>2022-07-21T13:49:49Z</time>
      </trkpt>
      <trkpt lat="30.523108475601717" lon="114.39231566489745">
        <ele>24.17242431640625</ele>
        <time>2022-07-21T13:49:52Z</time>
      </trkpt>
      <trkpt lat="30.522999515383443" lon="114.39228866743382">
        <ele>21.87176513671875</ele>
        <time>2022-07-21T13:49:58Z</time>
      </trkpt>
      <trkpt lat="30.522915534678074" lon="114.3923256843571">
        <ele>20.26806640625</ele>
        <time>2022-07-21T13:50:04Z</time>
      </trkpt>
      <trkpt lat="30.522624630945998" lon="114.39230370407567">
        <ele>20.51861572265625</ele>
        <time>2022-07-21T13:50:19Z</time>
      </trkpt>
      <trkpt lat="30.522517251624198" lon="114.39229940464126">
        <ele>0.0</ele>
        <time>2022-07-21T13:50:25Z</time>
      </trkpt>
      <trkpt lat="30.522310718556206" lon="114.3923627468665">
        <ele>18.864990234375</ele>
        <time>2022-07-21T13:50:40Z</time>
      </trkpt>
      <trkpt lat="30.522251726376687" lon="114.39241876675226">
        <ele>18.1688232421875</ele>
        <time>2022-07-21T13:50:43Z</time>
      </trkpt>
      <trkpt lat="30.522170713194974" lon="114.3926258295945">
        <ele>21.46417236328125</ele>
        <time>2022-07-21T13:50:52Z</time>
      </trkpt>
      <trkpt lat="30.522144692367693" lon="114.392787876952">
        <ele>20.56768798828125</ele>
        <time>2022-07-21T13:50:58Z</time>
      </trkpt>
      <trkpt lat="30.52215367664557" lon="114.39286189718257">
        <ele>20.62811279296875</ele>
        <time>2022-07-21T13:51:01Z</time>
      </trkpt>
      <trkpt lat="30.52226460504774" lon="114.39307995093918">
        <ele>20.57861328125</ele>
        <time>2022-07-21T13:51:10Z</time>
      </trkpt>
      <trkpt lat="30.52231658231175" lon="114.39311895799061">
        <ele>20.28741455078125</ele>
        <time>2022-07-21T13:51:13Z</time>
      </trkpt>
      <trkpt lat="30.5225345065968" lon="114.39316195181337">
        <ele>17.51055908203125</ele>
        <time>2022-07-21T13:51:22Z</time>
      </trkpt>
      <trkpt lat="30.52287339742459" lon="114.39317492610336">
        <ele>20.67852783203125</ele>
        <time>2022-07-21T13:51:34Z</time>
      </trkpt>
      <trkpt lat="30.52315031590035" lon="114.39313689050029">
        <ele>24.12646484375</ele>
        <time>2022-07-21T13:51:43Z</time>
      </trkpt>
      <trkpt lat="30.523249283290234" lon="114.39314488424496">
        <ele>24.60748291015625</ele>
        <time>2022-07-21T13:51:46Z</time>
      </trkpt>
      <trkpt lat="30.523425237108953" lon="114.39308585128113">
        <ele>22.46240234375</ele>
        <time>2022-07-21T13:51:52Z</time>
      </trkpt>
      <trkpt lat="30.523481229389738" lon="114.39302482838299">
        <ele>21.24249267578125</ele>
        <time>2022-07-21T13:51:55Z</time>
      </trkpt>
      <trkpt lat="30.523552226217486" lon="114.39290978872505">
        <ele>19.8177490234375</ele>
        <time>2022-07-21T13:52:01Z</time>
      </trkpt>
      <trkpt lat="30.523600255148864" lon="114.39265871373478">
        <ele>22.0010986328125</ele>
        <time>2022-07-21T13:52:13Z</time>
      </trkpt>
      <trkpt lat="30.523586273114347" lon="114.39258469466692">
        <ele>22.62078857421875</ele>
        <time>2022-07-21T13:52:16Z</time>
      </trkpt>
      <trkpt lat="30.52350432058295" lon="114.39246967082285">
        <ele>20.51666259765625</ele>
        <time>2022-07-21T13:52:22Z</time>
      </trkpt>
      <trkpt lat="30.52343935088197" lon="114.39241866295475">
        <ele>20.31365966796875</ele>
        <time>2022-07-21T13:52:25Z</time>
      </trkpt>
      <trkpt lat="30.52323642865869" lon="114.3923486623014">
        <ele>20.82177734375</ele>
        <time>2022-07-21T13:52:31Z</time>
      </trkpt>
      <trkpt lat="30.523123459174887" lon="114.39237567923988">
        <ele>21.040771484375</ele>
        <time>2022-07-21T13:52:34Z</time>
      </trkpt>
      <trkpt lat="30.522803563649916" lon="114.39235870274632">
        <ele>21.72802734375</ele>
        <time>2022-07-21T13:52:44Z</time>
      </trkpt>
      <trkpt lat="30.522482666793646" lon="114.39234972844078">
        <ele>21.89202880859375</ele>
        <time>2022-07-21T13:52:56Z</time>
      </trkpt>
      <trkpt lat="30.522429684887687" lon="114.39234273124507">
        <ele>24.1243896484375</ele>
        <time>2022-07-21T13:52:59Z</time>
      </trkpt>
      <trkpt lat="30.52226072296282" lon="114.39242176675936">
        <ele>24.70135498046875</ele>
        <time>2022-07-21T13:53:08Z</time>
      </trkpt>
      <trkpt lat="30.522169734051037" lon="114.39251479952155">
        <ele>24.43780517578125</ele>
        <time>2022-07-21T13:53:14Z</time>
      </trkpt>
      <trkpt lat="30.52209772335581" lon="114.39269685557619">
        <ele>26.79541015625</ele>
        <time>2022-07-21T13:53:26Z</time>
      </trkpt>
      <trkpt lat="30.522114689635217" lon="114.39285789944712">
        <ele>23.86102294921875</ele>
        <time>2022-07-21T13:53:38Z</time>
      </trkpt>
      <trkpt lat="30.522246606986158" lon="114.39310295934072">
        <ele>20.97900390625</ele>
        <time>2022-07-21T13:53:50Z</time>
      </trkpt>
      <trkpt lat="30.52234156688279" lon="114.39316596987724">
        <ele>19.64923095703125</ele>
        <time>2022-07-21T13:53:56Z</time>
      </trkpt>
      <trkpt lat="30.522453527719" lon="114.39318996731835">
        <ele>20.404296875</ele>
        <time>2022-07-21T13:54:02Z</time>
      </trkpt>
      <trkpt lat="30.522730443731156" lon="114.39316793649176">
        <ele>20.75433349609375</ele>
        <time>2022-07-21T13:54:18Z</time>
      </trkpt>
      <trkpt lat="30.52300735458118" lon="114.39317791529878">
        <ele>22.59429931640625</ele>
        <time>2022-07-21T13:54:33Z</time>
      </trkpt>
      <trkpt lat="30.523067335923173" lon="114.39317590945443">
        <ele>21.84344482421875</ele>
        <time>2022-07-21T13:54:35Z</time>
      </trkpt>
      <trkpt lat="30.522976759056604" lon="114.39322120973014">
        <ele>0.0</ele>
        <time>2022-07-21T13:54:39Z</time>
      </trkpt>
      <trkpt lat="30.52312931790297" lon="114.39316590102979">
        <ele>21.9471435546875</ele>
        <time>2022-07-21T13:54:45Z</time>
      </trkpt>
      <trkpt lat="30.523357250228365" lon="114.39313787271347">
        <ele>20.1939697265625</ele>
        <time>2022-07-21T13:54:54Z</time>
      </trkpt>
      <trkpt lat="30.523431233907516" lon="114.3930938531316">
        <ele>20.77227783203125</ele>
        <time>2022-07-21T13:54:57Z</time>
      </trkpt>
      <trkpt lat="30.52353422093134" lon="114.39297480912816">
        <ele>20.07049560546875</ele>
        <time>2022-07-21T13:55:00Z</time>
      </trkpt>
      <trkpt lat="30.523606220106807" lon="114.39284576566588">
        <ele>20.2149658203125</ele>
        <time>2022-07-21T13:55:03Z</time>
      </trkpt>
      <trkpt lat="30.523609242751697" lon="114.3927117276438">
        <ele>21.70489501953125</ele>
        <time>2022-07-21T13:55:06Z</time>
      </trkpt>
      <trkpt lat="30.523584274301445" lon="114.39258169402463">
        <ele>20.2584228515625</ele>
        <time>2022-07-21T13:55:09Z</time>
      </trkpt>
      <trkpt lat="30.523518315580738" lon="114.39247267040044">
        <ele>19.67340087890625</ele>
        <time>2022-07-21T13:55:12Z</time>
      </trkpt>
      <trkpt lat="30.523424359471623" lon="114.39239865898692">
        <ele>15.7806396484375</ele>
        <time>2022-07-21T13:55:15Z</time>
      </trkpt>
      <trkpt lat="30.523299408525073" lon="114.39234965705793">
        <ele>14.29547119140625</ele>
        <time>2022-07-21T13:55:18Z</time>
      </trkpt>
      <trkpt lat="30.52294752241251" lon="114.39233668442323">
        <ele>17.82293701171875</ele>
        <time>2022-07-21T13:55:27Z</time>
      </trkpt>
      <trkpt lat="30.52266961988105" lon="114.39228769600841">
        <ele>15.08343505859375</ele>
        <time>2022-07-21T13:55:36Z</time>
      </trkpt>
      <trkpt lat="30.522570652728902" lon="114.392279702595">
        <ele>14.06451416015625</ele>
        <time>2022-07-21T13:55:39Z</time>
      </trkpt>
      <trkpt lat="30.522363751049305" lon="114.39211567906577">
        <ele>16.0352783203125</ele>
        <time>2022-07-21T13:56:01Z</time>
      </trkpt>
      <trkpt lat="30.52234077107281" lon="114.39205366568021">
        <ele>19.81634521484375</ele>
        <time>2022-07-21T13:56:04Z</time>
      </trkpt>
      <trkpt lat="30.522195821181068" lon="114.3920326731764">
        <ele>25.08978271484375</ele>
        <time>2022-07-21T13:56:16Z</time>
      </trkpt>
      <trkpt lat="30.522144834149568" lon="114.39204768132473">
        <ele>24.78204345703125</ele>
        <time>2022-07-21T13:56:22Z</time>
      </trkpt>
      <trkpt lat="30.522067858430518" lon="114.39204768805219">
        <ele>22.98480224609375</ele>
        <time>2022-07-21T13:56:40Z</time>
      </trkpt>
      <trkpt lat="30.521924911423024" lon="114.39200969121278">
        <ele>22.66522216796875</ele>
        <time>2022-07-21T13:56:43Z</time>
      </trkpt>
      <trkpt lat="30.521715970807413" lon="114.39204071708156">
        <ele>19.96771240234375</ele>
        <time>2022-07-21T13:56:46Z</time>
      </trkpt>
      <trkpt lat="30.521536031646082" lon="114.39202072789365">
        <ele>19.7984619140625</ele>
        <time>2022-07-21T13:56:49Z</time>
      </trkpt>
      <trkpt lat="30.52138307024248" lon="114.39206675259216">
        <ele>20.14007568359375</ele>
        <time>2022-07-21T13:56:52Z</time>
      </trkpt>
      <trkpt lat="30.521325057371417" lon="114.39221979608125">
        <ele>19.55029296875</ele>
        <time>2022-07-21T13:56:55Z</time>
      </trkpt>
      <trkpt lat="30.521317976954432" lon="114.39265291154516">
        <ele>18.690673828125</ele>
        <time>2022-07-21T13:57:01Z</time>
      </trkpt>
      <trkpt lat="30.521319896741012" lon="114.39311704449888">
        <ele>18.2147216796875</ele>
        <time>2022-07-21T13:57:07Z</time>
      </trkpt>
      <trkpt lat="30.521298870225216" lon="114.39332811032034">
        <ele>17.5152587890625</ele>
        <time>2022-07-21T13:57:10Z</time>
      </trkpt>
      <trkpt lat="30.521184892829925" lon="114.39341614760416">
        <ele>17.23663330078125</ele>
        <time>2022-07-21T13:57:13Z</time>
      </trkpt>
      <trkpt lat="30.520837993911744" lon="114.3934701948724">
        <ele>18.5467529296875</ele>
        <time>2022-07-21T13:57:19Z</time>
      </trkpt>
      <trkpt lat="30.520536084638255" lon="114.39349823010198">
        <ele>19.3497314453125</ele>
        <time>2022-07-21T13:57:25Z</time>
      </trkpt>
    </trkseg>
  </trk>
</gpx>