<?xml version="1.0" encoding="UTF-8"?>
<gpx xmlns="http://www.topografix.com/GPX/1/1" xmlns:gpxtpx="http://www.garmin.com/xmlschemas/TrackPointExtension/v1" xmlns:xsi="http://www.w3.org/2001/XMLSchema-instance" xsi:schemaLocation="http://www.topografix.com/GPX/1/1 http://www.topografix.com/GPX/1/1/gpx.xsd" version="1.1" creator="gpx.py -- https://github.com/tkrajina/gpxpy">
  <trk>
    <name>gpx from keep</name>
    <type>Run</type>
    <trkseg>
      <trkpt lat="31.111405768332077" lon="121.36441174878901">
        <ele>7.130697371438146</ele>
        <time>2024-07-07T12:17:10Z</time>
      </trkpt>
      <trkpt lat="31.11170482742145" lon="121.36433577000277">
        <ele>3.7276089750230312</ele>
        <time>2024-07-07T12:17:25Z</time>
      </trkpt>
      <trkpt lat="31.11177122556834" lon="121.36428124191711">
        <ele>2.4386898232623935</ele>
        <time>2024-07-07T12:17:28Z</time>
      </trkpt>
      <trkpt lat="31.111845636057495" lon="121.36427396485946">
        <ele>1.6491046426817775</ele>
        <time>2024-07-07T12:17:31Z</time>
      </trkpt>
      <trkpt lat="31.11190816709481" lon="121.36423715545217">
        <ele>1.9543880820274353</ele>
        <time>2024-07-07T12:17:34Z</time>
      </trkpt>
      <trkpt lat="31.11197502671662" lon="121.36425613121219">
        <ele>1.0736832348629832</ele>
        <time>2024-07-07T12:17:37Z</time>
      </trkpt>
      <trkpt lat="31.112035764932884" lon="121.3642050882898">
        <ele>0.3933903118595481</ele>
        <time>2024-07-07T12:17:40Z</time>
      </trkpt>
      <trkpt lat="31.112110379618755" lon="121.36421822995202">
        <ele>-0.021560131572186947</ele>
        <time>2024-07-07T12:17:43Z</time>
      </trkpt>
      <trkpt lat="31.112286694742657" lon="121.36413812584874">
        <ele>1.9681441271677613</ele>
        <time>2024-07-07T12:17:49Z</time>
      </trkpt>
      <trkpt lat="31.112357863730296" lon="121.36420658903667">
        <ele>0.7179044568911195</ele>
        <time>2024-07-07T12:17:52Z</time>
      </trkpt>
      <trkpt lat="31.11242261484386" lon="121.3642020775756">
        <ele>1.3302087849006057</ele>
        <time>2024-07-07T12:17:55Z</time>
      </trkpt>
      <trkpt lat="31.112505812797107" lon="121.36410174740867">
        <ele>-0.7047621635720134</ele>
        <time>2024-07-07T12:18:04Z</time>
      </trkpt>
      <trkpt lat="31.11252560107349" lon="121.36405173902908">
        <ele>-2.276221003383398</ele>
        <time>2024-07-07T12:18:10Z</time>
      </trkpt>
      <trkpt lat="31.112470925013806" lon="121.36398314582577">
        <ele>-1.4752194844186306</ele>
        <time>2024-07-07T12:18:13Z</time>
      </trkpt>
      <trkpt lat="31.112606671024125" lon="121.36395827275332">
        <ele>-0.8566534360870719</ele>
        <time>2024-07-07T12:18:16Z</time>
      </trkpt>
      <trkpt lat="31.11268878530791" lon="121.36383644624814">
        <ele>-1.373724626377225</ele>
        <time>2024-07-07T12:18:22Z</time>
      </trkpt>
      <trkpt lat="31.11277660199991" lon="121.36380042525994">
        <ele>-0.5330972289666533</ele>
        <time>2024-07-07T12:18:25Z</time>
      </trkpt>
      <trkpt lat="31.112843984840403" lon="121.36386150968333">
        <ele>0.7291616778820753</ele>
        <time>2024-07-07T12:18:28Z</time>
      </trkpt>
      <trkpt lat="31.112954404301632" lon="121.36373688276352">
        <ele>-1.1268361704424024</ele>
        <time>2024-07-07T12:18:31Z</time>
      </trkpt>
      <trkpt lat="31.112958767329935" lon="121.36366573681005">
        <ele>-1.2112540369853377</ele>
        <time>2024-07-07T12:18:34Z</time>
      </trkpt>
      <trkpt lat="31.113066367410855" lon="121.36368637142861">
        <ele>-0.27984549663960934</ele>
        <time>2024-07-07T12:18:37Z</time>
      </trkpt>
      <trkpt lat="31.113116974493302" lon="121.36363354384149">
        <ele>-0.8364565717056394</ele>
        <time>2024-07-07T12:18:40Z</time>
      </trkpt>
      <trkpt lat="31.11331223279946" lon="121.36361344435795">
        <ele>4.148876641876996</ele>
        <time>2024-07-07T12:18:46Z</time>
      </trkpt>
      <trkpt lat="31.11336886015082" lon="121.36347339356116">
        <ele>6.980565347708762</ele>
        <time>2024-07-07T12:18:52Z</time>
      </trkpt>
      <trkpt lat="31.113643106444087" lon="121.3635490709562">
        <ele>5.471494460478425</ele>
        <time>2024-07-07T12:18:58Z</time>
      </trkpt>
      <trkpt lat="31.11366684820849" lon="121.36349331241412">
        <ele>5.33980302605778</ele>
        <time>2024-07-07T12:19:01Z</time>
      </trkpt>
      <trkpt lat="31.113719068726073" lon="121.36347629494927">
        <ele>6.834719135425985</ele>
        <time>2024-07-07T12:19:04Z</time>
      </trkpt>
      <trkpt lat="31.113799600462624" lon="121.36354357552224">
        <ele>6.604030219838023</ele>
        <time>2024-07-07T12:19:08Z</time>
      </trkpt>
      <trkpt lat="31.11387827842393" lon="121.36351610694082">
        <ele>7.658714633435011</ele>
        <time>2024-07-07T12:19:17Z</time>
      </trkpt>
      <trkpt lat="31.113980891913762" lon="121.36344462156492">
        <ele>6.257814428769052</ele>
        <time>2024-07-07T12:19:20Z</time>
      </trkpt>
      <trkpt lat="31.11405617282055" lon="121.36335282153313">
        <ele>3.0859560845419765</ele>
        <time>2024-07-07T12:19:29Z</time>
      </trkpt>
      <trkpt lat="31.114140980388456" lon="121.36330042210528">
        <ele>4.592906988225877</ele>
        <time>2024-07-07T12:19:32Z</time>
      </trkpt>
      <trkpt lat="31.11421187835017" lon="121.36328064441922">
        <ele>6.6410878244787455</ele>
        <time>2024-07-07T12:19:35Z</time>
      </trkpt>
      <trkpt lat="31.11433116022429" lon="121.36327668786191">
        <ele>6.221896091476083</ele>
        <time>2024-07-07T12:19:38Z</time>
      </trkpt>
      <trkpt lat="31.11446090004115" lon="121.36317741003488">
        <ele>8.175713317468762</ele>
        <time>2024-07-07T12:19:44Z</time>
      </trkpt>
      <trkpt lat="31.11451885653943" lon="121.36306759195922">
        <ele>8.739328660070896</ele>
        <time>2024-07-07T12:19:47Z</time>
      </trkpt>
      <trkpt lat="31.114824354165638" lon="121.3630171973612">
        <ele>8.770440557971597</ele>
        <time>2024-07-07T12:19:56Z</time>
      </trkpt>
      <trkpt lat="31.115086972329014" lon="121.36290678690915">
        <ele>7.522308136336505</ele>
        <time>2024-07-07T12:20:08Z</time>
      </trkpt>
      <trkpt lat="31.115120318891634" lon="121.3628428300324">
        <ele>8.12551487609744</ele>
        <time>2024-07-07T12:20:11Z</time>
      </trkpt>
      <trkpt lat="31.11535055020523" lon="121.36274126148953">
        <ele>7.75232058390975</ele>
        <time>2024-07-07T12:20:20Z</time>
      </trkpt>
      <trkpt lat="31.115473276455578" lon="121.36272506784688">
        <ele>8.008966912515461</ele>
        <time>2024-07-07T12:20:23Z</time>
      </trkpt>
      <trkpt lat="31.115605328838576" lon="121.36262889111734">
        <ele>8.886079770512879</ele>
        <time>2024-07-07T12:20:29Z</time>
      </trkpt>
      <trkpt lat="31.11570295050382" lon="121.36262906367543">
        <ele>9.72419346589595</ele>
        <time>2024-07-07T12:20:32Z</time>
      </trkpt>
      <trkpt lat="31.115833472083505" lon="121.36240541730346">
        <ele>9.868984056636691</ele>
        <time>2024-07-07T12:20:38Z</time>
      </trkpt>
      <trkpt lat="31.115954574081847" lon="121.36248412847368">
        <ele>8.978955586440861</ele>
        <time>2024-07-07T12:20:41Z</time>
      </trkpt>
      <trkpt lat="31.11601196456367" lon="121.3624871130154">
        <ele>11.16341592092067</ele>
        <time>2024-07-07T12:20:44Z</time>
      </trkpt>
      <trkpt lat="31.116069630322983" lon="121.3623667500195">
        <ele>10.931134742684662</ele>
        <time>2024-07-07T12:20:47Z</time>
      </trkpt>
      <trkpt lat="31.11632926584863" lon="121.36239687238653">
        <ele>11.222028185613453</ele>
        <time>2024-07-07T12:20:53Z</time>
      </trkpt>
      <trkpt lat="31.116423369881904" lon="121.36236999650873">
        <ele>10.735236750915647</ele>
        <time>2024-07-07T12:20:56Z</time>
      </trkpt>
      <trkpt lat="31.116521194082964" lon="121.3622967411848">
        <ele>10.04983729775995</ele>
        <time>2024-07-07T12:21:02Z</time>
      </trkpt>
      <trkpt lat="31.11661675225327" lon="121.36227763680239">
        <ele>9.269537824206054</ele>
        <time>2024-07-07T12:21:05Z</time>
      </trkpt>
      <trkpt lat="31.11668721589732" lon="121.36222947841013">
        <ele>8.588812625966966</ele>
        <time>2024-07-07T12:21:08Z</time>
      </trkpt>
      <trkpt lat="31.116800025696726" lon="121.36221503579563">
        <ele>8.124571318738163</ele>
        <time>2024-07-07T12:21:11Z</time>
      </trkpt>
      <trkpt lat="31.116825497578763" lon="121.36230386389823">
        <ele>7.397774208337069</ele>
        <time>2024-07-07T12:21:15Z</time>
      </trkpt>
      <trkpt lat="31.11707115753818" lon="121.36212752687916">
        <ele>3.229645090177655</ele>
        <time>2024-07-07T12:21:24Z</time>
      </trkpt>
      <trkpt lat="31.117109713324034" lon="121.36215664003309">
        <ele>3.9420427177101374</ele>
        <time>2024-07-07T12:21:27Z</time>
      </trkpt>
      <trkpt lat="31.117351133430727" lon="121.36199977678774">
        <ele>5.271376795135438</ele>
        <time>2024-07-07T12:21:36Z</time>
      </trkpt>
      <trkpt lat="31.117344972497456" lon="121.36194179482332">
        <ele>3.7996234260499477</ele>
        <time>2024-07-07T12:21:39Z</time>
      </trkpt>
      <trkpt lat="31.117311362302985" lon="121.36185591782493">
        <ele>3.277235509827733</ele>
        <time>2024-07-07T12:21:42Z</time>
      </trkpt>
      <trkpt lat="31.117252030849265" lon="121.3618191458892">
        <ele>3.014520083554089</ele>
        <time>2024-07-07T12:21:45Z</time>
      </trkpt>
      <trkpt lat="31.11709984937952" lon="121.36182767177824">
        <ele>5.180907030589879</ele>
        <time>2024-07-07T12:21:51Z</time>
      </trkpt>
      <trkpt lat="31.116808298334004" lon="121.3619711722308">
        <ele>2.6468983236700296</ele>
        <time>2024-07-07T12:22:03Z</time>
      </trkpt>
      <trkpt lat="31.11663418271587" lon="121.362030749708">
        <ele>2.55368360504508</ele>
        <time>2024-07-07T12:22:09Z</time>
      </trkpt>
      <trkpt lat="31.116556441999563" lon="121.36209140235813">
        <ele>5.7542646788060665</ele>
        <time>2024-07-07T12:22:12Z</time>
      </trkpt>
      <trkpt lat="31.11649165286254" lon="121.36209345314548">
        <ele>8.050703370012343</ele>
        <time>2024-07-07T12:22:15Z</time>
      </trkpt>
      <trkpt lat="31.116285341979168" lon="121.36216834964432">
        <ele>8.492837726138532</ele>
        <time>2024-07-07T12:22:21Z</time>
      </trkpt>
      <trkpt lat="31.11620148925489" lon="121.3621685916192">
        <ele>8.85888412501663</ele>
        <time>2024-07-07T12:22:24Z</time>
      </trkpt>
      <trkpt lat="31.115915358128124" lon="121.36241147012295">
        <ele>4.022897897288203</ele>
        <time>2024-07-07T12:22:36Z</time>
      </trkpt>
      <trkpt lat="31.115794161096012" lon="121.36241500722615">
        <ele>6.88884430937469</ele>
        <time>2024-07-07T12:22:39Z</time>
      </trkpt>
      <trkpt lat="31.11572116492529" lon="121.3624817973321">
        <ele>9.533802271820605</ele>
        <time>2024-07-07T12:22:42Z</time>
      </trkpt>
      <trkpt lat="31.115651262893984" lon="121.36250550874757">
        <ele>8.175747508183122</ele>
        <time>2024-07-07T12:22:45Z</time>
      </trkpt>
      <trkpt lat="31.115582990513115" lon="121.36261294166519">
        <ele>8.362254245206714</ele>
        <time>2024-07-07T12:22:48Z</time>
      </trkpt>
      <trkpt lat="31.115397597976383" lon="121.36270202174079">
        <ele>6.311136156320572</ele>
        <time>2024-07-07T12:22:54Z</time>
      </trkpt>
      <trkpt lat="31.115391577057775" lon="121.3627751732033">
        <ele>5.783019627444446</ele>
        <time>2024-07-07T12:22:57Z</time>
      </trkpt>
      <trkpt lat="31.115272367661895" lon="121.36279093752346">
        <ele>6.978232424706221</ele>
        <time>2024-07-07T12:23:00Z</time>
      </trkpt>
      <trkpt lat="31.115167507111995" lon="121.36276715878805">
        <ele>8.552315696142614</ele>
        <time>2024-07-07T12:23:03Z</time>
      </trkpt>
      <trkpt lat="31.115101069363472" lon="121.36279151566328">
        <ele>9.007196513004601</ele>
        <time>2024-07-07T12:23:06Z</time>
      </trkpt>
      <trkpt lat="31.11497906904879" lon="121.36278241648772">
        <ele>9.480359572917223</ele>
        <time>2024-07-07T12:23:09Z</time>
      </trkpt>
      <trkpt lat="31.114897595977148" lon="121.36279528364986">
        <ele>10.920081640593708</ele>
        <time>2024-07-07T12:23:12Z</time>
      </trkpt>
      <trkpt lat="31.11483214235938" lon="121.36286060704116">
        <ele>9.012377868406475</ele>
        <time>2024-07-07T12:23:15Z</time>
      </trkpt>
      <trkpt lat="31.11476439355788" lon="121.36281236844516">
        <ele>7.990827465429902</ele>
        <time>2024-07-07T12:23:18Z</time>
      </trkpt>
      <trkpt lat="31.114659145646968" lon="121.3628187284462">
        <ele>7.626155903562903</ele>
        <time>2024-07-07T12:23:22Z</time>
      </trkpt>
      <trkpt lat="31.114529786764734" lon="121.3628705097818">
        <ele>6.793171043507755</ele>
        <time>2024-07-07T12:23:25Z</time>
      </trkpt>
      <trkpt lat="31.114425091541786" lon="121.36300713828372">
        <ele>7.337324460968375</ele>
        <time>2024-07-07T12:23:31Z</time>
      </trkpt>
      <trkpt lat="31.114319979144714" lon="121.36299215476095">
        <ele>6.3893886879086494</ele>
        <time>2024-07-07T12:23:34Z</time>
      </trkpt>
      <trkpt lat="31.114250594325533" lon="121.363012765293">
        <ele>8.49746381957084</ele>
        <time>2024-07-07T12:23:37Z</time>
      </trkpt>
      <trkpt lat="31.114143127309582" lon="121.3629951599948">
        <ele>5.957970515824854</ele>
        <time>2024-07-07T12:23:40Z</time>
      </trkpt>
      <trkpt lat="31.11407172083127" lon="121.36307525951702">
        <ele>5.279569903388619</ele>
        <time>2024-07-07T12:23:43Z</time>
      </trkpt>
      <trkpt lat="31.114026773848735" lon="121.3630994470017">
        <ele>4.687701812945306</ele>
        <time>2024-07-07T12:23:46Z</time>
      </trkpt>
      <trkpt lat="31.113833244944246" lon="121.36311102343583">
        <ele>3.171575761400163</ele>
        <time>2024-07-07T12:24:07Z</time>
      </trkpt>
      <trkpt lat="31.11371822130357" lon="121.36316767433144">
        <ele>3.319651320576668</ele>
        <time>2024-07-07T12:24:28Z</time>
      </trkpt>
      <trkpt lat="31.113651200829118" lon="121.3630883341072">
        <ele>2.7036531399935484</ele>
        <time>2024-07-07T12:24:31Z</time>
      </trkpt>
      <trkpt lat="31.11368140653957" lon="121.36317563277291">
        <ele>3.5100776609033346</ele>
        <time>2024-07-07T12:24:34Z</time>
      </trkpt>
      <trkpt lat="31.1136404924474" lon="121.36323747989819">
        <ele>4.033332115970552</ele>
        <time>2024-07-07T12:24:43Z</time>
      </trkpt>
      <trkpt lat="31.113456024574198" lon="121.36331640867162">
        <ele>6.231955545023084</ele>
        <time>2024-07-07T12:24:49Z</time>
      </trkpt>
      <trkpt lat="31.11332008198828" lon="121.36344337580363">
        <ele>8.363733096979558</ele>
        <time>2024-07-07T12:24:55Z</time>
      </trkpt>
      <trkpt lat="31.113211674210707" lon="121.36343254462686">
        <ele>7.38767224829644</ele>
        <time>2024-07-07T12:24:58Z</time>
      </trkpt>
      <trkpt lat="31.113061814764343" lon="121.36357048740753">
        <ele>7.589185184799135</ele>
        <time>2024-07-07T12:25:04Z</time>
      </trkpt>
      <trkpt lat="31.112804214889664" lon="121.36361122685943">
        <ele>8.071603749878705</ele>
        <time>2024-07-07T12:25:13Z</time>
      </trkpt>
      <trkpt lat="31.11273413362373" lon="121.36359578704263">
        <ele>5.279072639532387</ele>
        <time>2024-07-07T12:25:16Z</time>
      </trkpt>
      <trkpt lat="31.112669722033893" lon="121.36367767714458">
        <ele>6.231304231099784</ele>
        <time>2024-07-07T12:25:19Z</time>
      </trkpt>
      <trkpt lat="31.112489930655833" lon="121.36377383636767">
        <ele>8.070773480460048</ele>
        <time>2024-07-07T12:25:26Z</time>
      </trkpt>
      <trkpt lat="31.112318680103584" lon="121.36379408694023">
        <ele>7.771429016254842</ele>
        <time>2024-07-07T12:25:33Z</time>
      </trkpt>
      <trkpt lat="31.112370117912253" lon="121.3636429649363">
        <ele>5.835386489517987</ele>
        <time>2024-07-07T12:25:36Z</time>
      </trkpt>
      <trkpt lat="31.11226469774497" lon="121.36377701969619">
        <ele>3.9694051053375006</ele>
        <time>2024-07-07T12:25:39Z</time>
      </trkpt>
      <trkpt lat="31.112161251320806" lon="121.36374650359775">
        <ele>5.490598361007869</ele>
        <time>2024-07-07T12:25:42Z</time>
      </trkpt>
      <trkpt lat="31.112073898227543" lon="121.3637902008525">
        <ele>3.749717401340604</ele>
        <time>2024-07-07T12:25:45Z</time>
      </trkpt>
      <trkpt lat="31.11221140023785" lon="121.36384698439761">
        <ele>3.1151419822126627</ele>
        <time>2024-07-07T12:25:51Z</time>
      </trkpt>
      <trkpt lat="31.112189830216728" lon="121.36376577585325">
        <ele>1.031052648089826</ele>
        <time>2024-07-07T12:25:54Z</time>
      </trkpt>
      <trkpt lat="31.11207561785967" lon="121.36382211322206">
        <ele>-1.6138476682826877</ele>
        <time>2024-07-07T12:25:57Z</time>
      </trkpt>
      <trkpt lat="31.11189231931743" lon="121.36407863437447">
        <ele>-1.0138504290953279</ele>
        <time>2024-07-07T12:26:03Z</time>
      </trkpt>
      <trkpt lat="31.111757843566526" lon="121.3640962970191">
        <ele>-0.1604776717722416</ele>
        <time>2024-07-07T12:26:06Z</time>
      </trkpt>
      <trkpt lat="31.111666425295443" lon="121.36408778734494">
        <ele>-0.4620995754376054</ele>
        <time>2024-07-07T12:26:09Z</time>
      </trkpt>
      <trkpt lat="31.111571968472564" lon="121.36417960102258">
        <ele>0.7266283687204123</ele>
        <time>2024-07-07T12:26:12Z</time>
      </trkpt>
      <trkpt lat="31.111493207416114" lon="121.3642180017602">
        <ele>2.0629612719640136</ele>
        <time>2024-07-07T12:26:15Z</time>
      </trkpt>
      <trkpt lat="31.11132920311947" lon="121.36421126208073">
        <ele>2.7160269394516945</ele>
        <time>2024-07-07T12:26:21Z</time>
      </trkpt>
      <trkpt lat="31.111247036832193" lon="121.36431963517268">
        <ele>4.660812120884657</ele>
        <time>2024-07-07T12:26:24Z</time>
      </trkpt>
      <trkpt lat="31.111167802171867" lon="121.36430273600556">
        <ele>5.163415927439928</ele>
        <time>2024-07-07T12:26:27Z</time>
      </trkpt>
      <trkpt lat="31.111136481492345" lon="121.36426324475822">
        <ele>3.5445800628513098</ele>
        <time>2024-07-07T12:26:30Z</time>
      </trkpt>
      <trkpt lat="31.111086103728095" lon="121.3642911282181">
        <ele>4.935776082798839</ele>
        <time>2024-07-07T12:26:33Z</time>
      </trkpt>
      <trkpt lat="31.11106912664664" lon="121.36435777520268">
        <ele>5.029577523469925</ele>
        <time>2024-07-07T12:26:42Z</time>
      </trkpt>
      <trkpt lat="31.111142112119754" lon="121.36451988843339">
        <ele>4.8426659582182765</ele>
        <time>2024-07-07T12:26:51Z</time>
      </trkpt>
      <trkpt lat="31.111191971318146" lon="121.36458100753508">
        <ele>3.7251884769648314</ele>
        <time>2024-07-07T12:26:57Z</time>
      </trkpt>
      <trkpt lat="31.11126734395137" lon="121.36460748497039">
        <ele>1.830422006547451</ele>
        <time>2024-07-07T12:27:06Z</time>
      </trkpt>
      <trkpt lat="31.111350812098674" lon="121.36451027017266">
        <ele>3.185354665853083</ele>
        <time>2024-07-07T12:27:09Z</time>
      </trkpt>
      <trkpt lat="31.111477582977106" lon="121.36443154171081">
        <ele>3.9536294220015407</ele>
        <time>2024-07-07T12:27:15Z</time>
      </trkpt>
      <trkpt lat="31.111564067275854" lon="121.36442625730541">
        <ele>3.606857033446431</ele>
        <time>2024-07-07T12:27:18Z</time>
      </trkpt>
      <trkpt lat="31.111640995240144" lon="121.36435710025945">
        <ele>5.43715520016849</ele>
        <time>2024-07-07T12:27:21Z</time>
      </trkpt>
      <trkpt lat="31.111851659631494" lon="121.36426841908671">
        <ele>3.396799066103995</ele>
        <time>2024-07-07T12:27:30Z</time>
      </trkpt>
      <trkpt lat="31.111974007885625" lon="121.3642517465437">
        <ele>3.8159603495150805</ele>
        <time>2024-07-07T12:27:34Z</time>
      </trkpt>
      <trkpt lat="31.11206949077612" lon="121.3641410096748">
        <ele>3.8627372179180384</ele>
        <time>2024-07-07T12:27:41Z</time>
      </trkpt>
      <trkpt lat="31.11219011101218" lon="121.36413013401271">
        <ele>3.2971297157928348</ele>
        <time>2024-07-07T12:27:51Z</time>
      </trkpt>
      <trkpt lat="31.112292633558333" lon="121.36420643980583">
        <ele>4.093065228313208</ele>
        <time>2024-07-07T12:28:00Z</time>
      </trkpt>
      <trkpt lat="31.112362632301313" lon="121.36416565436171">
        <ele>3.413105819374323</ele>
        <time>2024-07-07T12:28:06Z</time>
      </trkpt>
      <trkpt lat="31.112387936619047" lon="121.3641220180969">
        <ele>4.3411289639770985</ele>
        <time>2024-07-07T12:28:09Z</time>
      </trkpt>
      <trkpt lat="31.112453011067334" lon="121.36406337904846">
        <ele>2.8912893030792475</ele>
        <time>2024-07-07T12:28:12Z</time>
      </trkpt>
      <trkpt lat="31.11252675674256" lon="121.36406136292501">
        <ele>4.0916803404688835</ele>
        <time>2024-07-07T12:28:15Z</time>
      </trkpt>
      <trkpt lat="31.112650875244107" lon="121.36394332667113">
        <ele>5.568845669738948</ele>
        <time>2024-07-07T12:28:21Z</time>
      </trkpt>
      <trkpt lat="31.112757874719268" lon="121.36392121164735">
        <ele>4.423278333619237</ele>
        <time>2024-07-07T12:28:24Z</time>
      </trkpt>
      <trkpt lat="31.112805569996915" lon="121.36387094905648">
        <ele>4.531729579903185</ele>
        <time>2024-07-07T12:28:27Z</time>
      </trkpt>
      <trkpt lat="31.112904672992975" lon="121.36384312561195">
        <ele>4.948725645430386</ele>
        <time>2024-07-07T12:28:30Z</time>
      </trkpt>
      <trkpt lat="31.113005466567188" lon="121.36377402940307">
        <ele>5.457239151932299</ele>
        <time>2024-07-07T12:28:33Z</time>
      </trkpt>
      <trkpt lat="31.11333248637398" lon="121.36365575681884">
        <ele>5.612085300497711</ele>
        <time>2024-07-07T12:28:42Z</time>
      </trkpt>
      <trkpt lat="31.113421581721123" lon="121.36360502365919">
        <ele>6.105251854285598</ele>
        <time>2024-07-07T12:28:45Z</time>
      </trkpt>
      <trkpt lat="31.113530738234353" lon="121.36350006160997">
        <ele>5.787574741989374</ele>
        <time>2024-07-07T12:28:48Z</time>
      </trkpt>
      <trkpt lat="31.11360795881177" lon="121.36353112058117">
        <ele>6.695787333883345</ele>
        <time>2024-07-07T12:28:51Z</time>
      </trkpt>
      <trkpt lat="31.11368209341828" lon="121.36352283070012">
        <ele>6.081196952611208</ele>
        <time>2024-07-07T12:28:54Z</time>
      </trkpt>
      <trkpt lat="31.11378595895827" lon="121.36348158344605">
        <ele>8.181117119267583</ele>
        <time>2024-07-07T12:28:57Z</time>
      </trkpt>
      <trkpt lat="31.113739879147683" lon="121.36360494884752">
        <ele>4.550797772593796</ele>
        <time>2024-07-07T12:29:03Z</time>
      </trkpt>
      <trkpt lat="31.113856582027253" lon="121.36352341619796">
        <ele>3.383857985958457</ele>
        <time>2024-07-07T12:29:06Z</time>
      </trkpt>
      <trkpt lat="31.11386788790217" lon="121.36340507393828">
        <ele>3.800205602310598</ele>
        <time>2024-07-07T12:29:09Z</time>
      </trkpt>
      <trkpt lat="31.113975726697486" lon="121.36336524627991">
        <ele>4.582076580263674</ele>
        <time>2024-07-07T12:29:12Z</time>
      </trkpt>
      <trkpt lat="31.11401507667953" lon="121.36332304601747">
        <ele>4.3228645315393806</ele>
        <time>2024-07-07T12:29:21Z</time>
      </trkpt>
      <trkpt lat="31.114204424275716" lon="121.36328467340691">
        <ele>6.44984189607203</ele>
        <time>2024-07-07T12:29:27Z</time>
      </trkpt>
      <trkpt lat="31.114305681828572" lon="121.3632213880062">
        <ele>8.30553831718862</ele>
        <time>2024-07-07T12:29:30Z</time>
      </trkpt>
      <trkpt lat="31.11439098869085" lon="121.36320314884586">
        <ele>5.523272937163711</ele>
        <time>2024-07-07T12:29:33Z</time>
      </trkpt>
      <trkpt lat="31.11455024750237" lon="121.36312163787792">
        <ele>4.822518358938396</ele>
        <time>2024-07-07T12:29:40Z</time>
      </trkpt>
      <trkpt lat="31.114656043686665" lon="121.36311278437103">
        <ele>6.220665919594467</ele>
        <time>2024-07-07T12:29:43Z</time>
      </trkpt>
      <trkpt lat="31.11484538551679" lon="121.3630097452266">
        <ele>5.519448114559054</ele>
        <time>2024-07-07T12:29:49Z</time>
      </trkpt>
      <trkpt lat="31.114928324218134" lon="121.36303115294443">
        <ele>5.228564690798521</ele>
        <time>2024-07-07T12:29:52Z</time>
      </trkpt>
      <trkpt lat="31.114975992175207" lon="121.36296899177736">
        <ele>3.6421344531700015</ele>
        <time>2024-07-07T12:29:55Z</time>
      </trkpt>
      <trkpt lat="31.115141207578375" lon="121.3630376578565">
        <ele>3.5980655010789633</ele>
        <time>2024-07-07T12:30:01Z</time>
      </trkpt>
      <trkpt lat="31.11516734523811" lon="121.36293016706894">
        <ele>4.242506175301969</ele>
        <time>2024-07-07T12:30:04Z</time>
      </trkpt>
      <trkpt lat="31.115341551524484" lon="121.36285289025759">
        <ele>2.7928765900433064</ele>
        <time>2024-07-07T12:30:10Z</time>
      </trkpt>
      <trkpt lat="31.115425952801502" lon="121.36287464186262">
        <ele>3.8625688515603542</ele>
        <time>2024-07-07T12:30:13Z</time>
      </trkpt>
      <trkpt lat="31.11564915265577" lon="121.36279260469252">
        <ele>2.4356197817251086</ele>
        <time>2024-07-07T12:30:19Z</time>
      </trkpt>
      <trkpt lat="31.1158145750878" lon="121.36268943946602">
        <ele>4.144227114506066</ele>
        <time>2024-07-07T12:30:25Z</time>
      </trkpt>
      <trkpt lat="31.115968746933387" lon="121.36262756000299">
        <ele>4.371275573968887</ele>
        <time>2024-07-07T12:30:31Z</time>
      </trkpt>
      <trkpt lat="31.116050404570956" lon="121.36262335050667">
        <ele>2.2991243451833725</ele>
        <time>2024-07-07T12:30:34Z</time>
      </trkpt>
      <trkpt lat="31.11613518413089" lon="121.36259052208888">
        <ele>2.8541586939245462</ele>
        <time>2024-07-07T12:30:37Z</time>
      </trkpt>
      <trkpt lat="31.11621332154916" lon="121.36247934466941">
        <ele>2.3083243165165186</ele>
        <time>2024-07-07T12:30:40Z</time>
      </trkpt>
      <trkpt lat="31.116330924349967" lon="121.36241418145308">
        <ele>4.00302413944155</ele>
        <time>2024-07-07T12:30:43Z</time>
      </trkpt>
      <trkpt lat="31.116509216462067" lon="121.36235620458744">
        <ele>8.302942872047424</ele>
        <time>2024-07-07T12:30:49Z</time>
      </trkpt>
      <trkpt lat="31.11679780938817" lon="121.36222998121082">
        <ele>8.413195675238967</ele>
        <time>2024-07-07T12:31:01Z</time>
      </trkpt>
      <trkpt lat="31.11690556433694" lon="121.36212487822431">
        <ele>5.493058022111654</ele>
        <time>2024-07-07T12:31:07Z</time>
      </trkpt>
      <trkpt lat="31.116954971614923" lon="121.36220836692495">
        <ele>3.5990955913439393</ele>
        <time>2024-07-07T12:31:10Z</time>
      </trkpt>
      <trkpt lat="31.117025800601574" lon="121.36221824698885">
        <ele>2.4145922027528286</ele>
        <time>2024-07-07T12:31:13Z</time>
      </trkpt>
      <trkpt lat="31.117104877913615" lon="121.36215072249605">
        <ele>0.783999471925199</ele>
        <time>2024-07-07T12:31:19Z</time>
      </trkpt>
      <trkpt lat="31.117164091597285" lon="121.36217895294551">
        <ele>-0.26215602830052376</ele>
        <time>2024-07-07T12:31:22Z</time>
      </trkpt>
      <trkpt lat="31.11728841039348" lon="121.36215317435165">
        <ele>-0.5302375108003616</ele>
        <time>2024-07-07T12:31:28Z</time>
      </trkpt>
      <trkpt lat="31.117335118384204" lon="121.36211978948407">
        <ele>-1.6598483715206385</ele>
        <time>2024-07-07T12:31:31Z</time>
      </trkpt>
      <trkpt lat="31.117366527279476" lon="121.3620555799228">
        <ele>0.7593633187934756</ele>
        <time>2024-07-07T12:31:40Z</time>
      </trkpt>
      <trkpt lat="31.117290147665592" lon="121.36208768990667">
        <ele>-1.302427145652473</ele>
        <time>2024-07-07T12:31:47Z</time>
      </trkpt>
      <trkpt lat="31.117290147665592" lon="121.36208768990667">
        <ele>-1.302427145652473</ele>
        <time>2024-07-07T12:31:50Z</time>
      </trkpt>
    </trkseg>
  </trk>
</gpx>