<?xml version="1.0" encoding="UTF-8"?>
<gpx xmlns="http://www.topografix.com/GPX/1/1" xmlns:gpxtpx="http://www.garmin.com/xmlschemas/TrackPointExtension/v1" xmlns:xsi="http://www.w3.org/2001/XMLSchema-instance" xsi:schemaLocation="http://www.topografix.com/GPX/1/1 http://www.topografix.com/GPX/1/1/gpx.xsd" version="1.1" creator="gpx.py -- https://github.com/tkrajina/gpxpy">
  <trk>
    <name>gpx from keep</name>
    <type>Run</type>
    <trkseg>
      <trkpt lat="30.522249395018413" lon="114.39230278870852">
        <ele>36.4375</ele>
        <time>2022-04-23T14:38:16Z</time>
      </trkpt>
      <trkpt lat="30.522208692730594" lon="114.39243194934805">
        <ele>30.36767578125</ele>
        <time>2022-04-23T14:38:22Z</time>
      </trkpt>
      <trkpt lat="30.52215172869397" lon="114.39251579832519">
        <ele>28.86053466796875</ele>
        <time>2022-04-23T14:38:25Z</time>
      </trkpt>
      <trkpt lat="30.52214547277139" lon="114.3926170090697">
        <ele>28.24835205078125</ele>
        <time>2022-04-23T14:38:28Z</time>
      </trkpt>
      <trkpt lat="30.522095542379184" lon="114.39280098390662">
        <ele>29.16680908203125</ele>
        <time>2022-04-23T14:38:34Z</time>
      </trkpt>
      <trkpt lat="30.522108543183485" lon="114.39289296862025">
        <ele>31.080322265625</ele>
        <time>2022-04-23T14:38:37Z</time>
      </trkpt>
      <trkpt lat="30.522177397991335" lon="114.39304410248334">
        <ele>30.4085693359375</ele>
        <time>2022-04-23T14:38:43Z</time>
      </trkpt>
      <trkpt lat="30.522452626276944" lon="114.39317513958004">
        <ele>27.57794189453125</ele>
        <time>2022-04-23T14:39:04Z</time>
      </trkpt>
      <trkpt lat="30.522728682119947" lon="114.39322015943658">
        <ele>25.7099609375</ele>
        <time>2022-04-23T14:39:16Z</time>
      </trkpt>
      <trkpt lat="30.52279647975065" lon="114.39320604333732">
        <ele>24.6842041015625</ele>
        <time>2022-04-23T14:39:19Z</time>
      </trkpt>
      <trkpt lat="30.52306765649228" lon="114.39323695349242">
        <ele>24.2127685546875</ele>
        <time>2022-04-23T14:39:31Z</time>
      </trkpt>
      <trkpt lat="30.523185625319847" lon="114.39320600932666">
        <ele>23.25018310546875</ele>
        <time>2022-04-23T14:39:37Z</time>
      </trkpt>
      <trkpt lat="30.523338571861572" lon="114.39320491056165">
        <ele>21.46929931640625</ele>
        <time>2022-04-23T14:39:43Z</time>
      </trkpt>
      <trkpt lat="30.5234755307829" lon="114.39312783550803">
        <ele>26.74993896484375</ele>
        <time>2022-04-23T14:39:49Z</time>
      </trkpt>
      <trkpt lat="30.523588620383773" lon="114.39308495262455">
        <ele>34.35772705078125</ele>
        <time>2022-04-23T14:39:52Z</time>
      </trkpt>
      <trkpt lat="30.523653440791335" lon="114.39303583306288">
        <ele>34.316650390625</ele>
        <time>2022-04-23T14:39:55Z</time>
      </trkpt>
      <trkpt lat="30.52369359301514" lon="114.39293190384835">
        <ele>33.30792236328125</ele>
        <time>2022-04-23T14:39:58Z</time>
      </trkpt>
      <trkpt lat="30.52372046832118" lon="114.39276800928151">
        <ele>29.177978515625</ele>
        <time>2022-04-23T14:40:04Z</time>
      </trkpt>
      <trkpt lat="30.523695547296743" lon="114.39261416017786">
        <ele>27.45355224609375</ele>
        <time>2022-04-23T14:40:10Z</time>
      </trkpt>
      <trkpt lat="30.5236234367458" lon="114.39248663630181">
        <ele>22.4241943359375</ele>
        <time>2022-04-23T14:40:16Z</time>
      </trkpt>
      <trkpt lat="30.523476489276078" lon="114.39231570566825">
        <ele>23.0828857421875</ele>
        <time>2022-04-23T14:40:25Z</time>
      </trkpt>
      <trkpt lat="30.523258211391127" lon="114.392198778512">
        <ele>30.750244140625</ele>
        <time>2022-04-23T14:40:34Z</time>
      </trkpt>
      <trkpt lat="30.522996517608696" lon="114.39221670958148">
        <ele>35.39898681640625</ele>
        <time>2022-04-23T14:40:46Z</time>
      </trkpt>
      <trkpt lat="30.52274839752324" lon="114.39216165004292">
        <ele>36.14971923828125</ele>
        <time>2022-04-23T14:40:58Z</time>
      </trkpt>
      <trkpt lat="30.522554501802865" lon="114.39216573702541">
        <ele>32.73187255859375</ele>
        <time>2022-04-23T14:41:07Z</time>
      </trkpt>
      <trkpt lat="30.522399377005062" lon="114.39220970702478">
        <ele>33.1181640625</ele>
        <time>2022-04-23T14:41:13Z</time>
      </trkpt>
      <trkpt lat="30.52233945025496" lon="114.39218773402975">
        <ele>34.4061279296875</ele>
        <time>2022-04-23T14:41:16Z</time>
      </trkpt>
      <trkpt lat="30.522171286806312" lon="114.39234295353323">
        <ele>35.16650390625</ele>
        <time>2022-04-23T14:41:25Z</time>
      </trkpt>
      <trkpt lat="30.522096416356334" lon="114.39245275325094">
        <ele>33.58306884765625</ele>
        <time>2022-04-23T14:41:28Z</time>
      </trkpt>
      <trkpt lat="30.52207229368751" lon="114.39257772005614">
        <ele>33.27587890625</ele>
        <time>2022-04-23T14:41:34Z</time>
      </trkpt>
      <trkpt lat="30.522077865673758" lon="114.39273640011143">
        <ele>32.57977294921875</ele>
        <time>2022-04-23T14:41:37Z</time>
      </trkpt>
      <trkpt lat="30.52210025947458" lon="114.39284365981233">
        <ele>32.01605224609375</ele>
        <time>2022-04-23T14:41:40Z</time>
      </trkpt>
      <trkpt lat="30.522142433246003" lon="114.39293800902611">
        <ele>30.15826416015625</ele>
        <time>2022-04-23T14:41:43Z</time>
      </trkpt>
      <trkpt lat="30.522190426529576" lon="114.39297300848041">
        <ele>26.91259765625</ele>
        <time>2022-04-23T14:41:46Z</time>
      </trkpt>
      <trkpt lat="30.522297787264208" lon="114.39313906372708">
        <ele>35.2916259765625</ele>
        <time>2022-04-23T14:41:52Z</time>
      </trkpt>
      <trkpt lat="30.522355814870547" lon="114.39317216320224">
        <ele>33.59051513671875</ele>
        <time>2022-04-23T14:41:55Z</time>
      </trkpt>
      <trkpt lat="30.522620478593353" lon="114.39323319367774">
        <ele>27.1116943359375</ele>
        <time>2022-04-23T14:42:10Z</time>
      </trkpt>
      <trkpt lat="30.52292583797665" lon="114.39317699766569">
        <ele>23.12420654296875</ele>
        <time>2022-04-23T14:42:22Z</time>
      </trkpt>
      <trkpt lat="30.52303267909708" lon="114.39320493729637">
        <ele>24.45648193359375</ele>
        <time>2022-04-23T14:42:28Z</time>
      </trkpt>
      <trkpt lat="30.52328162498973" lon="114.3931970464079">
        <ele>22.681884765625</ele>
        <time>2022-04-23T14:42:40Z</time>
      </trkpt>
      <trkpt lat="30.52343566562531" lon="114.39313706483918">
        <ele>23.8721923828125</ele>
        <time>2022-04-23T14:42:46Z</time>
      </trkpt>
      <trkpt lat="30.52354063210296" lon="114.3930190194047">
        <ele>25.68060302734375</ele>
        <time>2022-04-23T14:42:52Z</time>
      </trkpt>
      <trkpt lat="30.523622538084656" lon="114.3929639288886">
        <ele>25.35986328125</ele>
        <time>2022-04-23T14:42:55Z</time>
      </trkpt>
      <trkpt lat="30.523661611452347" lon="114.39282798146075">
        <ele>25.60345458984375</ele>
        <time>2022-04-23T14:43:01Z</time>
      </trkpt>
      <trkpt lat="30.523664611013846" lon="114.392733824891">
        <ele>23.486083984375</ele>
        <time>2022-04-23T14:43:04Z</time>
      </trkpt>
      <trkpt lat="30.523631539987157" lon="114.39266083658698">
        <ele>21.92047119140625</ele>
        <time>2022-04-23T14:43:07Z</time>
      </trkpt>
      <trkpt lat="30.523586284891827" lon="114.39248663954895">
        <ele>20.76873779296875</ele>
        <time>2022-04-23T14:43:13Z</time>
      </trkpt>
      <trkpt lat="30.52344259122212" lon="114.39231760799524">
        <ele>24.03155517578125</ele>
        <time>2022-04-23T14:43:22Z</time>
      </trkpt>
      <trkpt lat="30.523249260821416" lon="114.39220664804573">
        <ele>32.1903076171875</ele>
        <time>2022-04-23T14:43:31Z</time>
      </trkpt>
      <trkpt lat="30.523180379898903" lon="114.39221072411101">
        <ele>32.2535400390625</ele>
        <time>2022-04-23T14:43:34Z</time>
      </trkpt>
      <trkpt lat="30.523117470579926" lon="114.39218685202323">
        <ele>34.1241455078125</ele>
        <time>2022-04-23T14:43:37Z</time>
      </trkpt>
      <trkpt lat="30.52284438451349" lon="114.39221780822368">
        <ele>34.15496826171875</ele>
        <time>2022-04-23T14:43:49Z</time>
      </trkpt>
      <trkpt lat="30.522784447797008" lon="114.39224576113565">
        <ele>34.93487548828125</ele>
        <time>2022-04-23T14:43:52Z</time>
      </trkpt>
      <trkpt lat="30.522710415207282" lon="114.39224576760604">
        <ele>33.26983642578125</ele>
        <time>2022-04-23T14:43:55Z</time>
      </trkpt>
      <trkpt lat="30.52263747210104" lon="114.39222189635485">
        <ele>34.4368896484375</ele>
        <time>2022-04-23T14:43:58Z</time>
      </trkpt>
      <trkpt lat="30.52238228534831" lon="114.3922457962841">
        <ele>36.1845703125</ele>
        <time>2022-04-23T14:44:10Z</time>
      </trkpt>
      <trkpt lat="30.522285193736103" lon="114.39228894736868">
        <ele>35.90032958984375</ele>
        <time>2022-04-23T14:44:16Z</time>
      </trkpt>
      <trkpt lat="30.522231216082513" lon="114.39235271646908">
        <ele>36.24139404296875</ele>
        <time>2022-04-23T14:44:19Z</time>
      </trkpt>
      <trkpt lat="30.522176430531506" lon="114.39238799525529">
        <ele>36.51885986328125</ele>
        <time>2022-04-23T14:44:22Z</time>
      </trkpt>
      <trkpt lat="30.522092593261096" lon="114.39261185819997">
        <ele>32.85968017578125</ele>
        <time>2022-04-23T14:44:31Z</time>
      </trkpt>
      <trkpt lat="30.522107471250717" lon="114.39281889158154">
        <ele>31.92742919921875</ele>
        <time>2022-04-23T14:44:37Z</time>
      </trkpt>
      <trkpt lat="30.522229727427586" lon="114.39309701069675">
        <ele>36.49114990234375</ele>
        <time>2022-04-23T14:44:49Z</time>
      </trkpt>
      <trkpt lat="30.522300767395755" lon="114.393156972477">
        <ele>38.6351318359375</ele>
        <time>2022-04-23T14:44:52Z</time>
      </trkpt>
      <trkpt lat="30.522493577137414" lon="114.39315994046272">
        <ele>32.48858642578125</ele>
        <time>2022-04-23T14:45:01Z</time>
      </trkpt>
      <trkpt lat="30.522570586708913" lon="114.39319792259919">
        <ele>33.52862548828125</ele>
        <time>2022-04-23T14:45:04Z</time>
      </trkpt>
      <trkpt lat="30.522773431668877" lon="114.39319112113975">
        <ele>30.0284423828125</ele>
        <time>2022-04-23T14:45:13Z</time>
      </trkpt>
      <trkpt lat="30.52286753565827" lon="114.3931661488031">
        <ele>28.47540283203125</ele>
        <time>2022-04-23T14:45:16Z</time>
      </trkpt>
      <trkpt lat="30.522923667231876" lon="114.39318513832774">
        <ele>25.6102294921875</ele>
        <time>2022-04-23T14:45:19Z</time>
      </trkpt>
      <trkpt lat="30.523059803102072" lon="114.3931680314415">
        <ele>26.56768798828125</ele>
        <time>2022-04-23T14:45:25Z</time>
      </trkpt>
      <trkpt lat="30.523193761536124" lon="114.39320112432682">
        <ele>24.93280029296875</ele>
        <time>2022-04-23T14:45:31Z</time>
      </trkpt>
      <trkpt lat="30.523336677368686" lon="114.39318103199456">
        <ele>28.25469970703125</ele>
        <time>2022-04-23T14:45:37Z</time>
      </trkpt>
      <trkpt lat="30.523414517186886" lon="114.39311400207791">
        <ele>27.92193603515625</ele>
        <time>2022-04-23T14:45:40Z</time>
      </trkpt>
      <trkpt lat="30.52347851794355" lon="114.39310205716703">
        <ele>27.6634521484375</ele>
        <time>2022-04-23T14:45:43Z</time>
      </trkpt>
      <trkpt lat="30.523633655519927" lon="114.39296989753478">
        <ele>26.63177490234375</ele>
        <time>2022-04-23T14:45:52Z</time>
      </trkpt>
      <trkpt lat="30.52366268736194" lon="114.39287899418494">
        <ele>26.3271484375</ele>
        <time>2022-04-23T14:45:55Z</time>
      </trkpt>
      <trkpt lat="30.523704459009913" lon="114.39282282217202">
        <ele>25.34454345703125</ele>
        <time>2022-04-23T14:45:58Z</time>
      </trkpt>
      <trkpt lat="30.52366949155503" lon="114.39273789461296">
        <ele>25.32623291015625</ele>
        <time>2022-04-23T14:46:01Z</time>
      </trkpt>
      <trkpt lat="30.52366353723369" lon="114.39267277285292">
        <ele>22.07672119140625</ele>
        <time>2022-04-23T14:46:04Z</time>
      </trkpt>
      <trkpt lat="30.52354047642449" lon="114.39237566580164">
        <ele>25.68743896484375</ele>
        <time>2022-04-23T14:46:16Z</time>
      </trkpt>
      <trkpt lat="30.523485432963405" lon="114.39234283867775">
        <ele>25.19024658203125</ele>
        <time>2022-04-23T14:46:19Z</time>
      </trkpt>
      <trkpt lat="30.523433378683876" lon="114.39227880753712">
        <ele>25.6685791015625</ele>
        <time>2022-04-23T14:46:22Z</time>
      </trkpt>
      <trkpt lat="30.52336260806978" lon="114.39223974119508">
        <ele>29.51898193359375</ele>
        <time>2022-04-23T14:46:25Z</time>
      </trkpt>
      <trkpt lat="30.523081391052475" lon="114.39224871988807">
        <ele>33.9395751953125</ele>
        <time>2022-04-23T14:46:37Z</time>
      </trkpt>
      <trkpt lat="30.522775498209374" lon="114.39224874662305">
        <ele>37.40350341796875</ele>
        <time>2022-04-23T14:46:52Z</time>
      </trkpt>
      <trkpt lat="30.52273048703225" lon="114.39222378758109">
        <ele>36.5050048828125</ele>
        <time>2022-04-23T14:46:55Z</time>
      </trkpt>
      <trkpt lat="30.5224115715741" lon="114.39225284848303">
        <ele>34.02203369140625</ele>
        <time>2022-04-23T14:47:10Z</time>
      </trkpt>
      <trkpt lat="30.522373599417822" lon="114.3922867689433">
        <ele>31.7296142578125</ele>
        <time>2022-04-23T14:47:13Z</time>
      </trkpt>
      <trkpt lat="30.522318275561897" lon="114.39230088332569">
        <ele>34.10650634765625</ele>
        <time>2022-04-23T14:47:16Z</time>
      </trkpt>
      <trkpt lat="30.522189445741873" lon="114.39239586294096">
        <ele>32.05438232421875</ele>
        <time>2022-04-23T14:47:25Z</time>
      </trkpt>
      <trkpt lat="30.5221257025416" lon="114.39247699896603">
        <ele>29.49957275390625</ele>
        <time>2022-04-23T14:47:31Z</time>
      </trkpt>
      <trkpt lat="30.52210150454154" lon="114.39282296226824">
        <ele>30.446533203125</ele>
        <time>2022-04-23T14:47:43Z</time>
      </trkpt>
      <trkpt lat="30.522127517237113" lon="114.39294397994003">
        <ele>32.5574951171875</ele>
        <time>2022-04-23T14:47:46Z</time>
      </trkpt>
      <trkpt lat="30.52218553117138" lon="114.39305794048829">
        <ele>31.6878662109375</ele>
        <time>2022-04-23T14:47:52Z</time>
      </trkpt>
      <trkpt lat="30.522376693495712" lon="114.39318708557569">
        <ele>28.46484375</ele>
        <time>2022-04-23T14:48:01Z</time>
      </trkpt>
      <trkpt lat="30.52244774010901" lon="114.39320607381612">
        <ele>25.8426513671875</ele>
        <time>2022-04-23T14:48:04Z</time>
      </trkpt>
      <trkpt lat="30.522640549529676" lon="114.39321094125508">
        <ele>23.20916748046875</ele>
        <time>2022-04-23T14:48:13Z</time>
      </trkpt>
      <trkpt lat="30.52273248311156" lon="114.3931919387662">
        <ele>23.8172607421875</ele>
        <time>2022-04-23T14:48:19Z</time>
      </trkpt>
      <trkpt lat="30.522816547490848" lon="114.39320414213769">
        <ele>28.4632568359375</ele>
        <time>2022-04-23T14:48:22Z</time>
      </trkpt>
      <trkpt lat="30.522880548582812" lon="114.39319002638116">
        <ele>24.0521240234375</ele>
        <time>2022-04-23T14:48:25Z</time>
      </trkpt>
      <trkpt lat="30.522950782259574" lon="114.39320494445401">
        <ele>25.8814697265625</ele>
        <time>2022-04-23T14:48:28Z</time>
      </trkpt>
      <trkpt lat="30.523069834749016" lon="114.39318105531636">
        <ele>24.9119873046875</ele>
        <time>2022-04-23T14:48:34Z</time>
      </trkpt>
      <trkpt lat="30.523270779146284" lon="114.39318809283125">
        <ele>23.5849609375</ele>
        <time>2022-04-23T14:48:43Z</time>
      </trkpt>
      <trkpt lat="30.52334671553634" lon="114.39315308218113">
        <ele>21.4403076171875</ele>
        <time>2022-04-23T14:48:46Z</time>
      </trkpt>
      <trkpt lat="30.523413697534586" lon="114.39315199093211">
        <ele>23.01812744140625</ele>
        <time>2022-04-23T14:48:49Z</time>
      </trkpt>
      <trkpt lat="30.523456548561942" lon="114.39312485233512">
        <ele>20.6383056640625</ele>
        <time>2022-04-23T14:48:52Z</time>
      </trkpt>
      <trkpt lat="30.523632592263297" lon="114.3928439933254">
        <ele>23.0281982421875</ele>
        <time>2022-04-23T14:49:04Z</time>
      </trkpt>
      <trkpt lat="30.523590570325407" lon="114.39277995975912">
        <ele>21.83837890625</ele>
        <time>2022-04-23T14:49:07Z</time>
      </trkpt>
      <trkpt lat="30.523587356318878" lon="114.39255773064957">
        <ele>20.3734130859375</ele>
        <time>2022-04-23T14:49:16Z</time>
      </trkpt>
      <trkpt lat="30.52343444931862" lon="114.39235071193988">
        <ele>25.92523193359375</ele>
        <time>2022-04-23T14:49:25Z</time>
      </trkpt>
      <trkpt lat="30.523352564624133" lon="114.39228885408114">
        <ele>27.041015625</ele>
        <time>2022-04-23T14:49:28Z</time>
      </trkpt>
      <trkpt lat="30.523251422845938" lon="114.39224382096432">
        <ele>28.57977294921875</ele>
        <time>2022-04-23T14:49:31Z</time>
      </trkpt>
      <trkpt lat="30.52308925332388" lon="114.39225875866708">
        <ele>30.9637451171875</ele>
        <time>2022-04-23T14:49:37Z</time>
      </trkpt>
      <trkpt lat="30.522996517391462" lon="114.39221779492728">
        <ele>32.11920166015625</ele>
        <time>2022-04-23T14:49:40Z</time>
      </trkpt>
      <trkpt lat="30.5228633590631" lon="114.39225877841024">
        <ele>33.124755859375</ele>
        <time>2022-04-23T14:49:46Z</time>
      </trkpt>
      <trkpt lat="30.52254852093307" lon="114.39223981234625">
        <ele>34.8941650390625</ele>
        <time>2022-04-23T14:49:58Z</time>
      </trkpt>
      <trkpt lat="30.522493473644133" lon="114.39222679299782">
        <ele>34.759521484375</ele>
        <time>2022-04-23T14:50:01Z</time>
      </trkpt>
      <trkpt lat="30.522374418867233" lon="114.39225692178417">
        <ele>36.20904541015625</ele>
        <time>2022-04-23T14:50:07Z</time>
      </trkpt>
      <trkpt lat="30.522188357938564" lon="114.39241187203027">
        <ele>37.794677734375</ele>
        <time>2022-04-23T14:50:16Z</time>
      </trkpt>
      <trkpt lat="30.52213246287672" lon="114.39257983643053">
        <ele>37.84521484375</ele>
        <time>2022-04-23T14:50:22Z</time>
      </trkpt>
      <trkpt lat="30.522107490860783" lon="114.39270791204993">
        <ele>37.86981201171875</ele>
        <time>2022-04-23T14:50:25Z</time>
      </trkpt>
      <trkpt lat="30.52210853841761" lon="114.39292091720475">
        <ele>33.33673095703125</ele>
        <time>2022-04-23T14:50:31Z</time>
      </trkpt>
      <trkpt lat="30.522231627155456" lon="114.39308805604958">
        <ele>36.03424072265625</ele>
        <time>2022-04-23T14:50:37Z</time>
      </trkpt>
      <trkpt lat="30.52233981900176" lon="114.39314801455693">
        <ele>34.60223388671875</ele>
        <time>2022-04-23T14:50:43Z</time>
      </trkpt>
      <trkpt lat="30.52254374333297" lon="114.39317513161672">
        <ele>33.2314453125</ele>
        <time>2022-04-23T14:50:49Z</time>
      </trkpt>
      <trkpt lat="30.522641634384545" lon="114.39321012711189">
        <ele>36.56103515625</ele>
        <time>2022-04-23T14:50:52Z</time>
      </trkpt>
      <trkpt lat="30.522758514021856" lon="114.39320794610137">
        <ele>28.12237548828125</ele>
        <time>2022-04-23T14:50:55Z</time>
      </trkpt>
      <trkpt lat="30.522812483760184" lon="114.39317890701588">
        <ele>31.91741943359375</ele>
        <time>2022-04-23T14:50:58Z</time>
      </trkpt>
      <trkpt lat="30.522922850683564" lon="114.39320413284702">
        <ele>27.0458984375</ele>
        <time>2022-04-23T14:51:01Z</time>
      </trkpt>
      <trkpt lat="30.52299769920387" lon="114.39318893074567">
        <ele>26.64923095703125</ele>
        <time>2022-04-23T14:51:04Z</time>
      </trkpt>
      <trkpt lat="30.523218707416316" lon="114.3932190312109">
        <ele>29.25</ele>
        <time>2022-04-23T14:51:13Z</time>
      </trkpt>
      <trkpt lat="30.523269686268304" lon="114.3932399206834">
        <ele>26.777587890625</ele>
        <time>2022-04-23T14:51:16Z</time>
      </trkpt>
      <trkpt lat="30.523490716289054" lon="114.39313190440689">
        <ele>25.4244384765625</ele>
        <time>2022-04-23T14:51:25Z</time>
      </trkpt>
      <trkpt lat="30.523578613986196" lon="114.39292078872258">
        <ele>24.1466064453125</ele>
        <time>2022-04-23T14:51:37Z</time>
      </trkpt>
      <trkpt lat="30.5236087345787" lon="114.39280790660321">
        <ele>24.11175537109375</ele>
        <time>2022-04-23T14:51:43Z</time>
      </trkpt>
      <trkpt lat="30.523585698818746" lon="114.39272487746409">
        <ele>23.09228515625</ele>
        <time>2022-04-23T14:51:46Z</time>
      </trkpt>
      <trkpt lat="30.523622345597538" lon="114.3925208252617">
        <ele>24.18023681640625</ele>
        <time>2022-04-23T14:51:55Z</time>
      </trkpt>
      <trkpt lat="30.523570576566872" lon="114.39238081860331">
        <ele>26.17181396484375</ele>
        <time>2022-04-23T14:52:01Z</time>
      </trkpt>
      <trkpt lat="30.523358281187534" lon="114.39217977624004">
        <ele>34.3480224609375</ele>
        <time>2022-04-23T14:52:13Z</time>
      </trkpt>
      <trkpt lat="30.52317333561845" lon="114.3921787070607">
        <ele>38.68035888671875</ele>
        <time>2022-04-23T14:52:22Z</time>
      </trkpt>
      <trkpt lat="30.523126417168864" lon="114.39219879003092">
        <ele>41.14593505859375</ele>
        <time>2022-04-23T14:52:25Z</time>
      </trkpt>
      <trkpt lat="30.52286553831022" lon="114.39220966628282">
        <ele>43.00738525390625</ele>
        <time>2022-04-23T14:52:40Z</time>
      </trkpt>
      <trkpt lat="30.52282241641568" lon="114.39222974895108">
        <ele>41.4705810546875</ele>
        <time>2022-04-23T14:52:43Z</time>
      </trkpt>
      <trkpt lat="30.522757334395138" lon="114.39222188587901">
        <ele>41.896728515625</ele>
        <time>2022-04-23T14:52:46Z</time>
      </trkpt>
      <trkpt lat="30.522711501500577" lon="114.39223789874484">
        <ele>40.0340576171875</ele>
        <time>2022-04-23T14:52:49Z</time>
      </trkpt>
      <trkpt lat="30.52265455654655" lon="114.39222189486169">
        <ele>40.5220947265625</ele>
        <time>2022-04-23T14:52:52Z</time>
      </trkpt>
      <trkpt lat="30.522596519714753" lon="114.39224170750849">
        <ele>40.15386962890625</ele>
        <time>2022-04-23T14:52:55Z</time>
      </trkpt>
      <trkpt lat="30.522524658565917" lon="114.39223167433116">
        <ele>39.16070556640625</ele>
        <time>2022-04-23T14:52:58Z</time>
      </trkpt>
      <trkpt lat="30.522476652444563" lon="114.39226668098215">
        <ele>39.505615234375</ele>
        <time>2022-04-23T14:53:01Z</time>
      </trkpt>
      <trkpt lat="30.522337262615746" lon="114.39227890333726">
        <ele>37.0865478515625</ele>
        <time>2022-04-23T14:53:10Z</time>
      </trkpt>
      <trkpt lat="30.522169383685153" lon="114.39236791681874">
        <ele>36.5821533203125</ele>
        <time>2022-04-23T14:53:19Z</time>
      </trkpt>
      <trkpt lat="30.522104283548693" lon="114.39245393696422">
        <ele>36.87310791015625</ele>
        <time>2022-04-23T14:53:25Z</time>
      </trkpt>
      <trkpt lat="30.5221126429267" lon="114.39271008234272">
        <ele>38.20135498046875</ele>
        <time>2022-04-23T14:53:31Z</time>
      </trkpt>
      <trkpt lat="30.522178496033607" lon="114.39296405509567">
        <ele>31.55780029296875</ele>
        <time>2022-04-23T14:53:37Z</time>
      </trkpt>
      <trkpt lat="30.52222674769628" lon="114.393076931217">
        <ele>32.9036865234375</ele>
        <time>2022-04-23T14:53:40Z</time>
      </trkpt>
      <trkpt lat="30.522314608293144" lon="114.39309103362397">
        <ele>32.69561767578125</ele>
        <time>2022-04-23T14:53:43Z</time>
      </trkpt>
      <trkpt lat="30.52242361285905" lon="114.39315614769453">
        <ele>34.6878662109375</ele>
        <time>2022-04-23T14:53:46Z</time>
      </trkpt>
      <trkpt lat="30.52250252869501" lon="114.39314393010746">
        <ele>35.7451171875</ele>
        <time>2022-04-23T14:53:49Z</time>
      </trkpt>
      <trkpt lat="30.522744688178175" lon="114.39317999833727">
        <ele>27.89013671875</ele>
        <time>2022-04-23T14:53:58Z</time>
      </trkpt>
      <trkpt lat="30.523078786459916" lon="114.39316395954918">
        <ele>24.33935546875</ele>
        <time>2022-04-23T14:54:13Z</time>
      </trkpt>
      <trkpt lat="30.523267792379453" lon="114.39321197183313">
        <ele>25.573974609375</ele>
        <time>2022-04-23T14:54:22Z</time>
      </trkpt>
      <trkpt lat="30.523394708141936" lon="114.39319405168253">
        <ele>25.58905029296875</ele>
        <time>2022-04-23T14:54:28Z</time>
      </trkpt>
      <trkpt lat="30.52353954508838" lon="114.3930328581988">
        <ele>26.04876708984375</ele>
        <time>2022-04-23T14:54:37Z</time>
      </trkpt>
      <trkpt lat="30.5235897276464" lon="114.39294900771918">
        <ele>25.87213134765625</ele>
        <time>2022-04-23T14:54:40Z</time>
      </trkpt>
      <trkpt lat="30.523608724502107" lon="114.39286597434007">
        <ele>24.9407958984375</ele>
        <time>2022-04-23T14:54:43Z</time>
      </trkpt>
      <trkpt lat="30.523606569360823" lon="114.39278375717453">
        <ele>22.974853515625</ele>
        <time>2022-04-23T14:54:46Z</time>
      </trkpt>
      <trkpt lat="30.523625572376197" lon="114.39266979140483">
        <ele>24.25030517578125</ele>
        <time>2022-04-23T14:54:49Z</time>
      </trkpt>
      <trkpt lat="30.523552400885297" lon="114.39241473754291">
        <ele>26.7735595703125</ele>
        <time>2022-04-23T14:54:58Z</time>
      </trkpt>
      <trkpt lat="30.52350061683538" lon="114.39235328040711">
        <ele>26.36346435546875</ele>
        <time>2022-04-23T14:55:01Z</time>
      </trkpt>
      <trkpt lat="30.52335256939596" lon="114.39226470506767">
        <ele>27.51934814453125</ele>
        <time>2022-04-23T14:55:04Z</time>
      </trkpt>
      <trkpt lat="30.52300926232851" lon="114.39222077851458">
        <ele>33.940673828125</ele>
        <time>2022-04-23T14:55:16Z</time>
      </trkpt>
      <trkpt lat="30.5228763831301" lon="114.3922218754742">
        <ele>35.1282958984375</ele>
        <time>2022-04-23T14:55:22Z</time>
      </trkpt>
      <trkpt lat="30.522782550119487" lon="114.39224277659672">
        <ele>40.66290283203125</ele>
        <time>2022-04-23T14:55:28Z</time>
      </trkpt>
      <trkpt lat="30.522575644903885" lon="114.39221077696467">
        <ele>42.27264404296875</ele>
        <time>2022-04-23T14:55:37Z</time>
      </trkpt>
      <trkpt lat="30.522481541269247" lon="114.39222869339677">
        <ele>41.390625</ele>
        <time>2022-04-23T14:55:40Z</time>
      </trkpt>
      <trkpt lat="30.522396651043938" lon="114.3922807975077">
        <ele>43.591552734375</ele>
        <time>2022-04-23T14:55:43Z</time>
      </trkpt>
      <trkpt lat="30.522336184072685" lon="114.39224769967106">
        <ele>43.50360107421875</ele>
        <time>2022-04-23T14:55:46Z</time>
      </trkpt>
      <trkpt lat="30.522143340251095" lon="114.39241974479687">
        <ele>45.80389404296875</ele>
        <time>2022-04-23T14:55:52Z</time>
      </trkpt>
      <trkpt lat="30.52211856088731" lon="114.39257345858789">
        <ele>44.135986328125</ele>
        <time>2022-04-23T14:55:55Z</time>
      </trkpt>
      <trkpt lat="30.522157608184752" lon="114.39300503024194">
        <ele>38.418701171875</ele>
        <time>2022-04-23T14:56:04Z</time>
      </trkpt>
      <trkpt lat="30.522321654622907" lon="114.39311816781535">
        <ele>38.1531982421875</ele>
        <time>2022-04-23T14:56:10Z</time>
      </trkpt>
      <trkpt lat="30.522515540910245" lon="114.39317214924274">
        <ele>32.43157958984375</ele>
        <time>2022-04-23T14:56:16Z</time>
      </trkpt>
      <trkpt lat="30.522785634370365" lon="114.39319410491478">
        <ele>29.205078125</ele>
        <time>2022-04-23T14:56:28Z</time>
      </trkpt>
      <trkpt lat="30.523129760513545" lon="114.39321496874152">
        <ele>32.04461669921875</ele>
        <time>2022-04-23T14:56:46Z</time>
      </trkpt>
      <trkpt lat="30.523187792722574" lon="114.39321903391281">
        <ele>27.509033203125</ele>
        <time>2022-04-23T14:56:49Z</time>
      </trkpt>
      <trkpt lat="30.523348607633988" lon="114.39319188491783">
        <ele>26.9312744140625</ele>
        <time>2022-04-23T14:56:55Z</time>
      </trkpt>
      <trkpt lat="30.523439721738953" lon="114.39321005736026">
        <ele>25.832275390625</ele>
        <time>2022-04-23T14:56:58Z</time>
      </trkpt>
      <trkpt lat="30.523546574062248" lon="114.39316690350236">
        <ele>26.2843017578125</ele>
        <time>2022-04-23T14:57:01Z</time>
      </trkpt>
      <trkpt lat="30.523564482151606" lon="114.39310394909009">
        <ele>27.309814453125</ele>
        <time>2022-04-23T14:57:04Z</time>
      </trkpt>
      <trkpt lat="30.523613575782882" lon="114.39304397696385">
        <ele>32.07623291015625</ele>
        <time>2022-04-23T14:57:07Z</time>
      </trkpt>
      <trkpt lat="30.523641524487555" lon="114.39294194819648">
        <ele>29.92919921875</ele>
        <time>2022-04-23T14:57:10Z</time>
      </trkpt>
      <trkpt lat="30.523694695960288" lon="114.39282580781368">
        <ele>28.78021240234375</ele>
        <time>2022-04-23T14:57:13Z</time>
      </trkpt>
      <trkpt lat="30.523667588333023" lon="114.39276584315415">
        <ele>27.7813720703125</ele>
        <time>2022-04-23T14:57:16Z</time>
      </trkpt>
      <trkpt lat="30.52367277274407" lon="114.39258865606988">
        <ele>29.0333251953125</ele>
        <time>2022-04-23T14:57:22Z</time>
      </trkpt>
      <trkpt lat="30.52362234824206" lon="114.39250671556451">
        <ele>28.31817626953125</ele>
        <time>2022-04-23T14:57:25Z</time>
      </trkpt>
      <trkpt lat="30.523504970172336" lon="114.39242106531765">
        <ele>29.11639404296875</ele>
        <time>2022-04-23T14:57:31Z</time>
      </trkpt>
      <trkpt lat="30.523508486350625" lon="114.3923276417354">
        <ele>32.15472412109375</ele>
        <time>2022-04-23T14:57:34Z</time>
      </trkpt>
      <trkpt lat="30.523328432042227" lon="114.39227583200005">
        <ele>27.84283447265625</ele>
        <time>2022-04-23T14:57:43Z</time>
      </trkpt>
      <trkpt lat="30.52325929051798" lon="114.39222672606567">
        <ele>29.48291015625</ele>
        <time>2022-04-23T14:57:46Z</time>
      </trkpt>
      <trkpt lat="30.523002488832248" lon="114.39219066077771">
        <ele>36.22705078125</ele>
        <time>2022-04-23T14:58:01Z</time>
      </trkpt>
      <trkpt lat="30.522943364606462" lon="114.39222376897568">
        <ele>35.763427734375</ele>
        <time>2022-04-23T14:58:04Z</time>
      </trkpt>
      <trkpt lat="30.52278553929539" lon="114.39221184396558">
        <ele>43.76153564453125</ele>
        <time>2022-04-23T14:58:13Z</time>
      </trkpt>
      <trkpt lat="30.522679502713594" lon="114.39223464550118">
        <ele>47.3614501953125</ele>
        <time>2022-04-23T14:58:19Z</time>
      </trkpt>
      <trkpt lat="30.522525476289292" lon="114.39221078134933">
        <ele>48.0352783203125</ele>
        <time>2022-04-23T14:58:28Z</time>
      </trkpt>
      <trkpt lat="30.5224446583362" lon="114.39223982142366">
        <ele>48.18743896484375</ele>
        <time>2022-04-23T14:58:31Z</time>
      </trkpt>
      <trkpt lat="30.5223614049476" lon="114.39224281340421">
        <ele>47.6346435546875</ele>
        <time>2022-04-23T14:58:37Z</time>
      </trkpt>
      <trkpt lat="30.522297397343678" lon="114.39228677560318">
        <ele>35.88507080078125</ele>
        <time>2022-04-23T14:58:43Z</time>
      </trkpt>
      <trkpt lat="30.522156600264715" lon="114.39256789531214">
        <ele>40.42901611328125</ele>
        <time>2022-04-23T14:59:01Z</time>
      </trkpt>
      <trkpt lat="30.522127561382952" lon="114.39269081570232">
        <ele>40.47015380859375</ele>
        <time>2022-04-23T14:59:07Z</time>
      </trkpt>
      <trkpt lat="30.52212943296894" lon="114.39284195394237">
        <ele>38.956787109375</ele>
        <time>2022-04-23T14:59:16Z</time>
      </trkpt>
      <trkpt lat="30.522203442937357" lon="114.39297490676732">
        <ele>34.79144287109375</ele>
        <time>2022-04-23T14:59:25Z</time>
      </trkpt>
      <trkpt lat="30.522342809565952" lon="114.3931010710338">
        <ele>29.3984375</ele>
        <time>2022-04-23T14:59:34Z</time>
      </trkpt>
      <trkpt lat="30.522425785530096" lon="114.39313606770696">
        <ele>27.1239013671875</ele>
        <time>2022-04-23T14:59:37Z</time>
      </trkpt>
      <trkpt lat="30.522663602798087" lon="114.39319303018306">
        <ele>23.9793701171875</ele>
        <time>2022-04-23T14:59:46Z</time>
      </trkpt>
      <trkpt lat="30.52275146849528" lon="114.39317511346212">
        <ele>24.92510986328125</ele>
        <time>2022-04-23T14:59:49Z</time>
      </trkpt>
      <trkpt lat="30.52312976398017" lon="114.3931929894415">
        <ele>29.6826171875</ele>
        <time>2022-04-23T14:59:58Z</time>
      </trkpt>
      <trkpt lat="30.52321573123657" lon="114.39317588693335">
        <ele>29.46942138671875</ele>
        <time>2022-04-23T15:00:01Z</time>
      </trkpt>
      <trkpt lat="30.523300600493567" lon="114.39324290283011">
        <ele>30.23065185546875</ele>
        <time>2022-04-23T15:00:04Z</time>
      </trkpt>
      <trkpt lat="30.523399585473793" lon="114.39321901540227">
        <ele>31.6636962890625</ele>
        <time>2022-04-23T15:00:07Z</time>
      </trkpt>
      <trkpt lat="30.523509699121064" lon="114.3931310887025">
        <ele>35.67816162109375</ele>
        <time>2022-04-23T15:00:13Z</time>
      </trkpt>
      <trkpt lat="30.52356964145175" lon="114.39306188973184">
        <ele>34.82977294921875</ele>
        <time>2022-04-23T15:00:16Z</time>
      </trkpt>
      <trkpt lat="30.523633644190745" lon="114.3930380055706">
        <ele>38.680419921875</ele>
        <time>2022-04-23T15:00:19Z</time>
      </trkpt>
      <trkpt lat="30.52372154618319" lon="114.39280708271077">
        <ele>34.4537353515625</ele>
        <time>2022-04-23T15:00:28Z</time>
      </trkpt>
      <trkpt lat="30.52372562803517" lon="114.39272703597891">
        <ele>33.9227294921875</ele>
        <time>2022-04-23T15:00:31Z</time>
      </trkpt>
      <trkpt lat="30.523701508729612" lon="114.3926391231028">
        <ele>33.100830078125</ele>
        <time>2022-04-23T15:00:34Z</time>
      </trkpt>
      <trkpt lat="30.523648367118074" lon="114.39258485942503">
        <ele>31.32098388671875</ele>
        <time>2022-04-23T15:00:37Z</time>
      </trkpt>
      <trkpt lat="30.52350142724222" lon="114.39237078512183">
        <ele>28.72430419921875</ele>
        <time>2022-04-23T15:00:49Z</time>
      </trkpt>
      <trkpt lat="30.52340842608521" lon="114.39229861734685">
        <ele>28.96044921875</ele>
        <time>2022-04-23T15:00:55Z</time>
      </trkpt>
      <trkpt lat="30.523382405345185" lon="114.39223458406734">
        <ele>32.67779541015625</ele>
        <time>2022-04-23T15:00:58Z</time>
      </trkpt>
      <trkpt lat="30.523331164847207" lon="114.39217082452538">
        <ele>34.7928466796875</ele>
        <time>2022-04-23T15:01:01Z</time>
      </trkpt>
      <trkpt lat="30.52299949919495" lon="114.39222376406951">
        <ele>46.331787109375</ele>
        <time>2022-04-23T15:01:16Z</time>
      </trkpt>
      <trkpt lat="30.52291224496078" lon="114.39217103069807">
        <ele>47.703857421875</ele>
        <time>2022-04-23T15:01:22Z</time>
      </trkpt>
      <trkpt lat="30.52284043165096" lon="114.39216497550986">
        <ele>48.3214111328125</ele>
        <time>2022-04-23T15:01:25Z</time>
      </trkpt>
      <trkpt lat="30.52280750723966" lon="114.39220071725718">
        <ele>48.972900390625</ele>
        <time>2022-04-23T15:01:28Z</time>
      </trkpt>
      <trkpt lat="30.52250160611944" lon="114.39224171580379">
        <ele>44.4747314453125</ele>
        <time>2022-04-23T15:01:43Z</time>
      </trkpt>
      <trkpt lat="30.522443569026713" lon="114.39226288515464">
        <ele>46.08416748046875</ele>
        <time>2022-04-23T15:01:46Z</time>
      </trkpt>
      <trkpt lat="30.522318288669958" lon="114.39223467707068">
        <ele>46.8701171875</ele>
        <time>2022-04-23T15:01:52Z</time>
      </trkpt>
      <trkpt lat="30.522166170186832" lon="114.39238876251606">
        <ele>43.775146484375</ele>
        <time>2022-04-23T15:02:01Z</time>
      </trkpt>
      <trkpt lat="30.522078150161963" lon="114.39257844584867">
        <ele>36.89306640625</ele>
        <time>2022-04-23T15:02:10Z</time>
      </trkpt>
      <trkpt lat="30.522043449497392" lon="114.39295212766766">
        <ele>38.251708984375</ele>
        <time>2022-04-23T15:02:22Z</time>
      </trkpt>
      <trkpt lat="30.522050487720833" lon="114.39302701870335">
        <ele>38.9832763671875</ele>
        <time>2022-04-23T15:02:25Z</time>
      </trkpt>
      <trkpt lat="30.522217793801232" lon="114.3931070516171">
        <ele>30.239501953125</ele>
        <time>2022-04-23T15:02:37Z</time>
      </trkpt>
      <trkpt lat="30.522333572595045" lon="114.39320608379393">
        <ele>29.82696533203125</ele>
        <time>2022-04-23T15:02:46Z</time>
      </trkpt>
      <trkpt lat="30.52242170303847" lon="114.393229140804">
        <ele>28.5772705078125</ele>
        <time>2022-04-23T15:02:52Z</time>
      </trkpt>
      <trkpt lat="30.522647596464004" lon="114.39323509075614">
        <ele>23.8057861328125</ele>
        <time>2022-04-23T15:03:04Z</time>
      </trkpt>
      <trkpt lat="30.522950778931868" lon="114.39322610971769">
        <ele>26.8082275390625</ele>
        <time>2022-04-23T15:03:16Z</time>
      </trkpt>
      <trkpt lat="30.523066844051385" lon="114.39322989846951">
        <ele>29.43603515625</ele>
        <time>2022-04-23T15:03:22Z</time>
      </trkpt>
      <trkpt lat="30.523127584949727" lon="114.39325404330002">
        <ele>30.62689208984375</ele>
        <time>2022-04-23T15:03:25Z</time>
      </trkpt>
      <trkpt lat="30.523344534994692" lon="114.39322309045772">
        <ele>30.9786376953125</ele>
        <time>2022-04-23T15:03:34Z</time>
      </trkpt>
      <trkpt lat="30.523476613067142" lon="114.39314303092824">
        <ele>33.2625732421875</ele>
        <time>2022-04-23T15:03:40Z</time>
      </trkpt>
      <trkpt lat="30.523590534495515" lon="114.3929888955537">
        <ele>36.601806640625</ele>
        <time>2022-04-23T15:03:46Z</time>
      </trkpt>
      <trkpt lat="30.523696632022308" lon="114.39261416008306">
        <ele>31.6014404296875</ele>
        <time>2022-04-23T15:03:55Z</time>
      </trkpt>
      <trkpt lat="30.52371551368584" lon="114.39249826813838">
        <ele>30.41864013671875</ele>
        <time>2022-04-23T15:03:58Z</time>
      </trkpt>
      <trkpt lat="30.523610428938113" lon="114.39243969567691">
        <ele>27.3780517578125</ele>
        <time>2022-04-23T15:04:01Z</time>
      </trkpt>
      <trkpt lat="30.523445557896295" lon="114.39240172261182">
        <ele>32.55767822265625</ele>
        <time>2022-04-23T15:04:04Z</time>
      </trkpt>
      <trkpt lat="30.523373435230493" lon="114.39234176311419">
        <ele>33.17449951171875</ele>
        <time>2022-04-23T15:04:07Z</time>
      </trkpt>
      <trkpt lat="30.52325547812566" lon="114.39230677084163">
        <ele>32.4576416015625</ele>
        <time>2022-04-23T15:04:10Z</time>
      </trkpt>
      <trkpt lat="30.52322430512654" lon="114.39224165264018">
        <ele>33.6893310546875</ele>
        <time>2022-04-23T15:04:13Z</time>
      </trkpt>
      <trkpt lat="30.52307543285868" lon="114.39220964793803">
        <ele>35.4913330078125</ele>
        <time>2022-04-23T15:04:19Z</time>
      </trkpt>
      <trkpt lat="30.52279746548762" lon="114.39224087593576">
        <ele>36.98834228515625</ele>
        <time>2022-04-23T15:04:31Z</time>
      </trkpt>
      <trkpt lat="30.522534410984527" lon="114.39228268482876">
        <ele>36.32611083984375</ele>
        <time>2022-04-23T15:04:46Z</time>
      </trkpt>
      <trkpt lat="30.522489667556453" lon="114.39227481995901">
        <ele>36.05621337890625</ele>
        <time>2022-04-23T15:04:49Z</time>
      </trkpt>
      <trkpt lat="30.522200295734002" lon="114.3923817523809">
        <ele>34.5057373046875</ele>
        <time>2022-04-23T15:05:07Z</time>
      </trkpt>
      <trkpt lat="30.52211863833466" lon="114.39254890476633">
        <ele>31.8165283203125</ele>
        <time>2022-04-23T15:05:13Z</time>
      </trkpt>
      <trkpt lat="30.522082534446632" lon="114.39275105779176">
        <ele>29.67608642578125</ele>
        <time>2022-04-23T15:05:19Z</time>
      </trkpt>
      <trkpt lat="30.52215165191429" lon="114.39294696263656">
        <ele>28.66424560546875</ele>
        <time>2022-04-23T15:05:25Z</time>
      </trkpt>
      <trkpt lat="30.522222682409893" lon="114.39306200745372">
        <ele>30.7198486328125</ele>
        <time>2022-04-23T15:05:28Z</time>
      </trkpt>
      <trkpt lat="30.522374800145656" lon="114.39315615196058">
        <ele>31.73486328125</ele>
        <time>2022-04-23T15:05:31Z</time>
      </trkpt>
      <trkpt lat="30.52253859217612" lon="114.39316699159855">
        <ele>28.39703369140625</ele>
        <time>2022-04-23T15:05:34Z</time>
      </trkpt>
      <trkpt lat="30.522629711433257" lon="114.39315314484615">
        <ele>29.91448974609375</ele>
        <time>2022-04-23T15:05:37Z</time>
      </trkpt>
      <trkpt lat="30.52270478796376" lon="114.39320247656234">
        <ele>29.751220703125</ele>
        <time>2022-04-23T15:05:40Z</time>
      </trkpt>
      <trkpt lat="30.522799965354935" lon="114.39320572415338">
        <ele>30.95880126953125</ele>
        <time>2022-04-23T15:05:43Z</time>
      </trkpt>
      <trkpt lat="30.522855603062098" lon="114.39316994873066">
        <ele>30.13623046875</ele>
        <time>2022-04-23T15:05:46Z</time>
      </trkpt>
      <trkpt lat="30.52290875116932" lon="114.39319192336077">
        <ele>29.387939453125</ele>
        <time>2022-04-23T15:05:49Z</time>
      </trkpt>
      <trkpt lat="30.523255592208656" lon="114.39319297844423">
        <ele>28.0755615234375</ele>
        <time>2022-04-23T15:06:01Z</time>
      </trkpt>
      <trkpt lat="30.523456387936573" lon="114.3932059885106">
        <ele>27.6146240234375</ele>
        <time>2022-04-23T15:06:07Z</time>
      </trkpt>
      <trkpt lat="30.52350680184101" lon="114.39316931622912">
        <ele>26.88751220703125</ele>
        <time>2022-04-23T15:06:10Z</time>
      </trkpt>
      <trkpt lat="30.523586677168968" lon="114.39315854641987">
        <ele>25.81060791015625</ele>
        <time>2022-04-23T15:06:16Z</time>
      </trkpt>
      <trkpt lat="30.523574529152384" lon="114.39302281529973">
        <ele>27.17779541015625</ele>
        <time>2022-04-23T15:06:22Z</time>
      </trkpt>
      <trkpt lat="30.52359271491309" lon="114.3929237722926">
        <ele>27.764892578125</ele>
        <time>2022-04-23T15:06:25Z</time>
      </trkpt>
      <trkpt lat="30.523641702874553" lon="114.39273239899461">
        <ele>24.76214599609375</ele>
        <time>2022-04-23T15:06:34Z</time>
      </trkpt>
      <trkpt lat="30.523635900483615" lon="114.39265333040869">
        <ele>24.85504150390625</ele>
        <time>2022-04-23T15:06:37Z</time>
      </trkpt>
      <trkpt lat="30.523648439780715" lon="114.3925751331741">
        <ele>22.87139892578125</ele>
        <time>2022-04-23T15:06:40Z</time>
      </trkpt>
      <trkpt lat="30.523603364779376" lon="114.39251078732761">
        <ele>22.9862060546875</ele>
        <time>2022-04-23T15:06:43Z</time>
      </trkpt>
      <trkpt lat="30.52354942305403" lon="114.39238787525662">
        <ele>28.6541748046875</ele>
        <time>2022-04-23T15:06:49Z</time>
      </trkpt>
      <trkpt lat="30.523402467164154" lon="114.39226280134714">
        <ele>25.42266845703125</ele>
        <time>2022-04-23T15:06:58Z</time>
      </trkpt>
      <trkpt lat="30.523235428117967" lon="114.3922188593922">
        <ele>31.75238037109375</ele>
        <time>2022-04-23T15:07:10Z</time>
      </trkpt>
      <trkpt lat="30.52311231371321" lon="114.3922088307056">
        <ele>35.502685546875</ele>
        <time>2022-04-23T15:07:16Z</time>
      </trkpt>
      <trkpt lat="30.523016310069522" lon="114.39223570141108">
        <ele>33.20562744140625</ele>
        <time>2022-04-23T15:07:22Z</time>
      </trkpt>
      <trkpt lat="30.522963430256276" lon="114.39223272132942">
        <ele>33.6778564453125</ele>
        <time>2022-04-23T15:07:25Z</time>
      </trkpt>
      <trkpt lat="30.52288939152955" lon="114.39226366020141">
        <ele>34.088134765625</ele>
        <time>2022-04-23T15:07:28Z</time>
      </trkpt>
      <trkpt lat="30.52268654171661" lon="114.39229379636507">
        <ele>32.3214111328125</ele>
        <time>2022-04-23T15:07:40Z</time>
      </trkpt>
      <trkpt lat="30.522413466457127" lon="114.39226994254985">
        <ele>31.949462890625</ele>
        <time>2022-04-23T15:07:55Z</time>
      </trkpt>
      <trkpt lat="30.52229333116998" lon="114.39227890717676">
        <ele>33.0699462890625</ele>
        <time>2022-04-23T15:08:01Z</time>
      </trkpt>
      <trkpt lat="30.52217344158747" lon="114.39241892814886">
        <ele>37.74676513671875</ele>
        <time>2022-04-23T15:08:10Z</time>
      </trkpt>
      <trkpt lat="30.52208065922515" lon="114.39262298425187">
        <ele>36.62841796875</ele>
        <time>2022-04-23T15:08:19Z</time>
      </trkpt>
      <trkpt lat="30.52214542117619" lon="114.39290897477576">
        <ele>33.8028564453125</ele>
        <time>2022-04-23T15:08:25Z</time>
      </trkpt>
      <trkpt lat="30.522201534647106" lon="114.3930351459157">
        <ele>34.77825927734375</ele>
        <time>2022-04-23T15:08:28Z</time>
      </trkpt>
      <trkpt lat="30.522383753145647" lon="114.39313118710827">
        <ele>29.39300537109375</ele>
        <time>2022-04-23T15:08:34Z</time>
      </trkpt>
      <trkpt lat="30.522705641823343" lon="114.39315612304607">
        <ele>27.89288330078125</ele>
        <time>2022-04-23T15:08:43Z</time>
      </trkpt>
      <trkpt lat="30.5228564273732" lon="114.39310292558133">
        <ele>27.509765625</ele>
        <time>2022-04-23T15:08:49Z</time>
      </trkpt>
      <trkpt lat="30.522922588733035" lon="114.3931460641841">
        <ele>32.6302490234375</ele>
        <time>2022-04-23T15:08:52Z</time>
      </trkpt>
      <trkpt lat="30.52298089294923" lon="114.39314497369396">
        <ele>26.89471435546875</ele>
        <time>2022-04-23T15:08:55Z</time>
      </trkpt>
      <trkpt lat="30.52305980279962" lon="114.39316993088396">
        <ele>32.0445556640625</ele>
        <time>2022-04-23T15:08:58Z</time>
      </trkpt>
      <trkpt lat="30.523121635703333" lon="114.3931479462281">
        <ele>31.68280029296875</ele>
        <time>2022-04-23T15:09:01Z</time>
      </trkpt>
      <trkpt lat="30.523320683416628" lon="114.39314494399662">
        <ele>31.64154052734375</ele>
        <time>2022-04-23T15:09:10Z</time>
      </trkpt>
      <trkpt lat="30.523487738596874" lon="114.3930990715329">
        <ele>33.05560302734375</ele>
        <time>2022-04-23T15:09:19Z</time>
      </trkpt>
      <trkpt lat="30.523557714737226" lon="114.39302987179252">
        <ele>31.46112060546875</ele>
        <time>2022-04-23T15:09:22Z</time>
      </trkpt>
      <trkpt lat="30.523610629017504" lon="114.39282988532787">
        <ele>30.08355712890625</ele>
        <time>2022-04-23T15:09:28Z</time>
      </trkpt>
      <trkpt lat="30.523616612629667" lon="114.3927297589384">
        <ele>23.95904541015625</ele>
        <time>2022-04-23T15:09:31Z</time>
      </trkpt>
      <trkpt lat="30.523516322132224" lon="114.39247579206783">
        <ele>23.27587890625</ele>
        <time>2022-04-23T15:09:40Z</time>
      </trkpt>
      <trkpt lat="30.523451525611424" lon="114.3923927679098">
        <ele>22.69757080078125</ele>
        <time>2022-04-23T15:09:43Z</time>
      </trkpt>
      <trkpt lat="30.523283684952734" lon="114.39228668940235">
        <ele>27.34564208984375</ele>
        <time>2022-04-23T15:09:49Z</time>
      </trkpt>
      <trkpt lat="30.523229188557384" lon="114.39223079874557">
        <ele>29.3026123046875</ele>
        <time>2022-04-23T15:09:52Z</time>
      </trkpt>
      <trkpt lat="30.523162211933425" lon="114.3922047562998">
        <ele>30.4208984375</ele>
        <time>2022-04-23T15:09:55Z</time>
      </trkpt>
      <trkpt lat="30.523094414752016" lon="114.39221371632462">
        <ele>29.2747802734375</ele>
        <time>2022-04-23T15:09:58Z</time>
      </trkpt>
      <trkpt lat="30.523043425418" lon="114.39224980855376">
        <ele>31.51702880859375</ele>
        <time>2022-04-23T15:10:01Z</time>
      </trkpt>
      <trkpt lat="30.522736459450048" lon="114.39219176937304">
        <ele>27.83612060546875</ele>
        <time>2022-04-23T15:10:16Z</time>
      </trkpt>
      <trkpt lat="30.522682489670117" lon="114.39221483767238">
        <ele>27.55328369140625</ele>
        <time>2022-04-23T15:10:19Z</time>
      </trkpt>
      <trkpt lat="30.522637477324075" lon="114.3921958480661">
        <ele>27.564697265625</ele>
        <time>2022-04-23T15:10:22Z</time>
      </trkpt>
      <trkpt lat="30.522432196436057" lon="114.39217768649215">
        <ele>29.7864990234375</ele>
        <time>2022-04-23T15:10:34Z</time>
      </trkpt>
      <trkpt lat="30.52231721477264" lon="114.39218068123672">
        <ele>28.649169921875</ele>
        <time>2022-04-23T15:10:43Z</time>
      </trkpt>
    </trkseg>
  </trk>
</gpx>