<?xml version="1.0" encoding="UTF-8"?>
<gpx xmlns="http://www.topografix.com/GPX/1/1" xmlns:gpxtpx="http://www.garmin.com/xmlschemas/TrackPointExtension/v1" xmlns:xsi="http://www.w3.org/2001/XMLSchema-instance" xsi:schemaLocation="http://www.topografix.com/GPX/1/1 http://www.topografix.com/GPX/1/1/gpx.xsd" version="1.1" creator="gpx.py -- https://github.com/tkrajina/gpxpy">
  <trk>
    <name>gpx from keep</name>
    <type>Run</type>
    <trkseg>
      <trkpt lat="36.030392931862465" lon="119.41553484961314">
        <ele>0.0</ele>
        <time>2024-04-09T01:04:35Z</time>
      </trkpt>
      <trkpt lat="36.03032028484448" lon="119.41592840558597">
        <ele>46.86669921875</ele>
        <time>2024-04-09T01:04:41Z</time>
      </trkpt>
      <trkpt lat="36.03070518614059" lon="119.41591634556144">
        <ele>69.53179931640625</ele>
        <time>2024-04-09T01:04:47Z</time>
      </trkpt>
      <trkpt lat="36.03086805142315" lon="119.41580316895762">
        <ele>61.74371337890625</ele>
        <time>2024-04-09T01:04:56Z</time>
      </trkpt>
      <trkpt lat="36.030858841894016" lon="119.41555482502501">
        <ele>57.21136474609375</ele>
        <time>2024-04-09T01:05:05Z</time>
      </trkpt>
      <trkpt lat="36.03087276257539" lon="119.41546469913696">
        <ele>60.3626708984375</ele>
        <time>2024-04-09T01:05:08Z</time>
      </trkpt>
      <trkpt lat="36.03084968958852" lon="119.41537157373654">
        <ele>58.607177734375</ele>
        <time>2024-04-09T01:05:11Z</time>
      </trkpt>
      <trkpt lat="36.03085561785601" lon="119.41528745789095">
        <ele>58.08056640625</ele>
        <time>2024-04-09T01:05:14Z</time>
      </trkpt>
      <trkpt lat="36.030827465479305" lon="119.41509620064">
        <ele>57.59112548828125</ele>
        <time>2024-04-09T01:05:20Z</time>
      </trkpt>
      <trkpt lat="36.030855370809505" lon="119.41498905253135">
        <ele>58.8394775390625</ele>
        <time>2024-04-09T01:05:23Z</time>
      </trkpt>
      <trkpt lat="36.030745199973936" lon="119.41474874206791">
        <ele>61.21197509765625</ele>
        <time>2024-04-09T01:05:32Z</time>
      </trkpt>
      <trkpt lat="36.030739151118844" lon="119.41468665988262">
        <ele>61.826171875</ele>
        <time>2024-04-09T01:05:35Z</time>
      </trkpt>
      <trkpt lat="36.03076907162664" lon="119.41459653662866">
        <ele>63.53973388671875</ele>
        <time>2024-04-09T01:05:41Z</time>
      </trkpt>
      <trkpt lat="36.03084901148781" lon="119.4145444585969">
        <ele>59.720703125</ele>
        <time>2024-04-09T01:05:47Z</time>
      </trkpt>
      <trkpt lat="36.030722055072985" lon="119.41456249672783">
        <ele>61.6505126953125</ele>
        <time>2024-04-09T01:05:53Z</time>
      </trkpt>
      <trkpt lat="36.030906004833355" lon="119.41455246281893">
        <ele>63.45404052734375</ele>
        <time>2024-04-09T01:05:59Z</time>
      </trkpt>
      <trkpt lat="36.031059931027286" lon="119.41450438191455">
        <ele>61.61175537109375</ele>
        <time>2024-04-09T01:06:05Z</time>
      </trkpt>
      <trkpt lat="36.031330879285676" lon="119.4145173687424">
        <ele>64.94317626953125</ele>
        <time>2024-04-09T01:06:17Z</time>
      </trkpt>
      <trkpt lat="36.031515847281206" lon="119.41453036522483">
        <ele>65.27764892578125</ele>
        <time>2024-04-09T01:06:26Z</time>
      </trkpt>
      <trkpt lat="36.03155680184429" lon="119.4144853010225">
        <ele>64.8955078125</ele>
        <time>2024-04-09T01:06:29Z</time>
      </trkpt>
      <trkpt lat="36.031578736942535" lon="119.41441019947065">
        <ele>61.29718017578125</ele>
        <time>2024-04-09T01:06:35Z</time>
      </trkpt>
      <trkpt lat="36.031599468629054" lon="119.41407575974117">
        <ele>60.21136474609375</ele>
        <time>2024-04-09T01:06:53Z</time>
      </trkpt>
      <trkpt lat="36.0316181782213" lon="119.41370528049876">
        <ele>63.656005859375</ele>
        <time>2024-04-09T01:07:11Z</time>
      </trkpt>
      <trkpt lat="36.031651893517996" lon="119.41333881239379">
        <ele>59.955810546875</ele>
        <time>2024-04-09T01:07:32Z</time>
      </trkpt>
      <trkpt lat="36.03165271055428" lon="119.41309250450138">
        <ele>59.095703125</ele>
        <time>2024-04-09T01:07:44Z</time>
      </trkpt>
      <trkpt lat="36.03172449299111" lon="119.41281715644008">
        <ele>62.97955322265625</ele>
        <time>2024-04-09T01:08:02Z</time>
      </trkpt>
      <trkpt lat="36.03169721705384" lon="119.41242267987082">
        <ele>60.0164794921875</ele>
        <time>2024-04-09T01:08:26Z</time>
      </trkpt>
      <trkpt lat="36.03169317562024" lon="119.41236260806032">
        <ele>59.627685546875</ele>
        <time>2024-04-09T01:08:29Z</time>
      </trkpt>
      <trkpt lat="36.031661154110836" lon="119.41232156239116">
        <ele>58.406005859375</ele>
        <time>2024-04-09T01:08:32Z</time>
      </trkpt>
      <trkpt lat="36.03166290567487" lon="119.411964137301">
        <ele>58.7938232421875</ele>
        <time>2024-04-09T01:08:47Z</time>
      </trkpt>
      <trkpt lat="36.031662849526846" lon="119.4118820407388">
        <ele>58.65447998046875</ele>
        <time>2024-04-09T01:08:50Z</time>
      </trkpt>
      <trkpt lat="36.03168679905166" lon="119.4118159606038">
        <ele>57.39471435546875</ele>
        <time>2024-04-09T01:08:56Z</time>
      </trkpt>
      <trkpt lat="36.031664642882774" lon="119.41157668471514">
        <ele>57.98260498046875</ele>
        <time>2024-04-09T01:09:05Z</time>
      </trkpt>
      <trkpt lat="36.03167538477309" lon="119.41118923966046">
        <ele>54.07330322265625</ele>
        <time>2024-04-09T01:09:20Z</time>
      </trkpt>
      <trkpt lat="36.03166628249441" lon="119.4110280585481">
        <ele>57.8232421875</ele>
        <time>2024-04-09T01:09:26Z</time>
      </trkpt>
      <trkpt lat="36.03168701974243" lon="119.41062160349391">
        <ele>57.88836669921875</ele>
        <time>2024-04-09T01:09:44Z</time>
      </trkpt>
      <trkpt lat="36.03170678351458" lon="119.41024619147339">
        <ele>62.92474365234375</ele>
        <time>2024-04-09T01:10:08Z</time>
      </trkpt>
      <trkpt lat="36.031752530505585" lon="119.40984175382626">
        <ele>62.27886962890625</ele>
        <time>2024-04-09T01:10:29Z</time>
      </trkpt>
      <trkpt lat="36.031748376957225" lon="119.40957747669391">
        <ele>64.72711181640625</ele>
        <time>2024-04-09T01:10:38Z</time>
      </trkpt>
      <trkpt lat="36.031773178613925" lon="119.4092401253321">
        <ele>65.8778076171875</ele>
        <time>2024-04-09T01:10:50Z</time>
      </trkpt>
      <trkpt lat="36.03178596951093" lon="119.40886874764784">
        <ele>63.02679443359375</ele>
        <time>2024-04-09T01:11:11Z</time>
      </trkpt>
      <trkpt lat="36.03182676550179" lon="119.40850738450368">
        <ele>63.84783935546875</ele>
        <time>2024-04-09T01:11:32Z</time>
      </trkpt>
      <trkpt lat="36.03185460700407" lon="119.40821709872297">
        <ele>62.02880859375</ele>
        <time>2024-04-09T01:11:47Z</time>
      </trkpt>
      <trkpt lat="36.03184156150367" lon="119.40812300959847">
        <ele>61.76220703125</ele>
        <time>2024-04-09T01:11:53Z</time>
      </trkpt>
      <trkpt lat="36.03185051237683" lon="119.4080309204203">
        <ele>60.81787109375</ele>
        <time>2024-04-09T01:11:59Z</time>
      </trkpt>
      <trkpt lat="36.03189047069188" lon="119.40796685488125">
        <ele>61.6053466796875</ele>
        <time>2024-04-09T01:12:05Z</time>
      </trkpt>
      <trkpt lat="36.031910282729825" lon="119.40759850613846">
        <ele>62.1431884765625</ele>
        <time>2024-04-09T01:12:29Z</time>
      </trkpt>
      <trkpt lat="36.031960197789346" lon="119.40744736058484">
        <ele>63.82574462890625</ele>
        <time>2024-04-09T01:12:41Z</time>
      </trkpt>
      <trkpt lat="36.03196716439108" lon="119.40738129904128">
        <ele>63.7080078125</ele>
        <time>2024-04-09T01:12:47Z</time>
      </trkpt>
      <trkpt lat="36.03194413568064" lon="119.4073102365398">
        <ele>64.8775634765625</ele>
        <time>2024-04-09T01:12:53Z</time>
      </trkpt>
      <trkpt lat="36.031885130160916" lon="119.4072702066226">
        <ele>66.357666015625</ele>
        <time>2024-04-09T01:12:59Z</time>
      </trkpt>
      <trkpt lat="36.03179909693366" lon="119.40715811445">
        <ele>65.5238037109375</ele>
        <time>2024-04-09T01:14:29Z</time>
      </trkpt>
      <trkpt lat="36.0317260953672" lon="119.407119087355">
        <ele>61.95220947265625</ele>
        <time>2024-04-09T01:14:35Z</time>
      </trkpt>
      <trkpt lat="36.031688082579606" lon="119.40707305010878">
        <ele>63.33197021484375</ele>
        <time>2024-04-09T01:14:38Z</time>
      </trkpt>
      <trkpt lat="36.0316710590408" lon="119.40701399895045">
        <ele>64.81927490234375</ele>
        <time>2024-04-09T01:14:41Z</time>
      </trkpt>
      <trkpt lat="36.03159106025756" lon="119.40697697475281">
        <ele>64.724853515625</ele>
        <time>2024-04-09T01:14:47Z</time>
      </trkpt>
      <trkpt lat="36.03140020018832" lon="119.40718318190444">
        <ele>62.58843994140625</ele>
        <time>2024-04-09T01:15:02Z</time>
      </trkpt>
      <trkpt lat="36.03134733495747" lon="119.40744042293633">
        <ele>67.42071533203125</ele>
        <time>2024-04-09T01:15:17Z</time>
      </trkpt>
      <trkpt lat="36.03135536314891" lon="119.40750247931513">
        <ele>66.154296875</ele>
        <time>2024-04-09T01:15:20Z</time>
      </trkpt>
      <trkpt lat="36.0313053765582" lon="119.40750648863015">
        <ele>65.165283203125</ele>
        <time>2024-04-09T01:15:23Z</time>
      </trkpt>
      <trkpt lat="36.031174456884635" lon="119.40760959899562">
        <ele>62.3131103515625</ele>
        <time>2024-04-09T01:15:35Z</time>
      </trkpt>
      <trkpt lat="36.03112947113078" lon="119.40761761150189">
        <ele>61.205322265625</ele>
        <time>2024-04-09T01:15:38Z</time>
      </trkpt>
      <trkpt lat="36.030855494365014" lon="119.4075365669397">
        <ele>60.10986328125</ele>
        <time>2024-04-09T01:15:53Z</time>
      </trkpt>
      <trkpt lat="36.03073050747139" lon="119.40750455131847">
        <ele>60.51324462890625</ele>
        <time>2024-04-09T01:15:59Z</time>
      </trkpt>
      <trkpt lat="36.03066152475805" lon="119.40750756184048">
        <ele>61.75823974609375</ele>
        <time>2024-04-09T01:16:02Z</time>
      </trkpt>
      <trkpt lat="36.03059355641809" lon="119.40754060005749">
        <ele>61.67919921875</ele>
        <time>2024-04-09T01:16:05Z</time>
      </trkpt>
      <trkpt lat="36.03055458832325" lon="119.40758764810202">
        <ele>61.4093017578125</ele>
        <time>2024-04-09T01:16:08Z</time>
      </trkpt>
      <trkpt lat="36.030440653784545" lon="119.40766773551417">
        <ele>61.21954345703125</ele>
        <time>2024-04-09T01:16:17Z</time>
      </trkpt>
      <trkpt lat="36.03034269157905" lon="119.40769877552567">
        <ele>63.71282958984375</ele>
        <time>2024-04-09T01:16:23Z</time>
      </trkpt>
      <trkpt lat="36.030277732270044" lon="119.40775083160979">
        <ele>60.10528564453125</ele>
        <time>2024-04-09T01:16:29Z</time>
      </trkpt>
      <trkpt lat="36.030175774091" lon="119.40778787786685">
        <ele>61.927001953125</ele>
        <time>2024-04-09T01:16:35Z</time>
      </trkpt>
      <trkpt lat="36.02989591262693" lon="119.40793604930921">
        <ele>60.9681396484375</ele>
        <time>2024-04-09T01:16:54Z</time>
      </trkpt>
      <trkpt lat="36.02963401434331" lon="119.40801815682876">
        <ele>61.87384033203125</ele>
        <time>2024-04-09T01:17:09Z</time>
      </trkpt>
      <trkpt lat="36.02958002063574" lon="119.40800615143388">
        <ele>59.99114990234375</ele>
        <time>2024-04-09T01:17:12Z</time>
      </trkpt>
      <trkpt lat="36.02938008743113" lon="119.408047213053">
        <ele>61.21063232421875</ele>
        <time>2024-04-09T01:17:21Z</time>
      </trkpt>
      <trkpt lat="36.02905514524188" lon="119.40801421799053">
        <ele>61.12713623046875</ele>
        <time>2024-04-09T01:17:36Z</time>
      </trkpt>
      <trkpt lat="36.02878116407806" lon="119.40792716589644">
        <ele>64.8643798828125</ele>
        <time>2024-04-09T01:17:54Z</time>
      </trkpt>
      <trkpt lat="36.02868516546811" lon="119.40788613777843">
        <ele>65.0</ele>
        <time>2024-04-09T01:18:00Z</time>
      </trkpt>
      <trkpt lat="36.02857714269764" lon="119.40779106015242">
        <ele>62.63262939453125</ele>
        <time>2024-04-09T01:18:06Z</time>
      </trkpt>
      <trkpt lat="36.028408134348446" lon="119.40769598988756">
        <ele>66.0498046875</ele>
        <time>2024-04-09T01:18:18Z</time>
      </trkpt>
      <trkpt lat="36.02835009111591" lon="119.40758088906885">
        <ele>62.14898681640625</ele>
        <time>2024-04-09T01:18:27Z</time>
      </trkpt>
      <trkpt lat="36.028086070700894" lon="119.40741376418251">
        <ele>64.9761962890625</ele>
        <time>2024-04-09T01:18:39Z</time>
      </trkpt>
      <trkpt lat="36.02787004099626" lon="119.40724763641173">
        <ele>62.927734375</ele>
        <time>2024-04-09T01:18:54Z</time>
      </trkpt>
      <trkpt lat="36.02778302225649" lon="119.40716557166546">
        <ele>65.8680419921875</ele>
        <time>2024-04-09T01:19:00Z</time>
      </trkpt>
      <trkpt lat="36.02765600415261" lon="119.40706449467116">
        <ele>65.822509765625</ele>
        <time>2024-04-09T01:19:09Z</time>
      </trkpt>
      <trkpt lat="36.02757197939655" lon="119.40696941880273">
        <ele>65.2847900390625</ele>
        <time>2024-04-09T01:19:15Z</time>
      </trkpt>
      <trkpt lat="36.0275129823509" lon="119.40694640485128">
        <ele>65.77423095703125</ele>
        <time>2024-04-09T01:19:18Z</time>
      </trkpt>
      <trkpt lat="36.027476962610564" lon="119.40688535447414">
        <ele>63.1612548828125</ele>
        <time>2024-04-09T01:19:21Z</time>
      </trkpt>
      <trkpt lat="36.027287909995664" lon="119.40667318821366">
        <ele>60.7900390625</ele>
        <time>2024-04-09T01:19:36Z</time>
      </trkpt>
      <trkpt lat="36.0272018493545" lon="119.40649203983499">
        <ele>57.6400146484375</ele>
        <time>2024-04-09T01:19:45Z</time>
      </trkpt>
      <trkpt lat="36.027147839378074" lon="119.40644100170502">
        <ele>59.01861572265625</ele>
        <time>2024-04-09T01:19:51Z</time>
      </trkpt>
      <trkpt lat="36.027018764385865" lon="119.4061988085156">
        <ele>57.88189697265625</ele>
        <time>2024-04-09T01:20:09Z</time>
      </trkpt>
      <trkpt lat="36.02692573991648" lon="119.40609072735288">
        <ele>59.55963134765625</ele>
        <time>2024-04-09T01:20:18Z</time>
      </trkpt>
      <trkpt lat="36.02686768587326" lon="119.40592959854378">
        <ele>58.84228515625</ele>
        <time>2024-04-09T01:20:27Z</time>
      </trkpt>
      <trkpt lat="36.026822663174194" lon="119.4058495369047">
        <ele>60.35662841796875</ele>
        <time>2024-04-09T01:20:33Z</time>
      </trkpt>
      <trkpt lat="36.0268356327299" lon="119.40578247987338">
        <ele>60.7601318359375</ele>
        <time>2024-04-09T01:20:39Z</time>
      </trkpt>
      <trkpt lat="36.02672451262656" lon="119.40541819488634">
        <ele>58.78204345703125</ele>
        <time>2024-04-09T01:21:00Z</time>
      </trkpt>
      <trkpt lat="36.026603489887705" lon="119.40528810406607">
        <ele>57.979248046875</ele>
        <time>2024-04-09T01:21:09Z</time>
      </trkpt>
      <trkpt lat="36.026577476621384" lon="119.40523806708616">
        <ele>57.82427978515625</ele>
        <time>2024-04-09T01:21:12Z</time>
      </trkpt>
      <trkpt lat="36.02649846461135" lon="119.40515901320437">
        <ele>58.82110595703125</ele>
        <time>2024-04-09T01:21:18Z</time>
      </trkpt>
      <trkpt lat="36.02647244785782" lon="119.4050989687026">
        <ele>59.24029541015625</ele>
        <time>2024-04-09T01:21:21Z</time>
      </trkpt>
      <trkpt lat="36.02646942522658" lon="119.40503692025382">
        <ele>61.3321533203125</ele>
        <time>2024-04-09T01:21:24Z</time>
      </trkpt>
      <trkpt lat="36.02642036903597" lon="119.40485478380857">
        <ele>62.599609375</ele>
        <time>2024-04-09T01:21:36Z</time>
      </trkpt>
      <trkpt lat="36.02645228640082" lon="119.40464662030143">
        <ele>60.4283447265625</ele>
        <time>2024-04-09T01:21:45Z</time>
      </trkpt>
      <trkpt lat="36.02641116503074" lon="119.40427134281308">
        <ele>59.99700927734375</ele>
        <time>2024-04-09T01:22:00Z</time>
      </trkpt>
      <trkpt lat="36.02641513803468" lon="119.404194285431">
        <ele>58.782958984375</ele>
        <time>2024-04-09T01:22:03Z</time>
      </trkpt>
      <trkpt lat="36.02639611759568" lon="119.40412023316654">
        <ele>57.39239501953125</ele>
        <time>2024-04-09T01:22:06Z</time>
      </trkpt>
      <trkpt lat="36.02640099862438" lon="119.40375797098453">
        <ele>57.74981689453125</ele>
        <time>2024-04-09T01:22:18Z</time>
      </trkpt>
      <trkpt lat="36.02641795352638" lon="119.40362687623579">
        <ele>56.38714599609375</ele>
        <time>2024-04-09T01:22:24Z</time>
      </trkpt>
      <trkpt lat="36.02641093714649" lon="119.403568836228">
        <ele>58.41278076171875</ele>
        <time>2024-04-09T01:22:27Z</time>
      </trkpt>
      <trkpt lat="36.02638292911941" lon="119.40352180645446">
        <ele>59.1402587890625</ele>
        <time>2024-04-09T01:22:30Z</time>
      </trkpt>
      <trkpt lat="36.026381905255114" lon="119.40344275152115">
        <ele>53.33740234375</ele>
        <time>2024-04-09T01:22:36Z</time>
      </trkpt>
      <trkpt lat="36.02640687838932" lon="119.40337270023618">
        <ele>54.00494384765625</ele>
        <time>2024-04-09T01:22:42Z</time>
      </trkpt>
      <trkpt lat="36.02646485576807" lon="119.40334167234492">
        <ele>55.8309326171875</ele>
        <time>2024-04-09T01:22:48Z</time>
      </trkpt>
      <trkpt lat="36.026522845118315" lon="119.40335067203537">
        <ele>54.60797119140625</ele>
        <time>2024-04-09T01:22:54Z</time>
      </trkpt>
      <trkpt lat="36.02657785049535" lon="119.40341070732218">
        <ele>57.31982421875</ele>
        <time>2024-04-09T01:23:00Z</time>
      </trkpt>
      <trkpt lat="36.02657787722603" lon="119.4034987685015">
        <ele>58.2532958984375</ele>
        <time>2024-04-09T01:23:06Z</time>
      </trkpt>
      <trkpt lat="36.02653091232815" lon="119.40357782907455">
        <ele>57.21319580078125</ele>
        <time>2024-04-09T01:23:12Z</time>
      </trkpt>
      <trkpt lat="36.02651297191228" lon="119.40375495627475">
        <ele>58.47222900390625</ele>
        <time>2024-04-09T01:23:21Z</time>
      </trkpt>
      <trkpt lat="36.026522009844804" lon="119.40388004474025">
        <ele>59.5377197265625</ele>
        <time>2024-04-09T01:23:27Z</time>
      </trkpt>
      <trkpt lat="36.02656700563705" lon="119.40389905336679">
        <ele>59.41607666015625</ele>
        <time>2024-04-09T01:23:33Z</time>
      </trkpt>
      <trkpt lat="36.02653505512449" lon="119.40402815036813">
        <ele>59.15802001953125</ele>
        <time>2024-04-09T01:23:45Z</time>
      </trkpt>
      <trkpt lat="36.026580140839044" lon="119.40431435578292">
        <ele>59.14202880859375</ele>
        <time>2024-04-09T01:24:03Z</time>
      </trkpt>
      <trkpt lat="36.0266131635468" lon="119.40440241777299">
        <ele>58.85205078125</ele>
        <time>2024-04-09T01:24:09Z</time>
      </trkpt>
      <trkpt lat="36.02667016154159" lon="119.40443443537269">
        <ele>61.467041015625</ele>
        <time>2024-04-09T01:24:15Z</time>
      </trkpt>
      <trkpt lat="36.02672614970673" lon="119.40443743133936">
        <ele>64.811279296875</ele>
        <time>2024-04-09T01:24:21Z</time>
      </trkpt>
      <trkpt lat="36.026882243422534" lon="119.40480169096824">
        <ele>61.220703125</ele>
        <time>2024-04-09T01:24:45Z</time>
      </trkpt>
      <trkpt lat="36.02706832518243" lon="119.40513693181262">
        <ele>63.03399658203125</ele>
        <time>2024-04-09T01:25:12Z</time>
      </trkpt>
      <trkpt lat="36.0271003353184" lon="119.40518296465757">
        <ele>61.69110107421875</ele>
        <time>2024-04-09T01:25:15Z</time>
      </trkpt>
      <trkpt lat="36.02715739898698" lon="119.40538211727656">
        <ele>62.42950439453125</ele>
        <time>2024-04-09T01:25:27Z</time>
      </trkpt>
      <trkpt lat="36.027287449652285" lon="119.40558626803808">
        <ele>60.99078369140625</ele>
        <time>2024-04-09T01:25:42Z</time>
      </trkpt>
      <trkpt lat="36.02745746045189" lon="119.40571035062388">
        <ele>61.71746826171875</ele>
        <time>2024-04-09T01:25:57Z</time>
      </trkpt>
      <trkpt lat="36.027519449848086" lon="119.4057193510779">
        <ele>60.80841064453125</ele>
        <time>2024-04-09T01:26:03Z</time>
      </trkpt>
      <trkpt lat="36.02759341423746" lon="119.40567330493059">
        <ele>60.5999755859375</ele>
        <time>2024-04-09T01:26:09Z</time>
      </trkpt>
      <trkpt lat="36.027675389748616" lon="119.40565928423347">
        <ele>61.61419677734375</ele>
        <time>2024-04-09T01:26:15Z</time>
      </trkpt>
      <trkpt lat="36.02772332555179" lon="119.40552617021919">
        <ele>60.3482666015625</ele>
        <time>2024-04-09T01:26:24Z</time>
      </trkpt>
      <trkpt lat="36.027720257888184" lon="119.40535202996432">
        <ele>60.06890869140625</ele>
        <time>2024-04-09T01:26:36Z</time>
      </trkpt>
      <trkpt lat="36.02777522160794" lon="119.40529097491088">
        <ele>58.8094482421875</ele>
        <time>2024-04-09T01:26:42Z</time>
      </trkpt>
      <trkpt lat="36.02781314749663" lon="119.4051198347512">
        <ele>59.69989013671875</ele>
        <time>2024-04-09T01:26:54Z</time>
      </trkpt>
      <trkpt lat="36.0278511108793" lon="119.40504577219366">
        <ele>59.10162353515625</ele>
        <time>2024-04-09T01:27:00Z</time>
      </trkpt>
      <trkpt lat="36.02790803171497" lon="119.4048676268559">
        <ele>59.58306884765625</ele>
        <time>2024-04-09T01:27:12Z</time>
      </trkpt>
      <trkpt lat="36.028054902219004" lon="119.40460240684638">
        <ele>60.57861328125</ele>
        <time>2024-04-09T01:27:30Z</time>
      </trkpt>
      <trkpt lat="36.028283752925894" lon="119.40432517268539">
        <ele>57.75372314453125</ele>
        <time>2024-04-09T01:27:54Z</time>
      </trkpt>
      <trkpt lat="36.02842969074888" lon="119.40424109394394">
        <ele>57.07501220703125</ele>
        <time>2024-04-09T01:28:06Z</time>
      </trkpt>
      <trkpt lat="36.028541601086" lon="119.40404994108827">
        <ele>55.52557373046875</ele>
        <time>2024-04-09T01:28:18Z</time>
      </trkpt>
      <trkpt lat="36.028692537496816" lon="119.40396186020132">
        <ele>55.524658203125</ele>
        <time>2024-04-09T01:28:30Z</time>
      </trkpt>
      <trkpt lat="36.02874150802894" lon="119.40390581424347">
        <ele>57.27008056640625</ele>
        <time>2024-04-09T01:28:36Z</time>
      </trkpt>
      <trkpt lat="36.02875246694698" lon="119.40378572691534">
        <ele>58.69110107421875</ele>
        <time>2024-04-09T01:28:42Z</time>
      </trkpt>
      <trkpt lat="36.0287854311899" lon="119.40369665988642">
        <ele>57.21087646484375</ele>
        <time>2024-04-09T01:28:48Z</time>
      </trkpt>
      <trkpt lat="36.02878232660609" lon="119.40335342038392">
        <ele>59.95257568359375</ele>
        <time>2024-04-09T01:29:09Z</time>
      </trkpt>
      <trkpt lat="36.02877325988137" lon="119.40311926160457">
        <ele>59.43011474609375</ele>
        <time>2024-04-09T01:29:24Z</time>
      </trkpt>
      <trkpt lat="36.028741241995384" lon="119.40303120590937">
        <ele>58.32244873046875</ele>
        <time>2024-04-09T01:29:30Z</time>
      </trkpt>
      <trkpt lat="36.02846126771244" lon="119.40289414591962">
        <ele>58.800537109375</ele>
        <time>2024-04-09T01:30:00Z</time>
      </trkpt>
      <trkpt lat="36.028394268950116" lon="119.40284311967932">
        <ele>58.32086181640625</ele>
        <time>2024-04-09T01:30:06Z</time>
      </trkpt>
      <trkpt lat="36.028353262414484" lon="119.40278508606512">
        <ele>60.0550537109375</ele>
        <time>2024-04-09T01:30:12Z</time>
      </trkpt>
      <trkpt lat="36.028345240873264" lon="119.40269903064726">
        <ele>58.78436279296875</ele>
        <time>2024-04-09T01:30:18Z</time>
      </trkpt>
      <trkpt lat="36.028314230010466" lon="119.40263199054417">
        <ele>55.89788818359375</ele>
        <time>2024-04-09T01:30:24Z</time>
      </trkpt>
      <trkpt lat="36.028135195608726" lon="119.40234182492979">
        <ele>58.6282958984375</ele>
        <time>2024-04-09T01:30:45Z</time>
      </trkpt>
      <trkpt lat="36.02804317520831" lon="119.40217573109953">
        <ele>57.59637451171875</ele>
        <time>2024-04-09T01:30:57Z</time>
      </trkpt>
      <trkpt lat="36.02797912686023" lon="119.40191357706337">
        <ele>57.57244873046875</ele>
        <time>2024-04-09T01:31:15Z</time>
      </trkpt>
      <trkpt lat="36.02793811625317" lon="119.40182752959352">
        <ele>57.3414306640625</ele>
        <time>2024-04-09T01:31:21Z</time>
      </trkpt>
      <trkpt lat="36.027888069421515" lon="119.40156838090965">
        <ele>56.81903076171875</ele>
        <time>2024-04-09T01:31:39Z</time>
      </trkpt>
      <trkpt lat="36.02789904195883" lon="119.40145331238004">
        <ele>60.02899169921875</ele>
        <time>2024-04-09T01:31:45Z</time>
      </trkpt>
      <trkpt lat="36.02792200711493" lon="119.40131322888271">
        <ele>57.620849609375</ele>
        <time>2024-04-09T01:32:18Z</time>
      </trkpt>
      <trkpt lat="36.02770902375391" lon="119.40115516281051">
        <ele>62.83465576171875</ele>
        <time>2024-04-09T01:32:36Z</time>
      </trkpt>
      <trkpt lat="36.02744404229312" lon="119.40093907182485">
        <ele>61.51715087890625</ele>
        <time>2024-04-09T01:33:00Z</time>
      </trkpt>
      <trkpt lat="36.02723307207253" lon="119.40084004105724">
        <ele>64.33197021484375</ele>
        <time>2024-04-09T01:33:18Z</time>
      </trkpt>
      <trkpt lat="36.026941126230234" lon="119.4007700356706">
        <ele>62.45635986328125</ele>
        <time>2024-04-09T01:33:42Z</time>
      </trkpt>
      <trkpt lat="36.02680114584564" lon="119.40070101403333">
        <ele>61.13916015625</ele>
        <time>2024-04-09T01:33:54Z</time>
      </trkpt>
      <trkpt lat="36.02672216040647" lon="119.40068101212564">
        <ele>60.71795654296875</ele>
        <time>2024-04-09T01:34:00Z</time>
      </trkpt>
      <trkpt lat="36.026416230062146" lon="119.40067704432992">
        <ele>58.03289794921875</ele>
        <time>2024-04-09T01:34:24Z</time>
      </trkpt>
      <trkpt lat="36.02610030743731" lon="119.4007030938188">
        <ele>61.7376708984375</ele>
        <time>2024-04-09T01:34:48Z</time>
      </trkpt>
      <trkpt lat="36.0257813866405" lon="119.40073514692925">
        <ele>62.0157470703125</ele>
        <time>2024-04-09T01:35:12Z</time>
      </trkpt>
      <trkpt lat="36.02546145682592" lon="119.40071617258107">
        <ele>60.0166015625</ele>
        <time>2024-04-09T01:35:36Z</time>
      </trkpt>
      <trkpt lat="36.025147519728066" lon="119.40066417981585">
        <ele>58.23968505859375</ele>
        <time>2024-04-09T01:36:00Z</time>
      </trkpt>
      <trkpt lat="36.02496055176048" lon="119.40060216760311">
        <ele>59.161865234375</ele>
        <time>2024-04-09T01:36:15Z</time>
      </trkpt>
      <trkpt lat="36.02490155588802" lon="119.40054814548112">
        <ele>58.19073486328125</ele>
        <time>2024-04-09T01:36:21Z</time>
      </trkpt>
      <trkpt lat="36.02473558667215" lon="119.40050514134538">
        <ele>56.30078125</ele>
        <time>2024-04-09T01:36:33Z</time>
      </trkpt>
      <trkpt lat="36.02450061466313" lon="119.40035008650646">
        <ele>57.0806884765625</ele>
        <time>2024-04-09T01:37:03Z</time>
      </trkpt>
      <trkpt lat="36.02444862895447" lon="119.4003640996251">
        <ele>56.9881591796875</ele>
        <time>2024-04-09T01:37:09Z</time>
      </trkpt>
      <trkpt lat="36.02422063957692" lon="119.40010199080224">
        <ele>57.25244140625</ele>
        <time>2024-04-09T01:37:33Z</time>
      </trkpt>
      <trkpt lat="36.02416764035556" lon="119.40002695898522">
        <ele>59.12664794921875</ele>
        <time>2024-04-09T01:37:39Z</time>
      </trkpt>
      <trkpt lat="36.02403365345644" lon="119.39990691426041">
        <ele>58.0614013671875</ele>
        <time>2024-04-09T01:37:51Z</time>
      </trkpt>
      <trkpt lat="36.02384066646734" lon="119.3996828265279">
        <ele>61.23626708984375</ele>
        <time>2024-04-09T01:38:09Z</time>
      </trkpt>
      <trkpt lat="36.02380666242265" lon="119.39959378766129">
        <ele>59.92462158203125</ele>
        <time>2024-04-09T01:38:15Z</time>
      </trkpt>
      <trkpt lat="36.023810649974365" lon="119.39950474497371">
        <ele>61.16082763671875</ele>
        <time>2024-04-09T01:38:21Z</time>
      </trkpt>
      <trkpt lat="36.02376663883227" lon="119.39933266954573">
        <ele>61.5391845703125</ele>
        <time>2024-04-09T01:38:33Z</time>
      </trkpt>
      <trkpt lat="36.023713620394346" lon="119.39906355313605">
        <ele>61.655517578125</ele>
        <time>2024-04-09T01:38:51Z</time>
      </trkpt>
      <trkpt lat="36.02363162097158" lon="119.39888748448334">
        <ele>59.9522705078125</ele>
        <time>2024-04-09T01:39:03Z</time>
      </trkpt>
      <trkpt lat="36.02360561764573" lon="119.39879244609834">
        <ele>59.85430908203125</ele>
        <time>2024-04-09T01:39:09Z</time>
      </trkpt>
      <trkpt lat="36.023438630659946" lon="119.39850834438765">
        <ele>64.49395751953125</ele>
        <time>2024-04-09T01:39:30Z</time>
      </trkpt>
      <trkpt lat="36.023429626203466" lon="119.39842831228141">
        <ele>66.2469482421875</ele>
        <time>2024-04-09T01:39:36Z</time>
      </trkpt>
      <trkpt lat="36.02348960750937" lon="119.39836628012598">
        <ele>67.41015625</ele>
        <time>2024-04-09T01:39:42Z</time>
      </trkpt>
      <trkpt lat="36.02363856922292" lon="119.39831424224376">
        <ele>66.9249267578125</ele>
        <time>2024-04-09T01:39:54Z</time>
      </trkpt>
      <trkpt lat="36.023684552778874" lon="119.39823420483121">
        <ele>61.6907958984375</ele>
        <time>2024-04-09T01:40:00Z</time>
      </trkpt>
      <trkpt lat="36.02368854454893" lon="119.39812816220537">
        <ele>63.2030029296875</ele>
        <time>2024-04-09T01:40:06Z</time>
      </trkpt>
      <trkpt lat="36.02356755727129" lon="119.39788007956838">
        <ele>61.36248779296875</ele>
        <time>2024-04-09T01:40:24Z</time>
      </trkpt>
      <trkpt lat="36.02351555990373" lon="119.39769901734996">
        <ele>62.732177734375</ele>
        <time>2024-04-09T01:40:36Z</time>
      </trkpt>
      <trkpt lat="36.023473568311736" lon="119.39767201207036">
        <ele>63.291015625</ele>
        <time>2024-04-09T01:40:42Z</time>
      </trkpt>
      <trkpt lat="36.023541550063456" lon="119.39761498346803">
        <ele>63.63739013671875</ele>
        <time>2024-04-09T01:41:00Z</time>
      </trkpt>
      <trkpt lat="36.02361152916816" lon="119.3974999338579">
        <ele>64.78778076171875</ele>
        <time>2024-04-09T01:41:12Z</time>
      </trkpt>
      <trkpt lat="36.02379148430066" lon="119.39740788077849">
        <ele>60.85736083984375</ele>
        <time>2024-04-09T01:41:30Z</time>
      </trkpt>
      <trkpt lat="36.02384646981132" lon="119.39735385553023">
        <ele>62.43560791015625</ele>
        <time>2024-04-09T01:41:36Z</time>
      </trkpt>
      <trkpt lat="36.02396944005745" lon="119.39730882594988">
        <ele>62.90966796875</ele>
        <time>2024-04-09T01:41:45Z</time>
      </trkpt>
      <trkpt lat="36.024231375867984" lon="119.39716874819234">
        <ele>61.934814453125</ele>
        <time>2024-04-09T01:42:09Z</time>
      </trkpt>
      <trkpt lat="36.024505310065706" lon="119.39704367518921">
        <ele>63.54901123046875</ele>
        <time>2024-04-09T01:42:33Z</time>
      </trkpt>
      <trkpt lat="36.02478924315318" lon="119.39695361342817">
        <ele>61.5213623046875</ele>
        <time>2024-04-09T01:42:54Z</time>
      </trkpt>
      <trkpt lat="36.02506417895554" lon="119.39688756092978">
        <ele>60.802734375</ele>
        <time>2024-04-09T01:43:15Z</time>
      </trkpt>
      <trkpt lat="36.02529812447176" lon="119.39682951585553">
        <ele>63.417236328125</ele>
        <time>2024-04-09T01:43:33Z</time>
      </trkpt>
      <trkpt lat="36.02560605339861" lon="119.39680847451002">
        <ele>63.10040283203125</ele>
        <time>2024-04-09T01:43:54Z</time>
      </trkpt>
      <trkpt lat="36.025886988303945" lon="119.39674742345827">
        <ele>62.879150390625</ele>
        <time>2024-04-09T01:44:18Z</time>
      </trkpt>
      <trkpt lat="36.02596097119622" lon="119.39673241038578">
        <ele>63.720947265625</ele>
        <time>2024-04-09T01:44:24Z</time>
      </trkpt>
      <trkpt lat="36.026161925260226" lon="119.39678140342006">
        <ele>65.241943359375</ele>
        <time>2024-04-09T01:44:42Z</time>
      </trkpt>
      <trkpt lat="36.026232909291544" lon="119.39682540957385">
        <ele>66.387451171875</ele>
        <time>2024-04-09T01:44:48Z</time>
      </trkpt>
      <trkpt lat="36.02638087534343" lon="119.39683539618002">
        <ele>67.502685546875</ele>
        <time>2024-04-09T01:44:57Z</time>
      </trkpt>
      <trkpt lat="36.02643586295962" lon="119.39686139841653">
        <ele>64.4423828125</ele>
        <time>2024-04-09T01:45:03Z</time>
      </trkpt>
      <trkpt lat="36.02672479688932" lon="119.39689537702137">
        <ele>68.67608642578125</ele>
        <time>2024-04-09T01:45:27Z</time>
      </trkpt>
      <trkpt lat="36.027034726487905" lon="119.39695936319934">
        <ele>69.5516357421875</ele>
        <time>2024-04-09T01:45:51Z</time>
      </trkpt>
      <trkpt lat="36.027341657188664" lon="119.39703535394574">
        <ele>61.50836181640625</ele>
        <time>2024-04-09T01:46:15Z</time>
      </trkpt>
      <trkpt lat="36.02763259192189" lon="119.39711534816371">
        <ele>68.89556884765625</ele>
        <time>2024-04-09T01:46:39Z</time>
      </trkpt>
      <trkpt lat="36.027933524248645" lon="119.39717933613584">
        <ele>69.2080078125</ele>
        <time>2024-04-09T01:47:03Z</time>
      </trkpt>
      <trkpt lat="36.02806149451926" lon="119.39716631732001">
        <ele>72.50299072265625</ele>
        <time>2024-04-09T01:47:15Z</time>
      </trkpt>
      <trkpt lat="36.028134478699464" lon="119.39720432213103">
        <ele>68.492431640625</ele>
        <time>2024-04-09T01:47:21Z</time>
      </trkpt>
      <trkpt lat="36.02841941508905" lon="119.39727231360531">
        <ele>65.8033447265625</ele>
        <time>2024-04-09T01:47:45Z</time>
      </trkpt>
      <trkpt lat="36.02860237308321" lon="119.3972732934012">
        <ele>64.2265625</ele>
        <time>2024-04-09T01:47:57Z</time>
      </trkpt>
      <trkpt lat="36.02867635488329" lon="119.39723027021061">
        <ele>62.2296142578125</ele>
        <time>2024-04-09T01:48:03Z</time>
      </trkpt>
      <trkpt lat="36.02881032656594" lon="119.39731528467581">
        <ele>63.09234619140625</ele>
        <time>2024-04-09T01:48:12Z</time>
      </trkpt>
      <trkpt lat="36.02910126255245" lon="119.39740128226653">
        <ele>64.56793212890625</ele>
        <time>2024-04-09T01:48:36Z</time>
      </trkpt>
      <trkpt lat="36.029395197130896" lon="119.39745926989728">
        <ele>63.49163818359375</ele>
        <time>2024-04-09T01:49:00Z</time>
      </trkpt>
      <trkpt lat="36.029687132249265" lon="119.39751525721847">
        <ele>65.7327880859375</ele>
        <time>2024-04-09T01:49:24Z</time>
      </trkpt>
      <trkpt lat="36.02982310290188" lon="119.39756125859842">
        <ele>63.12493896484375</ele>
        <time>2024-04-09T01:49:36Z</time>
      </trkpt>
      <trkpt lat="36.02993508167185" lon="119.39766328336924">
        <ele>65.43817138671875</ele>
        <time>2024-04-09T01:49:48Z</time>
      </trkpt>
      <trkpt lat="36.030054057502184" lon="119.39772929448141">
        <ele>69.9801025390625</ele>
        <time>2024-04-09T01:50:00Z</time>
      </trkpt>
      <trkpt lat="36.030093044999134" lon="119.39765426230568">
        <ele>65.6680908203125</ele>
        <time>2024-04-09T01:50:06Z</time>
      </trkpt>
      <trkpt lat="36.03010103947811" lon="119.39757023064892">
        <ele>63.43463134765625</ele>
        <time>2024-04-09T01:50:18Z</time>
      </trkpt>
      <trkpt lat="36.030130029258096" lon="119.39748119523261">
        <ele>63.3321533203125</ele>
        <time>2024-04-09T01:50:24Z</time>
      </trkpt>
      <trkpt lat="36.03019900966735" lon="119.39737615011082">
        <ele>61.7459716796875</ele>
        <time>2024-04-09T01:50:42Z</time>
      </trkpt>
      <trkpt lat="36.03019600682613" lon="119.39726211056828">
        <ele>61.13177490234375</ele>
        <time>2024-04-09T01:50:49Z</time>
      </trkpt>
      <trkpt lat="36.030270986312615" lon="119.39713305789215">
        <ele>61.09820556640625</ele>
        <time>2024-04-09T01:50:55Z</time>
      </trkpt>
      <trkpt lat="36.03040795175085" lon="119.39696998791527">
        <ele>62.84039306640625</ele>
        <time>2024-04-09T01:51:10Z</time>
      </trkpt>
      <trkpt lat="36.03051592661072" lon="119.39694596787271">
        <ele>67.66192626953125</ele>
        <time>2024-04-09T01:51:22Z</time>
      </trkpt>
      <trkpt lat="36.030700884170024" lon="119.39694594709479">
        <ele>66.62310791015625</ele>
        <time>2024-04-09T01:51:40Z</time>
      </trkpt>
      <trkpt lat="36.030956824703054" lon="119.39688990000376">
        <ele>67.47735595703125</ele>
        <time>2024-04-09T01:51:58Z</time>
      </trkpt>
      <trkpt lat="36.031090793333064" lon="119.39683086582136">
        <ele>66.47576904296875</ele>
        <time>2024-04-09T01:52:10Z</time>
      </trkpt>
      <trkpt lat="36.03116977518695" lon="119.39682785598075">
        <ele>67.54815673828125</ele>
        <time>2024-04-09T01:52:16Z</time>
      </trkpt>
      <trkpt lat="36.0314707074447" lon="119.39693685765295">
        <ele>67.4490966796875</ele>
        <time>2024-04-09T01:52:40Z</time>
      </trkpt>
      <trkpt lat="36.03153269340165" lon="119.3969488546357">
        <ele>67.17578125</ele>
        <time>2024-04-09T01:52:46Z</time>
      </trkpt>
      <trkpt lat="36.031709650421185" lon="119.39666374319323">
        <ele>64.69085693359375</ele>
        <time>2024-04-09T01:53:16Z</time>
      </trkpt>
      <trkpt lat="36.03186161572779" lon="119.39651768096554">
        <ele>70.8974609375</ele>
        <time>2024-04-09T01:53:31Z</time>
      </trkpt>
      <trkpt lat="36.031880611932735" lon="119.39642765158652">
        <ele>67.4486083984375</ele>
        <time>2024-04-09T01:53:37Z</time>
      </trkpt>
      <trkpt lat="36.03184262080776" lon="119.39640865016054">
        <ele>67.7178955078125</ele>
        <time>2024-04-09T01:55:49Z</time>
      </trkpt>
      <trkpt lat="36.03177563548796" lon="119.3965076875756">
        <ele>70.07000732421875</ele>
        <time>2024-04-09T02:05:46Z</time>
      </trkpt>
      <trkpt lat="36.03182762536047" lon="119.39691981197838">
        <ele>70.1610107421875</ele>
        <time>2024-04-09T02:06:16Z</time>
      </trkpt>
      <trkpt lat="36.03188362076209" lon="119.39729893384619">
        <ele>65.9857177734375</ele>
        <time>2024-04-09T02:06:43Z</time>
      </trkpt>
      <trkpt lat="36.031923616968925" lon="119.39745898586105">
        <ele>61.371337890625</ele>
        <time>2024-04-09T02:06:55Z</time>
      </trkpt>
      <trkpt lat="36.03201960405689" lon="119.39767605399986">
        <ele>62.3172607421875</ele>
        <time>2024-04-09T02:07:13Z</time>
      </trkpt>
      <trkpt lat="36.03203860332754" lon="119.39775107975423">
        <ele>64.6552734375</ele>
        <time>2024-04-09T02:07:19Z</time>
      </trkpt>
      <trkpt lat="36.03202461665794" lon="119.39793815223051">
        <ele>64.703125</ele>
        <time>2024-04-09T02:07:31Z</time>
      </trkpt>
      <trkpt lat="36.03204362258065" lon="119.39810421467587">
        <ele>65.04931640625</ele>
        <time>2024-04-09T02:07:43Z</time>
      </trkpt>
      <trkpt lat="36.032024632323704" lon="119.39818424848283">
        <ele>65.977294921875</ele>
        <time>2024-04-09T02:07:49Z</time>
      </trkpt>
      <trkpt lat="36.03197964693713" lon="119.39824527792828">
        <ele>67.13604736328125</ele>
        <time>2024-04-09T02:07:55Z</time>
      </trkpt>
      <trkpt lat="36.031932667808256" lon="119.39838033792827">
        <ele>65.3292236328125</ele>
        <time>2024-04-09T02:08:07Z</time>
      </trkpt>
      <trkpt lat="36.03205366740916" lon="119.39870245897954">
        <ele>66.134033203125</ele>
        <time>2024-04-09T02:08:31Z</time>
      </trkpt>
      <trkpt lat="36.0320756977174" lon="119.39905661123848">
        <ele>68.88848876953125</ele>
        <time>2024-04-09T02:08:55Z</time>
      </trkpt>
      <trkpt lat="36.03203471332656" lon="119.39911364141462">
        <ele>66.85498046875</ele>
        <time>2024-04-09T02:09:01Z</time>
      </trkpt>
      <trkpt lat="36.031993762515796" lon="119.39945180140167">
        <ele>64.03271484375</ele>
        <time>2024-04-09T02:09:25Z</time>
      </trkpt>
      <trkpt lat="36.03196781600932" lon="119.39980897541076">
        <ele>61.25531005859375</ele>
        <time>2024-04-09T02:09:49Z</time>
      </trkpt>
      <trkpt lat="36.03194786183727" lon="119.40008911686161">
        <ele>63.38922119140625</ele>
        <time>2024-04-09T02:10:07Z</time>
      </trkpt>
      <trkpt lat="36.031947928520324" lon="119.40049932866353">
        <ele>63.21600341796875</ele>
        <time>2024-04-09T02:10:34Z</time>
      </trkpt>
      <trkpt lat="36.031953958604376" lon="119.40067842343079">
        <ele>62.5650634765625</ele>
        <time>2024-04-09T02:10:46Z</time>
      </trkpt>
      <trkpt lat="36.03193697482656" lon="119.40074646207056">
        <ele>61.59405517578125</ele>
        <time>2024-04-09T02:10:49Z</time>
      </trkpt>
      <trkpt lat="36.03192105777871" lon="119.4011596925576">
        <ele>59.841552734375</ele>
        <time>2024-04-09T02:11:16Z</time>
      </trkpt>
      <trkpt lat="36.0318801398902" lon="119.4015078973383">
        <ele>66.19989013671875</ele>
        <time>2024-04-09T02:11:37Z</time>
      </trkpt>
      <trkpt lat="36.03185622839904" lon="119.40187711976823">
        <ele>60.96148681640625</ele>
        <time>2024-04-09T02:12:01Z</time>
      </trkpt>
      <trkpt lat="36.03185324363071" lon="119.40193915778117">
        <ele>62.17791748046875</ele>
        <time>2024-04-09T02:12:04Z</time>
      </trkpt>
      <trkpt lat="36.03190427635762" lon="119.40212426576785">
        <ele>63.5286865234375</ele>
        <time>2024-04-09T02:12:16Z</time>
      </trkpt>
      <trkpt lat="36.0318793658992" lon="119.40245747814356">
        <ele>67.1025390625</ele>
        <time>2024-04-09T02:12:37Z</time>
      </trkpt>
      <trkpt lat="36.031852471307694" lon="119.40282872205816">
        <ele>67.38323974609375</ele>
        <time>2024-04-09T02:13:01Z</time>
      </trkpt>
      <trkpt lat="36.03182758183782" lon="119.40319797219162">
        <ele>63.51947021484375</ele>
        <time>2024-04-09T02:13:25Z</time>
      </trkpt>
      <trkpt lat="36.03184568953977" lon="119.40357022732907">
        <ele>68.4498291015625</ele>
        <time>2024-04-09T02:13:49Z</time>
      </trkpt>
      <trkpt lat="36.0318427462492" lon="119.4037493542064">
        <ele>69.9752197265625</ele>
        <time>2024-04-09T02:14:01Z</time>
      </trkpt>
      <trkpt lat="36.031822781471675" lon="119.40384542506713">
        <ele>70.06292724609375</ele>
        <time>2024-04-09T02:14:07Z</time>
      </trkpt>
      <trkpt lat="36.03180789708133" lon="119.40418667471185">
        <ele>67.9578857421875</ele>
        <time>2024-04-09T02:14:31Z</time>
      </trkpt>
      <trkpt lat="36.03180195770532" lon="119.40436080445777">
        <ele>71.23974609375</ele>
        <time>2024-04-09T02:14:43Z</time>
      </trkpt>
      <trkpt lat="36.03176902165572" lon="119.40452292988122">
        <ele>69.66094970703125</ele>
        <time>2024-04-09T02:14:55Z</time>
      </trkpt>
      <trkpt lat="36.03176815214222" lon="119.4048852073767">
        <ele>63.45220947265625</ele>
        <time>2024-04-09T02:15:19Z</time>
      </trkpt>
      <trkpt lat="36.03174627800046" lon="119.40520746284686">
        <ele>61.86749267578125</ele>
        <time>2024-04-09T02:15:40Z</time>
      </trkpt>
      <trkpt lat="36.03173941064399" lon="119.40554373392685">
        <ele>64.88006591796875</ele>
        <time>2024-04-09T02:16:01Z</time>
      </trkpt>
      <trkpt lat="36.031704531747316" lon="119.40582396801325">
        <ele>63.18707275390625</ele>
        <time>2024-04-09T02:16:19Z</time>
      </trkpt>
      <trkpt lat="36.03168570933573" lon="119.40623731778204">
        <ele>62.71575927734375</ele>
        <time>2024-04-09T02:16:46Z</time>
      </trkpt>
      <trkpt lat="36.0316668634004" lon="119.40658061601975">
        <ele>64.4124755859375</ele>
        <time>2024-04-09T02:17:07Z</time>
      </trkpt>
      <trkpt lat="36.03165004765388" lon="119.40697896992138">
        <ele>64.0760498046875</ele>
        <time>2024-04-09T02:17:31Z</time>
      </trkpt>
      <trkpt lat="36.03162124323587" lon="119.40738033696044">
        <ele>65.0430908203125</ele>
        <time>2024-04-09T02:17:55Z</time>
      </trkpt>
      <trkpt lat="36.03157542709014" lon="119.40773567183241">
        <ele>64.428466796875</ele>
        <time>2024-04-09T02:18:19Z</time>
      </trkpt>
      <trkpt lat="36.03156852681403" lon="119.40793185773562">
        <ele>64.2752685546875</ele>
        <time>2024-04-09T02:18:31Z</time>
      </trkpt>
      <trkpt lat="36.03158057020634" lon="119.40802294308136">
        <ele>67.2490234375</ele>
        <time>2024-04-09T02:18:37Z</time>
      </trkpt>
      <trkpt lat="36.03163565048573" lon="119.40820411074573">
        <ele>67.40130615234375</ele>
        <time>2024-04-09T02:18:49Z</time>
      </trkpt>
      <trkpt lat="36.031654748909425" lon="119.40840129994272">
        <ele>64.7655029296875</ele>
        <time>2024-04-09T02:19:01Z</time>
      </trkpt>
      <trkpt lat="36.031646802524556" lon="119.40849939684479">
        <ele>63.3934326171875</ele>
        <time>2024-04-09T02:19:07Z</time>
      </trkpt>
      <trkpt lat="36.03157695696633" lon="119.40875766006805">
        <ele>63.283447265625</ele>
        <time>2024-04-09T02:19:25Z</time>
      </trkpt>
      <trkpt lat="36.03158613239108" lon="119.40908098411741">
        <ele>62.76361083984375</ele>
        <time>2024-04-09T02:19:43Z</time>
      </trkpt>
      <trkpt lat="36.03160015875375" lon="119.40913403645291">
        <ele>62.46820068359375</ele>
        <time>2024-04-09T02:19:46Z</time>
      </trkpt>
      <trkpt lat="36.031594400114436" lon="119.40955647206674">
        <ele>65.161865234375</ele>
        <time>2024-04-09T02:20:10Z</time>
      </trkpt>
      <trkpt lat="36.0315536539472" lon="119.40997291537356">
        <ele>64.8980712890625</ele>
        <time>2024-04-09T02:20:34Z</time>
      </trkpt>
      <trkpt lat="36.03151578477111" lon="119.41017613730374">
        <ele>64.42254638671875</ele>
        <time>2024-04-09T02:20:46Z</time>
      </trkpt>
      <trkpt lat="36.03153687873641" lon="119.41033831033849">
        <ele>65.120361328125</ele>
        <time>2024-04-09T02:20:55Z</time>
      </trkpt>
      <trkpt lat="36.03147004948515" lon="119.41058959256266">
        <ele>66.993896484375</ele>
        <time>2024-04-09T02:21:13Z</time>
      </trkpt>
      <trkpt lat="36.03141309384841" lon="119.41063965411026">
        <ele>68.42926025390625</ele>
        <time>2024-04-09T02:21:22Z</time>
      </trkpt>
      <trkpt lat="36.03134511634167" lon="119.4106506738929">
        <ele>64.9620361328125</ele>
        <time>2024-04-09T02:21:28Z</time>
      </trkpt>
      <trkpt lat="36.0312931565486" lon="119.41069572951436">
        <ele>58.43487548828125</ele>
        <time>2024-04-09T02:21:34Z</time>
      </trkpt>
      <trkpt lat="36.031281313599635" lon="119.41093900170533">
        <ele>54.255859375</ele>
        <time>2024-04-09T02:21:46Z</time>
      </trkpt>
      <trkpt lat="36.03137051158011" lon="119.41127637291085">
        <ele>50.31097412109375</ele>
        <time>2024-04-09T02:22:01Z</time>
      </trkpt>
      <trkpt lat="36.03143266067857" lon="119.41152364945849">
        <ele>55.25262451171875</ele>
        <time>2024-04-09T02:22:13Z</time>
      </trkpt>
      <trkpt lat="36.03144487223464" lon="119.41184201823248">
        <ele>61.2008056640625</ele>
        <time>2024-04-09T02:22:28Z</time>
      </trkpt>
      <trkpt lat="36.03141394493505" lon="119.41193813457792">
        <ele>60.48858642578125</ele>
        <time>2024-04-09T02:22:34Z</time>
      </trkpt>
      <trkpt lat="36.03143112704035" lon="119.41220745173347">
        <ele>63.7669677734375</ele>
        <time>2024-04-09T02:22:49Z</time>
      </trkpt>
      <trkpt lat="36.031345239226596" lon="119.41233961945603">
        <ele>63.22637939453125</ele>
        <time>2024-04-09T02:23:01Z</time>
      </trkpt>
      <trkpt lat="36.03137827959825" lon="119.4124076975738">
        <ele>65.967041015625</ele>
        <time>2024-04-09T02:23:07Z</time>
      </trkpt>
      <trkpt lat="36.031336369354115" lon="119.41252083883356">
        <ele>65.9793701171875</ele>
        <time>2024-04-09T02:23:13Z</time>
      </trkpt>
      <trkpt lat="36.031325426803825" lon="119.41259793353036">
        <ele>65.454833984375</ele>
        <time>2024-04-09T02:23:19Z</time>
      </trkpt>
      <trkpt lat="36.031273491049255" lon="119.41267102828323">
        <ele>64.1512451171875</ele>
        <time>2024-04-09T02:23:25Z</time>
      </trkpt>
      <trkpt lat="36.03124256227062" lon="119.41276014058009">
        <ele>63.11383056640625</ele>
        <time>2024-04-09T02:23:31Z</time>
      </trkpt>
      <trkpt lat="36.03135469000457" lon="119.41297138780638">
        <ele>61.5687255859375</ele>
        <time>2024-04-09T02:23:49Z</time>
      </trkpt>
      <trkpt lat="36.031370823977824" lon="119.4131586183715">
        <ele>64.5479736328125</ele>
        <time>2024-04-09T02:24:01Z</time>
      </trkpt>
      <trkpt lat="36.03135309146254" lon="119.41351106317443">
        <ele>67.24749755859375</ele>
        <time>2024-04-09T02:24:25Z</time>
      </trkpt>
      <trkpt lat="36.031322290531726" lon="119.4137633879754">
        <ele>65.02911376953125</ele>
        <time>2024-04-09T02:24:43Z</time>
      </trkpt>
      <trkpt lat="36.03131543410037" lon="119.41394762565967">
        <ele>65.85247802734375</ele>
        <time>2024-04-09T02:24:55Z</time>
      </trkpt>
      <trkpt lat="36.03128250542452" lon="119.41402973555581">
        <ele>67.20819091796875</ele>
        <time>2024-04-09T02:25:01Z</time>
      </trkpt>
      <trkpt lat="36.031228573256264" lon="119.41410083387039">
        <ele>66.9095458984375</ele>
        <time>2024-04-09T02:25:07Z</time>
      </trkpt>
      <trkpt lat="36.03116661097234" lon="119.41413087989255">
        <ele>65.76513671875</ele>
        <time>2024-04-09T02:25:13Z</time>
      </trkpt>
      <trkpt lat="36.031221603062306" lon="119.41413688154368">
        <ele>64.81158447265625</ele>
        <time>2024-04-09T02:25:22Z</time>
      </trkpt>
      <trkpt lat="36.03123066623804" lon="119.4142199889183">
        <ele>65.8087158203125</ele>
        <time>2024-04-09T02:25:31Z</time>
      </trkpt>
      <trkpt lat="36.03121188256079" lon="119.41448734236205">
        <ele>66.15264892578125</ele>
        <time>2024-04-09T02:25:46Z</time>
      </trkpt>
      <trkpt lat="36.030883996239055" lon="119.41453544273456">
        <ele>64.69012451171875</ele>
        <time>2024-04-09T02:26:16Z</time>
      </trkpt>
      <trkpt lat="36.03081801859911" lon="119.41454446207354">
        <ele>63.1842041015625</ele>
        <time>2024-04-09T02:26:22Z</time>
      </trkpt>
      <trkpt lat="36.0307891162123" lon="119.41465761559392">
        <ele>64.73394775390625</ele>
        <time>2024-04-09T02:26:31Z</time>
      </trkpt>
    </trkseg>
  </trk>
</gpx>