<?xml version="1.0" encoding="UTF-8"?>
<gpx xmlns="http://www.topografix.com/GPX/1/1" xmlns:gpxtpx="http://www.garmin.com/xmlschemas/TrackPointExtension/v1" xmlns:xsi="http://www.w3.org/2001/XMLSchema-instance" xsi:schemaLocation="http://www.topografix.com/GPX/1/1 http://www.topografix.com/GPX/1/1/gpx.xsd" version="1.1" creator="gpx.py -- https://github.com/tkrajina/gpxpy">
  <trk>
    <name>gpx from keep</name>
    <type>Run</type>
    <trkseg>
      <trkpt lat="36.01845778725529" lon="119.38280310243455">
        <ele>59.5443115234375</ele>
        <time>2023-02-13T14:00:10Z</time>
      </trkpt>
      <trkpt lat="36.01840580918563" lon="119.38278611554571">
        <ele>57.08349609375</ele>
        <time>2023-02-13T14:00:16Z</time>
      </trkpt>
      <trkpt lat="36.01830087202963" lon="119.38272015571334">
        <ele>57.15313720703125</ele>
        <time>2023-02-13T14:00:25Z</time>
      </trkpt>
      <trkpt lat="36.018010000458936" lon="119.38261623354512">
        <ele>60.11785888671875</ele>
        <time>2023-02-13T14:00:52Z</time>
      </trkpt>
      <trkpt lat="36.01780108426996" lon="119.382556283311">
        <ele>57.07501220703125</ele>
        <time>2023-02-13T14:01:04Z</time>
      </trkpt>
      <trkpt lat="36.017684156456454" lon="119.38248033002931">
        <ele>60.07177734375</ele>
        <time>2023-02-13T14:01:16Z</time>
      </trkpt>
      <trkpt lat="36.01754120265354" lon="119.38245835585478">
        <ele>61.49200439453125</ele>
        <time>2023-02-13T14:01:28Z</time>
      </trkpt>
      <trkpt lat="36.017278313132756" lon="119.38237542247676">
        <ele>60.09637451171875</ele>
        <time>2023-02-13T14:01:49Z</time>
      </trkpt>
      <trkpt lat="36.01712334781886" lon="119.38237743897302">
        <ele>57.8404541015625</ele>
        <time>2023-02-13T14:02:01Z</time>
      </trkpt>
      <trkpt lat="36.016974423154366" lon="119.3823094863473">
        <ele>61.46466064453125</ele>
        <time>2023-02-13T14:02:13Z</time>
      </trkpt>
      <trkpt lat="36.01679545919022" lon="119.38231850236437">
        <ele>62.6446533203125</ele>
        <time>2023-02-13T14:02:25Z</time>
      </trkpt>
      <trkpt lat="36.01669565624552" lon="119.3837599143423">
        <ele>0.0</ele>
        <time>2023-02-13T14:04:17Z</time>
      </trkpt>
      <trkpt lat="36.016668627778245" lon="119.3838238932361">
        <ele>0.0</ele>
        <time>2023-02-13T14:04:23Z</time>
      </trkpt>
      <trkpt lat="36.01728249787248" lon="119.38579318436406">
        <ele>0.0</ele>
        <time>2023-02-13T14:06:38Z</time>
      </trkpt>
      <trkpt lat="36.01692746427527" lon="119.38604715634179">
        <ele>0.0</ele>
        <time>2023-02-13T14:08:11Z</time>
      </trkpt>
      <trkpt lat="36.01447623775223" lon="119.38798202535767">
        <ele>0.0</ele>
        <time>2023-02-13T14:10:41Z</time>
      </trkpt>
      <trkpt lat="36.014965532213175" lon="119.38975777197888">
        <ele>71.5577392578125</ele>
        <time>2023-02-13T14:12:39Z</time>
      </trkpt>
      <trkpt lat="36.014958514987256" lon="119.38982176875855">
        <ele>69.04193115234375</ele>
        <time>2023-02-13T14:12:45Z</time>
      </trkpt>
      <trkpt lat="36.0150104755558" lon="119.38991575743606">
        <ele>71.8380126953125</ele>
        <time>2023-02-13T14:12:51Z</time>
      </trkpt>
      <trkpt lat="36.01507645216832" lon="119.38994374848541">
        <ele>67.364013671875</ele>
        <time>2023-02-13T14:12:57Z</time>
      </trkpt>
      <trkpt lat="36.01513445085136" lon="119.38990174430464">
        <ele>65.38653564453125</ele>
        <time>2023-02-13T14:13:03Z</time>
      </trkpt>
      <trkpt lat="36.01520143473488" lon="119.38990373667109">
        <ele>64.39154052734375</ele>
        <time>2023-02-13T14:13:09Z</time>
      </trkpt>
      <trkpt lat="36.01526940885322" lon="119.3899387270943">
        <ele>66.44537353515625</ele>
        <time>2023-02-13T14:13:15Z</time>
      </trkpt>
      <trkpt lat="36.0153413956203" lon="119.38992671967169">
        <ele>64.0216064453125</ele>
        <time>2023-02-13T14:13:21Z</time>
      </trkpt>
      <trkpt lat="36.01558621048677" lon="119.39038667243753">
        <ele>77.516845703125</ele>
        <time>2023-02-13T14:13:57Z</time>
      </trkpt>
      <trkpt lat="36.01564418710922" lon="119.39042366483407">
        <ele>65.8323974609375</ele>
        <time>2023-02-13T14:14:03Z</time>
      </trkpt>
      <trkpt lat="36.01580607091819" lon="119.39072464049696">
        <ele>64.99407958984375</ele>
        <time>2023-02-13T14:14:27Z</time>
      </trkpt>
      <trkpt lat="36.01594596271712" lon="119.39102962353036">
        <ele>64.5513916015625</ele>
        <time>2023-02-13T14:14:48Z</time>
      </trkpt>
      <trkpt lat="36.01599893074393" lon="119.39111161810133">
        <ele>65.14703369140625</ele>
        <time>2023-02-13T14:14:54Z</time>
      </trkpt>
      <trkpt lat="36.01606587184719" lon="119.39129661308944">
        <ele>64.85943603515625</ele>
        <time>2023-02-13T14:15:06Z</time>
      </trkpt>
      <trkpt lat="36.016597518384955" lon="119.392410607702">
        <ele>68.7061767578125</ele>
        <time>2023-02-13T14:16:24Z</time>
      </trkpt>
      <trkpt lat="36.016609499509975" lon="119.39249961360557">
        <ele>67.4224853515625</ele>
        <time>2023-02-13T14:16:30Z</time>
      </trkpt>
      <trkpt lat="36.01666645445399" lon="119.3926816233782">
        <ele>65.1251220703125</ele>
        <time>2023-02-13T14:16:42Z</time>
      </trkpt>
      <trkpt lat="36.01676040503696" lon="119.3928466290484">
        <ele>69.25823974609375</ele>
        <time>2023-02-13T14:16:54Z</time>
      </trkpt>
      <trkpt lat="36.01690831989052" lon="119.39317064861542">
        <ele>74.29656982421875</ele>
        <time>2023-02-13T14:17:15Z</time>
      </trkpt>
      <trkpt lat="36.01700427664866" lon="119.39331365563324">
        <ele>72.6248779296875</ele>
        <time>2023-02-13T14:17:27Z</time>
      </trkpt>
      <trkpt lat="36.017370073455375" lon="119.39427676357082">
        <ele>0.0</ele>
        <time>2023-02-13T14:18:33Z</time>
      </trkpt>
      <trkpt lat="36.01741406062916" lon="119.3943027633611">
        <ele>0.0</ele>
        <time>2023-02-13T14:18:39Z</time>
      </trkpt>
      <trkpt lat="36.01728409820062" lon="119.39450933088102">
        <ele>0.0</ele>
        <time>2023-02-13T14:18:48Z</time>
      </trkpt>
      <trkpt lat="36.017912842158516" lon="119.3958160467815">
        <ele>79.8707275390625</ele>
        <time>2023-02-13T14:19:55Z</time>
      </trkpt>
      <trkpt lat="36.01805981607318" lon="119.39561497789849">
        <ele>65.12261962890625</ele>
        <time>2023-02-13T14:20:01Z</time>
      </trkpt>
      <trkpt lat="36.018115789054946" lon="119.39601607833578">
        <ele>71.210693359375</ele>
        <time>2023-02-13T14:20:22Z</time>
      </trkpt>
      <trkpt lat="36.01819976298477" lon="119.39637717261193">
        <ele>72.65289306640625</ele>
        <time>2023-02-13T14:20:46Z</time>
      </trkpt>
      <trkpt lat="36.01823075487769" lon="119.39649620490346">
        <ele>73.09808349609375</ele>
        <time>2023-02-13T14:20:55Z</time>
      </trkpt>
      <trkpt lat="36.018326735703255" lon="119.39700635635234">
        <ele>69.81201171875</ele>
        <time>2023-02-13T14:21:19Z</time>
      </trkpt>
      <trkpt lat="36.0183157393959" lon="119.39706837829566">
        <ele>67.486328125</ele>
        <time>2023-02-13T14:21:22Z</time>
      </trkpt>
      <trkpt lat="36.01832374211694" lon="119.397258442193">
        <ele>67.1651611328125</ele>
        <time>2023-02-13T14:21:34Z</time>
      </trkpt>
      <trkpt lat="36.01841273149012" lon="119.39754653425646">
        <ele>64.1165771484375</ele>
        <time>2023-02-13T14:21:49Z</time>
      </trkpt>
      <trkpt lat="36.01841373598189" lon="119.3976555739762">
        <ele>61.80584716796875</ele>
        <time>2023-02-13T14:21:55Z</time>
      </trkpt>
      <trkpt lat="36.01851373391733" lon="119.39804370992373">
        <ele>65.5577392578125</ele>
        <time>2023-02-13T14:22:16Z</time>
      </trkpt>
      <trkpt lat="36.01855673047831" lon="119.39814374439194">
        <ele>64.8995361328125</ele>
        <time>2023-02-13T14:22:22Z</time>
      </trkpt>
      <trkpt lat="36.01874072843206" lon="119.39865893497058">
        <ele>0.0</ele>
        <time>2023-02-13T14:22:52Z</time>
      </trkpt>
      <trkpt lat="36.0200275539095" lon="119.39973828129426">
        <ele>0.0</ele>
        <time>2023-02-13T14:24:44Z</time>
      </trkpt>
      <trkpt lat="36.019757637331764" lon="119.39988738451689">
        <ele>0.0</ele>
        <time>2023-02-13T14:24:50Z</time>
      </trkpt>
      <trkpt lat="36.01949869631962" lon="119.39988141062942">
        <ele>72.87078857421875</ele>
        <time>2023-02-13T14:24:56Z</time>
      </trkpt>
      <trkpt lat="36.01961466221242" lon="119.39983037252777">
        <ele>74.80511474609375</ele>
        <time>2023-02-13T14:25:02Z</time>
      </trkpt>
      <trkpt lat="36.019604656503006" lon="119.39977334579211">
        <ele>67.57232666015625</ele>
        <time>2023-02-13T14:25:20Z</time>
      </trkpt>
      <trkpt lat="36.01980373089512" lon="119.40054271470768">
        <ele>0.0</ele>
        <time>2023-02-13T14:26:29Z</time>
      </trkpt>
      <trkpt lat="36.01983574465935" lon="119.40066277517498">
        <ele>0.0</ele>
        <time>2023-02-13T14:26:47Z</time>
      </trkpt>
      <trkpt lat="36.019847339938714" lon="119.40056026524535">
        <ele>0.0</ele>
        <time>2023-02-13T14:26:56Z</time>
      </trkpt>
      <trkpt lat="36.01984477271989" lon="119.40082786357232">
        <ele>0.0</ele>
        <time>2023-02-13T14:27:20Z</time>
      </trkpt>
      <trkpt lat="36.01989485408773" lon="119.4013001222046">
        <ele>0.0</ele>
        <time>2023-02-13T14:27:35Z</time>
      </trkpt>
      <trkpt lat="36.02007180042159" lon="119.40123806690954">
        <ele>69.2205810546875</ele>
        <time>2023-02-13T14:27:38Z</time>
      </trkpt>
      <trkpt lat="36.02007683088513" lon="119.40139015359021">
        <ele>70.072265625</ele>
        <time>2023-02-13T14:27:47Z</time>
      </trkpt>
      <trkpt lat="36.020125858122746" lon="119.4015692525032">
        <ele>67.47491455078125</ele>
        <time>2023-02-13T14:27:59Z</time>
      </trkpt>
      <trkpt lat="36.02015691809347" lon="119.40186642626409">
        <ele>65.94305419921875</ele>
        <time>2023-02-13T14:28:17Z</time>
      </trkpt>
      <trkpt lat="36.02015398764883" lon="119.4021546032362">
        <ele>73.14715576171875</ele>
        <time>2023-02-13T14:28:32Z</time>
      </trkpt>
      <trkpt lat="36.02018704589325" lon="119.40241676430045">
        <ele>66.65911865234375</ele>
        <time>2023-02-13T14:28:47Z</time>
      </trkpt>
      <trkpt lat="36.02019714183467" lon="119.40278700248975">
        <ele>0.0</ele>
        <time>2023-02-13T14:29:23Z</time>
      </trkpt>
      <trkpt lat="36.01967072989283" lon="119.40430312252757">
        <ele>0.0</ele>
        <time>2023-02-13T14:30:47Z</time>
      </trkpt>
      <trkpt lat="36.020002694862974" lon="119.40442417562414">
        <ele>0.0</ele>
        <time>2023-02-13T14:30:56Z</time>
      </trkpt>
      <trkpt lat="36.019893852721836" lon="119.4071924807238">
        <ele>72.43359375</ele>
        <time>2023-02-13T14:33:12Z</time>
      </trkpt>
      <trkpt lat="36.020013945291126" lon="119.4074446978187">
        <ele>67.3907470703125</ele>
        <time>2023-02-13T14:33:27Z</time>
      </trkpt>
      <trkpt lat="36.02012007768228" lon="119.40776498392005">
        <ele>70.638427734375</ele>
        <time>2023-02-13T14:33:45Z</time>
      </trkpt>
      <trkpt lat="36.02026219103862" lon="119.40805524309289">
        <ele>69.0772705078125</ele>
        <time>2023-02-13T14:34:03Z</time>
      </trkpt>
      <trkpt lat="36.020273216132274" lon="119.40810929361507">
        <ele>72.54400634765625</ele>
        <time>2023-02-13T14:34:06Z</time>
      </trkpt>
      <trkpt lat="36.020449335085814" lon="119.40841657127666">
        <ele>72.34295654296875</ele>
        <time>2023-02-13T14:34:27Z</time>
      </trkpt>
      <trkpt lat="36.02064341049212" lon="119.40864277188822">
        <ele>74.89031982421875</ele>
        <time>2023-02-13T14:34:45Z</time>
      </trkpt>
      <trkpt lat="36.02088546782892" lon="119.40885195298287">
        <ele>69.43011474609375</ele>
        <time>2023-02-13T14:35:06Z</time>
      </trkpt>
      <trkpt lat="36.02101653944315" lon="119.40903712469732">
        <ele>66.86669921875</ele>
        <time>2023-02-13T14:35:24Z</time>
      </trkpt>
      <trkpt lat="36.02113460097896" lon="119.40919627323322">
        <ele>65.74395751953125</ele>
        <time>2023-02-13T14:35:51Z</time>
      </trkpt>
      <trkpt lat="36.0240449484119" lon="119.41089476330899">
        <ele>0.0</ele>
        <time>2023-02-13T14:39:46Z</time>
      </trkpt>
      <trkpt lat="36.02365093509677" lon="119.4107306247795">
        <ele>58.3336181640625</ele>
        <time>2023-02-13T14:39:56Z</time>
      </trkpt>
      <trkpt lat="36.02389987961524" lon="119.4107336001775">
        <ele>65.4088134765625</ele>
        <time>2023-02-13T14:40:14Z</time>
      </trkpt>
      <trkpt lat="36.02395891856456" lon="119.41081668585848">
        <ele>67.25</ele>
        <time>2023-02-13T14:40:20Z</time>
      </trkpt>
      <trkpt lat="36.023966968935994" lon="119.4108987765342">
        <ele>71.05438232421875</ele>
        <time>2023-02-13T14:40:23Z</time>
      </trkpt>
      <trkpt lat="36.023954070811506" lon="119.4110529510078">
        <ele>74.7374267578125</ele>
        <time>2023-02-13T14:40:32Z</time>
      </trkpt>
      <trkpt lat="36.024006294149025" lon="119.4114133549043">
        <ele>84.221435546875</ele>
        <time>2023-02-13T14:40:56Z</time>
      </trkpt>
      <trkpt lat="36.02404553038886" lon="119.41177977466499">
        <ele>80.4093017578125</ele>
        <time>2023-02-13T14:41:17Z</time>
      </trkpt>
      <trkpt lat="36.02404964473555" lon="119.41194897263772">
        <ele>87.0552978515625</ele>
        <time>2023-02-13T14:41:26Z</time>
      </trkpt>
      <trkpt lat="36.024044841790335" lon="119.41223230911197">
        <ele>85.4547119140625</ele>
        <time>2023-02-13T14:41:41Z</time>
      </trkpt>
      <trkpt lat="36.02393904937061" lon="119.41249263363572">
        <ele>81.31353759765625</ele>
        <time>2023-02-13T14:41:53Z</time>
      </trkpt>
      <trkpt lat="36.02394631801461" lon="119.41286909178174">
        <ele>79.28521728515625</ele>
        <time>2023-02-13T14:42:11Z</time>
      </trkpt>
      <trkpt lat="36.023948438893015" lon="119.41303529673273">
        <ele>80.55322265625</ele>
        <time>2023-02-13T14:42:20Z</time>
      </trkpt>
      <trkpt lat="36.023995676709475" lon="119.41337071029852">
        <ele>86.43017578125</ele>
        <time>2023-02-13T14:42:38Z</time>
      </trkpt>
      <trkpt lat="36.02402392241862" lon="119.41370412982454">
        <ele>78.91729736328125</ele>
        <time>2023-02-13T14:42:56Z</time>
      </trkpt>
      <trkpt lat="36.02405917071763" lon="119.41403655357608">
        <ele>82.48052978515625</ele>
        <time>2023-02-13T14:43:11Z</time>
      </trkpt>
      <trkpt lat="36.024073270794844" lon="119.41416872378755">
        <ele>88.040283203125</ele>
        <time>2023-02-13T14:43:17Z</time>
      </trkpt>
      <trkpt lat="36.024167312917484" lon="119.41424981914953">
        <ele>84.13897705078125</ele>
        <time>2023-02-13T14:43:26Z</time>
      </trkpt>
      <trkpt lat="36.02445026352378" lon="119.41426981362437">
        <ele>79.26953125</ele>
        <time>2023-02-13T14:43:41Z</time>
      </trkpt>
      <trkpt lat="36.02472718867448" lon="119.41425576421895">
        <ele>74.994384765625</ele>
        <time>2023-02-13T14:43:56Z</time>
      </trkpt>
      <trkpt lat="36.02504312618177" lon="119.41426874582272">
        <ele>69.2242431640625</ele>
        <time>2023-02-13T14:44:14Z</time>
      </trkpt>
      <trkpt lat="36.02534707121873" lon="119.41428773665174">
        <ele>74.6175537109375</ele>
        <time>2023-02-13T14:44:35Z</time>
      </trkpt>
      <trkpt lat="36.02543303877512" lon="119.41427170602539">
        <ele>74.39605712890625</ele>
        <time>2023-02-13T14:44:41Z</time>
      </trkpt>
      <trkpt lat="36.02709991527757" lon="119.41459794951348">
        <ele>0.0</ele>
        <time>2023-02-13T14:46:49Z</time>
      </trkpt>
      <trkpt lat="36.02735087045516" lon="119.41461394264833">
        <ele>0.0</ele>
        <time>2023-02-13T14:46:58Z</time>
      </trkpt>
      <trkpt lat="36.02748365866562" lon="119.41459349950969">
        <ele>0.0</ele>
        <time>2023-02-13T14:47:04Z</time>
      </trkpt>
      <trkpt lat="36.027356238834656" lon="119.41478494645725">
        <ele>43.90240478515625</ele>
        <time>2023-02-13T14:47:10Z</time>
      </trkpt>
      <trkpt lat="36.02751981550559" lon="119.41459389709989">
        <ele>68.87493896484375</ele>
        <time>2023-02-13T14:47:16Z</time>
      </trkpt>
      <trkpt lat="36.02759786047453" lon="119.41467199221394">
        <ele>70.14892578125</ele>
        <time>2023-02-13T14:47:22Z</time>
      </trkpt>
      <trkpt lat="36.02769285723853" lon="119.4146950122528">
        <ele>68.91754150390625</ele>
        <time>2023-02-13T14:47:28Z</time>
      </trkpt>
      <trkpt lat="36.02773388914087" lon="119.41474607581769">
        <ele>69.05352783203125</ele>
        <time>2023-02-13T14:47:31Z</time>
      </trkpt>
      <trkpt lat="36.028067831061755" lon="119.41476906915351">
        <ele>67.58447265625</ele>
        <time>2023-02-13T14:47:55Z</time>
      </trkpt>
      <trkpt lat="36.028169797066624" lon="119.41475604031004">
        <ele>63.67718505859375</ele>
        <time>2023-02-13T14:48:01Z</time>
      </trkpt>
      <trkpt lat="36.028230666486856" lon="119.41581448012032">
        <ele>0.0</ele>
        <time>2023-02-13T14:49:13Z</time>
      </trkpt>
      <trkpt lat="36.02827681737929" lon="119.41600173747361">
        <ele>0.0</ele>
        <time>2023-02-13T14:49:19Z</time>
      </trkpt>
      <trkpt lat="36.028537207411894" lon="119.41615669025151">
        <ele>0.0</ele>
        <time>2023-02-13T14:49:34Z</time>
      </trkpt>
      <trkpt lat="36.02879696273371" lon="119.4159393415229">
        <ele>0.0</ele>
        <time>2023-02-13T14:49:46Z</time>
      </trkpt>
      <trkpt lat="36.028783483696486" lon="119.41574932733509">
        <ele>80.0194091796875</ele>
        <time>2023-02-13T14:49:55Z</time>
      </trkpt>
      <trkpt lat="36.02887240000933" lon="119.4156752142941">
        <ele>70.403076171875</ele>
        <time>2023-02-13T14:50:01Z</time>
      </trkpt>
      <trkpt lat="36.02892137767032" lon="119.41566219072661">
        <ele>67.59228515625</ele>
        <time>2023-02-13T14:50:04Z</time>
      </trkpt>
      <trkpt lat="36.028981317074425" lon="119.41560710764044">
        <ele>67.33270263671875</ele>
        <time>2023-02-13T14:50:10Z</time>
      </trkpt>
      <trkpt lat="36.02906126219507" lon="119.4155640390912">
        <ele>70.47491455078125</ele>
        <time>2023-02-13T14:50:16Z</time>
      </trkpt>
      <trkpt lat="36.029109252020596" lon="119.41556503509355">
        <ele>70.79034423828125</ele>
        <time>2023-02-13T14:50:19Z</time>
      </trkpt>
      <trkpt lat="36.029373077317004" lon="119.41542981911391">
        <ele>65.30694580078125</ele>
        <time>2023-02-13T14:50:40Z</time>
      </trkpt>
      <trkpt lat="36.029424058031104" lon="119.41542080100685">
        <ele>63.9854736328125</ele>
        <time>2023-02-13T14:50:43Z</time>
      </trkpt>
      <trkpt lat="36.0295860393666" lon="119.41544281313293">
        <ele>63.2957763671875</ele>
        <time>2023-02-13T14:50:55Z</time>
      </trkpt>
      <trkpt lat="36.02971600952406" lon="119.415442798556">
        <ele>63.4400634765625</ele>
        <time>2023-02-13T14:51:04Z</time>
      </trkpt>
      <trkpt lat="36.02979901999163" lon="119.41547783749625">
        <ele>64.00506591796875</ele>
        <time>2023-02-13T14:51:10Z</time>
      </trkpt>
      <trkpt lat="36.029866009678926" lon="119.41548383826144">
        <ele>63.9998779296875</ele>
        <time>2023-02-13T14:51:16Z</time>
      </trkpt>
      <trkpt lat="36.03000407031863" lon="119.41559297352512">
        <ele>62.79290771484375</ele>
        <time>2023-02-13T14:51:28Z</time>
      </trkpt>
      <trkpt lat="36.030090143426534" lon="119.41570211529347">
        <ele>67.7930908203125</ele>
        <time>2023-02-13T14:51:37Z</time>
      </trkpt>
      <trkpt lat="36.03031718642922" lon="119.41581324472244">
        <ele>67.84100341796875</ele>
        <time>2023-02-13T14:51:52Z</time>
      </trkpt>
      <trkpt lat="36.03041518543597" lon="119.41583826871373">
        <ele>70.917724609375</ele>
        <time>2023-02-13T14:51:58Z</time>
      </trkpt>
      <trkpt lat="36.030509165588555" lon="119.41584026097365">
        <ele>68.799560546875</ele>
        <time>2023-02-13T14:52:04Z</time>
      </trkpt>
      <trkpt lat="36.03056212334151" lon="119.4158052060651">
        <ele>63.9486083984375</ele>
        <time>2023-02-13T14:52:07Z</time>
      </trkpt>
      <trkpt lat="36.03058206644686" lon="119.41574411864806">
        <ele>61.7491455078125</ele>
        <time>2023-02-13T14:52:10Z</time>
      </trkpt>
    </trkseg>
  </trk>
</gpx>