<?xml version="1.0" encoding="UTF-8"?>
<gpx xmlns="http://www.topografix.com/GPX/1/1" xmlns:gpxtpx="http://www.garmin.com/xmlschemas/TrackPointExtension/v1" xmlns:xsi="http://www.w3.org/2001/XMLSchema-instance" xsi:schemaLocation="http://www.topografix.com/GPX/1/1 http://www.topografix.com/GPX/1/1/gpx.xsd" version="1.1" creator="gpx.py -- https://github.com/tkrajina/gpxpy">
  <trk>
    <name>gpx from keep</name>
    <type>Run</type>
    <trkseg>
      <trkpt lat="30.523701199770215" lon="114.3927897414795">
        <ele>18.6385498046875</ele>
        <time>2022-07-17T13:25:35Z</time>
      </trkpt>
      <trkpt lat="30.523635242429926" lon="114.39266771316258">
        <ele>19.8968505859375</ele>
        <time>2022-07-17T13:25:41Z</time>
      </trkpt>
      <trkpt lat="30.523562302021677" lon="114.39247066602206">
        <ele>19.3397216796875</ele>
        <time>2022-07-17T13:25:47Z</time>
      </trkpt>
      <trkpt lat="30.523455364990173" lon="114.39231963561704">
        <ele>17.50311279296875</ele>
        <time>2022-07-17T13:25:53Z</time>
      </trkpt>
      <trkpt lat="30.52329143171879" lon="114.39224463060961">
        <ele>18.051513671875</ele>
        <time>2022-07-17T13:25:59Z</time>
      </trkpt>
      <trkpt lat="30.52297053885896" lon="114.39221665150679">
        <ele>16.2489013671875</ele>
        <time>2022-07-17T13:26:11Z</time>
      </trkpt>
      <trkpt lat="30.522755609023484" lon="114.39220566749339">
        <ele>18.963623046875</ele>
        <time>2022-07-17T13:26:20Z</time>
      </trkpt>
      <trkpt lat="30.522525675073535" lon="114.39223869600146">
        <ele>16.85760498046875</ele>
        <time>2022-07-17T13:26:29Z</time>
      </trkpt>
      <trkpt lat="30.52244370215855" lon="114.39223270163237">
        <ele>16.6173095703125</ele>
        <time>2022-07-17T13:26:32Z</time>
      </trkpt>
      <trkpt lat="30.522278742138734" lon="114.39229373171968">
        <ele>20.17315673828125</ele>
        <time>2022-07-17T13:26:38Z</time>
      </trkpt>
      <trkpt lat="30.522163756053008" lon="114.39240877179915">
        <ele>20.241943359375</ele>
        <time>2022-07-17T13:26:44Z</time>
      </trkpt>
      <trkpt lat="30.522091731198376" lon="114.3926638469585">
        <ele>20.20172119140625</ele>
        <time>2022-07-17T13:26:53Z</time>
      </trkpt>
      <trkpt lat="30.52207671662761" lon="114.39277187838368">
        <ele>20.16241455078125</ele>
        <time>2022-07-17T13:26:56Z</time>
      </trkpt>
      <trkpt lat="30.52211867402034" lon="114.39294192325936">
        <ele>21.97711181640625</ele>
        <time>2022-07-17T13:27:02Z</time>
      </trkpt>
      <trkpt lat="30.522229616415803" lon="114.39307795340446">
        <ele>22.13677978515625</ele>
        <time>2022-07-17T13:27:08Z</time>
      </trkpt>
      <trkpt lat="30.522300585587168" lon="114.39312996267209">
        <ele>23.66448974609375</ele>
        <time>2022-07-17T13:27:11Z</time>
      </trkpt>
      <trkpt lat="30.52252850214251" lon="114.39320196438935">
        <ele>25.1214599609375</ele>
        <time>2022-07-17T13:27:20Z</time>
      </trkpt>
      <trkpt lat="30.5228374064231" lon="114.39318993376845">
        <ele>24.07293701171875</ele>
        <time>2022-07-17T13:27:32Z</time>
      </trkpt>
      <trkpt lat="30.523154307131325" lon="114.39318390426271">
        <ele>25.7156982421875</ele>
        <time>2022-07-17T13:27:44Z</time>
      </trkpt>
      <trkpt lat="30.523316256181904" lon="114.39318188950584">
        <ele>24.45574951171875</ele>
        <time>2022-07-17T13:27:50Z</time>
      </trkpt>
      <trkpt lat="30.523469218470503" lon="114.39311485605981">
        <ele>25.280029296875</ele>
        <time>2022-07-17T13:27:56Z</time>
      </trkpt>
      <trkpt lat="30.523524209185286" lon="114.39306483641236">
        <ele>24.73870849609375</ele>
        <time>2022-07-17T13:27:59Z</time>
      </trkpt>
      <trkpt lat="30.523609208500584" lon="114.3929077831686">
        <ele>22.16192626953125</ele>
        <time>2022-07-17T13:28:05Z</time>
      </trkpt>
      <trkpt lat="30.523636214074088" lon="114.39282575735375">
        <ele>23.22308349609375</ele>
        <time>2022-07-17T13:28:08Z</time>
      </trkpt>
      <trkpt lat="30.523641243065015" lon="114.3926537087731">
        <ele>25.11993408203125</ele>
        <time>2022-07-17T13:28:14Z</time>
      </trkpt>
      <trkpt lat="30.523623263792903" lon="114.39257168789675">
        <ele>25.00860595703125</ele>
        <time>2022-07-17T13:28:17Z</time>
      </trkpt>
      <trkpt lat="30.52350034332874" lon="114.392357641586">
        <ele>23.42718505859375</ele>
        <time>2022-07-17T13:28:26Z</time>
      </trkpt>
      <trkpt lat="30.523333416038955" lon="114.3922566300156">
        <ele>24.8876953125</ele>
        <time>2022-07-17T13:28:35Z</time>
      </trkpt>
      <trkpt lat="30.523206461210098" lon="114.39223163471223">
        <ele>24.5093994140625</ele>
        <time>2022-07-17T13:28:41Z</time>
      </trkpt>
      <trkpt lat="30.522947534985605" lon="114.39227266785319">
        <ele>20.57568359375</ele>
        <time>2022-07-17T13:28:53Z</time>
      </trkpt>
      <trkpt lat="30.522665628469806" lon="114.39225068684168">
        <ele>22.2939453125</ele>
        <time>2022-07-17T13:29:05Z</time>
      </trkpt>
      <trkpt lat="30.522392713281405" lon="114.39225771248921">
        <ele>18.0908203125</ele>
        <time>2022-07-17T13:29:18Z</time>
      </trkpt>
      <trkpt lat="30.52232672817549" lon="114.39228772597654">
        <ele>17.6929931640625</ele>
        <time>2022-07-17T13:29:21Z</time>
      </trkpt>
      <trkpt lat="30.52221174437569" lon="114.39239076286266">
        <ele>17.197021484375</ele>
        <time>2022-07-17T13:29:27Z</time>
      </trkpt>
      <trkpt lat="30.52212274756277" lon="114.39252180551233">
        <ele>18.44140625</ele>
        <time>2022-07-17T13:29:33Z</time>
      </trkpt>
      <trkpt lat="30.522092741638733" lon="114.39260483065762">
        <ele>18.5533447265625</ele>
        <time>2022-07-17T13:29:36Z</time>
      </trkpt>
      <trkpt lat="30.522080711671773" lon="114.39279288395531">
        <ele>19.6119384765625</ele>
        <time>2022-07-17T13:29:42Z</time>
      </trkpt>
      <trkpt lat="30.5221376646558" lon="114.39296192740248">
        <ele>20.470703125</ele>
        <time>2022-07-17T13:29:48Z</time>
      </trkpt>
      <trkpt lat="30.52223561126753" lon="114.39309795881505">
        <ele>21.0211181640625</ele>
        <time>2022-07-17T13:29:54Z</time>
      </trkpt>
      <trkpt lat="30.52237155534647" lon="114.39317897116702">
        <ele>23.01654052734375</ele>
        <time>2022-07-17T13:30:00Z</time>
      </trkpt>
      <trkpt lat="30.522452526769055" lon="114.39319796982073">
        <ele>23.55218505859375</ele>
        <time>2022-07-17T13:30:03Z</time>
      </trkpt>
      <trkpt lat="30.522778422540743" lon="114.39320594375641">
        <ele>21.97332763671875</ele>
        <time>2022-07-17T13:30:15Z</time>
      </trkpt>
      <trkpt lat="30.523062334175552" lon="114.39319691622306">
        <ele>24.64630126953125</ele>
        <time>2022-07-17T13:30:27Z</time>
      </trkpt>
      <trkpt lat="30.523265266638223" lon="114.39321790483983">
        <ele>26.4404296875</ele>
        <time>2022-07-17T13:30:36Z</time>
      </trkpt>
      <trkpt lat="30.52338423212071" lon="114.39319788839148">
        <ele>26.9141845703125</ele>
        <time>2022-07-17T13:30:42Z</time>
      </trkpt>
      <trkpt lat="30.523441220907586" lon="114.393154870467">
        <ele>24.50067138671875</ele>
        <time>2022-07-17T13:30:45Z</time>
      </trkpt>
      <trkpt lat="30.523591203377606" lon="114.3929718032743">
        <ele>21.31439208984375</ele>
        <time>2022-07-17T13:30:54Z</time>
      </trkpt>
      <trkpt lat="30.52363020423853" lon="114.3928937773061">
        <ele>19.31915283203125</ele>
        <time>2022-07-17T13:30:57Z</time>
      </trkpt>
      <trkpt lat="30.523646225500855" lon="114.39274273306931">
        <ele>17.73681640625</ele>
        <time>2022-07-17T13:31:03Z</time>
      </trkpt>
      <trkpt lat="30.52358328595626" lon="114.39252067759323">
        <ele>16.63250732421875</ele>
        <time>2022-07-17T13:31:12Z</time>
      </trkpt>
      <trkpt lat="30.52349534045756" lon="114.39238064804927">
        <ele>18.98944091796875</ele>
        <time>2022-07-17T13:31:18Z</time>
      </trkpt>
      <trkpt lat="30.52340038358169" lon="114.39231363886569">
        <ele>19.244384765625</ele>
        <time>2022-07-17T13:31:21Z</time>
      </trkpt>
      <trkpt lat="30.523214452313795" lon="114.39226364221035">
        <ele>21.25958251953125</ele>
        <time>2022-07-17T13:31:29Z</time>
      </trkpt>
      <trkpt lat="30.52301950945309" lon="114.3922866651702">
        <ele>20.5048828125</ele>
        <time>2022-07-17T13:31:38Z</time>
      </trkpt>
      <trkpt lat="30.52274060100606" lon="114.39226968516729">
        <ele>22.2313232421875</ele>
        <time>2022-07-17T13:31:50Z</time>
      </trkpt>
      <trkpt lat="30.52253267346128" lon="114.39223569462291">
        <ele>23.90155029296875</ele>
        <time>2022-07-17T13:31:59Z</time>
      </trkpt>
      <trkpt lat="30.52239671759291" lon="114.39222970497269">
        <ele>24.51416015625</ele>
        <time>2022-07-17T13:32:05Z</time>
      </trkpt>
      <trkpt lat="30.5223357326606" lon="114.39225071567401">
        <ele>22.87921142578125</ele>
        <time>2022-07-17T13:32:08Z</time>
      </trkpt>
      <trkpt lat="30.522131754513673" lon="114.39246979078385">
        <ele>22.33770751953125</ele>
        <time>2022-07-17T13:32:20Z</time>
      </trkpt>
      <trkpt lat="30.522076731955835" lon="114.39268585435778">
        <ele>19.5208740234375</ele>
        <time>2022-07-17T13:32:29Z</time>
      </trkpt>
      <trkpt lat="30.522074706057726" lon="114.39283589667018">
        <ele>20.0133056640625</ele>
        <time>2022-07-17T13:32:35Z</time>
      </trkpt>
      <trkpt lat="30.522090688111497" lon="114.39291091674912">
        <ele>20.1292724609375</ele>
        <time>2022-07-17T13:32:39Z</time>
      </trkpt>
      <trkpt lat="30.522173639160133" lon="114.39304694913645">
        <ele>21.8631591796875</ele>
        <time>2022-07-17T13:32:45Z</time>
      </trkpt>
      <trkpt lat="30.522232610754582" lon="114.39310696175414">
        <ele>19.919921875</ele>
        <time>2022-07-17T13:32:48Z</time>
      </trkpt>
      <trkpt lat="30.522304582396576" lon="114.3931419659114">
        <ele>20.984375</ele>
        <time>2022-07-17T13:32:51Z</time>
      </trkpt>
      <trkpt lat="30.522362556125437" lon="114.39319197587237">
        <ele>20.91058349609375</ele>
        <time>2022-07-17T13:32:54Z</time>
      </trkpt>
      <trkpt lat="30.52243053119086" lon="114.39321397658216">
        <ele>20.65936279296875</ele>
        <time>2022-07-17T13:32:57Z</time>
      </trkpt>
      <trkpt lat="30.522742436286503" lon="114.39319094237031">
        <ele>23.1649169921875</ele>
        <time>2022-07-17T13:33:12Z</time>
      </trkpt>
      <trkpt lat="30.52303634255684" lon="114.39319591819269">
        <ele>26.03326416015625</ele>
        <time>2022-07-17T13:33:27Z</time>
      </trkpt>
      <trkpt lat="30.52327726789175" lon="114.39318589411891">
        <ele>25.96148681640625</ele>
        <time>2022-07-17T13:33:39Z</time>
      </trkpt>
      <trkpt lat="30.523417232035236" lon="114.39313286597593">
        <ele>26.9879150390625</ele>
        <time>2022-07-17T13:33:45Z</time>
      </trkpt>
      <trkpt lat="30.523531211240535" lon="114.39303882813077">
        <ele>23.584716796875</ele>
        <time>2022-07-17T13:33:51Z</time>
      </trkpt>
      <trkpt lat="30.523609211405844" lon="114.3928907782791">
        <ele>24.0379638671875</ele>
        <time>2022-07-17T13:33:57Z</time>
      </trkpt>
      <trkpt lat="30.523627221115678" lon="114.39280175133652">
        <ele>23.64617919921875</ele>
        <time>2022-07-17T13:34:00Z</time>
      </trkpt>
      <trkpt lat="30.523614262401132" lon="114.39259469494704">
        <ele>21.4573974609375</ele>
        <time>2022-07-17T13:34:09Z</time>
      </trkpt>
      <trkpt lat="30.523560306450396" lon="114.39245066086818">
        <ele>21.59954833984375</ele>
        <time>2022-07-17T13:34:15Z</time>
      </trkpt>
      <trkpt lat="30.52340338341643" lon="114.39230963756658">
        <ele>22.12738037109375</ele>
        <time>2022-07-17T13:34:24Z</time>
      </trkpt>
      <trkpt lat="30.523343408713977" lon="114.39227763454095">
        <ele>20.53656005859375</ele>
        <time>2022-07-17T13:34:27Z</time>
      </trkpt>
      <trkpt lat="30.523146476211064" lon="114.39225164507202">
        <ele>22.954345703125</ele>
        <time>2022-07-17T13:34:36Z</time>
      </trkpt>
      <trkpt lat="30.522820578699573" lon="114.39225467432469">
        <ele>24.78192138671875</ele>
        <time>2022-07-17T13:34:51Z</time>
      </trkpt>
      <trkpt lat="30.522503683216385" lon="114.39223269639012">
        <ele>22.92108154296875</ele>
        <time>2022-07-17T13:35:06Z</time>
      </trkpt>
      <trkpt lat="30.52229073422657" lon="114.39231473610776">
        <ele>21.09149169921875</ele>
        <time>2022-07-17T13:35:18Z</time>
      </trkpt>
      <trkpt lat="30.522200742464978" lon="114.3924187712081">
        <ele>21.973388671875</ele>
        <time>2022-07-17T13:35:24Z</time>
      </trkpt>
      <trkpt lat="30.522125738609606" lon="114.39256481687788">
        <ele>21.5494384765625</ele>
        <time>2022-07-17T13:35:31Z</time>
      </trkpt>
      <trkpt lat="30.522117693367317" lon="114.39283089149124">
        <ele>20.26611328125</ele>
        <time>2022-07-17T13:35:40Z</time>
      </trkpt>
      <trkpt lat="30.522141670496897" lon="114.39291991488882">
        <ele>19.559326171875</ele>
        <time>2022-07-17T13:35:43Z</time>
      </trkpt>
      <trkpt lat="30.52231058825444" lon="114.39309395107391">
        <ele>21.456298828125</ele>
        <time>2022-07-17T13:35:52Z</time>
      </trkpt>
      <trkpt lat="30.522380559537186" lon="114.39313495717708">
        <ele>22.4178466796875</ele>
        <time>2022-07-17T13:35:55Z</time>
      </trkpt>
      <trkpt lat="30.522688454298272" lon="114.39318494527878">
        <ele>25.1240234375</ele>
        <time>2022-07-17T13:36:07Z</time>
      </trkpt>
      <trkpt lat="30.522966368977766" lon="114.39316891617304">
        <ele>25.8363037109375</ele>
        <time>2022-07-17T13:36:19Z</time>
      </trkpt>
      <trkpt lat="30.523287269182962" lon="114.39315788482249">
        <ele>25.7659912109375</ele>
        <time>2022-07-17T13:36:34Z</time>
      </trkpt>
      <trkpt lat="30.523421234803017" lon="114.39310785816853">
        <ele>26.4993896484375</ele>
        <time>2022-07-17T13:36:40Z</time>
      </trkpt>
      <trkpt lat="30.523478224738064" lon="114.3930588386586">
        <ele>25.910400390625</ele>
        <time>2022-07-17T13:36:43Z</time>
      </trkpt>
      <trkpt lat="30.5235232255902" lon="114.39296780805155">
        <ele>24.556640625</ele>
        <time>2022-07-17T13:36:46Z</time>
      </trkpt>
      <trkpt lat="30.52357825096408" lon="114.39272073286132">
        <ele>22.24700927734375</ele>
        <time>2022-07-17T13:36:55Z</time>
      </trkpt>
      <trkpt lat="30.523525303207094" lon="114.39252668427775">
        <ele>22.5008544921875</ele>
        <time>2022-07-17T13:37:07Z</time>
      </trkpt>
      <trkpt lat="30.523469347340633" lon="114.39238765216017">
        <ele>22.6007080078125</ele>
        <time>2022-07-17T13:37:10Z</time>
      </trkpt>
      <trkpt lat="30.523344401899525" lon="114.3923106429808">
        <ele>25.52655029296875</ele>
        <time>2022-07-17T13:37:16Z</time>
      </trkpt>
      <trkpt lat="30.523271429924772" lon="114.39228564289422">
        <ele>27.21063232421875</ele>
        <time>2022-07-17T13:37:19Z</time>
      </trkpt>
      <trkpt lat="30.522959528623307" lon="114.39228567015454">
        <ele>22.0269775390625</ele>
        <time>2022-07-17T13:37:31Z</time>
      </trkpt>
      <trkpt lat="30.522666622407584" lon="114.39227969420737">
        <ele>20.90557861328125</ele>
        <time>2022-07-17T13:37:46Z</time>
      </trkpt>
      <trkpt lat="30.522340720804674" lon="114.39230272863009">
        <ele>23.71868896484375</ele>
        <time>2022-07-17T13:38:01Z</time>
      </trkpt>
      <trkpt lat="30.522220742694017" lon="114.39238476049889">
        <ele>23.133056640625</ele>
        <time>2022-07-17T13:38:07Z</time>
      </trkpt>
      <trkpt lat="30.522108735492786" lon="114.39261083090088">
        <ele>22.266357421875</ele>
        <time>2022-07-17T13:38:16Z</time>
      </trkpt>
      <trkpt lat="30.522098723939077" lon="114.3926918541003">
        <ele>21.53228759765625</ele>
        <time>2022-07-17T13:38:19Z</time>
      </trkpt>
      <trkpt lat="30.522160665525483" lon="114.39291391149806">
        <ele>18.9000244140625</ele>
        <time>2022-07-17T13:38:28Z</time>
      </trkpt>
      <trkpt lat="30.52219564283992" lon="114.39298292844923">
        <ele>20.183349609375</ele>
        <time>2022-07-17T13:38:31Z</time>
      </trkpt>
      <trkpt lat="30.52229759268151" lon="114.39309195161574">
        <ele>19.2596435546875</ele>
        <time>2022-07-17T13:38:37Z</time>
      </trkpt>
      <trkpt lat="30.522538504855174" lon="114.39316495236508">
        <ele>20.4149169921875</ele>
        <time>2022-07-17T13:38:49Z</time>
      </trkpt>
      <trkpt lat="30.522838408646578" lon="114.39317392886036">
        <ele>23.268310546875</ele>
        <time>2022-07-17T13:39:05Z</time>
      </trkpt>
      <trkpt lat="30.523142315546394" lon="114.39315489659117">
        <ele>26.87890625</ele>
        <time>2022-07-17T13:39:20Z</time>
      </trkpt>
      <trkpt lat="30.523336255913442" lon="114.39314387634414">
        <ele>24.78265380859375</ele>
        <time>2022-07-17T13:39:29Z</time>
      </trkpt>
      <trkpt lat="30.523467223483117" lon="114.39308784820487">
        <ele>23.14599609375</ele>
        <time>2022-07-17T13:39:35Z</time>
      </trkpt>
      <trkpt lat="30.523590222755363" lon="114.39285977105902">
        <ele>20.02178955078125</ele>
        <time>2022-07-17T13:39:44Z</time>
      </trkpt>
      <trkpt lat="30.52362823834414" lon="114.39270272347869">
        <ele>19.15570068359375</ele>
        <time>2022-07-17T13:39:50Z</time>
      </trkpt>
      <trkpt lat="30.523616256632327" lon="114.39262270243242">
        <ele>20.5372314453125</ele>
        <time>2022-07-17T13:39:53Z</time>
      </trkpt>
      <trkpt lat="30.523515327770987" lon="114.39241365499292">
        <ele>22.0677490234375</ele>
        <time>2022-07-17T13:40:02Z</time>
      </trkpt>
      <trkpt lat="30.523468353657616" lon="114.39235664412051">
        <ele>23.14776611328125</ele>
        <time>2022-07-17T13:40:05Z</time>
      </trkpt>
      <trkpt lat="30.52321545120484" lon="114.3922676431511">
        <ele>26.01495361328125</ele>
        <time>2022-07-17T13:40:17Z</time>
      </trkpt>
      <trkpt lat="30.523027506725885" lon="114.39228766472928">
        <ele>23.86444091796875</ele>
        <time>2022-07-17T13:40:26Z</time>
      </trkpt>
      <trkpt lat="30.522745596264397" lon="114.39228568885211">
        <ele>22.18878173828125</ele>
        <time>2022-07-17T13:40:41Z</time>
      </trkpt>
      <trkpt lat="30.52246768052267" lon="114.39230371779288">
        <ele>22.87933349609375</ele>
        <time>2022-07-17T13:40:56Z</time>
      </trkpt>
      <trkpt lat="30.522269730717024" lon="114.39236675149586">
        <ele>18.91534423828125</ele>
        <time>2022-07-17T13:41:08Z</time>
      </trkpt>
      <trkpt lat="30.522218737361925" lon="114.39241576884247">
        <ele>17.71484375</ele>
        <time>2022-07-17T13:41:11Z</time>
      </trkpt>
      <trkpt lat="30.5221427273412" lon="114.39259682410369">
        <ele>17.140625</ele>
        <time>2022-07-17T13:41:20Z</time>
      </trkpt>
      <trkpt lat="30.52214367928203" lon="114.39286489891388">
        <ele>19.207275390625</ele>
        <time>2022-07-17T13:41:33Z</time>
      </trkpt>
      <trkpt lat="30.522191638438333" lon="114.39301693874297">
        <ele>21.15399169921875</ele>
        <time>2022-07-17T13:41:39Z</time>
      </trkpt>
      <trkpt lat="30.522294587963426" lon="114.39312696230019">
        <ele>20.35260009765625</ele>
        <time>2022-07-17T13:41:45Z</time>
      </trkpt>
      <trkpt lat="30.52247652220276" lon="114.3931789619933">
        <ele>20.7047119140625</ele>
        <time>2022-07-17T13:41:54Z</time>
      </trkpt>
      <trkpt lat="30.522658465999864" lon="114.39317094368445">
        <ele>24.3321533203125</ele>
        <time>2022-07-17T13:42:03Z</time>
      </trkpt>
      <trkpt lat="30.52271145276917" lon="114.39314893244884">
        <ele>23.8096923828125</ele>
        <time>2022-07-17T13:42:05Z</time>
      </trkpt>
      <trkpt lat="30.523000359183065" lon="114.39316291139932">
        <ele>22.94244384765625</ele>
        <time>2022-07-17T13:42:20Z</time>
      </trkpt>
      <trkpt lat="30.523248281206794" lon="114.39315988883034">
        <ele>22.07733154296875</ele>
        <time>2022-07-17T13:42:33Z</time>
      </trkpt>
      <trkpt lat="30.52343323604322" lon="114.3930768479143">
        <ele>22.82305908203125</ele>
        <time>2022-07-17T13:42:39Z</time>
      </trkpt>
      <trkpt lat="30.523493232577824" lon="114.39298281504217">
        <ele>23.51092529296875</ele>
        <time>2022-07-17T13:42:42Z</time>
      </trkpt>
      <trkpt lat="30.523564248467284" lon="114.3927597450018">
        <ele>26.37249755859375</ele>
        <time>2022-07-17T13:42:48Z</time>
      </trkpt>
      <trkpt lat="30.523554287505004" lon="114.39256169121006">
        <ele>24.265380859375</ele>
        <time>2022-07-17T13:42:54Z</time>
      </trkpt>
      <trkpt lat="30.52352031532582" lon="114.39247066969178">
        <ele>22.00146484375</ele>
        <time>2022-07-17T13:42:57Z</time>
      </trkpt>
      <trkpt lat="30.523329407825912" lon="114.3923046427371">
        <ele>23.47064208984375</ele>
        <time>2022-07-17T13:43:06Z</time>
      </trkpt>
      <trkpt lat="30.52305649676571" lon="114.39229166322822">
        <ele>23.76568603515625</ele>
        <time>2022-07-17T13:43:18Z</time>
      </trkpt>
      <trkpt lat="30.522731599702116" lon="114.39229069136587">
        <ele>20.28326416015625</ele>
        <time>2022-07-17T13:43:33Z</time>
      </trkpt>
      <trkpt lat="30.522518660303856" lon="114.39232471878363">
        <ele>19.708984375</ele>
        <time>2022-07-17T13:43:42Z</time>
      </trkpt>
      <trkpt lat="30.52238170492217" lon="114.39231772893545">
        <ele>19.77520751953125</ele>
        <time>2022-07-17T13:43:48Z</time>
      </trkpt>
      <trkpt lat="30.522302724189426" lon="114.39234674338441">
        <ele>19.6795654296875</ele>
        <time>2022-07-17T13:43:51Z</time>
      </trkpt>
      <trkpt lat="30.522236735141036" lon="114.39239776252099">
        <ele>20.613525390625</ele>
        <time>2022-07-17T13:43:54Z</time>
      </trkpt>
      <trkpt lat="30.522173715727163" lon="114.39260682412761">
        <ele>20.6087646484375</ele>
        <time>2022-07-17T13:44:00Z</time>
      </trkpt>
      <trkpt lat="30.522163683394744" lon="114.39280488009678">
        <ele>20.09381103515625</ele>
        <time>2022-07-17T13:44:06Z</time>
      </trkpt>
      <trkpt lat="30.52217966328926" lon="114.3928919035068">
        <ele>20.7496337890625</ele>
        <time>2022-07-17T13:44:09Z</time>
      </trkpt>
      <trkpt lat="30.522254614926776" lon="114.39303893970312">
        <ele>22.0535888671875</ele>
        <time>2022-07-17T13:44:15Z</time>
      </trkpt>
      <trkpt lat="30.522431540393296" lon="114.39315395841133">
        <ele>23.990478515625</ele>
        <time>2022-07-17T13:44:24Z</time>
      </trkpt>
      <trkpt lat="30.522721446893488" lon="114.39316593667697">
        <ele>22.98162841796875</ele>
        <time>2022-07-17T13:44:40Z</time>
      </trkpt>
      <trkpt lat="30.52288539283672" lon="114.3931799265603">
        <ele>22.92425537109375</ele>
        <time>2022-07-17T13:44:46Z</time>
      </trkpt>
      <trkpt lat="30.523155310315364" lon="114.39316189755644">
        <ele>22.8863525390625</ele>
        <time>2022-07-17T13:44:55Z</time>
      </trkpt>
      <trkpt lat="30.523243283588048" lon="114.39315488776666">
        <ele>23.7803955078125</ele>
        <time>2022-07-17T13:44:58Z</time>
      </trkpt>
      <trkpt lat="30.523378237666492" lon="114.3931748819809">
        <ele>27.563720703125</ele>
        <time>2022-07-17T13:45:04Z</time>
      </trkpt>
      <trkpt lat="30.523422227563962" lon="114.3931508709275">
        <ele>26.99810791015625</ele>
        <time>2022-07-17T13:45:07Z</time>
      </trkpt>
      <trkpt lat="30.523463222799673" lon="114.39309985211875">
        <ele>25.95074462890625</ele>
        <time>2022-07-17T13:45:12Z</time>
      </trkpt>
    </trkseg>
  </trk>
</gpx>