<?xml version="1.0" encoding="UTF-8"?>
<gpx xmlns="http://www.topografix.com/GPX/1/1" xmlns:gpxtpx="http://www.garmin.com/xmlschemas/TrackPointExtension/v1" xmlns:xsi="http://www.w3.org/2001/XMLSchema-instance" xsi:schemaLocation="http://www.topografix.com/GPX/1/1 http://www.topografix.com/GPX/1/1/gpx.xsd" version="1.1" creator="gpx.py -- https://github.com/tkrajina/gpxpy">
  <trk>
    <name>gpx from keep</name>
    <type>Run</type>
    <trkseg>
      <trkpt lat="31.106973978065515" lon="121.3829756540494">
        <ele>24.47589111328125</ele>
        <time>2024-06-11T10:33:48Z</time>
      </trkpt>
      <trkpt lat="31.107017891901414" lon="121.3830755786911">
        <ele>18.7674560546875</ele>
        <time>2024-06-11T10:33:54Z</time>
      </trkpt>
      <trkpt lat="31.10700784458245" lon="121.3831615184071">
        <ele>21.613037109375</ele>
        <time>2024-06-11T10:33:57Z</time>
      </trkpt>
      <trkpt lat="31.107028791383662" lon="121.38322946848005">
        <ele>21.749267578125</ele>
        <time>2024-06-11T10:34:00Z</time>
      </trkpt>
      <trkpt lat="31.10706374095637" lon="121.38328042950813">
        <ele>23.42864990234375</ele>
        <time>2024-06-11T10:34:03Z</time>
      </trkpt>
      <trkpt lat="31.10711170164279" lon="121.38330141058371">
        <ele>23.043212890625</ele>
        <time>2024-06-11T10:34:06Z</time>
      </trkpt>
      <trkpt lat="31.10715165041308" lon="121.38334937345135">
        <ele>25.04461669921875</ele>
        <time>2024-06-11T10:34:09Z</time>
      </trkpt>
      <trkpt lat="31.107205604818397" lon="121.38337535057934">
        <ele>22.6656494140625</ele>
        <time>2024-06-11T10:34:12Z</time>
      </trkpt>
      <trkpt lat="31.10728256162703" lon="121.38337634320297">
        <ele>20.42547607421875</ele>
        <time>2024-06-11T10:34:15Z</time>
      </trkpt>
      <trkpt lat="31.107390532771447" lon="121.38332536954367">
        <ele>23.7392578125</ele>
        <time>2024-06-11T10:34:21Z</time>
      </trkpt>
      <trkpt lat="31.1074535289083" lon="121.38327439990927">
        <ele>24.71905517578125</ele>
        <time>2024-06-11T10:34:24Z</time>
      </trkpt>
      <trkpt lat="31.107553620762882" lon="121.3830345614866">
        <ele>25.1680908203125</ele>
        <time>2024-06-11T10:34:33Z</time>
      </trkpt>
      <trkpt lat="31.10761373450852" lon="121.38279872633247">
        <ele>23.5042724609375</ele>
        <time>2024-06-11T10:34:42Z</time>
      </trkpt>
      <trkpt lat="31.10758291605465" lon="121.38253891938258">
        <ele>20.15869140625</ele>
        <time>2024-06-11T10:34:51Z</time>
      </trkpt>
      <trkpt lat="31.107513059437537" lon="121.38232782377436">
        <ele>27.59954833984375</ele>
        <time>2024-06-11T10:35:00Z</time>
      </trkpt>
      <trkpt lat="31.107530671499195" lon="121.38223221794294">
        <ele>28.00579833984375</ele>
        <time>2024-06-11T10:35:03Z</time>
      </trkpt>
      <trkpt lat="31.107662292374794" lon="121.38189339916235">
        <ele>22.98297119140625</ele>
        <time>2024-06-11T10:35:18Z</time>
      </trkpt>
      <trkpt lat="31.10775244524717" lon="121.3815906262885">
        <ele>23.13458251953125</ele>
        <time>2024-06-11T10:35:30Z</time>
      </trkpt>
      <trkpt lat="31.107844624648184" lon="121.38125288539015">
        <ele>28.2501220703125</ele>
        <time>2024-06-11T10:35:45Z</time>
      </trkpt>
      <trkpt lat="31.10781916957646" lon="121.38110110829587">
        <ele>29.1502685546875</ele>
        <time>2024-06-11T10:35:51Z</time>
      </trkpt>
      <trkpt lat="31.1077662385136" lon="121.3810320725851">
        <ele>26.60015869140625</ele>
        <time>2024-06-11T10:35:54Z</time>
      </trkpt>
      <trkpt lat="31.107467010979782" lon="121.38099712395322">
        <ele>30.67913818359375</ele>
        <time>2024-06-11T10:36:09Z</time>
      </trkpt>
      <trkpt lat="31.107325128639584" lon="121.3809411816828">
        <ele>29.81219482421875</ele>
        <time>2024-06-11T10:36:15Z</time>
      </trkpt>
      <trkpt lat="31.107003321450758" lon="121.38092022666838">
        <ele>35.79144287109375</ele>
        <time>2024-06-11T10:36:30Z</time>
      </trkpt>
      <trkpt lat="31.106685468000418" lon="121.3809622201203">
        <ele>33.54693603515625</ele>
        <time>2024-06-11T10:36:45Z</time>
      </trkpt>
      <trkpt lat="31.106586501831455" lon="121.38099220438319">
        <ele>31.20477294921875</ele>
        <time>2024-06-11T10:36:51Z</time>
      </trkpt>
      <trkpt lat="31.10653749688593" lon="121.381038171421">
        <ele>28.01934814453125</ele>
        <time>2024-06-11T10:36:54Z</time>
      </trkpt>
      <trkpt lat="31.106530444498997" lon="121.381119106742">
        <ele>30.8167724609375</ele>
        <time>2024-06-11T10:36:57Z</time>
      </trkpt>
      <trkpt lat="31.10654438281392" lon="121.38119704294583">
        <ele>32.3447265625</ele>
        <time>2024-06-11T10:37:00Z</time>
      </trkpt>
      <trkpt lat="31.106470338511308" lon="121.38132095044867">
        <ele>35.04638671875</ele>
        <time>2024-06-11T10:37:06Z</time>
      </trkpt>
      <trkpt lat="31.106404203616993" lon="121.38157275734123">
        <ele>35.30584716796875</ele>
        <time>2024-06-11T10:37:15Z</time>
      </trkpt>
      <trkpt lat="31.106398980345507" lon="121.38191049570423">
        <ele>30.44854736328125</ele>
        <time>2024-06-11T10:37:27Z</time>
      </trkpt>
      <trkpt lat="31.106378936592506" lon="121.38199343389404">
        <ele>30.524169921875</ele>
        <time>2024-06-11T10:37:30Z</time>
      </trkpt>
      <trkpt lat="31.106330913855455" lon="121.38206838091163">
        <ele>29.81475830078125</ele>
        <time>2024-06-11T10:37:33Z</time>
      </trkpt>
      <trkpt lat="31.106314818260536" lon="121.38222826126558">
        <ele>31.696044921875</ele>
        <time>2024-06-11T10:37:39Z</time>
      </trkpt>
      <trkpt lat="31.106249656004593" lon="121.38253603727057">
        <ele>34.7174072265625</ele>
        <time>2024-06-11T10:37:51Z</time>
      </trkpt>
      <trkpt lat="31.106179591357" lon="121.38269892360722">
        <ele>31.724853515625</ele>
        <time>2024-06-11T10:37:57Z</time>
      </trkpt>
      <trkpt lat="31.10617354368519" lon="121.38277986509055">
        <ele>36.05224609375</ele>
        <time>2024-06-11T10:38:00Z</time>
      </trkpt>
      <trkpt lat="31.106222412861374" lon="121.38294574081264">
        <ele>39.26318359375</ele>
        <time>2024-06-11T10:38:06Z</time>
      </trkpt>
      <trkpt lat="31.10634030104482" lon="121.38302067677425">
        <ele>36.47454833984375</ele>
        <time>2024-06-11T10:38:12Z</time>
      </trkpt>
      <trkpt lat="31.10645524357558" lon="121.38301067396107">
        <ele>37.9049072265625</ele>
        <time>2024-06-11T10:38:18Z</time>
      </trkpt>
      <trkpt lat="31.106540233109733" lon="121.3829517089236">
        <ele>34.65899658203125</ele>
        <time>2024-06-11T10:38:24Z</time>
      </trkpt>
      <trkpt lat="31.10668715424313" lon="121.38294769905261">
        <ele>31.3970947265625</ele>
        <time>2024-06-11T10:38:30Z</time>
      </trkpt>
      <trkpt lat="31.106766095007796" lon="121.38297267423967">
        <ele>32.04852294921875</ele>
        <time>2024-06-11T10:38:33Z</time>
      </trkpt>
      <trkpt lat="31.106887021857293" lon="121.38298265657036">
        <ele>22.9822998046875</ele>
        <time>2024-06-11T10:38:42Z</time>
      </trkpt>
      <trkpt lat="31.106990892059375" lon="121.38309956393206">
        <ele>23.996337890625</ele>
        <time>2024-06-11T10:38:51Z</time>
      </trkpt>
      <trkpt lat="31.10704274953302" lon="121.3832854278126">
        <ele>24.98480224609375</ele>
        <time>2024-06-11T10:39:00Z</time>
      </trkpt>
      <trkpt lat="31.10723061216774" lon="121.38334037290419">
        <ele>27.84051513671875</ele>
        <time>2024-06-11T10:39:09Z</time>
      </trkpt>
      <trkpt lat="31.10735755102076" lon="121.38332537240542">
        <ele>22.1033935546875</ele>
        <time>2024-06-11T10:39:15Z</time>
      </trkpt>
      <trkpt lat="31.10747451060653" lon="121.38328539035">
        <ele>21.58868408203125</ele>
        <time>2024-06-11T10:39:21Z</time>
      </trkpt>
      <trkpt lat="31.107540528986533" lon="121.38319544810608">
        <ele>20.87652587890625</ele>
        <time>2024-06-11T10:39:30Z</time>
      </trkpt>
      <trkpt lat="31.107597691432844" lon="121.38288166761687">
        <ele>15.9874267578125</ele>
        <time>2024-06-11T10:39:42Z</time>
      </trkpt>
      <trkpt lat="31.107574791886066" lon="121.38274177117688">
        <ele>16.82147216796875</ele>
        <time>2024-06-11T10:39:48Z</time>
      </trkpt>
      <trkpt lat="31.10758685916741" lon="121.38262485571991">
        <ele>17.46270751953125</ele>
        <time>2024-06-11T10:39:54Z</time>
      </trkpt>
      <trkpt lat="31.107575906547027" lon="121.38255990449686">
        <ele>21.2879638671875</ele>
        <time>2024-06-11T10:39:57Z</time>
      </trkpt>
      <trkpt lat="31.107524003643498" lon="121.38245298815998">
        <ele>23.32763671875</ele>
        <time>2024-06-11T10:40:03Z</time>
      </trkpt>
      <trkpt lat="31.107507125145396" lon="121.38227911949267">
        <ele>26.01666259765625</ele>
        <time>2024-06-11T10:40:12Z</time>
      </trkpt>
      <trkpt lat="31.107528209167537" lon="121.38213222847929">
        <ele>22.94622802734375</ele>
        <time>2024-06-11T10:40:21Z</time>
      </trkpt>
      <trkpt lat="31.10767533767222" lon="121.38181445887733">
        <ele>19.46624755859375</ele>
        <time>2024-06-11T10:40:36Z</time>
      </trkpt>
      <trkpt lat="31.107769451376807" lon="121.3815676428211">
        <ele>19.7249755859375</ele>
        <time>2024-06-11T10:40:45Z</time>
      </trkpt>
      <trkpt lat="31.107837633333116" lon="121.38124589158403">
        <ele>18.036865234375</ele>
        <time>2024-06-11T10:40:57Z</time>
      </trkpt>
      <trkpt lat="31.1078377127192" lon="121.38113098369281">
        <ele>16.7879638671875</ele>
        <time>2024-06-11T10:41:03Z</time>
      </trkpt>
      <trkpt lat="31.10781177775041" lon="121.38105804473207">
        <ele>17.91107177734375</ele>
        <time>2024-06-11T10:41:06Z</time>
      </trkpt>
      <trkpt lat="31.107768840522183" lon="121.38100209372172">
        <ele>17.40625</ele>
        <time>2024-06-11T10:41:09Z</time>
      </trkpt>
      <trkpt lat="31.107504029654958" lon="121.38094116616378">
        <ele>21.5418701171875</ele>
        <time>2024-06-11T10:41:24Z</time>
      </trkpt>
      <trkpt lat="31.10729616148682" lon="121.38091720370615">
        <ele>20.2618408203125</ele>
        <time>2024-06-11T10:41:34Z</time>
      </trkpt>
      <trkpt lat="31.1071691960359" lon="121.38096817329158">
        <ele>23.04217529296875</ele>
        <time>2024-06-11T10:41:40Z</time>
      </trkpt>
      <trkpt lat="31.106967326659813" lon="121.38094121272051">
        <ele>21.955322265625</ele>
        <time>2024-06-11T10:41:49Z</time>
      </trkpt>
      <trkpt lat="31.106676493971136" lon="121.38093224526195">
        <ele>25.39215087890625</ele>
        <time>2024-06-11T10:42:01Z</time>
      </trkpt>
      <trkpt lat="31.10661553473269" lon="121.38092225868004">
        <ele>25.1419677734375</ele>
        <time>2024-06-11T10:42:04Z</time>
      </trkpt>
      <trkpt lat="31.10652957182257" lon="121.38093725394312">
        <ele>20.21600341796875</ele>
        <time>2024-06-11T10:42:10Z</time>
      </trkpt>
      <trkpt lat="31.106481550874154" lon="121.38100520296045">
        <ele>19.8426513671875</ele>
        <time>2024-06-11T10:42:13Z</time>
      </trkpt>
      <trkpt lat="31.10647743853979" lon="121.381170070386">
        <ele>21.35699462890625</ele>
        <time>2024-06-11T10:42:19Z</time>
      </trkpt>
      <trkpt lat="31.10646040173715" lon="121.38123701824364">
        <ele>23.3184814453125</ele>
        <time>2024-06-11T10:42:22Z</time>
      </trkpt>
      <trkpt lat="31.106468163130774" lon="121.38132645228863">
        <ele>25.17694091796875</ele>
        <time>2024-06-11T10:42:25Z</time>
      </trkpt>
      <trkpt lat="31.106463214940348" lon="121.3815078032305">
        <ele>29.208984375</ele>
        <time>2024-06-11T10:42:31Z</time>
      </trkpt>
      <trkpt lat="31.106488083741358" lon="121.38168166496618">
        <ele>24.3663330078125</ele>
        <time>2024-06-11T10:42:37Z</time>
      </trkpt>
      <trkpt lat="31.106398950588392" lon="121.38195546121281">
        <ele>19.7161865234375</ele>
        <time>2024-06-11T10:42:49Z</time>
      </trkpt>
      <trkpt lat="31.106357817871665" lon="121.38219228466582">
        <ele>21.85113525390625</ele>
        <time>2024-06-11T10:42:58Z</time>
      </trkpt>
      <trkpt lat="31.10629376446766" lon="121.38232918729783">
        <ele>23.2662353515625</ele>
        <time>2024-06-11T10:43:04Z</time>
      </trkpt>
      <trkpt lat="31.106273671448978" lon="121.38249106846342">
        <ele>22.046630859375</ele>
        <time>2024-06-11T10:43:13Z</time>
      </trkpt>
      <trkpt lat="31.10622458666068" lon="121.38266694311312">
        <ele>24.3465576171875</ele>
        <time>2024-06-11T10:43:19Z</time>
      </trkpt>
      <trkpt lat="31.106228493788" lon="121.38281083780831">
        <ele>25.22015380859375</ele>
        <time>2024-06-11T10:43:25Z</time>
      </trkpt>
      <trkpt lat="31.106253439293866" lon="121.38287578858176">
        <ele>25.92462158203125</ele>
        <time>2024-06-11T10:43:28Z</time>
      </trkpt>
      <trkpt lat="31.106343323532872" lon="121.38298170446043">
        <ele>25.5052490234375</ele>
        <time>2024-06-11T10:43:34Z</time>
      </trkpt>
      <trkpt lat="31.106475249848305" lon="121.38298269229676">
        <ele>22.51556396484375</ele>
        <time>2024-06-11T10:43:40Z</time>
      </trkpt>
      <trkpt lat="31.106747135964635" lon="121.38292371112131">
        <ele>20.5794677734375</ele>
        <time>2024-06-11T10:43:55Z</time>
      </trkpt>
      <trkpt lat="31.106807103387393" lon="121.3829227066387">
        <ele>22.0909423828125</ele>
        <time>2024-06-11T10:43:58Z</time>
      </trkpt>
      <trkpt lat="31.10693099813399" lon="121.38298165347237">
        <ele>22.87799072265625</ele>
        <time>2024-06-11T10:44:04Z</time>
      </trkpt>
      <trkpt lat="31.106967938684736" lon="121.38304460515498">
        <ele>21.31231689453125</ele>
        <time>2024-06-11T10:44:07Z</time>
      </trkpt>
      <trkpt lat="31.10697880502107" lon="121.38325245659401">
        <ele>20.75341796875</ele>
        <time>2024-06-11T10:44:22Z</time>
      </trkpt>
      <trkpt lat="31.10702373818405" lon="121.38332140417528">
        <ele>26.610107421875</ele>
        <time>2024-06-11T10:44:28Z</time>
      </trkpt>
      <trkpt lat="31.107115666089292" lon="121.38335637167302">
        <ele>25.15435791015625</ele>
        <time>2024-06-11T10:44:34Z</time>
      </trkpt>
      <trkpt lat="31.1072445923177" lon="121.38336035768714">
        <ele>23.56817626953125</ele>
        <time>2024-06-11T10:44:40Z</time>
      </trkpt>
      <trkpt lat="31.107324568664325" lon="121.38332637456587">
        <ele>21.50579833984375</ele>
        <time>2024-06-11T10:44:43Z</time>
      </trkpt>
      <trkpt lat="31.107381568114967" lon="121.38327540544937">
        <ele>21.03863525390625</ele>
        <time>2024-06-11T10:44:46Z</time>
      </trkpt>
      <trkpt lat="31.107399596563965" lon="121.3832124483137">
        <ele>20.286865234375</ele>
        <time>2024-06-11T10:44:49Z</time>
      </trkpt>
      <trkpt lat="31.10752066003989" lon="121.38300058868575">
        <ele>22.9173583984375</ele>
        <time>2024-06-11T10:44:58Z</time>
      </trkpt>
      <trkpt lat="31.10762381717507" lon="121.382658827575">
        <ele>17.83544921875</ele>
        <time>2024-06-11T10:45:13Z</time>
      </trkpt>
      <trkpt lat="31.107626851646007" lon="121.38260186915079">
        <ele>16.09637451171875</ele>
        <time>2024-06-11T10:45:16Z</time>
      </trkpt>
      <trkpt lat="31.107517042819893" lon="121.38239802966159">
        <ele>20.36334228515625</ele>
        <time>2024-06-11T10:45:28Z</time>
      </trkpt>
      <trkpt lat="31.10750112911074" lon="121.38227812076332">
        <ele>19.31396484375</ele>
        <time>2024-06-11T10:45:34Z</time>
      </trkpt>
      <trkpt lat="31.107626272579424" lon="121.38195335626813">
        <ele>27.2503662109375</ele>
        <time>2024-06-11T10:45:49Z</time>
      </trkpt>
      <trkpt lat="31.107691358164374" lon="121.38177049150231">
        <ele>24.7191162109375</ele>
        <time>2024-06-11T10:45:58Z</time>
      </trkpt>
      <trkpt lat="31.107737381574992" lon="121.38169754414122">
        <ele>22.23486328125</ele>
        <time>2024-06-11T10:46:04Z</time>
      </trkpt>
      <trkpt lat="31.107747435873808" lon="121.381608612647">
        <ele>21.79571533203125</ele>
        <time>2024-06-11T10:46:10Z</time>
      </trkpt>
      <trkpt lat="31.10777844977987" lon="121.38156264595845">
        <ele>23.02618408203125</ele>
        <time>2024-06-11T10:46:13Z</time>
      </trkpt>
      <trkpt lat="31.107810659272147" lon="121.38122990670364">
        <ele>20.00592041015625</ele>
        <time>2024-06-11T10:46:28Z</time>
      </trkpt>
      <trkpt lat="31.107792778521755" lon="121.38107203508653">
        <ele>20.7164306640625</ele>
        <time>2024-06-11T10:46:34Z</time>
      </trkpt>
      <trkpt lat="31.107751838067113" lon="121.38101908144027">
        <ele>21.6846923828125</ele>
        <time>2024-06-11T10:46:37Z</time>
      </trkpt>
      <trkpt lat="31.107454060102533" lon="121.38093717374839">
        <ele>26.60089111328125</ele>
        <time>2024-06-11T10:46:52Z</time>
      </trkpt>
      <trkpt lat="31.1072741897836" lon="121.38089422433454">
        <ele>26.02130126953125</ele>
        <time>2024-06-11T10:47:01Z</time>
      </trkpt>
      <trkpt lat="31.107197229564274" lon="121.38089822775267">
        <ele>27.14990234375</ele>
        <time>2024-06-11T10:47:04Z</time>
      </trkpt>
      <trkpt lat="31.107079265401985" lon="121.38094020382279">
        <ele>25.03424072265625</ele>
        <time>2024-06-11T10:47:10Z</time>
      </trkpt>
      <trkpt lat="31.106875406287536" lon="121.38090025404053">
        <ele>24.15216064453125</ele>
        <time>2024-06-11T10:47:19Z</time>
      </trkpt>
      <trkpt lat="31.106766434369444" lon="121.3809462260855">
        <ele>24.28692626953125</ele>
        <time>2024-06-11T10:47:25Z</time>
      </trkpt>
      <trkpt lat="31.10671846372908" lon="121.38094223349565">
        <ele>21.46356201171875</ele>
        <time>2024-06-11T10:47:28Z</time>
      </trkpt>
      <trkpt lat="31.10667751163758" lon="121.38090626632192">
        <ele>21.9208984375</ele>
        <time>2024-06-11T10:47:31Z</time>
      </trkpt>
      <trkpt lat="31.10660355399155" lon="121.38090427436534">
        <ele>23.25140380859375</ele>
        <time>2024-06-11T10:47:37Z</time>
      </trkpt>
      <trkpt lat="31.10656054416908" lon="121.38095223907315">
        <ele>22.67791748046875</ele>
        <time>2024-06-11T10:47:40Z</time>
      </trkpt>
      <trkpt lat="31.10649047218295" lon="121.38111111664445">
        <ele>24.27392578125</ele>
        <time>2024-06-11T10:47:46Z</time>
      </trkpt>
      <trkpt lat="31.106432318504343" lon="121.38138090613683">
        <ele>23.33673095703125</ele>
        <time>2024-06-11T10:47:58Z</time>
      </trkpt>
      <trkpt lat="31.10646726299657" lon="121.38143386118821">
        <ele>21.71221923828125</ele>
        <time>2024-06-11T10:48:01Z</time>
      </trkpt>
      <trkpt lat="31.106490139818845" lon="121.38159673110184">
        <ele>22.2733154296875</ele>
        <time>2024-06-11T10:48:07Z</time>
      </trkpt>
      <trkpt lat="31.106416936663408" lon="121.38196145506036">
        <ele>19.53070068359375</ele>
        <time>2024-06-11T10:48:19Z</time>
      </trkpt>
      <trkpt lat="31.1063418652116" lon="121.3821333306444">
        <ele>21.98089599609375</ele>
        <time>2024-06-11T10:48:25Z</time>
      </trkpt>
      <trkpt lat="31.106288745303864" lon="121.38236316232535">
        <ele>24.842529296875</ele>
        <time>2024-06-11T10:48:37Z</time>
      </trkpt>
      <trkpt lat="31.10624971931741" lon="121.38243711059789">
        <ele>24.26202392578125</ele>
        <time>2024-06-11T10:48:40Z</time>
      </trkpt>
      <trkpt lat="31.106234667497077" lon="121.38253104226364">
        <ele>23.41485595703125</ele>
        <time>2024-06-11T10:48:43Z</time>
      </trkpt>
      <trkpt lat="31.10618960350827" lon="121.38267094321937">
        <ele>25.13958740234375</ele>
        <time>2024-06-11T10:48:49Z</time>
      </trkpt>
      <trkpt lat="31.106180558666043" lon="121.38274988631329">
        <ele>27.58935546875</ele>
        <time>2024-06-11T10:48:52Z</time>
      </trkpt>
      <trkpt lat="31.10620783260184" lon="121.38286812159522">
        <ele>32.36236572265625</ele>
        <time>2024-06-11T10:48:58Z</time>
      </trkpt>
      <trkpt lat="31.106251581635718" lon="121.38296258815664">
        <ele>30.3074951171875</ele>
        <time>2024-06-11T10:49:01Z</time>
      </trkpt>
      <trkpt lat="31.106372294469377" lon="121.38300268688884">
        <ele>26.37353515625</ele>
        <time>2024-06-11T10:49:07Z</time>
      </trkpt>
      <trkpt lat="31.106491249055047" lon="121.38296970024004">
        <ele>24.94427490234375</ele>
        <time>2024-06-11T10:49:13Z</time>
      </trkpt>
      <trkpt lat="31.106515199852534" lon="121.38302765659083">
        <ele>30.43109130859375</ele>
        <time>2024-06-11T10:49:19Z</time>
      </trkpt>
      <trkpt lat="31.106645097048695" lon="121.38307760961007">
        <ele>29.86572265625</ele>
        <time>2024-06-11T10:49:22Z</time>
      </trkpt>
      <trkpt lat="31.10673606519482" lon="121.38304762312961">
        <ele>30.354736328125</ele>
        <time>2024-06-11T10:49:25Z</time>
      </trkpt>
      <trkpt lat="31.106799014913417" lon="121.38307259982139">
        <ele>32.38232421875</ele>
        <time>2024-06-11T10:49:31Z</time>
      </trkpt>
      <trkpt lat="31.10693596503675" lon="121.38303061793798">
        <ele>31.11749267578125</ele>
        <time>2024-06-11T10:49:37Z</time>
      </trkpt>
      <trkpt lat="31.106997898036756" lon="121.3830835747223">
        <ele>30.2728271484375</ele>
        <time>2024-06-11T10:49:43Z</time>
      </trkpt>
      <trkpt lat="31.107047768678104" lon="121.38324945272497">
        <ele>28.94537353515625</ele>
        <time>2024-06-11T10:49:52Z</time>
      </trkpt>
      <trkpt lat="31.107077727740485" lon="121.38328942196499">
        <ele>30.4454345703125</ele>
        <time>2024-06-11T10:49:55Z</time>
      </trkpt>
      <trkpt lat="31.107152664400616" lon="121.38332539018289">
        <ele>31.89385986328125</ele>
        <time>2024-06-11T10:49:58Z</time>
      </trkpt>
      <trkpt lat="31.107347549883652" lon="121.38333636556087">
        <ele>27.568359375</ele>
        <time>2024-06-11T10:50:07Z</time>
      </trkpt>
      <trkpt lat="31.10749350435691" lon="121.38327839362594">
        <ele>25.3458251953125</ele>
        <time>2024-06-11T10:50:13Z</time>
      </trkpt>
      <trkpt lat="31.10754949653313" lon="121.38324041553818">
        <ele>25.5225830078125</ele>
        <time>2024-06-11T10:50:19Z</time>
      </trkpt>
      <trkpt lat="31.10756753854938" lon="121.3831554741001">
        <ele>24.33807373046875</ele>
        <time>2024-06-11T10:50:25Z</time>
      </trkpt>
      <trkpt lat="31.10756860135393" lon="121.38305254732325">
        <ele>22.65142822265625</ele>
        <time>2024-06-11T10:50:31Z</time>
      </trkpt>
      <trkpt lat="31.10759668263131" lon="121.38289665687603">
        <ele>15.724609375</ele>
        <time>2024-06-11T10:50:37Z</time>
      </trkpt>
      <trkpt lat="31.107603835828282" lon="121.38264683810424">
        <ele>11.872222900390625</ele>
        <time>2024-06-11T10:50:49Z</time>
      </trkpt>
      <trkpt lat="31.107589876548527" lon="121.38259487750743">
        <ele>10.230377197265625</ele>
        <time>2024-06-11T10:50:52Z</time>
      </trkpt>
      <trkpt lat="31.10754393953063" lon="121.38253592497934">
        <ele>10.7379150390625</ele>
        <time>2024-06-11T10:50:55Z</time>
      </trkpt>
      <trkpt lat="31.10748309704476" lon="121.38234307364552">
        <ele>18.30242919921875</ele>
        <time>2024-06-11T10:51:04Z</time>
      </trkpt>
      <trkpt lat="31.107537202231036" lon="121.38213522542746">
        <ele>19.6636962890625</ele>
        <time>2024-06-11T10:51:13Z</time>
      </trkpt>
      <trkpt lat="31.10761520887151" lon="121.38205927633616">
        <ele>18.1627197265625</ele>
        <time>2024-06-11T10:51:16Z</time>
      </trkpt>
      <trkpt lat="31.107730387456318" lon="121.38169454708061">
        <ele>18.87713623046875</ele>
        <time>2024-06-11T10:51:28Z</time>
      </trkpt>
      <trkpt lat="31.107761473376634" lon="121.38154166389948">
        <ele>20.166748046875</ele>
        <time>2024-06-11T10:51:34Z</time>
      </trkpt>
      <trkpt lat="31.10782852394066" lon="121.38141275969207">
        <ele>19.6827392578125</ele>
        <time>2024-06-11T10:51:40Z</time>
      </trkpt>
      <trkpt lat="31.107838631404274" lon="121.38124788990082">
        <ele>19.65313720703125</ele>
        <time>2024-06-11T10:51:46Z</time>
      </trkpt>
      <trkpt lat="31.1078606799383" lon="121.38115995841379">
        <ele>20.12017822265625</ele>
        <time>2024-06-11T10:51:49Z</time>
      </trkpt>
      <trkpt lat="31.107821788226623" lon="121.38103506243716">
        <ele>20.2371826171875</ele>
        <time>2024-06-11T10:51:55Z</time>
      </trkpt>
      <trkpt lat="31.10751702876756" lon="121.38093217234953">
        <ele>31.04510498046875</ele>
        <time>2024-06-11T10:52:13Z</time>
      </trkpt>
      <trkpt lat="31.10724820275999" lon="121.3808962249598">
        <ele>26.3721923828125</ele>
        <time>2024-06-11T10:52:25Z</time>
      </trkpt>
      <trkpt lat="31.107108292831715" lon="121.38087825176395">
        <ele>26.65081787109375</ele>
        <time>2024-06-11T10:52:31Z</time>
      </trkpt>
      <trkpt lat="31.106820405190113" lon="121.38094522221601">
        <ele>30.551513671875</ele>
        <time>2024-06-11T10:52:43Z</time>
      </trkpt>
      <trkpt lat="31.106690465233555" lon="121.38096221968681">
        <ele>30.3702392578125</ele>
        <time>2024-06-11T10:52:49Z</time>
      </trkpt>
      <trkpt lat="31.106641500741294" lon="121.3809502336745">
        <ele>31.4752197265625</ele>
        <time>2024-06-11T10:52:52Z</time>
      </trkpt>
      <trkpt lat="31.106542494814853" lon="121.3810371717954">
        <ele>25.5609130859375</ele>
        <time>2024-06-11T10:53:01Z</time>
      </trkpt>
      <trkpt lat="31.10647445057008" lon="121.38115508267806">
        <ele>26.83123779296875</ele>
        <time>2024-06-11T10:53:07Z</time>
      </trkpt>
      <trkpt lat="31.10642545074806" lon="121.38119405566471">
        <ele>26.6259765625</ele>
        <time>2024-06-11T10:53:10Z</time>
      </trkpt>
      <trkpt lat="31.10639155453604" lon="121.38127736517315">
        <ele>25.30419921875</ele>
        <time>2024-06-11T10:53:13Z</time>
      </trkpt>
      <trkpt lat="31.10641817562473" lon="121.38160273265274">
        <ele>25.52276611328125</ele>
        <time>2024-06-11T10:53:22Z</time>
      </trkpt>
      <trkpt lat="31.106384951735865" lon="121.38196545477469">
        <ele>21.810791015625</ele>
        <time>2024-06-11T10:53:43Z</time>
      </trkpt>
      <trkpt lat="31.106364841377612" lon="121.38215031578521">
        <ele>23.47998046875</ele>
        <time>2024-06-11T10:53:49Z</time>
      </trkpt>
      <trkpt lat="31.106294704674358" lon="121.38242111858983">
        <ele>25.64874267578125</ele>
        <time>2024-06-11T10:54:01Z</time>
      </trkpt>
      <trkpt lat="31.106248678258495" lon="121.3825020624888">
        <ele>22.6949462890625</ele>
        <time>2024-06-11T10:54:04Z</time>
      </trkpt>
      <trkpt lat="31.106206541755345" lon="121.38275388114575">
        <ele>23.9111328125</ele>
        <time>2024-06-11T10:54:13Z</time>
      </trkpt>
      <trkpt lat="31.106266383532795" lon="121.3829537312454">
        <ele>26.62640380859375</ele>
        <time>2024-06-11T10:54:25Z</time>
      </trkpt>
      <trkpt lat="31.106312336354502" lon="121.38298870212729">
        <ele>26.57684326171875</ele>
        <time>2024-06-11T10:54:28Z</time>
      </trkpt>
      <trkpt lat="31.10646925688952" lon="121.38297669712254">
        <ele>25.864990234375</ele>
        <time>2024-06-11T10:54:34Z</time>
      </trkpt>
      <trkpt lat="31.106591211097975" lon="121.38294171169251">
        <ele>26.860107421875</ele>
        <time>2024-06-11T10:54:40Z</time>
      </trkpt>
      <trkpt lat="31.106901009773058" lon="121.38298965033538">
        <ele>26.57763671875</ele>
        <time>2024-06-11T10:54:58Z</time>
      </trkpt>
      <trkpt lat="31.106943959992822" lon="121.38303161652908">
        <ele>24.14105224609375</ele>
        <time>2024-06-11T10:55:01Z</time>
      </trkpt>
      <trkpt lat="31.10698182837335" lon="121.38321148526853">
        <ele>26.25732421875</ele>
        <time>2024-06-11T10:55:10Z</time>
      </trkpt>
      <trkpt lat="31.107019761648505" lon="121.38328642910393">
        <ele>26.69598388671875</ele>
        <time>2024-06-11T10:55:13Z</time>
      </trkpt>
      <trkpt lat="31.10713868731528" lon="121.38330040894479">
        <ele>31.24969482421875</ele>
        <time>2024-06-11T10:55:22Z</time>
      </trkpt>
      <trkpt lat="31.107216672151576" lon="121.38325443454565">
        <ele>27.5191650390625</ele>
        <time>2024-06-11T10:55:28Z</time>
      </trkpt>
      <trkpt lat="31.107246716059716" lon="121.38315550193671">
        <ele>28.48480224609375</ele>
        <time>2024-06-11T10:55:34Z</time>
      </trkpt>
      <trkpt lat="31.107237778225237" lon="121.38306256888745">
        <ele>29.41668701171875</ele>
        <time>2024-06-11T10:55:40Z</time>
      </trkpt>
      <trkpt lat="31.10741969362244" lon="121.38303657167683">
        <ele>26.31939697265625</ele>
        <time>2024-06-11T10:55:52Z</time>
      </trkpt>
      <trkpt lat="31.107463796770546" lon="121.38283171540482">
        <ele>26.854736328125</ele>
        <time>2024-06-11T10:56:04Z</time>
      </trkpt>
      <trkpt lat="31.10746283746201" lon="121.38276776195742">
        <ele>28.80194091796875</ele>
        <time>2024-06-11T10:56:13Z</time>
      </trkpt>
      <trkpt lat="31.107242170490682" lon="121.38243602523787">
        <ele>33.029296875</ele>
        <time>2024-06-11T11:11:05Z</time>
      </trkpt>
      <trkpt lat="31.107225227472664" lon="121.38236208182511">
        <ele>29.896240234375</ele>
        <time>2024-06-11T11:11:11Z</time>
      </trkpt>
      <trkpt lat="31.107185280574143" lon="121.38231412117916">
        <ele>28.79443359375</ele>
        <time>2024-06-11T11:11:14Z</time>
      </trkpt>
      <trkpt lat="31.10720730985008" lon="121.38225016728607">
        <ele>24.8109130859375</ele>
        <time>2024-06-11T11:11:17Z</time>
      </trkpt>
      <trkpt lat="31.10720135933403" lon="121.38217922129569">
        <ele>23.0645751953125</ele>
        <time>2024-06-11T11:11:23Z</time>
      </trkpt>
      <trkpt lat="31.107243356323032" lon="121.38214824108202">
        <ele>20.2171630859375</ele>
        <time>2024-06-11T11:11:29Z</time>
      </trkpt>
      <trkpt lat="31.107298303731127" lon="121.38218221062002">
        <ele>21.31756591796875</ele>
        <time>2024-06-11T11:11:35Z</time>
      </trkpt>
      <trkpt lat="31.107338326001752" lon="121.38211425859146">
        <ele>20.5257568359375</ele>
        <time>2024-06-11T11:11:41Z</time>
      </trkpt>
      <trkpt lat="31.107349364491967" lon="121.38204630929258">
        <ele>16.87890625</ele>
        <time>2024-06-11T11:11:47Z</time>
      </trkpt>
      <trkpt lat="31.10729144198231" lon="121.3819773669559">
        <ele>16.6207275390625</ele>
        <time>2024-06-11T11:11:53Z</time>
      </trkpt>
      <trkpt lat="31.107225496967057" lon="121.38194939410049">
        <ele>23.80810546875</ele>
        <time>2024-06-11T11:11:59Z</time>
      </trkpt>
      <trkpt lat="31.10715253734386" lon="121.3819494004301">
        <ele>23.79241943359375</ele>
        <time>2024-06-11T11:12:05Z</time>
      </trkpt>
      <trkpt lat="31.10708356098658" lon="121.38197138957835">
        <ele>26.69036865234375</ele>
        <time>2024-06-11T11:12:11Z</time>
      </trkpt>
      <trkpt lat="31.107063512173724" lon="121.38206232191767">
        <ele>22.31695556640625</ele>
        <time>2024-06-11T11:12:17Z</time>
      </trkpt>
      <trkpt lat="31.107057401258654" lon="121.38223719006876">
        <ele>20.25811767578125</ele>
        <time>2024-06-11T11:12:29Z</time>
      </trkpt>
      <trkpt lat="31.106973252783735" lon="121.38253997153909">
        <ele>19.2213134765625</ele>
        <time>2024-06-11T11:12:50Z</time>
      </trkpt>
      <trkpt lat="31.10688607836447" lon="121.38289272141714">
        <ele>22.1116943359375</ele>
        <time>2024-06-11T11:13:14Z</time>
      </trkpt>
      <trkpt lat="31.106821955457754" lon="121.3831485437579">
        <ele>22.5548095703125</ele>
        <time>2024-06-11T11:13:32Z</time>
      </trkpt>
      <trkpt lat="31.106790933436663" lon="121.38321250112487">
        <ele>22.95458984375</ele>
        <time>2024-06-11T11:13:38Z</time>
      </trkpt>
    </trkseg>
  </trk>
</gpx>