<?xml version="1.0" encoding="UTF-8"?>
<gpx xmlns="http://www.topografix.com/GPX/1/1" xmlns:gpxtpx="http://www.garmin.com/xmlschemas/TrackPointExtension/v1" xmlns:xsi="http://www.w3.org/2001/XMLSchema-instance" xsi:schemaLocation="http://www.topografix.com/GPX/1/1 http://www.topografix.com/GPX/1/1/gpx.xsd" version="1.1" creator="gpx.py -- https://github.com/tkrajina/gpxpy">
  <trk>
    <name>gpx from keep</name>
    <type>Run</type>
    <trkseg>
      <trkpt lat="31.4728596966345" lon="120.25375075437191">
        <ele>11.547637939453125</ele>
        <time>2024-09-29T13:29:37Z</time>
      </trkpt>
      <trkpt lat="31.47244132945775" lon="120.2536978484145">
        <ele>7.572617447935045</ele>
        <time>2024-09-29T13:30:04Z</time>
      </trkpt>
      <trkpt lat="31.472152028606075" lon="120.25365338396398">
        <ele>7.564991295337677</ele>
        <time>2024-09-29T13:30:16Z</time>
      </trkpt>
      <trkpt lat="31.4720019516428" lon="120.25364830660394">
        <ele>6.6046385411173105</ele>
        <time>2024-09-29T13:30:22Z</time>
      </trkpt>
      <trkpt lat="31.47193006793737" lon="120.2536664298277">
        <ele>7.7845212342217565</ele>
        <time>2024-09-29T13:30:25Z</time>
      </trkpt>
      <trkpt lat="31.47185657926302" lon="120.25371418445006">
        <ele>7.7044806610792875</ele>
        <time>2024-09-29T13:30:28Z</time>
      </trkpt>
      <trkpt lat="31.471787436487755" lon="120.25378687892656">
        <ele>8.410057570785284</ele>
        <time>2024-09-29T13:30:31Z</time>
      </trkpt>
      <trkpt lat="31.471704739279726" lon="120.25397478348916">
        <ele>7.494633793830872</ele>
        <time>2024-09-29T13:30:37Z</time>
      </trkpt>
      <trkpt lat="31.471694025632004" lon="120.25408883133609">
        <ele>8.942572360858321</ele>
        <time>2024-09-29T13:30:40Z</time>
      </trkpt>
      <trkpt lat="31.471727748797225" lon="120.25427169567021">
        <ele>6.480972871184349</ele>
        <time>2024-09-29T13:30:46Z</time>
      </trkpt>
      <trkpt lat="31.471804670646577" lon="120.25441179997256">
        <ele>5.720576366409659</ele>
        <time>2024-09-29T13:30:52Z</time>
      </trkpt>
      <trkpt lat="31.47191879826322" lon="120.25452214140472">
        <ele>7.535439311526716</ele>
        <time>2024-09-29T13:30:58Z</time>
      </trkpt>
      <trkpt lat="31.47218126189441" lon="120.25460974743896">
        <ele>8.468977136537433</ele>
        <time>2024-09-29T13:31:07Z</time>
      </trkpt>
      <trkpt lat="31.472524425958532" lon="120.25470318993494">
        <ele>9.777987169101834</ele>
        <time>2024-09-29T13:31:19Z</time>
      </trkpt>
      <trkpt lat="31.47279491342428" lon="120.25471839145244">
        <ele>10.634894917719066</ele>
        <time>2024-09-29T13:31:28Z</time>
      </trkpt>
      <trkpt lat="31.47287450298714" lon="120.25469677763634">
        <ele>10.34194737765938</ele>
        <time>2024-09-29T13:31:31Z</time>
      </trkpt>
      <trkpt lat="31.47301553249344" lon="120.2545986197615">
        <ele>10.121385659091175</ele>
        <time>2024-09-29T13:31:37Z</time>
      </trkpt>
      <trkpt lat="31.473136685237012" lon="120.25440902399191">
        <ele>9.762781457975507</ele>
        <time>2024-09-29T13:31:44Z</time>
      </trkpt>
      <trkpt lat="31.473159275246502" lon="120.25431141137466">
        <ele>8.901838464662433</ele>
        <time>2024-09-29T13:31:47Z</time>
      </trkpt>
      <trkpt lat="31.473154459115726" lon="120.25412856758093">
        <ele>8.75848433189094</ele>
        <time>2024-09-29T13:31:53Z</time>
      </trkpt>
      <trkpt lat="31.473084951969586" lon="120.25396180922976">
        <ele>8.62013993319124</ele>
        <time>2024-09-29T13:31:59Z</time>
      </trkpt>
      <trkpt lat="31.47296847969004" lon="120.25384499454044">
        <ele>10.098577823489904</ele>
        <time>2024-09-29T13:32:05Z</time>
      </trkpt>
      <trkpt lat="31.47274869762478" lon="120.25377678047992">
        <ele>7.941986722871661</ele>
        <time>2024-09-29T13:32:14Z</time>
      </trkpt>
      <trkpt lat="31.472528786289285" lon="120.2537515122253">
        <ele>9.114884478971362</ele>
        <time>2024-09-29T13:32:23Z</time>
      </trkpt>
      <trkpt lat="31.472447575806186" lon="120.25372091365129">
        <ele>9.417267240583897</ele>
        <time>2024-09-29T13:32:26Z</time>
      </trkpt>
      <trkpt lat="31.472292031384594" lon="120.25370125668942">
        <ele>8.559828049503267</ele>
        <time>2024-09-29T13:32:32Z</time>
      </trkpt>
      <trkpt lat="31.47220900065677" lon="120.25367187034502">
        <ele>10.568796263076365</ele>
        <time>2024-09-29T13:32:35Z</time>
      </trkpt>
      <trkpt lat="31.472052533847293" lon="120.25365178503009">
        <ele>8.242817047983408</ele>
        <time>2024-09-29T13:32:41Z</time>
      </trkpt>
      <trkpt lat="31.471917260556612" lon="120.25369227790051">
        <ele>8.866268331184983</ele>
        <time>2024-09-29T13:32:47Z</time>
      </trkpt>
      <trkpt lat="31.471790704555684" lon="120.25379008417544">
        <ele>8.235763280652463</ele>
        <time>2024-09-29T13:32:53Z</time>
      </trkpt>
      <trkpt lat="31.47171414061066" lon="120.253957365585">
        <ele>7.0292127802968025</ele>
        <time>2024-09-29T13:32:59Z</time>
      </trkpt>
      <trkpt lat="31.471695325651424" lon="120.25412888148927">
        <ele>7.451985972002149</ele>
        <time>2024-09-29T13:33:05Z</time>
      </trkpt>
      <trkpt lat="31.471702737787655" lon="120.25421537003473">
        <ele>7.320438811555505</ele>
        <time>2024-09-29T13:33:08Z</time>
      </trkpt>
      <trkpt lat="31.47180630944068" lon="120.25443411766553">
        <ele>5.445549696683884</ele>
        <time>2024-09-29T13:33:17Z</time>
      </trkpt>
      <trkpt lat="31.471997487881065" lon="120.25455612518917">
        <ele>5.646986215375364</ele>
        <time>2024-09-29T13:33:26Z</time>
      </trkpt>
      <trkpt lat="31.472278478029562" lon="120.25462602781963">
        <ele>8.484975315630436</ele>
        <time>2024-09-29T13:33:38Z</time>
      </trkpt>
      <trkpt lat="31.47260387519704" lon="120.25468682325979">
        <ele>7.13136241864413</ele>
        <time>2024-09-29T13:33:51Z</time>
      </trkpt>
      <trkpt lat="31.472744121747347" lon="120.2547175311977">
        <ele>9.628840405493975</ele>
        <time>2024-09-29T13:33:57Z</time>
      </trkpt>
      <trkpt lat="31.472909357790314" lon="120.2546658114869">
        <ele>11.371802088804543</ele>
        <time>2024-09-29T13:34:03Z</time>
      </trkpt>
      <trkpt lat="31.473039643236863" lon="120.25456243356294">
        <ele>8.677893043495715</ele>
        <time>2024-09-29T13:34:09Z</time>
      </trkpt>
      <trkpt lat="31.473096240628145" lon="120.25448957431635">
        <ele>8.723371560685337</ele>
        <time>2024-09-29T13:34:12Z</time>
      </trkpt>
      <trkpt lat="31.473163049333177" lon="120.25431119976997">
        <ele>8.736049646511674</ele>
        <time>2024-09-29T13:34:18Z</time>
      </trkpt>
      <trkpt lat="31.473151832820665" lon="120.25410714357115">
        <ele>9.274792865850031</ele>
        <time>2024-09-29T13:34:24Z</time>
      </trkpt>
      <trkpt lat="31.47310664669226" lon="120.25401403284087">
        <ele>8.778306293301284</ele>
        <time>2024-09-29T13:34:27Z</time>
      </trkpt>
      <trkpt lat="31.473034144698445" lon="120.25391437527689">
        <ele>8.512073076330125</ele>
        <time>2024-09-29T13:34:30Z</time>
      </trkpt>
      <trkpt lat="31.472890431906972" lon="120.25382142123193">
        <ele>8.375137645751238</ele>
        <time>2024-09-29T13:34:36Z</time>
      </trkpt>
      <trkpt lat="31.472662903300996" lon="120.25378792723474">
        <ele>8.117738422006369</ele>
        <time>2024-09-29T13:34:45Z</time>
      </trkpt>
      <trkpt lat="31.47236352815244" lon="120.25371419509064">
        <ele>7.364901033230126</ele>
        <time>2024-09-29T13:34:57Z</time>
      </trkpt>
      <trkpt lat="31.47215122846394" lon="120.25366273058087">
        <ele>6.391369690187275</ele>
        <time>2024-09-29T13:35:06Z</time>
      </trkpt>
      <trkpt lat="31.47201163884485" lon="120.25365047299572">
        <ele>7.085119626484811</ele>
        <time>2024-09-29T13:35:12Z</time>
      </trkpt>
      <trkpt lat="31.471878498672424" lon="120.25370437072401">
        <ele>8.31353428028524</ele>
        <time>2024-09-29T13:35:18Z</time>
      </trkpt>
      <trkpt lat="31.471771409827117" lon="120.2538116039671">
        <ele>8.225464523769915</ele>
        <time>2024-09-29T13:35:24Z</time>
      </trkpt>
      <trkpt lat="31.47172651152456" lon="120.25388023930883">
        <ele>8.032465778291225</ele>
        <time>2024-09-29T13:35:27Z</time>
      </trkpt>
      <trkpt lat="31.471699003284332" lon="120.25412294082531">
        <ele>7.02289482858032</ele>
        <time>2024-09-29T13:35:36Z</time>
      </trkpt>
      <trkpt lat="31.471734843843528" lon="120.25428368099904">
        <ele>5.463354081846774</ele>
        <time>2024-09-29T13:35:42Z</time>
      </trkpt>
      <trkpt lat="31.47183169089811" lon="120.25444740148804">
        <ele>5.554038859903812</ele>
        <time>2024-09-29T13:35:48Z</time>
      </trkpt>
      <trkpt lat="31.471991285962815" lon="120.25456670785137">
        <ele>6.198031955398619</ele>
        <time>2024-09-29T13:35:55Z</time>
      </trkpt>
      <trkpt lat="31.472061761986637" lon="120.25456125994282">
        <ele>6.449161842465401</ele>
        <time>2024-09-29T13:35:58Z</time>
      </trkpt>
      <trkpt lat="31.472203744655133" lon="120.25460688526765">
        <ele>7.812288152053952</ele>
        <time>2024-09-29T13:36:04Z</time>
      </trkpt>
      <trkpt lat="31.472314582418083" lon="120.25462080720241">
        <ele>11.171586737968028</ele>
        <time>2024-09-29T13:36:08Z</time>
      </trkpt>
      <trkpt lat="31.47247186215233" lon="120.25467182145196">
        <ele>9.48792595230043</ele>
        <time>2024-09-29T13:36:14Z</time>
      </trkpt>
      <trkpt lat="31.47271897293893" lon="120.25470428302616">
        <ele>8.269632913172245</ele>
        <time>2024-09-29T13:36:23Z</time>
      </trkpt>
      <trkpt lat="31.47290044043706" lon="120.25467909307727">
        <ele>9.998519961722195</ele>
        <time>2024-09-29T13:36:29Z</time>
      </trkpt>
      <trkpt lat="31.47305787980288" lon="120.25455346989793">
        <ele>8.449407893233001</ele>
        <time>2024-09-29T13:36:35Z</time>
      </trkpt>
      <trkpt lat="31.47314608538234" lon="120.25435245856968">
        <ele>9.23246633913368</ele>
        <time>2024-09-29T13:36:41Z</time>
      </trkpt>
      <trkpt lat="31.47315937483508" lon="120.25423075978101">
        <ele>9.61632717307657</ele>
        <time>2024-09-29T13:36:44Z</time>
      </trkpt>
      <trkpt lat="31.47315310982272" lon="120.25412728556562">
        <ele>8.568630048073828</ele>
        <time>2024-09-29T13:36:47Z</time>
      </trkpt>
      <trkpt lat="31.47311146143729" lon="120.25401917336853">
        <ele>9.5173483742401</ele>
        <time>2024-09-29T13:36:50Z</time>
      </trkpt>
      <trkpt lat="31.473009004684258" lon="120.25388455232722">
        <ele>8.796653068624437</ele>
        <time>2024-09-29T13:36:56Z</time>
      </trkpt>
      <trkpt lat="31.472944336503872" lon="120.25383046400052">
        <ele>8.925388772971928</ele>
        <time>2024-09-29T13:36:59Z</time>
      </trkpt>
      <trkpt lat="31.472875366972684" lon="120.2538002286627">
        <ele>8.302866520360112</ele>
        <time>2024-09-29T13:37:02Z</time>
      </trkpt>
      <trkpt lat="31.47257293037715" lon="120.25375574502426">
        <ele>8.6604926539585</ele>
        <time>2024-09-29T13:37:14Z</time>
      </trkpt>
      <trkpt lat="31.47249580647382" lon="120.25373215458175">
        <ele>8.293888542801142</ele>
        <time>2024-09-29T13:37:17Z</time>
      </trkpt>
      <trkpt lat="31.47241243870771" lon="120.25373579636866">
        <ele>8.886700976639986</ele>
        <time>2024-09-29T13:37:20Z</time>
      </trkpt>
      <trkpt lat="31.472252559431393" lon="120.2536897697302">
        <ele>8.840467501431704</ele>
        <time>2024-09-29T13:37:26Z</time>
      </trkpt>
      <trkpt lat="31.47218897239646" lon="120.25369265439896">
        <ele>7.94567649718374</ele>
        <time>2024-09-29T13:37:29Z</time>
      </trkpt>
      <trkpt lat="31.472055816590366" lon="120.25365318878985">
        <ele>6.410156418569386</ele>
        <time>2024-09-29T13:37:35Z</time>
      </trkpt>
      <trkpt lat="31.471922957738634" lon="120.25367292424956">
        <ele>7.507553271017969</ele>
        <time>2024-09-29T13:37:41Z</time>
      </trkpt>
      <trkpt lat="31.471811184935877" lon="120.2537583150487">
        <ele>6.365251294337213</ele>
        <time>2024-09-29T13:37:47Z</time>
      </trkpt>
      <trkpt lat="31.471702449214863" lon="120.25392879771266">
        <ele>4.8229479771107435</ele>
        <time>2024-09-29T13:37:59Z</time>
      </trkpt>
      <trkpt lat="31.471679170422004" lon="120.2540883560429">
        <ele>5.15187949873507</ele>
        <time>2024-09-29T13:38:06Z</time>
      </trkpt>
      <trkpt lat="31.47171894715524" lon="120.2542870193404">
        <ele>4.696603023447096</ele>
        <time>2024-09-29T13:38:14Z</time>
      </trkpt>
      <trkpt lat="31.47180643416509" lon="120.25443745335282">
        <ele>4.021759321913123</ele>
        <time>2024-09-29T13:38:21Z</time>
      </trkpt>
      <trkpt lat="31.471914638846723" lon="120.25452491575399">
        <ele>5.462559720501304</ele>
        <time>2024-09-29T13:38:27Z</time>
      </trkpt>
      <trkpt lat="31.472201176699862" lon="120.25460739063352">
        <ele>9.521367023698986</ele>
        <time>2024-09-29T13:38:39Z</time>
      </trkpt>
      <trkpt lat="31.4725046903468" lon="120.25469184735846">
        <ele>8.840253082104027</ele>
        <time>2024-09-29T13:38:51Z</time>
      </trkpt>
      <trkpt lat="31.47271048126667" lon="120.25472804600183">
        <ele>8.458456467837095</ele>
        <time>2024-09-29T13:39:00Z</time>
      </trkpt>
      <trkpt lat="31.47300251325608" lon="120.25463054820679">
        <ele>9.247023221105337</ele>
        <time>2024-09-29T13:39:12Z</time>
      </trkpt>
      <trkpt lat="31.473111619639667" lon="120.25448080010807">
        <ele>8.755277085117996</ele>
        <time>2024-09-29T13:39:18Z</time>
      </trkpt>
      <trkpt lat="31.473170505005605" lon="120.2542852889627">
        <ele>8.861161019653082</ele>
        <time>2024-09-29T13:39:24Z</time>
      </trkpt>
      <trkpt lat="31.473139884097804" lon="120.25407429304863">
        <ele>8.475412002764642</ele>
        <time>2024-09-29T13:39:30Z</time>
      </trkpt>
      <trkpt lat="31.47309169625799" lon="120.25397921086464">
        <ele>8.038953297771513</ele>
        <time>2024-09-29T13:39:33Z</time>
      </trkpt>
      <trkpt lat="31.47296461383631" lon="120.25386368753556">
        <ele>8.330113126896322</ele>
        <time>2024-09-29T13:39:39Z</time>
      </trkpt>
      <trkpt lat="31.472655838673514" lon="120.25377486089401">
        <ele>6.697372174821794</ele>
        <time>2024-09-29T13:39:51Z</time>
      </trkpt>
      <trkpt lat="31.472300039861196" lon="120.25369328028775">
        <ele>7.421945817768574</ele>
        <time>2024-09-29T13:40:07Z</time>
      </trkpt>
      <trkpt lat="31.472076972601297" lon="120.25365120179403">
        <ele>7.423023081384599</ele>
        <time>2024-09-29T13:40:16Z</time>
      </trkpt>
      <trkpt lat="31.471973338153276" lon="120.25366585478774">
        <ele>6.706917583942413</ele>
        <time>2024-09-29T13:40:20Z</time>
      </trkpt>
      <trkpt lat="31.471816339448356" lon="120.25374735494998">
        <ele>7.313945250585675</ele>
        <time>2024-09-29T13:40:26Z</time>
      </trkpt>
      <trkpt lat="31.47171705491079" lon="120.2539041644106">
        <ele>8.079232460819185</ele>
        <time>2024-09-29T13:40:32Z</time>
      </trkpt>
      <trkpt lat="31.471698991986674" lon="120.25409674653797">
        <ele>7.671700572595</ele>
        <time>2024-09-29T13:40:38Z</time>
      </trkpt>
      <trkpt lat="31.471722317991752" lon="120.25430281132707">
        <ele>7.578277210704982</ele>
        <time>2024-09-29T13:40:44Z</time>
      </trkpt>
      <trkpt lat="31.471778288605314" lon="120.2543943686499">
        <ele>6.9312650403007865</ele>
        <time>2024-09-29T13:40:47Z</time>
      </trkpt>
      <trkpt lat="31.471986618080216" lon="120.2545484532566">
        <ele>6.818414092995226</ele>
        <time>2024-09-29T13:40:56Z</time>
      </trkpt>
      <trkpt lat="31.4723266978891" lon="120.25462932134478">
        <ele>8.23464075755328</ele>
        <time>2024-09-29T13:41:08Z</time>
      </trkpt>
      <trkpt lat="31.47242775473385" lon="120.25463786866011">
        <ele>11.665422949008644</ele>
        <time>2024-09-29T13:41:11Z</time>
      </trkpt>
      <trkpt lat="31.472517640499223" lon="120.25467103690121">
        <ele>11.941172900609672</ele>
        <time>2024-09-29T13:41:14Z</time>
      </trkpt>
      <trkpt lat="31.47265210902662" lon="120.2546777634725">
        <ele>12.057374090887606</ele>
        <time>2024-09-29T13:41:17Z</time>
      </trkpt>
      <trkpt lat="31.472756840267365" lon="120.25470774759795">
        <ele>11.46730972174555</ele>
        <time>2024-09-29T13:41:20Z</time>
      </trkpt>
      <trkpt lat="31.472952547891943" lon="120.2546341502257">
        <ele>11.536252462305129</ele>
        <time>2024-09-29T13:41:26Z</time>
      </trkpt>
      <trkpt lat="31.473088742952342" lon="120.25449196292799">
        <ele>10.608445168472826</ele>
        <time>2024-09-29T13:41:32Z</time>
      </trkpt>
      <trkpt lat="31.473149154565977" lon="120.25430737615888">
        <ele>8.551156491041183</ele>
        <time>2024-09-29T13:41:38Z</time>
      </trkpt>
      <trkpt lat="31.473118051306397" lon="120.25408846648237">
        <ele>9.916317927651107</ele>
        <time>2024-09-29T13:41:44Z</time>
      </trkpt>
      <trkpt lat="31.473035921805856" lon="120.25393350490324">
        <ele>9.351162654347718</ele>
        <time>2024-09-29T13:41:50Z</time>
      </trkpt>
      <trkpt lat="31.47293845454063" lon="120.25384143354908">
        <ele>7.094934788532555</ele>
        <time>2024-09-29T13:41:56Z</time>
      </trkpt>
      <trkpt lat="31.47264656935811" lon="120.25378062032203">
        <ele>7.439976703375578</ele>
        <time>2024-09-29T13:42:08Z</time>
      </trkpt>
      <trkpt lat="31.472345769767106" lon="120.25371997635197">
        <ele>6.281997017562389</ele>
        <time>2024-09-29T13:42:21Z</time>
      </trkpt>
      <trkpt lat="31.472060741243762" lon="120.25368233690686">
        <ele>5.6563788037747145</ele>
        <time>2024-09-29T13:42:34Z</time>
      </trkpt>
      <trkpt lat="31.471923233256497" lon="120.25370281043907">
        <ele>4.980631103739142</ele>
        <time>2024-09-29T13:42:40Z</time>
      </trkpt>
      <trkpt lat="31.471814636892823" lon="120.25379274501353">
        <ele>10.224882661364973</ele>
        <time>2024-09-29T13:42:46Z</time>
      </trkpt>
      <trkpt lat="31.47175985729607" lon="120.25386104981887">
        <ele>9.643011840991676</ele>
        <time>2024-09-29T13:42:49Z</time>
      </trkpt>
      <trkpt lat="31.47171447245265" lon="120.25401689131346">
        <ele>8.693591854535043</ele>
        <time>2024-09-29T13:42:55Z</time>
      </trkpt>
      <trkpt lat="31.471730461545672" lon="120.25425184534107">
        <ele>8.81562112737447</ele>
        <time>2024-09-29T13:43:04Z</time>
      </trkpt>
      <trkpt lat="31.471800047209" lon="120.25439155821897">
        <ele>7.290558405220509</ele>
        <time>2024-09-29T13:43:10Z</time>
      </trkpt>
      <trkpt lat="31.47185098220315" lon="120.25445386066013">
        <ele>5.62563712336123</ele>
        <time>2024-09-29T13:43:13Z</time>
      </trkpt>
      <trkpt lat="31.472036620380695" lon="120.25457865839174">
        <ele>6.038855460472405</ele>
        <time>2024-09-29T13:43:22Z</time>
      </trkpt>
      <trkpt lat="31.472318883705427" lon="120.2546519825225">
        <ele>8.873308565467596</ele>
        <time>2024-09-29T13:43:34Z</time>
      </trkpt>
      <trkpt lat="31.472591746004927" lon="120.25469288632311">
        <ele>8.07230490166694</ele>
        <time>2024-09-29T13:43:46Z</time>
      </trkpt>
      <trkpt lat="31.472712109314795" lon="120.2547128213538">
        <ele>9.269263216294348</ele>
        <time>2024-09-29T13:43:52Z</time>
      </trkpt>
      <trkpt lat="31.472770982462517" lon="120.25469301823686">
        <ele>9.392328569665551</ele>
        <time>2024-09-29T13:43:55Z</time>
      </trkpt>
      <trkpt lat="31.47284930451136" lon="120.25469203055881">
        <ele>8.8287836574018</ele>
        <time>2024-09-29T13:43:58Z</time>
      </trkpt>
      <trkpt lat="31.472997362489586" lon="120.25462504142976">
        <ele>8.996458890847862</ele>
        <time>2024-09-29T13:44:04Z</time>
      </trkpt>
      <trkpt lat="31.473124409381285" lon="120.25442834800795">
        <ele>7.783020238392055</ele>
        <time>2024-09-29T13:44:13Z</time>
      </trkpt>
      <trkpt lat="31.473152173855414" lon="120.25435029448128">
        <ele>6.865305734798312</ele>
        <time>2024-09-29T13:44:16Z</time>
      </trkpt>
      <trkpt lat="31.473157891538527" lon="120.25422054173865">
        <ele>7.228288156911731</ele>
        <time>2024-09-29T13:44:20Z</time>
      </trkpt>
      <trkpt lat="31.473114629892716" lon="120.25403376818332">
        <ele>7.331346960738301</ele>
        <time>2024-09-29T13:44:26Z</time>
      </trkpt>
      <trkpt lat="31.473011532466096" lon="120.25389183496742">
        <ele>8.61882939003408</ele>
        <time>2024-09-29T13:44:32Z</time>
      </trkpt>
      <trkpt lat="31.472812116912078" lon="120.25379782049656">
        <ele>8.115133004263043</ele>
        <time>2024-09-29T13:44:41Z</time>
      </trkpt>
      <trkpt lat="31.47250922554671" lon="120.25374628657264">
        <ele>6.854740687645972</ele>
        <time>2024-09-29T13:44:53Z</time>
      </trkpt>
      <trkpt lat="31.47224101932024" lon="120.25370107512303">
        <ele>7.063273990526795</ele>
        <time>2024-09-29T13:45:05Z</time>
      </trkpt>
      <trkpt lat="31.472038640335764" lon="120.25367615443682">
        <ele>8.208214487880468</ele>
        <time>2024-09-29T13:45:14Z</time>
      </trkpt>
      <trkpt lat="31.47185049198617" lon="120.25373926826714">
        <ele>8.745582267642021</ele>
        <time>2024-09-29T13:45:23Z</time>
      </trkpt>
      <trkpt lat="31.471752243491192" lon="120.25384649122776">
        <ele>8.298192956484854</ele>
        <time>2024-09-29T13:45:29Z</time>
      </trkpt>
      <trkpt lat="31.47170134812504" lon="120.25399028325359">
        <ele>6.963187251240015</ele>
        <time>2024-09-29T13:45:35Z</time>
      </trkpt>
      <trkpt lat="31.47168643054418" lon="120.25414074941327">
        <ele>5.745995184406638</ele>
        <time>2024-09-29T13:45:41Z</time>
      </trkpt>
      <trkpt lat="31.47172392485118" lon="120.25430843090805">
        <ele>5.583511142060161</ele>
        <time>2024-09-29T13:45:47Z</time>
      </trkpt>
      <trkpt lat="31.471807828413333" lon="120.25442195229994">
        <ele>4.985401629470289</ele>
        <time>2024-09-29T13:45:53Z</time>
      </trkpt>
      <trkpt lat="31.471981800961167" lon="120.25454038929466">
        <ele>5.704847244545817</ele>
        <time>2024-09-29T13:46:02Z</time>
      </trkpt>
      <trkpt lat="31.47226203938642" lon="120.25462889958189">
        <ele>9.048429849557579</ele>
        <time>2024-09-29T13:46:14Z</time>
      </trkpt>
      <trkpt lat="31.47259736481733" lon="120.25470446518065">
        <ele>7.801710020750761</ele>
        <time>2024-09-29T13:46:27Z</time>
      </trkpt>
      <trkpt lat="31.472765633080613" lon="120.25471892801957">
        <ele>8.245472434908152</ele>
        <time>2024-09-29T13:46:34Z</time>
      </trkpt>
      <trkpt lat="31.473004144563347" lon="120.25462226712182">
        <ele>9.613643967546523</ele>
        <time>2024-09-29T13:46:43Z</time>
      </trkpt>
      <trkpt lat="31.47309914713781" lon="120.25449889670601">
        <ele>8.320230330340564</ele>
        <time>2024-09-29T13:46:49Z</time>
      </trkpt>
      <trkpt lat="31.473153263139142" lon="120.2542418782254">
        <ele>8.387360494583845</ele>
        <time>2024-09-29T13:46:58Z</time>
      </trkpt>
      <trkpt lat="31.473148294729544" lon="120.25415751932225">
        <ele>8.009746391326189</ele>
        <time>2024-09-29T13:47:01Z</time>
      </trkpt>
      <trkpt lat="31.473102082043717" lon="120.25402250793918">
        <ele>7.145541936159134</ele>
        <time>2024-09-29T13:47:07Z</time>
      </trkpt>
      <trkpt lat="31.47305580639683" lon="120.25395101397977">
        <ele>7.735779018141329</ele>
        <time>2024-09-29T13:47:10Z</time>
      </trkpt>
      <trkpt lat="31.47296208334716" lon="120.2538706091442">
        <ele>5.745823100209236</ele>
        <time>2024-09-29T13:47:16Z</time>
      </trkpt>
      <trkpt lat="31.47271428515081" lon="120.25377774655023">
        <ele>6.723851615563035</ele>
        <time>2024-09-29T13:47:28Z</time>
      </trkpt>
      <trkpt lat="31.47251348642311" lon="120.25374568631099">
        <ele>6.947265150025487</ele>
        <time>2024-09-29T13:47:37Z</time>
      </trkpt>
      <trkpt lat="31.47221648869462" lon="120.25368335372289">
        <ele>8.298077252693474</ele>
        <time>2024-09-29T13:47:49Z</time>
      </trkpt>
      <trkpt lat="31.472142468894557" lon="120.25365549431146">
        <ele>7.94117365963757</ele>
        <time>2024-09-29T13:47:52Z</time>
      </trkpt>
      <trkpt lat="31.47198393608182" lon="120.25366002219985">
        <ele>7.954107976518571</ele>
        <time>2024-09-29T13:47:58Z</time>
      </trkpt>
      <trkpt lat="31.47184231005971" lon="120.2537217157969">
        <ele>8.702900686301291</ele>
        <time>2024-09-29T13:48:04Z</time>
      </trkpt>
      <trkpt lat="31.471752692625575" lon="120.25386750835175">
        <ele>8.59558286331594</ele>
        <time>2024-09-29T13:48:10Z</time>
      </trkpt>
      <trkpt lat="31.47171426804935" lon="120.25400958612076">
        <ele>7.739076428115368</ele>
        <time>2024-09-29T13:48:16Z</time>
      </trkpt>
      <trkpt lat="31.471705673885708" lon="120.2541733272092">
        <ele>6.515347758308053</ele>
        <time>2024-09-29T13:48:22Z</time>
      </trkpt>
      <trkpt lat="31.471720486847914" lon="120.25426594425592">
        <ele>5.738899209536612</ele>
        <time>2024-09-29T13:48:25Z</time>
      </trkpt>
      <trkpt lat="31.4718183135092" lon="120.25441520836242">
        <ele>5.919376225210726</ele>
        <time>2024-09-29T13:48:32Z</time>
      </trkpt>
      <trkpt lat="31.47195668838857" lon="120.25453189266754">
        <ele>7.289926523342729</ele>
        <time>2024-09-29T13:48:39Z</time>
      </trkpt>
      <trkpt lat="31.47214674368658" lon="120.254579154286">
        <ele>7.6990992007777095</ele>
        <time>2024-09-29T13:48:47Z</time>
      </trkpt>
      <trkpt lat="31.47232186237505" lon="120.2546533434714">
        <ele>10.475378883071244</ele>
        <time>2024-09-29T13:48:54Z</time>
      </trkpt>
      <trkpt lat="31.472463203143313" lon="120.25466439149906">
        <ele>9.851440009661019</ele>
        <time>2024-09-29T13:49:00Z</time>
      </trkpt>
      <trkpt lat="31.47270850429839" lon="120.25471597416356">
        <ele>9.086414438672364</ele>
        <time>2024-09-29T13:49:12Z</time>
      </trkpt>
      <trkpt lat="31.47283298626249" lon="120.25469901131325">
        <ele>7.392301200889051</ele>
        <time>2024-09-29T13:49:18Z</time>
      </trkpt>
      <trkpt lat="31.472971552828607" lon="120.25462592507564">
        <ele>7.302579966373742</ele>
        <time>2024-09-29T13:49:24Z</time>
      </trkpt>
      <trkpt lat="31.473080667289075" lon="120.25451057906078">
        <ele>7.9023146368563175</ele>
        <time>2024-09-29T13:49:30Z</time>
      </trkpt>
      <trkpt lat="31.47314390472746" lon="120.25436399725405">
        <ele>7.491501427255571</ele>
        <time>2024-09-29T13:49:36Z</time>
      </trkpt>
      <trkpt lat="31.47315750504065" lon="120.25419657931555">
        <ele>7.417523897252977</ele>
        <time>2024-09-29T13:49:42Z</time>
      </trkpt>
      <trkpt lat="31.47311783584711" lon="120.25404930517277">
        <ele>6.8613386219367385</ele>
        <time>2024-09-29T13:49:48Z</time>
      </trkpt>
      <trkpt lat="31.473025560290974" lon="120.25391514378352">
        <ele>7.9549719244241714</ele>
        <time>2024-09-29T13:49:54Z</time>
      </trkpt>
      <trkpt lat="31.472901087542255" lon="120.25382048632608">
        <ele>8.642952432855964</ele>
        <time>2024-09-29T13:50:00Z</time>
      </trkpt>
      <trkpt lat="31.472608666138495" lon="120.25376046097834">
        <ele>7.287135262042284</ele>
        <time>2024-09-29T13:50:12Z</time>
      </trkpt>
      <trkpt lat="31.472339472199803" lon="120.25371074167408">
        <ele>7.936564834788442</ele>
        <time>2024-09-29T13:50:24Z</time>
      </trkpt>
      <trkpt lat="31.472224015068278" lon="120.25367395692972">
        <ele>8.459229701198637</ele>
        <time>2024-09-29T13:50:30Z</time>
      </trkpt>
      <trkpt lat="31.472006414246103" lon="120.25365771118852">
        <ele>7.846507888287306</ele>
        <time>2024-09-29T13:50:41Z</time>
      </trkpt>
      <trkpt lat="31.471919590303575" lon="120.25367726725956">
        <ele>8.199212832376361</ele>
        <time>2024-09-29T13:50:45Z</time>
      </trkpt>
      <trkpt lat="31.47179775194372" lon="120.25377450029985">
        <ele>7.520993201993406</ele>
        <time>2024-09-29T13:50:52Z</time>
      </trkpt>
      <trkpt lat="31.47170725095574" lon="120.25394463135927">
        <ele>6.746791394427419</ele>
        <time>2024-09-29T13:51:01Z</time>
      </trkpt>
      <trkpt lat="31.47168440009605" lon="120.25414946137997">
        <ele>5.148763136006892</ele>
        <time>2024-09-29T13:51:10Z</time>
      </trkpt>
      <trkpt lat="31.47172117198857" lon="120.25427821579262">
        <ele>5.178148350678384</ele>
        <time>2024-09-29T13:51:16Z</time>
      </trkpt>
      <trkpt lat="31.47189236269729" lon="120.25450813400595">
        <ele>4.941538565792143</ele>
        <time>2024-09-29T13:51:28Z</time>
      </trkpt>
      <trkpt lat="31.472176768061523" lon="120.25460001218583">
        <ele>7.431534133851528</ele>
        <time>2024-09-29T13:51:40Z</time>
      </trkpt>
      <trkpt lat="31.47245237448746" lon="120.25465731495609">
        <ele>7.9574521435424685</ele>
        <time>2024-09-29T13:51:52Z</time>
      </trkpt>
      <trkpt lat="31.472743503823985" lon="120.25471326709066">
        <ele>9.21848505269736</ele>
        <time>2024-09-29T13:52:04Z</time>
      </trkpt>
      <trkpt lat="31.472902021372754" lon="120.25466816600495">
        <ele>9.480285197496414</ele>
        <time>2024-09-29T13:52:10Z</time>
      </trkpt>
      <trkpt lat="31.473036987158146" lon="120.25455842850917">
        <ele>8.991127099841833</ele>
        <time>2024-09-29T13:52:16Z</time>
      </trkpt>
      <trkpt lat="31.473143206753164" lon="120.25441244156053">
        <ele>8.928893500939012</ele>
        <time>2024-09-29T13:52:22Z</time>
      </trkpt>
      <trkpt lat="31.473155879073914" lon="120.2542781480851">
        <ele>7.951130180619657</ele>
        <time>2024-09-29T13:52:28Z</time>
      </trkpt>
      <trkpt lat="31.473136566626682" lon="120.2541027026923">
        <ele>9.334323152899742</ele>
        <time>2024-09-29T13:52:34Z</time>
      </trkpt>
      <trkpt lat="31.473067017276524" lon="120.25394396186199">
        <ele>8.105493805371225</ele>
        <time>2024-09-29T13:52:40Z</time>
      </trkpt>
      <trkpt lat="31.47298289719345" lon="120.25386062232984">
        <ele>7.7742330227047205</ele>
        <time>2024-09-29T13:52:44Z</time>
      </trkpt>
      <trkpt lat="31.472649969383546" lon="120.25376494391561">
        <ele>8.022181789390743</ele>
        <time>2024-09-29T13:52:59Z</time>
      </trkpt>
      <trkpt lat="31.472356473963313" lon="120.25370958885678">
        <ele>7.711719396524131</ele>
        <time>2024-09-29T13:53:12Z</time>
      </trkpt>
      <trkpt lat="31.47207408867892" lon="120.25366426541606">
        <ele>9.802464696578681</ele>
        <time>2024-09-29T13:53:24Z</time>
      </trkpt>
      <trkpt lat="31.471999030073203" lon="120.25366713485909">
        <ele>8.108105862513185</ele>
        <time>2024-09-29T13:53:27Z</time>
      </trkpt>
      <trkpt lat="31.471851281582882" lon="120.25373088646349">
        <ele>8.046662477776408</ele>
        <time>2024-09-29T13:53:33Z</time>
      </trkpt>
      <trkpt lat="31.471763591036634" lon="120.25382914263528">
        <ele>7.109817619435489</ele>
        <time>2024-09-29T13:53:39Z</time>
      </trkpt>
      <trkpt lat="31.471705800440205" lon="120.25397702347138">
        <ele>5.9362477930262685</ele>
        <time>2024-09-29T13:53:45Z</time>
      </trkpt>
      <trkpt lat="31.471680536812595" lon="120.25414881338808">
        <ele>5.572711450979114</ele>
        <time>2024-09-29T13:53:51Z</time>
      </trkpt>
      <trkpt lat="31.471689942362858" lon="120.25423514230417">
        <ele>5.3369189808145165</ele>
        <time>2024-09-29T13:53:54Z</time>
      </trkpt>
      <trkpt lat="31.471757365445157" lon="120.25438689831452">
        <ele>4.45324857160449</ele>
        <time>2024-09-29T13:54:00Z</time>
      </trkpt>
      <trkpt lat="31.471865410243087" lon="120.25450176135207">
        <ele>5.705683964304626</ele>
        <time>2024-09-29T13:54:06Z</time>
      </trkpt>
      <trkpt lat="31.47199428402858" lon="120.25456262743377">
        <ele>5.002696635201573</ele>
        <time>2024-09-29T13:54:12Z</time>
      </trkpt>
      <trkpt lat="31.472316616663427" lon="120.25464510842296">
        <ele>8.762039785273373</ele>
        <time>2024-09-29T13:54:27Z</time>
      </trkpt>
      <trkpt lat="31.47242957124065" lon="120.25464206480045">
        <ele>8.69260257203132</ele>
        <time>2024-09-29T13:54:33Z</time>
      </trkpt>
      <trkpt lat="31.472629366373198" lon="120.2546936545535">
        <ele>7.909032677300274</ele>
        <time>2024-09-29T13:54:42Z</time>
      </trkpt>
      <trkpt lat="31.47277970143316" lon="120.25470466084282">
        <ele>8.062187757343054</ele>
        <time>2024-09-29T13:54:49Z</time>
      </trkpt>
      <trkpt lat="31.472851937359028" lon="120.25469270663463">
        <ele>7.9677714221179485</ele>
        <time>2024-09-29T13:54:52Z</time>
      </trkpt>
      <trkpt lat="31.472985435791355" lon="120.25464570713523">
        <ele>7.166475032456219</ele>
        <time>2024-09-29T13:55:02Z</time>
      </trkpt>
      <trkpt lat="31.47307711146259" lon="120.25453577874931">
        <ele>7.020983517169952</ele>
        <time>2024-09-29T13:55:11Z</time>
      </trkpt>
      <trkpt lat="31.473144223969168" lon="120.25429946199739">
        <ele>9.97415077779442</ele>
        <time>2024-09-29T13:55:23Z</time>
      </trkpt>
      <trkpt lat="31.47314146486107" lon="120.25420369716333">
        <ele>7.991165379062295</ele>
        <time>2024-09-29T13:55:26Z</time>
      </trkpt>
      <trkpt lat="31.473078030951168" lon="120.25402211647283">
        <ele>8.214565822854638</ele>
        <time>2024-09-29T13:55:32Z</time>
      </trkpt>
      <trkpt lat="31.47303140035495" lon="120.25395115928062">
        <ele>8.211554731242359</ele>
        <time>2024-09-29T13:55:35Z</time>
      </trkpt>
      <trkpt lat="31.47291042110001" lon="120.2538570403154">
        <ele>8.671201973222196</ele>
        <time>2024-09-29T13:55:41Z</time>
      </trkpt>
      <trkpt lat="31.47260491136073" lon="120.25377363591531">
        <ele>8.518868544138968</ele>
        <time>2024-09-29T13:55:53Z</time>
      </trkpt>
      <trkpt lat="31.472527934059023" lon="120.25374165279533">
        <ele>8.874209024943411</ele>
        <time>2024-09-29T13:55:56Z</time>
      </trkpt>
      <trkpt lat="31.47225021891341" lon="120.25369405070899">
        <ele>5.5740997064858675</ele>
        <time>2024-09-29T13:56:08Z</time>
      </trkpt>
      <trkpt lat="31.471983682182056" lon="120.25366230782092">
        <ele>6.532746454700828</ele>
        <time>2024-09-29T13:56:23Z</time>
      </trkpt>
      <trkpt lat="31.471870792366303" lon="120.25371462693157">
        <ele>8.13467472139746</ele>
        <time>2024-09-29T13:56:29Z</time>
      </trkpt>
      <trkpt lat="31.471756791664934" lon="120.25384634391278">
        <ele>7.9601060366258025</ele>
        <time>2024-09-29T13:56:35Z</time>
      </trkpt>
      <trkpt lat="31.471693732457016" lon="120.25403328030474">
        <ele>6.587558536790311</ele>
        <time>2024-09-29T13:56:41Z</time>
      </trkpt>
      <trkpt lat="31.471688785121962" lon="120.25415156579459">
        <ele>8.634905983693898</ele>
        <time>2024-09-29T13:56:44Z</time>
      </trkpt>
      <trkpt lat="31.47174051031028" lon="120.25433798025189">
        <ele>8.992429529316723</ele>
        <time>2024-09-29T13:56:50Z</time>
      </trkpt>
      <trkpt lat="31.47178365405904" lon="120.25440778551554">
        <ele>7.454470912925899</ele>
        <time>2024-09-29T13:56:53Z</time>
      </trkpt>
      <trkpt lat="31.47193235643166" lon="120.25451558530159">
        <ele>8.045277366414666</ele>
        <time>2024-09-29T13:57:00Z</time>
      </trkpt>
      <trkpt lat="31.47199239496923" lon="120.25453903135546">
        <ele>7.395769362337887</ele>
        <time>2024-09-29T13:57:03Z</time>
      </trkpt>
      <trkpt lat="31.47199239496923" lon="120.25453903135546">
        <ele>7.395769362337887</ele>
        <time>2024-09-29T13:57:07Z</time>
      </trkpt>
      <trkpt lat="31.471989802270222" lon="120.25450673005348">
        <ele>6.552487439475954</ele>
        <time>2024-09-29T13:57:31Z</time>
      </trkpt>
      <trkpt lat="31.47207366864186" lon="120.25456462915228">
        <ele>6.250148487277329</ele>
        <time>2024-09-29T13:57:37Z</time>
      </trkpt>
      <trkpt lat="31.472381959157385" lon="120.25463899005929">
        <ele>6.974007224664092</ele>
        <time>2024-09-29T13:57:52Z</time>
      </trkpt>
      <trkpt lat="31.47252068126379" lon="120.25467959439533">
        <ele>9.177383900620043</ele>
        <time>2024-09-29T13:57:58Z</time>
      </trkpt>
      <trkpt lat="31.472590711659702" lon="120.2546794343775">
        <ele>8.151658088900149</ele>
        <time>2024-09-29T13:58:01Z</time>
      </trkpt>
      <trkpt lat="31.472680868678903" lon="120.25471098633479">
        <ele>10.42743304464966</ele>
        <time>2024-09-29T13:58:04Z</time>
      </trkpt>
      <trkpt lat="31.472853922699414" lon="120.25469738007833">
        <ele>9.311174323782325</ele>
        <time>2024-09-29T13:58:10Z</time>
      </trkpt>
      <trkpt lat="31.473011190530922" lon="120.2546103092354">
        <ele>8.543733811937273</ele>
        <time>2024-09-29T13:58:16Z</time>
      </trkpt>
      <trkpt lat="31.47308495544978" lon="120.25452100296536">
        <ele>9.267360753379762</ele>
        <time>2024-09-29T13:58:19Z</time>
      </trkpt>
      <trkpt lat="31.473131162164236" lon="120.25442405761156">
        <ele>10.548513868823647</ele>
        <time>2024-09-29T13:58:22Z</time>
      </trkpt>
      <trkpt lat="31.47314866595822" lon="120.25431763269096">
        <ele>11.15137935243547</ele>
        <time>2024-09-29T13:58:25Z</time>
      </trkpt>
      <trkpt lat="31.473144714153957" lon="120.25419619688849">
        <ele>10.420167199335992</ele>
        <time>2024-09-29T13:58:28Z</time>
      </trkpt>
      <trkpt lat="31.47308684738082" lon="120.25400938291432">
        <ele>9.708530311472714</ele>
        <time>2024-09-29T13:58:34Z</time>
      </trkpt>
      <trkpt lat="31.473034019879286" lon="120.2539411652231">
        <ele>10.532592273317277</ele>
        <time>2024-09-29T13:58:37Z</time>
      </trkpt>
      <trkpt lat="31.472827653304453" lon="120.2538070254018">
        <ele>8.878114968538284</ele>
        <time>2024-09-29T13:58:46Z</time>
      </trkpt>
      <trkpt lat="31.472753557969916" lon="120.25373656495795">
        <ele>11.181128483265638</ele>
        <time>2024-09-29T13:58:49Z</time>
      </trkpt>
      <trkpt lat="31.472414939166992" lon="120.25367289071497">
        <ele>8.075410216115415</ele>
        <time>2024-09-29T13:59:02Z</time>
      </trkpt>
      <trkpt lat="31.472149071382056" lon="120.25361752474292">
        <ele>8.131050990894437</ele>
        <time>2024-09-29T13:59:14Z</time>
      </trkpt>
      <trkpt lat="31.472040045086192" lon="120.2535670659023">
        <ele>7.291120973415673</ele>
        <time>2024-09-29T13:59:23Z</time>
      </trkpt>
      <trkpt lat="31.471853522791587" lon="120.25365124512902">
        <ele>7.503425607457757</ele>
        <time>2024-09-29T13:59:32Z</time>
      </trkpt>
      <trkpt lat="31.47170221940342" lon="120.25385413093903">
        <ele>7.381033617071807</ele>
        <time>2024-09-29T13:59:41Z</time>
      </trkpt>
      <trkpt lat="31.471646616996047" lon="120.25400873175015">
        <ele>8.076448131352663</ele>
        <time>2024-09-29T13:59:47Z</time>
      </trkpt>
      <trkpt lat="31.471646372991998" lon="120.254184544357">
        <ele>7.03302195854485</ele>
        <time>2024-09-29T13:59:53Z</time>
      </trkpt>
      <trkpt lat="31.471684764452235" lon="120.25435164062722">
        <ele>8.303585961461067</ele>
        <time>2024-09-29T13:59:59Z</time>
      </trkpt>
      <trkpt lat="31.471770285949415" lon="120.25449617764818">
        <ele>7.74136919900775</ele>
        <time>2024-09-29T14:00:05Z</time>
      </trkpt>
      <trkpt lat="31.471980224909277" lon="120.25461083773071">
        <ele>8.40975146740675</ele>
        <time>2024-09-29T14:00:14Z</time>
      </trkpt>
      <trkpt lat="31.472321306612645" lon="120.25469855778623">
        <ele>10.785754976794124</ele>
        <time>2024-09-29T14:00:26Z</time>
      </trkpt>
      <trkpt lat="31.47244436722884" lon="120.25472788189309">
        <ele>11.650667826645076</ele>
        <time>2024-09-29T14:00:29Z</time>
      </trkpt>
      <trkpt lat="31.47253706448441" lon="120.25472742215135">
        <ele>14.536906582303345</ele>
        <time>2024-09-29T14:00:32Z</time>
      </trkpt>
      <trkpt lat="31.472655224796505" lon="120.25475704316973">
        <ele>13.057852516882122</ele>
        <time>2024-09-29T14:00:35Z</time>
      </trkpt>
      <trkpt lat="31.472811725332313" lon="120.25476422739061">
        <ele>11.84156426973641</ele>
        <time>2024-09-29T14:00:38Z</time>
      </trkpt>
      <trkpt lat="31.472911248408252" lon="120.25472884070675">
        <ele>12.308490473777056</ele>
        <time>2024-09-29T14:00:41Z</time>
      </trkpt>
      <trkpt lat="31.472994865536183" lon="120.25467211588094">
        <ele>11.142572429031134</ele>
        <time>2024-09-29T14:00:44Z</time>
      </trkpt>
      <trkpt lat="31.47316111448294" lon="120.2544770980861">
        <ele>11.46172003634274</ele>
        <time>2024-09-29T14:00:50Z</time>
      </trkpt>
      <trkpt lat="31.473201741278885" lon="120.2541771792494">
        <ele>9.018477022647858</ele>
        <time>2024-09-29T14:00:59Z</time>
      </trkpt>
      <trkpt lat="31.47314010996577" lon="120.25399596854932">
        <ele>10.092067943885922</ele>
        <time>2024-09-29T14:01:05Z</time>
      </trkpt>
      <trkpt lat="31.47306714468791" lon="120.2539068249443">
        <ele>9.300941820256412</ele>
        <time>2024-09-29T14:01:09Z</time>
      </trkpt>
      <trkpt lat="31.47290153503377" lon="120.25379858400476">
        <ele>9.039571498520672</ele>
        <time>2024-09-29T14:01:16Z</time>
      </trkpt>
      <trkpt lat="31.47272191231772" lon="120.25372685302426">
        <ele>9.969373589381576</ele>
        <time>2024-09-29T14:01:23Z</time>
      </trkpt>
      <trkpt lat="31.4726359644577" lon="120.2537399280012">
        <ele>11.184978891164064</ele>
        <time>2024-09-29T14:01:26Z</time>
      </trkpt>
      <trkpt lat="31.472331319230232" lon="120.25367763983357">
        <ele>7.820018729194999</ele>
        <time>2024-09-29T14:01:38Z</time>
      </trkpt>
      <trkpt lat="31.47209584619468" lon="120.25361301136945">
        <ele>8.580560351721942</ele>
        <time>2024-09-29T14:01:50Z</time>
      </trkpt>
    </trkseg>
  </trk>
</gpx>