<?xml version="1.0" encoding="UTF-8"?>
<gpx xmlns="http://www.topografix.com/GPX/1/1" xmlns:gpxtpx="http://www.garmin.com/xmlschemas/TrackPointExtension/v1" xmlns:xsi="http://www.w3.org/2001/XMLSchema-instance" xsi:schemaLocation="http://www.topografix.com/GPX/1/1 http://www.topografix.com/GPX/1/1/gpx.xsd" version="1.1" creator="gpx.py -- https://github.com/tkrajina/gpxpy">
  <trk>
    <name>gpx from keep</name>
    <type>Run</type>
    <trkseg>
      <trkpt lat="30.522402730609233" lon="114.39316401863478">
        <ele>22.70501708984375</ele>
        <time>2021-03-23T13:36:19Z</time>
      </trkpt>
      <trkpt lat="30.522441775052766" lon="114.39320010465138">
        <ele>21.19256591796875</ele>
        <time>2021-03-23T13:36:25Z</time>
      </trkpt>
      <trkpt lat="30.52253559982845" lon="114.39322614600326">
        <ele>22.9373779296875</ele>
        <time>2021-03-23T13:36:31Z</time>
      </trkpt>
      <trkpt lat="30.522828480124726" lon="114.3932000708545">
        <ele>22.573486328125</ele>
        <time>2021-03-23T13:36:37Z</time>
      </trkpt>
      <trkpt lat="30.523113758120463" lon="114.39323206516715">
        <ele>21.3497314453125</ele>
        <time>2021-03-23T13:36:43Z</time>
      </trkpt>
      <trkpt lat="30.52322168447711" lon="114.39325701992645">
        <ele>19.981201171875</ele>
        <time>2021-03-23T13:36:46Z</time>
      </trkpt>
      <trkpt lat="30.523417488029423" lon="114.39318997945324">
        <ele>20.9158935546875</ele>
        <time>2021-03-23T13:36:52Z</time>
      </trkpt>
      <trkpt lat="30.52357560744309" lon="114.3930618892104">
        <ele>21.4959716796875</ele>
        <time>2021-03-23T13:36:55Z</time>
      </trkpt>
      <trkpt lat="30.52364749116673" lon="114.3929378774863">
        <ele>20.843017578125</ele>
        <time>2021-03-23T13:36:58Z</time>
      </trkpt>
      <trkpt lat="30.52368467118148" lon="114.39277479600277">
        <ele>22.68023681640625</ele>
        <time>2021-03-23T13:37:01Z</time>
      </trkpt>
      <trkpt lat="30.52367168283732" lon="114.39261687568025">
        <ele>25.35418701171875</ele>
        <time>2021-03-23T13:37:04Z</time>
      </trkpt>
      <trkpt lat="30.523534509069922" lon="114.39238272112587">
        <ele>29.2742919921875</ele>
        <time>2021-03-23T13:37:10Z</time>
      </trkpt>
      <trkpt lat="30.523442593563377" lon="114.39230566913706">
        <ele>28.85400390625</ele>
        <time>2021-03-23T13:37:13Z</time>
      </trkpt>
      <trkpt lat="30.523221325702348" lon="114.39222374468176">
        <ele>28.1788330078125</ele>
        <time>2021-03-23T13:37:19Z</time>
      </trkpt>
      <trkpt lat="30.523088442366497" lon="114.39224573456657">
        <ele>25.414306640625</ele>
        <time>2021-03-23T13:37:22Z</time>
      </trkpt>
      <trkpt lat="30.522749470344458" lon="114.39222080122032">
        <ele>26.1046142578125</ele>
        <time>2021-03-23T13:37:31Z</time>
      </trkpt>
      <trkpt lat="30.522633397241695" lon="114.39225771316079">
        <ele>27.74993896484375</ele>
        <time>2021-03-23T13:37:34Z</time>
      </trkpt>
      <trkpt lat="30.52253740546061" lon="114.39222488980234">
        <ele>29.72674560546875</ele>
        <time>2021-03-23T13:37:37Z</time>
      </trkpt>
      <trkpt lat="30.522430556670027" lon="114.39224090800312">
        <ele>29.59222412109375</ele>
        <time>2021-03-23T13:37:40Z</time>
      </trkpt>
      <trkpt lat="30.522218470116698" lon="114.39235488828889">
        <ele>29.7750244140625</ele>
        <time>2021-03-23T13:37:46Z</time>
      </trkpt>
      <trkpt lat="30.522151740005427" lon="114.39245583219355">
        <ele>29.99517822265625</ele>
        <time>2021-03-23T13:37:49Z</time>
      </trkpt>
      <trkpt lat="30.5221156551329" lon="114.39254999039021">
        <ele>28.8800048828125</ele>
        <time>2021-03-23T13:37:52Z</time>
      </trkpt>
      <trkpt lat="30.52209963632082" lon="114.39265391557636">
        <ele>28.51806640625</ele>
        <time>2021-03-23T13:37:55Z</time>
      </trkpt>
      <trkpt lat="30.522104491189303" lon="114.39280206850091">
        <ele>31.4395751953125</ele>
        <time>2021-03-23T13:37:58Z</time>
      </trkpt>
      <trkpt lat="30.52214053327691" lon="114.39294804899232">
        <ele>29.321044921875</ele>
        <time>2021-03-23T13:38:01Z</time>
      </trkpt>
      <trkpt lat="30.522200446170206" lon="114.39305793918479">
        <ele>29.4461669921875</ele>
        <time>2021-03-23T13:38:04Z</time>
      </trkpt>
      <trkpt lat="30.522428764532066" lon="114.39316103152234">
        <ele>26.771240234375</ele>
        <time>2021-03-23T13:38:10Z</time>
      </trkpt>
      <trkpt lat="30.52250874974249" lon="114.39324595688524">
        <ele>24.74249267578125</ele>
        <time>2021-03-23T13:38:13Z</time>
      </trkpt>
      <trkpt lat="30.52287566116029" lon="114.3932291011294">
        <ele>21.00146484375</ele>
        <time>2021-03-23T13:38:25Z</time>
      </trkpt>
      <trkpt lat="30.522953762567823" lon="114.39322203921226">
        <ele>21.9178466796875</ele>
        <time>2021-03-23T13:38:28Z</time>
      </trkpt>
      <trkpt lat="30.52301667355233" lon="114.39324211359532">
        <ele>22.7291259765625</ele>
        <time>2021-03-23T13:38:31Z</time>
      </trkpt>
      <trkpt lat="30.523226575786673" lon="114.39319298098025">
        <ele>24.68798828125</ele>
        <time>2021-03-23T13:38:37Z</time>
      </trkpt>
      <trkpt lat="30.523313625350664" lon="114.39319107392761">
        <ele>24.47698974609375</ele>
        <time>2021-03-23T13:38:40Z</time>
      </trkpt>
      <trkpt lat="30.523504549429916" lon="114.39311399420909">
        <ele>24.66552734375</ele>
        <time>2021-03-23T13:38:46Z</time>
      </trkpt>
      <trkpt lat="30.52354171867472" lon="114.39300789408779">
        <ele>25.532470703125</ele>
        <time>2021-03-23T13:38:49Z</time>
      </trkpt>
      <trkpt lat="30.523602474043408" lon="114.39294385103119">
        <ele>23.302978515625</ele>
        <time>2021-03-23T13:38:52Z</time>
      </trkpt>
      <trkpt lat="30.52363856943554" lon="114.39277995556394">
        <ele>22.5386962890625</ele>
        <time>2021-03-23T13:38:58Z</time>
      </trkpt>
      <trkpt lat="30.523605781200683" lon="114.39264184488943">
        <ele>22.6263427734375</ele>
        <time>2021-03-23T13:39:01Z</time>
      </trkpt>
      <trkpt lat="30.523599298178492" lon="114.39250481819758">
        <ele>23.63934326171875</ele>
        <time>2021-03-23T13:39:04Z</time>
      </trkpt>
      <trkpt lat="30.52352447055094" lon="114.3924076851705">
        <ele>24.8734130859375</ele>
        <time>2021-03-23T13:39:07Z</time>
      </trkpt>
      <trkpt lat="30.523372631893338" lon="114.39228966633941">
        <ele>29.19488525390625</ele>
        <time>2021-03-23T13:39:13Z</time>
      </trkpt>
      <trkpt lat="30.523269320069844" lon="114.39224761811555">
        <ele>30.09619140625</ele>
        <time>2021-03-23T13:39:16Z</time>
      </trkpt>
      <trkpt lat="30.523163285293798" lon="114.39226173690376">
        <ele>32.14166259765625</ele>
        <time>2021-03-23T13:39:19Z</time>
      </trkpt>
      <trkpt lat="30.523048310902354" lon="114.39222864386151">
        <ele>31.50634765625</ele>
        <time>2021-03-23T13:39:22Z</time>
      </trkpt>
      <trkpt lat="30.522991359365005" lon="114.39224574305166">
        <ele>29.603271484375</ele>
        <time>2021-03-23T13:39:25Z</time>
      </trkpt>
      <trkpt lat="30.522922486230293" lon="114.392210746651">
        <ele>29.347900390625</ele>
        <time>2021-03-23T13:39:28Z</time>
      </trkpt>
      <trkpt lat="30.52275054530028" lon="114.39226991308963">
        <ele>28.22064208984375</ele>
        <time>2021-03-23T13:39:34Z</time>
      </trkpt>
      <trkpt lat="30.52250865700606" lon="114.39224090117729">
        <ele>27.56207275390625</ele>
        <time>2021-03-23T13:39:43Z</time>
      </trkpt>
      <trkpt lat="30.522303361365214" lon="114.39229681456648">
        <ele>27.3377685546875</ele>
        <time>2021-03-23T13:39:49Z</time>
      </trkpt>
      <trkpt lat="30.52221629603632" lon="114.39237876625818">
        <ele>30.012451171875</ele>
        <time>2021-03-23T13:39:52Z</time>
      </trkpt>
      <trkpt lat="30.522117549882907" lon="114.39256898408917">
        <ele>31.32781982421875</ele>
        <time>2021-03-23T13:39:58Z</time>
      </trkpt>
      <trkpt lat="30.5220944802323" lon="114.39267399535649">
        <ele>28.8992919921875</ele>
        <time>2021-03-23T13:40:01Z</time>
      </trkpt>
      <trkpt lat="30.522135660344304" lon="114.39289893584764">
        <ele>27.44390869140625</ele>
        <time>2021-03-23T13:40:07Z</time>
      </trkpt>
      <trkpt lat="30.52228966248934" lon="114.39307312685092">
        <ele>26.3828125</ele>
        <time>2021-03-23T13:40:13Z</time>
      </trkpt>
      <trkpt lat="30.522383750749704" lon="114.39314611127705">
        <ele>27.37139892578125</ele>
        <time>2021-03-23T13:40:16Z</time>
      </trkpt>
      <trkpt lat="30.52256951022803" lon="114.3931460950423">
        <ele>27.1995849609375</ele>
        <time>2021-03-23T13:40:22Z</time>
      </trkpt>
      <trkpt lat="30.522677705964405" lon="114.39318217498395">
        <ele>26.166748046875</ele>
        <time>2021-03-23T13:40:25Z</time>
      </trkpt>
      <trkpt lat="30.52277452309059" lon="114.39314906195973">
        <ele>25.045166015625</ele>
        <time>2021-03-23T13:40:28Z</time>
      </trkpt>
      <trkpt lat="30.522860480027468" lon="114.3931970832154">
        <ele>22.87054443359375</ele>
        <time>2021-03-23T13:40:31Z</time>
      </trkpt>
      <trkpt lat="30.522924753724695" lon="114.3931740129214">
        <ele>22.658935546875</ele>
        <time>2021-03-23T13:40:34Z</time>
      </trkpt>
      <trkpt lat="30.523318779218076" lon="114.39318211895518">
        <ele>23.094482421875</ele>
        <time>2021-03-23T13:40:46Z</time>
      </trkpt>
      <trkpt lat="30.523381694442918" lon="114.39317505838123">
        <ele>23.67626953125</ele>
        <time>2021-03-23T13:40:49Z</time>
      </trkpt>
      <trkpt lat="30.523560693131923" lon="114.39305782030164">
        <ele>22.2735595703125</ele>
        <time>2021-03-23T13:40:55Z</time>
      </trkpt>
      <trkpt lat="30.523654559886975" lon="114.39283286627762">
        <ele>21.05853271484375</ele>
        <time>2021-03-23T13:41:01Z</time>
      </trkpt>
      <trkpt lat="30.523627485999672" lon="114.39258567527386">
        <ele>22.38360595703125</ele>
        <time>2021-03-23T13:41:07Z</time>
      </trkpt>
      <trkpt lat="30.523601468190584" lon="114.39250183326584">
        <ele>20.83038330078125</ele>
        <time>2021-03-23T13:41:10Z</time>
      </trkpt>
      <trkpt lat="30.523439597661064" lon="114.39237187587969">
        <ele>24.9278564453125</ele>
        <time>2021-03-23T13:41:16Z</time>
      </trkpt>
      <trkpt lat="30.523348485741632" lon="114.39234583536633">
        <ele>25.52490234375</ele>
        <time>2021-03-23T13:41:19Z</time>
      </trkpt>
      <trkpt lat="30.523259548622462" lon="114.39229266093456">
        <ele>26.2998046875</ele>
        <time>2021-03-23T13:41:22Z</time>
      </trkpt>
      <trkpt lat="30.523180367152023" lon="114.39227475959224">
        <ele>26.79278564453125</ele>
        <time>2021-03-23T13:41:25Z</time>
      </trkpt>
      <trkpt lat="30.523118263420375" lon="114.39229077392103">
        <ele>29.19586181640625</ele>
        <time>2021-03-23T13:41:28Z</time>
      </trkpt>
      <trkpt lat="30.52289942481898" lon="114.39226583002103">
        <ele>29.863525390625</ele>
        <time>2021-03-23T13:41:37Z</time>
      </trkpt>
      <trkpt lat="30.522791491207823" lon="114.39228266236024">
        <ele>30.52093505859375</ele>
        <time>2021-03-23T13:41:40Z</time>
      </trkpt>
      <trkpt lat="30.522732367312873" lon="114.39231468535387">
        <ele>29.5457763671875</ele>
        <time>2021-03-23T13:41:43Z</time>
      </trkpt>
      <trkpt lat="30.522476650833955" lon="114.39227482109665">
        <ele>29.404052734375</ele>
        <time>2021-03-23T13:41:52Z</time>
      </trkpt>
      <trkpt lat="30.522367632029397" lon="114.39229382423724">
        <ele>30.71136474609375</ele>
        <time>2021-03-23T13:41:55Z</time>
      </trkpt>
      <trkpt lat="30.522261331935017" lon="114.39227782462444">
        <ele>31.28277587890625</ele>
        <time>2021-03-23T13:41:58Z</time>
      </trkpt>
      <trkpt lat="30.522138709530722" lon="114.39252882380391">
        <ele>28.21002197265625</ele>
        <time>2021-03-23T13:42:07Z</time>
      </trkpt>
      <trkpt lat="30.522102605130776" lon="114.3927328760357">
        <ele>25.96063232421875</ele>
        <time>2021-03-23T13:42:13Z</time>
      </trkpt>
      <trkpt lat="30.52211967112939" lon="114.39283788462656">
        <ele>28.43695068359375</ele>
        <time>2021-03-23T13:42:16Z</time>
      </trkpt>
      <trkpt lat="30.52216548200321" lon="114.39294804681191">
        <ele>27.647216796875</ele>
        <time>2021-03-23T13:42:19Z</time>
      </trkpt>
      <trkpt lat="30.52231758240168" lon="114.3931461170599">
        <ele>27.966552734375</ele>
        <time>2021-03-23T13:42:25Z</time>
      </trkpt>
      <trkpt lat="30.522411676887167" lon="114.3931811128377">
        <ele>28.44964599609375</ele>
        <time>2021-03-23T13:42:28Z</time>
      </trkpt>
      <trkpt lat="30.522703468093187" lon="114.3931829867797">
        <ele>25.83111572265625</ele>
        <time>2021-03-23T13:42:37Z</time>
      </trkpt>
      <trkpt lat="30.522888413021374" lon="114.39318894029708">
        <ele>24.959716796875</ele>
        <time>2021-03-23T13:42:43Z</time>
      </trkpt>
      <trkpt lat="30.523000678389128" lon="114.39321308057653">
        <ele>23.82318115234375</ele>
        <time>2021-03-23T13:42:46Z</time>
      </trkpt>
      <trkpt lat="30.52328270753305" lon="114.39321088513162">
        <ele>21.889892578125</ele>
        <time>2021-03-23T13:42:55Z</time>
      </trkpt>
      <trkpt lat="30.523347519568446" lon="114.39321305026297">
        <ele>24.1251220703125</ele>
        <time>2021-03-23T13:42:58Z</time>
      </trkpt>
      <trkpt lat="30.523440539571858" lon="114.39318292236067">
        <ele>23.7562255859375</ele>
        <time>2021-03-23T13:43:01Z</time>
      </trkpt>
      <trkpt lat="30.523457637323713" lon="114.39309988820777">
        <ele>27.19451904296875</ele>
        <time>2021-03-23T13:43:04Z</time>
      </trkpt>
      <trkpt lat="30.523532495357422" lon="114.39302688917891">
        <ele>27.58746337890625</ele>
        <time>2021-03-23T13:43:07Z</time>
      </trkpt>
      <trkpt lat="30.523584578411647" lon="114.39293001395579">
        <ele>28.360595703125</ele>
        <time>2021-03-23T13:43:10Z</time>
      </trkpt>
      <trkpt lat="30.523653505877608" lon="114.39265974929816">
        <ele>27.994873046875</ele>
        <time>2021-03-23T13:43:16Z</time>
      </trkpt>
      <trkpt lat="30.523594410011576" lon="114.39254172092605">
        <ele>28.3963623046875</ele>
        <time>2021-03-23T13:43:19Z</time>
      </trkpt>
      <trkpt lat="30.523600390635245" lon="114.39246384577106">
        <ele>29.39202880859375</ele>
        <time>2021-03-23T13:43:22Z</time>
      </trkpt>
      <trkpt lat="30.52344747147928" lon="114.39232276298675">
        <ele>28.38629150390625</ele>
        <time>2021-03-23T13:43:28Z</time>
      </trkpt>
      <trkpt lat="30.523147286982738" lon="114.39225468354049">
        <ele>29.80047607421875</ele>
        <time>2021-03-23T13:43:40Z</time>
      </trkpt>
      <trkpt lat="30.523003291948463" lon="114.39224275730395">
        <ele>24.06103515625</ele>
        <time>2021-03-23T13:43:46Z</time>
      </trkpt>
      <trkpt lat="30.522901334446033" lon="114.39220884914522">
        <ele>23.38916015625</ele>
        <time>2021-03-23T13:43:52Z</time>
      </trkpt>
      <trkpt lat="30.522642627977227" lon="114.39220480171134">
        <ele>26.9500732421875</ele>
        <time>2021-03-23T13:44:01Z</time>
      </trkpt>
      <trkpt lat="30.52257863291924" lon="114.39218581377328">
        <ele>27.26702880859375</ele>
        <time>2021-03-23T13:44:07Z</time>
      </trkpt>
      <trkpt lat="30.522404261491314" lon="114.39219369775957">
        <ele>24.8519287109375</ele>
        <time>2021-03-23T13:44:25Z</time>
      </trkpt>
      <trkpt lat="30.52230634356425" lon="114.39230088436852">
        <ele>25.386962890625</ele>
        <time>2021-03-23T13:44:28Z</time>
      </trkpt>
      <trkpt lat="30.52219324500731" lon="114.39238175299711">
        <ele>23.27825927734375</ele>
        <time>2021-03-23T13:44:31Z</time>
      </trkpt>
      <trkpt lat="30.522103466042907" lon="114.39247483019079">
        <ele>24.1947021484375</ele>
        <time>2021-03-23T13:44:34Z</time>
      </trkpt>
      <trkpt lat="30.522101492967114" lon="114.3928899844384">
        <ele>24.9422607421875</ele>
        <time>2021-03-23T13:44:43Z</time>
      </trkpt>
      <trkpt lat="30.522196377420467" lon="114.39306418053287">
        <ele>25.77325439453125</ele>
        <time>2021-03-23T13:44:49Z</time>
      </trkpt>
      <trkpt lat="30.52232462978931" lon="114.39316701029809">
        <ele>26.04144287109375</ele>
        <time>2021-03-23T13:44:52Z</time>
      </trkpt>
      <trkpt lat="30.522643529375756" lon="114.39323102086517">
        <ele>24.70928955078125</ele>
        <time>2021-03-23T13:45:01Z</time>
      </trkpt>
      <trkpt lat="30.52294671372331" lon="114.39321010044867">
        <ele>23.53631591796875</ele>
        <time>2021-03-23T13:45:10Z</time>
      </trkpt>
      <trkpt lat="30.523162580606655" lon="114.3931699219013">
        <ele>25.5892333984375</ele>
        <time>2021-03-23T13:45:16Z</time>
      </trkpt>
      <trkpt lat="30.52336162640991" lon="114.39317885902152">
        <ele>22.95745849609375</ele>
        <time>2021-03-23T13:45:22Z</time>
      </trkpt>
      <trkpt lat="30.52356666336576" lon="114.39303204178725">
        <ele>20.56866455078125</ele>
        <time>2021-03-23T13:45:31Z</time>
      </trkpt>
      <trkpt lat="30.52362959149746" lon="114.39294791885094">
        <ele>20.8602294921875</ele>
        <time>2021-03-23T13:45:34Z</time>
      </trkpt>
      <trkpt lat="30.523657559428717" lon="114.39273870968564">
        <ele>26.308837890625</ele>
        <time>2021-03-23T13:45:40Z</time>
      </trkpt>
      <trkpt lat="30.523615293967403" lon="114.39252571000613">
        <ele>25.2449951171875</ele>
        <time>2021-03-23T13:45:46Z</time>
      </trkpt>
      <trkpt lat="30.523514444371713" lon="114.39236861327659">
        <ele>22.65008544921875</ele>
        <time>2021-03-23T13:45:52Z</time>
      </trkpt>
      <trkpt lat="30.52340463344847" lon="114.3922788100495">
        <ele>22.75592041015625</ele>
        <time>2021-03-23T13:45:58Z</time>
      </trkpt>
      <trkpt lat="30.523293453229442" lon="114.39225765547194">
        <ele>23.24383544921875</ele>
        <time>2021-03-23T13:46:01Z</time>
      </trkpt>
      <trkpt lat="30.522919496837275" lon="114.39224276462764">
        <ele>26.06341552734375</ele>
        <time>2021-03-23T13:46:16Z</time>
      </trkpt>
      <trkpt lat="30.52277956216571" lon="114.39226773985662">
        <ele>22.97210693359375</ele>
        <time>2021-03-23T13:46:22Z</time>
      </trkpt>
      <trkpt lat="30.5226995697239" lon="114.39223681444084">
        <ele>24.79345703125</ele>
        <time>2021-03-23T13:46:25Z</time>
      </trkpt>
      <trkpt lat="30.522629605881235" lon="114.3922316651589">
        <ele>24.090576171875</ele>
        <time>2021-03-23T13:46:28Z</time>
      </trkpt>
      <trkpt lat="30.52252546832887" lon="114.39225066783348">
        <ele>24.216796875</ele>
        <time>2021-03-23T13:46:31Z</time>
      </trkpt>
      <trkpt lat="30.522480453513456" lon="114.39224388834674">
        <ele>24.33416748046875</ele>
        <time>2021-03-23T13:46:34Z</time>
      </trkpt>
      <trkpt lat="30.522260236020532" lon="114.39233480561826">
        <ele>21.49761962890625</ele>
        <time>2021-03-23T13:46:43Z</time>
      </trkpt>
      <trkpt lat="30.522112672132902" lon="114.3925499906509">
        <ele>21.30999755859375</ele>
        <time>2021-03-23T13:46:52Z</time>
      </trkpt>
      <trkpt lat="30.52214461825742" lon="114.39284710816372">
        <ele>23.4656982421875</ele>
        <time>2021-03-23T13:46:58Z</time>
      </trkpt>
      <trkpt lat="30.522193410850146" lon="114.39296513917711">
        <ele>22.3800048828125</ele>
        <time>2021-03-23T13:47:01Z</time>
      </trkpt>
      <trkpt lat="30.522264718706158" lon="114.3930430094628">
        <ele>22.73614501953125</ele>
        <time>2021-03-23T13:47:04Z</time>
      </trkpt>
      <trkpt lat="30.52242171619332" lon="114.393146107959">
        <ele>20.501220703125</ele>
        <time>2021-03-23T13:47:10Z</time>
      </trkpt>
      <trkpt lat="30.522563539122725" lon="114.39317811472583">
        <ele>18.9814453125</ele>
        <time>2021-03-23T13:47:16Z</time>
      </trkpt>
      <trkpt lat="30.522637575224785" lon="114.3931561289949">
        <ele>18.5682373046875</ele>
        <time>2021-03-23T13:47:19Z</time>
      </trkpt>
      <trkpt lat="30.522777499393467" lon="114.39319112078424">
        <ele>18.75360107421875</ele>
        <time>2021-03-23T13:47:22Z</time>
      </trkpt>
      <trkpt lat="30.52284367120044" lon="114.39316913572671">
        <ele>20.12249755859375</ele>
        <time>2021-03-23T13:47:25Z</time>
      </trkpt>
      <trkpt lat="30.523087730367987" lon="114.39319597795699">
        <ele>24.294677734375</ele>
        <time>2021-03-23T13:47:34Z</time>
      </trkpt>
      <trkpt lat="30.523201632824016" lon="114.39315689374357">
        <ele>21.4769287109375</ele>
        <time>2021-03-23T13:47:40Z</time>
      </trkpt>
      <trkpt lat="30.523502655869926" lon="114.39308496013788">
        <ele>19.3609619140625</ele>
        <time>2021-03-23T13:47:52Z</time>
      </trkpt>
      <trkpt lat="30.52354171899043" lon="114.39300599466021">
        <ele>20.74725341796875</ele>
        <time>2021-03-23T13:47:55Z</time>
      </trkpt>
      <trkpt lat="30.52356370053111" lon="114.39291183562116">
        <ele>22.9061279296875</ele>
        <time>2021-03-23T13:47:58Z</time>
      </trkpt>
      <trkpt lat="30.52361470251693" lon="114.39279678097321">
        <ele>23.66058349609375</ele>
        <time>2021-03-23T13:48:04Z</time>
      </trkpt>
      <trkpt lat="30.523610650175666" lon="114.39270995141867">
        <ele>24.95184326171875</ele>
        <time>2021-03-23T13:48:07Z</time>
      </trkpt>
      <trkpt lat="30.523586271391842" lon="114.39255881610802">
        <ele>22.4305419921875</ele>
        <time>2021-03-23T13:48:13Z</time>
      </trkpt>
      <trkpt lat="30.523497347990407" lon="114.39243075136355">
        <ele>21.74859619140625</ele>
        <time>2021-03-23T13:48:19Z</time>
      </trkpt>
      <trkpt lat="30.523366386258118" lon="114.39233280957573">
        <ele>20.37152099609375</ele>
        <time>2021-03-23T13:48:25Z</time>
      </trkpt>
      <trkpt lat="30.523137246128503" lon="114.39229077226194">
        <ele>17.93695068359375</ele>
        <time>2021-03-23T13:48:34Z</time>
      </trkpt>
      <trkpt lat="30.523060224069777" lon="114.39232388218385">
        <ele>19.997802734375</ele>
        <time>2021-03-23T13:48:37Z</time>
      </trkpt>
      <trkpt lat="30.522995416623143" lon="114.39229865344419">
        <ele>20.88702392578125</ele>
        <time>2021-03-23T13:48:40Z</time>
      </trkpt>
      <trkpt lat="30.522777384796367" lon="114.3923078979775">
        <ele>19.998046875</ele>
        <time>2021-03-23T13:48:46Z</time>
      </trkpt>
      <trkpt lat="30.52261956654541" lon="114.3922598850655">
        <ele>16.999755859375</ele>
        <time>2021-03-23T13:48:52Z</time>
      </trkpt>
      <trkpt lat="30.522547427866932" lon="114.39228186967921">
        <ele>17.47662353515625</ele>
        <time>2021-03-23T13:48:55Z</time>
      </trkpt>
      <trkpt lat="30.522461463103276" lon="114.39228269120427">
        <ele>17.58428955078125</ele>
        <time>2021-03-23T13:48:58Z</time>
      </trkpt>
      <trkpt lat="30.522311487630073" lon="114.39234375529435">
        <ele>19.32012939453125</ele>
        <time>2021-03-23T13:49:04Z</time>
      </trkpt>
      <trkpt lat="30.522191596546868" lon="114.39249381628416">
        <ele>19.7462158203125</ele>
        <time>2021-03-23T13:49:10Z</time>
      </trkpt>
      <trkpt lat="30.522156594011108" lon="114.39260181296949">
        <ele>21.11614990234375</ele>
        <time>2021-03-23T13:49:13Z</time>
      </trkpt>
      <trkpt lat="30.522145459382553" lon="114.3926908141381">
        <ele>20.50665283203125</ele>
        <time>2021-03-23T13:49:16Z</time>
      </trkpt>
      <trkpt lat="30.52215953551503" lon="114.39283408231891">
        <ele>21.71490478515625</ele>
        <time>2021-03-23T13:49:19Z</time>
      </trkpt>
      <trkpt lat="30.522198572300958" lon="114.39291195493132">
        <ele>22.509765625</ele>
        <time>2021-03-23T13:49:22Z</time>
      </trkpt>
      <trkpt lat="30.522204524624712" lon="114.39299308688747">
        <ele>22.5653076171875</ele>
        <time>2021-03-23T13:49:25Z</time>
      </trkpt>
      <trkpt lat="30.52231379620552" lon="114.3930820792164">
        <ele>23.84906005859375</ele>
        <time>2021-03-23T13:49:28Z</time>
      </trkpt>
      <trkpt lat="30.522354750203863" lon="114.39304815719302">
        <ele>24.1865234375</ele>
        <time>2021-03-23T13:49:31Z</time>
      </trkpt>
      <trkpt lat="30.5224176519992" lon="114.39312412908788">
        <ele>24.30157470703125</ele>
        <time>2021-03-23T13:49:34Z</time>
      </trkpt>
      <trkpt lat="30.52251852759002" lon="114.39314908433303">
        <ele>24.2562255859375</ele>
        <time>2021-03-23T13:49:37Z</time>
      </trkpt>
      <trkpt lat="30.52283852308606" lon="114.39314200130241">
        <ele>24.85040283203125</ele>
        <time>2021-03-23T13:49:49Z</time>
      </trkpt>
      <trkpt lat="30.522886515051002" lon="114.39318704101878">
        <ele>25.41796875</ele>
        <time>2021-03-23T13:49:52Z</time>
      </trkpt>
      <trkpt lat="30.52296489037234" lon="114.39316288410815">
        <ele>25.68109130859375</ele>
        <time>2021-03-23T13:49:55Z</time>
      </trkpt>
      <trkpt lat="30.523269699514422" lon="114.39315607374833">
        <ele>23.4962158203125</ele>
        <time>2021-03-23T13:50:07Z</time>
      </trkpt>
      <trkpt lat="30.52334373254" lon="114.39315308244184">
        <ele>22.53472900390625</ele>
        <time>2021-03-23T13:50:10Z</time>
      </trkpt>
      <trkpt lat="30.52344163515785" lon="114.39311508510063">
        <ele>22.28204345703125</ele>
        <time>2021-03-23T13:50:13Z</time>
      </trkpt>
      <trkpt lat="30.523483683191635" lon="114.39302390862775">
        <ele>22.873291015625</ele>
        <time>2021-03-23T13:50:16Z</time>
      </trkpt>
      <trkpt lat="30.52356558331723" lon="114.39300382180033">
        <ele>20.70379638671875</ele>
        <time>2021-03-23T13:50:19Z</time>
      </trkpt>
      <trkpt lat="30.523619567146124" lon="114.39289283655906">
        <ele>20.01544189453125</ele>
        <time>2021-03-23T13:50:22Z</time>
      </trkpt>
      <trkpt lat="30.52361745078834" lon="114.39259381639059">
        <ele>25.8238525390625</ele>
        <time>2021-03-23T13:50:31Z</time>
      </trkpt>
      <trkpt lat="30.523584380961225" lon="114.392516758474">
        <ele>27.50677490234375</ele>
        <time>2021-03-23T13:50:34Z</time>
      </trkpt>
      <trkpt lat="30.52340760119368" lon="114.39235668372754">
        <ele>25.0216064453125</ele>
        <time>2021-03-23T13:50:43Z</time>
      </trkpt>
      <trkpt lat="30.52333356880795" lon="114.39235587618326">
        <ele>23.72125244140625</ele>
        <time>2021-03-23T13:50:46Z</time>
      </trkpt>
      <trkpt lat="30.523267686796803" lon="114.39227882201881">
        <ele>24.88385009765625</ele>
        <time>2021-03-23T13:50:49Z</time>
      </trkpt>
      <trkpt lat="30.523163541537564" lon="114.39233771138836">
        <ele>23.751220703125</ele>
        <time>2021-03-23T13:50:52Z</time>
      </trkpt>
      <trkpt lat="30.52290239289216" lon="114.39234180428349">
        <ele>26.99407958984375</ele>
        <time>2021-03-23T13:51:01Z</time>
      </trkpt>
      <trkpt lat="30.522809381889154" lon="114.39231983404018">
        <ele>25.89990234375</ele>
        <time>2021-03-23T13:51:04Z</time>
      </trkpt>
      <trkpt lat="30.522743481834187" lon="114.39233476338346">
        <ele>24.57275390625</ele>
        <time>2021-03-23T13:51:07Z</time>
      </trkpt>
      <trkpt lat="30.52260437447076" lon="114.39228973348509">
        <ele>24.33868408203125</ele>
        <time>2021-03-23T13:51:13Z</time>
      </trkpt>
      <trkpt lat="30.522386607674978" lon="114.39232991049057">
        <ele>25.9056396484375</ele>
        <time>2021-03-23T13:51:22Z</time>
      </trkpt>
      <trkpt lat="30.522155520171715" lon="114.3925429320466">
        <ele>24.76934814453125</ele>
        <time>2021-03-23T13:51:31Z</time>
      </trkpt>
      <trkpt lat="30.52212863501956" lon="114.39275295316686">
        <ele>24.85101318359375</ele>
        <time>2021-03-23T13:51:37Z</time>
      </trkpt>
      <trkpt lat="30.522172533738253" lon="114.39294207658412">
        <ele>23.11834716796875</ele>
        <time>2021-03-23T13:51:43Z</time>
      </trkpt>
      <trkpt lat="30.52229562636415" lon="114.39308615102142">
        <ele>23.77044677734375</ele>
        <time>2021-03-23T13:51:49Z</time>
      </trkpt>
      <trkpt lat="30.522461574799586" lon="114.39317812363717">
        <ele>24.14007568359375</ele>
        <time>2021-03-23T13:51:55Z</time>
      </trkpt>
      <trkpt lat="30.522740620281162" lon="114.39318108408908">
        <ele>21.48687744140625</ele>
        <time>2021-03-23T13:52:07Z</time>
      </trkpt>
      <trkpt lat="30.523045698944248" lon="114.39318512766236">
        <ele>22.87152099609375</ele>
        <time>2021-03-23T13:52:28Z</time>
      </trkpt>
      <trkpt lat="30.52309668077642" lon="114.39318702265064">
        <ele>22.52239990234375</ele>
        <time>2021-03-23T13:52:31Z</time>
      </trkpt>
      <trkpt lat="30.523198649827243" lon="114.39315689400428">
        <ele>21.52032470703125</ele>
        <time>2021-03-23T13:52:34Z</time>
      </trkpt>
      <trkpt lat="30.52330278110502" lon="114.39317208043946">
        <ele>19.67840576171875</ele>
        <time>2021-03-23T13:52:37Z</time>
      </trkpt>
      <trkpt lat="30.52344570257296" lon="114.3931169841827">
        <ele>21.5550537109375</ele>
        <time>2021-03-23T13:52:40Z</time>
      </trkpt>
      <trkpt lat="30.523539545581354" lon="114.39302987338051">
        <ele>21.66033935546875</ele>
        <time>2021-03-23T13:52:43Z</time>
      </trkpt>
      <trkpt lat="30.523626619071166" lon="114.39288578096627">
        <ele>21.92889404296875</ele>
        <time>2021-03-23T13:52:46Z</time>
      </trkpt>
      <trkpt lat="30.523652672302575" lon="114.39277181401853">
        <ele>21.78802490234375</ele>
        <time>2021-03-23T13:52:49Z</time>
      </trkpt>
      <trkpt lat="30.523631546154597" lon="114.39262691883272">
        <ele>21.3360595703125</ele>
        <time>2021-03-23T13:52:52Z</time>
      </trkpt>
      <trkpt lat="30.523594412795536" lon="114.39252679719314">
        <ele>23.2603759765625</ele>
        <time>2021-03-23T13:52:55Z</time>
      </trkpt>
      <trkpt lat="30.523485429271847" lon="114.39236183235302">
        <ele>24.80670166015625</ele>
        <time>2021-03-23T13:53:01Z</time>
      </trkpt>
      <trkpt lat="30.52338049300718" lon="114.39230567456472">
        <ele>24.28570556640625</ele>
        <time>2021-03-23T13:53:04Z</time>
      </trkpt>
      <trkpt lat="30.523081380593666" lon="114.39230163064376">
        <ele>19.5985107421875</ele>
        <time>2021-03-23T13:53:13Z</time>
      </trkpt>
      <trkpt lat="30.523010326873262" lon="114.39232280119353">
        <ele>21.650146484375</ele>
        <time>2021-03-23T13:53:16Z</time>
      </trkpt>
      <trkpt lat="30.522847352430354" lon="114.39229378231035">
        <ele>20.6168212890625</ele>
        <time>2021-03-23T13:53:22Z</time>
      </trkpt>
      <trkpt lat="30.522784434933357" lon="114.39231088207548">
        <ele>21.15264892578125</ele>
        <time>2021-03-23T13:53:25Z</time>
      </trkpt>
      <trkpt lat="30.52245142542552" lon="114.39230277105153">
        <ele>21.724609375</ele>
        <time>2021-03-23T13:53:37Z</time>
      </trkpt>
      <trkpt lat="30.52228653479568" lon="114.39236492185772">
        <ele>21.80364990234375</ele>
        <time>2021-03-23T13:53:46Z</time>
      </trkpt>
      <trkpt lat="30.522257509086575" lon="114.39241295134265">
        <ele>21.82940673828125</ele>
        <time>2021-03-23T13:53:49Z</time>
      </trkpt>
      <trkpt lat="30.522160678812703" lon="114.39250982805613">
        <ele>22.63568115234375</ele>
        <time>2021-03-23T13:53:55Z</time>
      </trkpt>
      <trkpt lat="30.522110460712657" lon="114.39278198852547">
        <ele>21.567138671875</ele>
        <time>2021-03-23T13:54:04Z</time>
      </trkpt>
      <trkpt lat="30.522150571921596" lon="114.39291901411167">
        <ele>24.75738525390625</ele>
        <time>2021-03-23T13:54:07Z</time>
      </trkpt>
      <trkpt lat="30.522187442030067" lon="114.39298196317252">
        <ele>24.52099609375</ele>
        <time>2021-03-23T13:54:10Z</time>
      </trkpt>
      <trkpt lat="30.522332775840916" lon="114.3931010719107">
        <ele>23.14666748046875</ele>
        <time>2021-03-23T13:54:16Z</time>
      </trkpt>
      <trkpt lat="30.52247757564288" lon="114.39317106716496">
        <ele>24.3033447265625</ele>
        <time>2021-03-23T13:54:22Z</time>
      </trkpt>
      <trkpt lat="30.52281058260878" lon="114.39319708757633">
        <ele>24.97607421875</ele>
        <time>2021-03-23T13:54:34Z</time>
      </trkpt>
      <trkpt lat="30.523091798863867" lon="114.39319109331505">
        <ele>22.51898193359375</ele>
        <time>2021-03-23T13:54:49Z</time>
      </trkpt>
      <trkpt lat="30.523184816672124" lon="114.39317507558823">
        <ele>22.4744873046875</ele>
        <time>2021-03-23T13:54:52Z</time>
      </trkpt>
      <trkpt lat="30.5233675892224" lon="114.39319893833978">
        <ele>22.78533935546875</ele>
        <time>2021-03-23T13:55:01Z</time>
      </trkpt>
      <trkpt lat="30.52356259171354" lon="114.39305592070356">
        <ele>23.76239013671875</ele>
        <time>2021-03-23T13:55:07Z</time>
      </trkpt>
      <trkpt lat="30.523602475236277" lon="114.39293679603723">
        <ele>24.3033447265625</ele>
        <time>2021-03-23T13:55:10Z</time>
      </trkpt>
      <trkpt lat="30.523656725718233" lon="114.39285375962594">
        <ele>24.06304931640625</ele>
        <time>2021-03-23T13:55:13Z</time>
      </trkpt>
      <trkpt lat="30.523631283440242" lon="114.39258079079973">
        <ele>21.467529296875</ele>
        <time>2021-03-23T13:55:22Z</time>
      </trkpt>
      <trkpt lat="30.523581395327145" lon="114.39253086843874">
        <ele>21.66229248046875</ele>
        <time>2021-03-23T13:55:25Z</time>
      </trkpt>
      <trkpt lat="30.52351633818671" lon="114.39239167689014">
        <ele>21.64752197265625</ele>
        <time>2021-03-23T13:55:28Z</time>
      </trkpt>
      <trkpt lat="30.52342739780961" lon="114.39235478262948">
        <ele>22.87548828125</ele>
        <time>2021-03-23T13:55:31Z</time>
      </trkpt>
      <trkpt lat="30.52337940726953" lon="114.39231083007473">
        <ele>22.78509521484375</ele>
        <time>2021-03-23T13:55:34Z</time>
      </trkpt>
      <trkpt lat="30.52318226226349" lon="114.3922907683275">
        <ele>21.714599609375</ele>
        <time>2021-03-23T13:55:40Z</time>
      </trkpt>
      <trkpt lat="30.523097377164607" lon="114.39231763816727">
        <ele>22.201904296875</ele>
        <time>2021-03-23T13:55:43Z</time>
      </trkpt>
      <trkpt lat="30.52299840336358" lon="114.3922796595661">
        <ele>23.47161865234375</ele>
        <time>2021-03-23T13:55:46Z</time>
      </trkpt>
      <trkpt lat="30.522820504061762" lon="114.3923008394317">
        <ele>25.45440673828125</ele>
        <time>2021-03-23T13:55:52Z</time>
      </trkpt>
      <trkpt lat="30.522720441616823" lon="114.39228266856992">
        <ele>23.38470458984375</ele>
        <time>2021-03-23T13:55:55Z</time>
      </trkpt>
      <trkpt lat="30.522627423524757" lon="114.39229678624406">
        <ele>22.980712890625</ele>
        <time>2021-03-23T13:55:58Z</time>
      </trkpt>
      <trkpt lat="30.522542546221473" lon="114.39228376946699">
        <ele>24.9366455078125</ele>
        <time>2021-03-23T13:56:01Z</time>
      </trkpt>
      <trkpt lat="30.522414545883613" lon="114.39229680484921">
        <ele>21.3787841796875</ele>
        <time>2021-03-23T13:56:07Z</time>
      </trkpt>
      <trkpt lat="30.522236624869443" lon="114.39242977619296">
        <ele>19.43377685546875</ele>
        <time>2021-03-23T13:56:16Z</time>
      </trkpt>
      <trkpt lat="30.52219756065823" lon="114.39250385534766">
        <ele>20.55181884765625</ele>
        <time>2021-03-23T13:56:19Z</time>
      </trkpt>
      <trkpt lat="30.522131650985884" lon="114.39257088224419">
        <ele>22.2342529296875</ele>
        <time>2021-03-23T13:56:22Z</time>
      </trkpt>
      <trkpt lat="30.522100710926612" lon="114.39271008338552">
        <ele>22.723876953125</ele>
        <time>2021-03-23T13:56:25Z</time>
      </trkpt>
      <trkpt lat="30.522119672307305" lon="114.3928311010133">
        <ele>23.655029296875</ele>
        <time>2021-03-23T13:56:28Z</time>
      </trkpt>
      <trkpt lat="30.522255768546835" lon="114.39305006527505">
        <ele>24.32073974609375</ele>
        <time>2021-03-23T13:56:34Z</time>
      </trkpt>
      <trkpt lat="30.52245968115747" lon="114.39314908947601">
        <ele>21.23760986328125</ele>
        <time>2021-03-23T13:56:40Z</time>
      </trkpt>
      <trkpt lat="30.522558658671663" lon="114.39317295952128">
        <ele>23.7083740234375</ele>
        <time>2021-03-23T13:56:43Z</time>
      </trkpt>
      <trkpt lat="30.52269262671007" lon="114.39314608428226">
        <ele>20.425537109375</ele>
        <time>2021-03-23T13:56:46Z</time>
      </trkpt>
      <trkpt lat="30.522885432866865" lon="114.39317103151936">
        <ele>18.407958984375</ele>
        <time>2021-03-23T13:56:52Z</time>
      </trkpt>
      <trkpt lat="30.52318373289577" lon="114.39316910600584">
        <ele>21.68975830078125</ele>
        <time>2021-03-23T13:57:01Z</time>
      </trkpt>
      <trkpt lat="30.52341153130356" lon="114.39313191132767">
        <ele>19.8851318359375</ele>
        <time>2021-03-23T13:57:10Z</time>
      </trkpt>
      <trkpt lat="30.523448693063404" lon="114.39307085477265">
        <ele>19.2933349609375</ele>
        <time>2021-03-23T13:57:13Z</time>
      </trkpt>
      <trkpt lat="30.52351351297093" lon="114.3930249914087">
        <ele>17.5821533203125</ele>
        <time>2021-03-23T13:57:16Z</time>
      </trkpt>
      <trkpt lat="30.523601675892166" lon="114.39285376443736">
        <ele>20.067138671875</ele>
        <time>2021-03-23T13:57:22Z</time>
      </trkpt>
      <trkpt lat="30.52361959239368" lon="114.39274793867735">
        <ele>19.2210693359375</ele>
        <time>2021-03-23T13:57:28Z</time>
      </trkpt>
      <trkpt lat="30.523591435805063" lon="114.39249477929947">
        <ele>23.45587158203125</ele>
        <time>2021-03-23T13:57:37Z</time>
      </trkpt>
      <trkpt lat="30.523515511259713" lon="114.39246168247242">
        <ele>23.6702880859375</ele>
        <time>2021-03-23T13:57:40Z</time>
      </trkpt>
      <trkpt lat="30.52350657335764" lon="114.39240361665108">
        <ele>23.30865478515625</ele>
        <time>2021-03-23T13:57:43Z</time>
      </trkpt>
      <trkpt lat="30.52336150013215" lon="114.39235777310994">
        <ele>25.06982421875</ele>
        <time>2021-03-23T13:57:49Z</time>
      </trkpt>
      <trkpt lat="30.523326527093072" lon="114.39230974934587">
        <ele>22.8707275390625</ele>
        <time>2021-03-23T13:57:52Z</time>
      </trkpt>
      <trkpt lat="30.52321561210217" lon="114.39231871318454">
        <ele>21.65850830078125</ele>
        <time>2021-03-23T13:57:55Z</time>
      </trkpt>
      <trkpt lat="30.523086263195843" lon="114.39229484677938">
        <ele>22.807373046875</ele>
        <time>2021-03-23T13:58:01Z</time>
      </trkpt>
      <trkpt lat="30.522794474795027" lon="114.39227967738938">
        <ele>18.8641357421875</ele>
        <time>2021-03-23T13:58:16Z</time>
      </trkpt>
      <trkpt lat="30.522743489063462" lon="114.39229786145003">
        <ele>17.8787841796875</ele>
        <time>2021-03-23T13:58:19Z</time>
      </trkpt>
      <trkpt lat="30.522545532384278" lon="114.39226776031056">
        <ele>17.95263671875</ele>
        <time>2021-03-23T13:58:28Z</time>
      </trkpt>
      <trkpt lat="30.522467427122084" lon="114.39229273016561">
        <ele>16.20501708984375</ele>
        <time>2021-03-23T13:58:31Z</time>
      </trkpt>
      <trkpt lat="30.522372244686856" lon="114.39228079964076">
        <ele>10.706085205078125</ele>
        <time>2021-03-23T13:58:37Z</time>
      </trkpt>
      <trkpt lat="30.522309325177996" lon="114.39230793888514">
        <ele>12.666259765625</ele>
        <time>2021-03-23T13:58:40Z</time>
      </trkpt>
      <trkpt lat="30.52223338222089" lon="114.39236981059445">
        <ele>16.24853515625</ele>
        <time>2021-03-23T13:58:43Z</time>
      </trkpt>
      <trkpt lat="30.52217669136372" lon="114.39244199169966">
        <ele>18.8441162109375</ele>
        <time>2021-03-23T13:58:46Z</time>
      </trkpt>
      <trkpt lat="30.52210260387598" lon="114.39273993096005">
        <ele>20.78399658203125</ele>
        <time>2021-03-23T13:58:55Z</time>
      </trkpt>
      <trkpt lat="30.52211153374736" lon="114.39284901046811">
        <ele>20.62274169921875</ele>
        <time>2021-03-23T13:58:58Z</time>
      </trkpt>
      <trkpt lat="30.522184450552192" lon="114.39303297663162">
        <ele>22.45068359375</ele>
        <time>2021-03-23T13:59:04Z</time>
      </trkpt>
      <trkpt lat="30.522332761750818" lon="114.39318898885932">
        <ele>22.04876708984375</ele>
        <time>2021-03-23T13:59:10Z</time>
      </trkpt>
      <trkpt lat="30.52255566808318" lon="114.39322098860627">
        <ele>20.61590576171875</ele>
        <time>2021-03-23T13:59:19Z</time>
      </trkpt>
      <trkpt lat="30.52288163172186" lon="114.39320006620916">
        <ele>21.36810302734375</ele>
        <time>2021-03-23T13:59:34Z</time>
      </trkpt>
      <trkpt lat="30.52319972851565" lon="114.39319488277141">
        <ele>20.839599609375</ele>
        <time>2021-03-23T13:59:46Z</time>
      </trkpt>
      <trkpt lat="30.523299795910958" lon="114.39318591950196">
        <ele>19.92138671875</ele>
        <time>2021-03-23T13:59:49Z</time>
      </trkpt>
      <trkpt lat="30.5233727416705" lon="114.39319893788947">
        <ele>18.72845458984375</ele>
        <time>2021-03-23T13:59:52Z</time>
      </trkpt>
      <trkpt lat="30.523455730834783" lon="114.39315090186363">
        <ele>19.0762939453125</ele>
        <time>2021-03-23T13:59:55Z</time>
      </trkpt>
      <trkpt lat="30.52350455595446" lon="114.39307383471437">
        <ele>18.57952880859375</ele>
        <time>2021-03-23T13:59:58Z</time>
      </trkpt>
      <trkpt lat="30.52358755168117" lon="114.39298781042821">
        <ele>18.7510986328125</ele>
        <time>2021-03-23T14:00:01Z</time>
      </trkpt>
      <trkpt lat="30.5236445263636" lon="114.39283178177656">
        <ele>19.89031982421875</ele>
        <time>2021-03-23T14:00:07Z</time>
      </trkpt>
      <trkpt lat="30.523655658462804" lon="114.39275390508064">
        <ele>20.79046630859375</ele>
        <time>2021-03-23T14:00:10Z</time>
      </trkpt>
      <trkpt lat="30.52362774507083" lon="114.3926518826263">
        <ele>21.2227783203125</ele>
        <time>2021-03-23T14:00:13Z</time>
      </trkpt>
      <trkpt lat="30.52363047195175" lon="114.3925696658843">
        <ele>23.36627197265625</ele>
        <time>2021-03-23T14:00:16Z</time>
      </trkpt>
      <trkpt lat="30.5235233816161" lon="114.39242966373125">
        <ele>23.2901611328125</ele>
        <time>2021-03-23T14:00:22Z</time>
      </trkpt>
      <trkpt lat="30.523357435893235" lon="114.39233986514611">
        <ele>21.02813720703125</ele>
        <time>2021-03-23T14:00:28Z</time>
      </trkpt>
      <trkpt lat="30.523257647577736" lon="114.39230677065201">
        <ele>20.30902099609375</ele>
        <time>2021-03-23T14:00:31Z</time>
      </trkpt>
      <trkpt lat="30.52289751884136" lon="114.39230490276412">
        <ele>18.36981201171875</ele>
        <time>2021-03-23T14:00:40Z</time>
      </trkpt>
      <trkpt lat="30.522704438318446" lon="114.39230084957575">
        <ele>20.21783447265625</ele>
        <time>2021-03-23T14:00:46Z</time>
      </trkpt>
      <trkpt lat="30.5225975886416" lon="114.39232175191528">
        <ele>21.61273193359375</ele>
        <time>2021-03-23T14:00:49Z</time>
      </trkpt>
      <trkpt lat="30.52255257657796" lon="114.39230086284826">
        <ele>22.2308349609375</ele>
        <time>2021-03-23T14:00:52Z</time>
      </trkpt>
      <trkpt lat="30.522458473010353" lon="114.39231877935802">
        <ele>21.39129638671875</ele>
        <time>2021-03-23T14:00:55Z</time>
      </trkpt>
      <trkpt lat="30.52234863274145" lon="114.3923787546923">
        <ele>21.30609130859375</ele>
        <time>2021-03-23T14:00:58Z</time>
      </trkpt>
      <trkpt lat="30.522288703671542" lon="114.39236790639052">
        <ele>20.48193359375</ele>
        <time>2021-03-23T14:01:01Z</time>
      </trkpt>
      <trkpt lat="30.522213567756918" lon="114.39246478099759">
        <ele>19.8387451171875</ele>
        <time>2021-03-23T14:01:04Z</time>
      </trkpt>
      <trkpt lat="30.52217151340776" lon="114.39257793362941">
        <ele>19.507568359375</ele>
        <time>2021-03-23T14:01:07Z</time>
      </trkpt>
      <trkpt lat="30.5221525111838" lon="114.39268484398453">
        <ele>21.19317626953125</ele>
        <time>2021-03-23T14:01:10Z</time>
      </trkpt>
      <trkpt lat="30.52215952913582" lon="114.39287098520722">
        <ele>22.8367919921875</ele>
        <time>2021-03-23T14:01:16Z</time>
      </trkpt>
      <trkpt lat="30.52231161064873" lon="114.39318220697943">
        <ele>24.49310302734375</ele>
        <time>2021-03-23T14:01:25Z</time>
      </trkpt>
      <trkpt lat="30.522417640821875" lon="114.39319413707629">
        <ele>23.2894287109375</ele>
        <time>2021-03-23T14:01:28Z</time>
      </trkpt>
      <trkpt lat="30.522626726874698" lon="114.39316291366286">
        <ele>18.19512939453125</ele>
        <time>2021-03-23T14:01:37Z</time>
      </trkpt>
      <trkpt lat="30.522956489177687" lon="114.39312896626542">
        <ele>20.18572998046875</ele>
        <time>2021-03-23T14:01:46Z</time>
      </trkpt>
      <trkpt lat="30.52303864809445" lon="114.39318594232601">
        <ele>21.3985595703125</ele>
        <time>2021-03-23T14:01:49Z</time>
      </trkpt>
      <trkpt lat="30.52315661396528" lon="114.39317399265715">
        <ele>19.73486328125</ele>
        <time>2021-03-23T14:01:52Z</time>
      </trkpt>
      <trkpt lat="30.523231729008685" lon="114.39318809624422">
        <ele>18.12945556640625</ele>
        <time>2021-03-23T14:01:55Z</time>
      </trkpt>
      <trkpt lat="30.523404745990714" lon="114.39316800129374">
        <ele>18.9205322265625</ele>
        <time>2021-03-23T14:02:01Z</time>
      </trkpt>
      <trkpt lat="30.523528687346882" lon="114.39309689717008">
        <ele>21.294189453125</ele>
        <time>2021-03-23T14:02:07Z</time>
      </trkpt>
      <trkpt lat="30.523623622810298" lon="114.3929639287938">
        <ele>22.6484375</ele>
        <time>2021-03-23T14:02:16Z</time>
      </trkpt>
    </trkseg>
  </trk>
</gpx>