<?xml version="1.0" encoding="UTF-8"?>
<gpx xmlns="http://www.topografix.com/GPX/1/1" xmlns:gpxtpx="http://www.garmin.com/xmlschemas/TrackPointExtension/v1" xmlns:xsi="http://www.w3.org/2001/XMLSchema-instance" xsi:schemaLocation="http://www.topografix.com/GPX/1/1 http://www.topografix.com/GPX/1/1/gpx.xsd" version="1.1" creator="gpx.py -- https://github.com/tkrajina/gpxpy">
  <trk>
    <name>gpx from keep</name>
    <type>Run</type>
    <trkseg>
      <trkpt lat="30.522227742097513" lon="114.39235879636418">
        <ele>17.59</ele>
        <time>2021-06-02T14:32:00Z</time>
      </trkpt>
      <trkpt lat="30.522297320262997" lon="114.39315633537856">
        <ele>17.83</ele>
        <time>2021-06-02T14:32:03Z</time>
      </trkpt>
      <trkpt lat="30.5223842284644" lon="114.39318777325917">
        <ele>15.46</ele>
        <time>2021-06-02T14:32:06Z</time>
      </trkpt>
      <trkpt lat="30.52272764485663" lon="114.39320168536231">
        <ele>19.96</ele>
        <time>2021-06-02T14:32:18Z</time>
      </trkpt>
      <trkpt lat="30.52302476545363" lon="114.3931928116766">
        <ele>16.21</ele>
        <time>2021-06-02T14:32:27Z</time>
      </trkpt>
      <trkpt lat="30.523275188675022" lon="114.39319686160519">
        <ele>17.39</ele>
        <time>2021-06-02T14:32:33Z</time>
      </trkpt>
      <trkpt lat="30.523393130315384" lon="114.3931568905474">
        <ele>18.07</ele>
        <time>2021-06-02T14:32:36Z</time>
      </trkpt>
      <trkpt lat="30.523477753397735" lon="114.393081880425">
        <ele>15.48</ele>
        <time>2021-06-02T14:32:39Z</time>
      </trkpt>
      <trkpt lat="30.523539959543672" lon="114.39297824288816">
        <ele>11.96</ele>
        <time>2021-06-02T14:32:42Z</time>
      </trkpt>
      <trkpt lat="30.52358038335401" lon="114.39286544306286">
        <ele>10.04</ele>
        <time>2021-06-02T14:32:45Z</time>
      </trkpt>
      <trkpt lat="30.523593179496615" lon="114.39263590275777">
        <ele>11.41</ele>
        <time>2021-06-02T14:32:51Z</time>
      </trkpt>
      <trkpt lat="30.523566944794982" lon="114.39253173556853">
        <ele>13.97</ele>
        <time>2021-06-02T14:32:54Z</time>
      </trkpt>
      <trkpt lat="30.52350866245009" lon="114.39243877147905">
        <ele>16.83</ele>
        <time>2021-06-02T14:32:57Z</time>
      </trkpt>
      <trkpt lat="30.523423003254138" lon="114.39236023130545">
        <ele>17.35</ele>
        <time>2021-06-02T14:33:00Z</time>
      </trkpt>
      <trkpt lat="30.52334010080294" lon="114.3923103186205">
        <ele>17.35</ele>
        <time>2021-06-02T14:33:03Z</time>
      </trkpt>
      <trkpt lat="30.5230592530838" lon="114.39228822411725">
        <ele>18.36</ele>
        <time>2021-06-02T14:33:12Z</time>
      </trkpt>
      <trkpt lat="30.52274457109856" lon="114.39229190651153">
        <ele>19.41</ele>
        <time>2021-06-02T14:33:24Z</time>
      </trkpt>
      <trkpt lat="30.522415193934915" lon="114.39231673450476">
        <ele>23.52</ele>
        <time>2021-06-02T14:33:36Z</time>
      </trkpt>
      <trkpt lat="30.522335316583142" lon="114.39233111863174">
        <ele>23.79</ele>
        <time>2021-06-02T14:33:40Z</time>
      </trkpt>
      <trkpt lat="30.522189347056745" lon="114.39242406362533">
        <ele>24.99</ele>
        <time>2021-06-02T14:33:45Z</time>
      </trkpt>
      <trkpt lat="30.52212029249417" lon="114.3924925218697">
        <ele>26.64</ele>
        <time>2021-06-02T14:33:48Z</time>
      </trkpt>
      <trkpt lat="30.522074848040848" lon="114.39260308105216">
        <ele>26.92</ele>
        <time>2021-06-02T14:33:51Z</time>
      </trkpt>
      <trkpt lat="30.52208098972191" lon="114.39282269864971">
        <ele>25.82</ele>
        <time>2021-06-02T14:33:58Z</time>
      </trkpt>
      <trkpt lat="30.52209929617797" lon="114.39293440791178">
        <ele>27.05</ele>
        <time>2021-06-02T14:34:00Z</time>
      </trkpt>
      <trkpt lat="30.522146471572878" lon="114.39304041556599">
        <ele>31.01</ele>
        <time>2021-06-02T14:34:03Z</time>
      </trkpt>
      <trkpt lat="30.522217267083967" lon="114.39310351184162">
        <ele>30.11</ele>
        <time>2021-06-02T14:34:07Z</time>
      </trkpt>
      <trkpt lat="30.52238010764856" lon="114.39318447240895">
        <ele>29.02</ele>
        <time>2021-06-02T14:34:12Z</time>
      </trkpt>
      <trkpt lat="30.522528295072803" lon="114.39316785736243">
        <ele>25.74</ele>
        <time>2021-06-02T14:34:18Z</time>
      </trkpt>
      <trkpt lat="30.522836859892013" lon="114.39321883938287">
        <ele>22.76</ele>
        <time>2021-06-02T14:34:30Z</time>
      </trkpt>
      <trkpt lat="30.523106794369966" lon="114.39318506926571">
        <ele>27.63</ele>
        <time>2021-06-02T14:34:39Z</time>
      </trkpt>
      <trkpt lat="30.523296295512576" lon="114.39314023660428">
        <ele>31.06</ele>
        <time>2021-06-02T14:34:45Z</time>
      </trkpt>
      <trkpt lat="30.52337255392684" lon="114.39308816255573">
        <ele>28.71</ele>
        <time>2021-06-02T14:34:48Z</time>
      </trkpt>
      <trkpt lat="30.523449196094845" lon="114.3930095415294">
        <ele>23.87</ele>
        <time>2021-06-02T14:34:51Z</time>
      </trkpt>
      <trkpt lat="30.523554527480044" lon="114.39279896572233">
        <ele>18.66</ele>
        <time>2021-06-02T14:34:57Z</time>
      </trkpt>
      <trkpt lat="30.523587872070266" lon="114.3926044945458">
        <ele>19.25</ele>
        <time>2021-06-02T14:35:03Z</time>
      </trkpt>
      <trkpt lat="30.523526609892578" lon="114.39242717836142">
        <ele>18.99</ele>
        <time>2021-06-02T14:35:09Z</time>
      </trkpt>
      <trkpt lat="30.523466195103552" lon="114.39236645273745">
        <ele>17.57</ele>
        <time>2021-06-02T14:35:12Z</time>
      </trkpt>
      <trkpt lat="30.523228684225053" lon="114.3922865529095">
        <ele>15.41</ele>
        <time>2021-06-02T14:35:21Z</time>
      </trkpt>
      <trkpt lat="30.522922285468734" lon="114.39230368878599">
        <ele>16.69</ele>
        <time>2021-06-02T14:35:33Z</time>
      </trkpt>
      <trkpt lat="30.522572748616923" lon="114.39228795625928">
        <ele>18.38</ele>
        <time>2021-06-02T14:35:45Z</time>
      </trkpt>
      <trkpt lat="30.52239805056526" lon="114.39230302099465">
        <ele>19.27</ele>
        <time>2021-06-02T14:35:51Z</time>
      </trkpt>
      <trkpt lat="30.522249955643453" lon="114.3923730599967">
        <ele>20.93</ele>
        <time>2021-06-02T14:35:57Z</time>
      </trkpt>
      <trkpt lat="30.5221228632288" lon="114.39249555265205">
        <ele>21.52</ele>
        <time>2021-06-02T14:36:03Z</time>
      </trkpt>
      <trkpt lat="30.522077977215975" lon="114.3926845724101">
        <ele>20.02</ele>
        <time>2021-06-02T14:36:09Z</time>
      </trkpt>
      <trkpt lat="30.522083192276202" lon="114.39279096030641">
        <ele>20.94</ele>
        <time>2021-06-02T14:36:12Z</time>
      </trkpt>
      <trkpt lat="30.522105924761835" lon="114.39288565507186">
        <ele>20.86</ele>
        <time>2021-06-02T14:36:15Z</time>
      </trkpt>
      <trkpt lat="30.52214330384981" lon="114.39296529583">
        <ele>22.18</ele>
        <time>2021-06-02T14:36:18Z</time>
      </trkpt>
      <trkpt lat="30.522210355434936" lon="114.3930543489404">
        <ele>23.53</ele>
        <time>2021-06-02T14:36:21Z</time>
      </trkpt>
      <trkpt lat="30.522392410780235" lon="114.39315487456233">
        <ele>21.16</ele>
        <time>2021-06-02T14:36:27Z</time>
      </trkpt>
      <trkpt lat="30.522692756927892" lon="114.39316940702345">
        <ele>18.74</ele>
        <time>2021-06-02T14:36:36Z</time>
      </trkpt>
      <trkpt lat="30.522971900162688" lon="114.39317240654515">
        <ele>21.88</ele>
        <time>2021-06-02T14:36:45Z</time>
      </trkpt>
      <trkpt lat="30.52325475103557" lon="114.3931652533773">
        <ele>23.02</ele>
        <time>2021-06-02T14:36:54Z</time>
      </trkpt>
      <trkpt lat="30.52334954590227" lon="114.39313984625959">
        <ele>22.3</ele>
        <time>2021-06-02T14:36:57Z</time>
      </trkpt>
      <trkpt lat="30.523523028943" lon="114.39297634246553">
        <ele>16.64</ele>
        <time>2021-06-02T14:37:03Z</time>
      </trkpt>
      <trkpt lat="30.523597882650762" lon="114.39264914620973">
        <ele>14.4</ele>
        <time>2021-06-02T14:37:12Z</time>
      </trkpt>
      <trkpt lat="30.523508299044188" lon="114.39246688884515">
        <ele>15.24</ele>
        <time>2021-06-02T14:37:18Z</time>
      </trkpt>
      <trkpt lat="30.523380478514454" lon="114.39234165663737">
        <ele>18.0</ele>
        <time>2021-06-02T14:37:24Z</time>
      </trkpt>
      <trkpt lat="30.52329768844766" lon="114.39230190661249">
        <ele>17.95</ele>
        <time>2021-06-02T14:37:27Z</time>
      </trkpt>
      <trkpt lat="30.52295168946741" lon="114.39231961281881">
        <ele>19.45</ele>
        <time>2021-06-02T14:37:39Z</time>
      </trkpt>
      <trkpt lat="30.522618738819435" lon="114.392329706974">
        <ele>20.53</ele>
        <time>2021-06-02T14:37:51Z</time>
      </trkpt>
      <trkpt lat="30.522438523545993" lon="114.39231417372868">
        <ele>20.4</ele>
        <time>2021-06-02T14:37:57Z</time>
      </trkpt>
      <trkpt lat="30.522235281640157" lon="114.39239919690567">
        <ele>25.32</ele>
        <time>2021-06-02T14:38:03Z</time>
      </trkpt>
      <trkpt lat="30.522158719030084" lon="114.39247627743957">
        <ele>24.96</ele>
        <time>2021-06-02T14:38:06Z</time>
      </trkpt>
      <trkpt lat="30.522083121750338" lon="114.3926611162338">
        <ele>26.03</ele>
        <time>2021-06-02T14:38:12Z</time>
      </trkpt>
      <trkpt lat="30.522076744340605" lon="114.39284249386738">
        <ele>24.97</ele>
        <time>2021-06-02T14:38:18Z</time>
      </trkpt>
      <trkpt lat="30.522099439436364" lon="114.3929482415467">
        <ele>25.68</ele>
        <time>2021-06-02T14:38:21Z</time>
      </trkpt>
      <trkpt lat="30.52214696111304" lon="114.39303844504556">
        <ele>26.35</ele>
        <time>2021-06-02T14:38:24Z</time>
      </trkpt>
      <trkpt lat="30.52221302892238" lon="114.39311147395576">
        <ele>26.67</ele>
        <time>2021-06-02T14:38:27Z</time>
      </trkpt>
      <trkpt lat="30.522531654808386" lon="114.39316660701807">
        <ele>21.96</ele>
        <time>2021-06-02T14:38:39Z</time>
      </trkpt>
      <trkpt lat="30.522697111444693" lon="114.39318839200125">
        <ele>20.47</ele>
        <time>2021-06-02T14:38:45Z</time>
      </trkpt>
      <trkpt lat="30.523000897035566" lon="114.39315803262998">
        <ele>21.17</ele>
        <time>2021-06-02T14:38:57Z</time>
      </trkpt>
      <trkpt lat="30.523330413967564" lon="114.39313237438017">
        <ele>23.74</ele>
        <time>2021-06-02T14:39:09Z</time>
      </trkpt>
      <trkpt lat="30.52340482046198" lon="114.39311464937788">
        <ele>24.42</ele>
        <time>2021-06-02T14:39:12Z</time>
      </trkpt>
      <trkpt lat="30.523539700846435" lon="114.39298378434609">
        <ele>16.41</ele>
        <time>2021-06-02T14:39:18Z</time>
      </trkpt>
      <trkpt lat="30.523570677527047" lon="114.39288354786301">
        <ele>14.89</ele>
        <time>2021-06-02T14:39:21Z</time>
      </trkpt>
      <trkpt lat="30.523580075719824" lon="114.39270544105871">
        <ele>14.16</ele>
        <time>2021-06-02T14:39:27Z</time>
      </trkpt>
      <trkpt lat="30.5235325765673" lon="114.39254060805007">
        <ele>13.0</ele>
        <time>2021-06-02T14:39:33Z</time>
      </trkpt>
      <trkpt lat="30.523423717297312" lon="114.39237744580828">
        <ele>15.51</ele>
        <time>2021-06-02T14:39:39Z</time>
      </trkpt>
      <trkpt lat="30.523352754685323" lon="114.39232639276901">
        <ele>17.14</ele>
        <time>2021-06-02T14:39:42Z</time>
      </trkpt>
      <trkpt lat="30.523184753668282" lon="114.39228587293141">
        <ele>20.43</ele>
        <time>2021-06-02T14:39:48Z</time>
      </trkpt>
      <trkpt lat="30.522878374290638" lon="114.39230035811424">
        <ele>19.39</ele>
        <time>2021-06-02T14:40:00Z</time>
      </trkpt>
      <trkpt lat="30.522523207970778" lon="114.3923297774267">
        <ele>22.63</ele>
        <time>2021-06-02T14:40:12Z</time>
      </trkpt>
      <trkpt lat="30.522347700046364" lon="114.39234541231606">
        <ele>21.29</ele>
        <time>2021-06-02T14:40:18Z</time>
      </trkpt>
      <trkpt lat="30.522207853870334" lon="114.39245239095969">
        <ele>21.35</ele>
        <time>2021-06-02T14:40:24Z</time>
      </trkpt>
      <trkpt lat="30.522118164899858" lon="114.39263060807333">
        <ele>23.23</ele>
        <time>2021-06-02T14:40:30Z</time>
      </trkpt>
      <trkpt lat="30.522093212131782" lon="114.39283247116045">
        <ele>24.01</ele>
        <time>2021-06-02T14:40:36Z</time>
      </trkpt>
      <trkpt lat="30.522135722108775" lon="114.39300065515977">
        <ele>25.7</ele>
        <time>2021-06-02T14:40:42Z</time>
      </trkpt>
      <trkpt lat="30.52218823071242" lon="114.39307759515538">
        <ele>27.27</ele>
        <time>2021-06-02T14:40:45Z</time>
      </trkpt>
      <trkpt lat="30.52232195983529" lon="114.39315357454005">
        <ele>24.11</ele>
        <time>2021-06-02T14:40:51Z</time>
      </trkpt>
      <trkpt lat="30.52259500967784" lon="114.393184821525">
        <ele>22.18</ele>
        <time>2021-06-02T14:41:00Z</time>
      </trkpt>
      <trkpt lat="30.522965931849576" lon="114.39317978851545">
        <ele>21.39</ele>
        <time>2021-06-02T14:41:12Z</time>
      </trkpt>
      <trkpt lat="30.523240562060668" lon="114.3931701447293">
        <ele>16.57</ele>
        <time>2021-06-02T14:41:21Z</time>
      </trkpt>
      <trkpt lat="30.523393156753716" lon="114.39309936540946">
        <ele>18.11</ele>
        <time>2021-06-02T14:41:27Z</time>
      </trkpt>
      <trkpt lat="30.52353620818821" lon="114.39297263143007">
        <ele>16.55</ele>
        <time>2021-06-02T14:41:33Z</time>
      </trkpt>
      <trkpt lat="30.52358739741925" lon="114.39288244749793">
        <ele>15.04</ele>
        <time>2021-06-02T14:41:36Z</time>
      </trkpt>
      <trkpt lat="30.523610054885932" lon="114.39278580201383">
        <ele>14.28</ele>
        <time>2021-06-02T14:41:39Z</time>
      </trkpt>
      <trkpt lat="30.52356705955405" lon="114.39255200087919">
        <ele>17.04</ele>
        <time>2021-06-02T14:41:45Z</time>
      </trkpt>
      <trkpt lat="30.523524247486684" lon="114.39245963687306">
        <ele>16.43</ele>
        <time>2021-06-02T14:41:48Z</time>
      </trkpt>
      <trkpt lat="30.5234715912419" lon="114.3923924195105">
        <ele>19.84</ele>
        <time>2021-06-02T14:41:51Z</time>
      </trkpt>
      <trkpt lat="30.523397517988464" lon="114.39233875580071">
        <ele>20.43</ele>
        <time>2021-06-02T14:41:54Z</time>
      </trkpt>
      <trkpt lat="30.52332480128121" lon="114.39231294937844">
        <ele>20.45</ele>
        <time>2021-06-02T14:41:57Z</time>
      </trkpt>
      <trkpt lat="30.522991174392452" lon="114.39229643657535">
        <ele>20.46</ele>
        <time>2021-06-02T14:42:09Z</time>
      </trkpt>
      <trkpt lat="30.522676222849913" lon="114.39230201946802">
        <ele>21.96</ele>
        <time>2021-06-02T14:42:21Z</time>
      </trkpt>
      <trkpt lat="30.522316864697217" lon="114.39232378679704">
        <ele>25.01</ele>
        <time>2021-06-02T14:42:33Z</time>
      </trkpt>
      <trkpt lat="30.522222416207864" lon="114.39237653103045">
        <ele>25.94</ele>
        <time>2021-06-02T14:42:36Z</time>
      </trkpt>
      <trkpt lat="30.522144526849946" lon="114.39246753521407">
        <ele>27.19</ele>
        <time>2021-06-02T14:42:39Z</time>
      </trkpt>
      <trkpt lat="30.52210774154355" lon="114.39270183680429">
        <ele>27.4</ele>
        <time>2021-06-02T14:42:45Z</time>
      </trkpt>
      <trkpt lat="30.522113419098137" lon="114.39281879747801">
        <ele>25.94</ele>
        <time>2021-06-02T14:42:48Z</time>
      </trkpt>
      <trkpt lat="30.522140523991883" lon="114.3929235348673">
        <ele>24.8</ele>
        <time>2021-06-02T14:42:51Z</time>
      </trkpt>
      <trkpt lat="30.52223440813252" lon="114.39306487159885">
        <ele>26.19</ele>
        <time>2021-06-02T14:42:57Z</time>
      </trkpt>
      <trkpt lat="30.522305195093907" lon="114.39313410949347">
        <ele>27.55</ele>
        <time>2021-06-02T14:43:00Z</time>
      </trkpt>
      <trkpt lat="30.522622280406082" lon="114.39318686193829">
        <ele>22.42</ele>
        <time>2021-06-02T14:43:12Z</time>
      </trkpt>
      <trkpt lat="30.522822222141052" lon="114.39318654094575">
        <ele>21.47</ele>
        <time>2021-06-02T14:43:18Z</time>
      </trkpt>
      <trkpt lat="30.52293548906413" lon="114.39316914585224">
        <ele>22.79</ele>
        <time>2021-06-02T14:43:24Z</time>
      </trkpt>
      <trkpt lat="30.523206630760626" lon="114.39316593377502">
        <ele>17.2</ele>
        <time>2021-06-02T14:43:36Z</time>
      </trkpt>
      <trkpt lat="30.5233597031029" lon="114.39312758298621">
        <ele>16.84</ele>
        <time>2021-06-02T14:43:42Z</time>
      </trkpt>
      <trkpt lat="30.523545502592775" lon="114.39299097621046">
        <ele>13.98</ele>
        <time>2021-06-02T14:43:48Z</time>
      </trkpt>
      <trkpt lat="30.523591797993433" lon="114.39288471807443">
        <ele>13.78</ele>
        <time>2021-06-02T14:43:51Z</time>
      </trkpt>
      <trkpt lat="30.52359260006715" lon="114.3926383534031">
        <ele>14.08</ele>
        <time>2021-06-02T14:43:57Z</time>
      </trkpt>
      <trkpt lat="30.523465952523456" lon="114.39239810102363">
        <ele>18.22</ele>
        <time>2021-06-02T14:44:06Z</time>
      </trkpt>
      <trkpt lat="30.523383739587533" lon="114.39234610778747">
        <ele>19.98</ele>
        <time>2021-06-02T14:44:09Z</time>
      </trkpt>
      <trkpt lat="30.523301432303157" lon="114.39231821086146">
        <ele>20.41</ele>
        <time>2021-06-02T14:44:12Z</time>
      </trkpt>
      <trkpt lat="30.522969347092655" lon="114.39230879990927">
        <ele>22.64</ele>
        <time>2021-06-02T14:44:24Z</time>
      </trkpt>
      <trkpt lat="30.52266913235435" lon="114.39230017901875">
        <ele>21.15</ele>
        <time>2021-06-02T14:44:36Z</time>
      </trkpt>
      <trkpt lat="30.522427724303977" lon="114.39231782473307">
        <ele>20.53</ele>
        <time>2021-06-02T14:44:45Z</time>
      </trkpt>
      <trkpt lat="30.522263555705692" lon="114.39237279986679">
        <ele>22.94</ele>
        <time>2021-06-02T14:44:51Z</time>
      </trkpt>
      <trkpt lat="30.52213660868538" lon="114.39251826854138">
        <ele>22.76</ele>
        <time>2021-06-02T14:44:57Z</time>
      </trkpt>
      <trkpt lat="30.522092623944594" lon="114.39262752738149">
        <ele>25.21</ele>
        <time>2021-06-02T14:45:00Z</time>
      </trkpt>
      <trkpt lat="30.522077387271402" lon="114.39272737364286">
        <ele>22.36</ele>
        <time>2021-06-02T14:45:03Z</time>
      </trkpt>
      <trkpt lat="30.52208333566889" lon="114.39284788525339">
        <ele>24.12</ele>
        <time>2021-06-02T14:45:06Z</time>
      </trkpt>
      <trkpt lat="30.522118102177508" lon="114.39295916433281">
        <ele>25.36</ele>
        <time>2021-06-02T14:45:09Z</time>
      </trkpt>
      <trkpt lat="30.52218079341114" lon="114.39304689711476">
        <ele>28.63</ele>
        <time>2021-06-02T14:45:12Z</time>
      </trkpt>
      <trkpt lat="30.522267100039592" lon="114.39311413441025">
        <ele>28.26</ele>
        <time>2021-06-02T14:45:15Z</time>
      </trkpt>
      <trkpt lat="30.522344688418574" lon="114.39314669262563">
        <ele>24.04</ele>
        <time>2021-06-02T14:45:18Z</time>
      </trkpt>
      <trkpt lat="30.52267858402567" lon="114.39315764399166">
        <ele>22.83</ele>
        <time>2021-06-02T14:45:30Z</time>
      </trkpt>
      <trkpt lat="30.523039541553317" lon="114.3931757071067">
        <ele>19.25</ele>
        <time>2021-06-02T14:45:42Z</time>
      </trkpt>
      <trkpt lat="30.523370626807537" lon="114.39314287696142">
        <ele>18.83</ele>
        <time>2021-06-02T14:45:54Z</time>
      </trkpt>
      <trkpt lat="30.523566326684417" lon="114.39296508931062">
        <ele>17.01</ele>
        <time>2021-06-02T14:46:03Z</time>
      </trkpt>
      <trkpt lat="30.523612519534453" lon="114.39289046949122">
        <ele>15.56</ele>
        <time>2021-06-02T14:46:06Z</time>
      </trkpt>
      <trkpt lat="30.523629580457296" lon="114.39280873794696">
        <ele>15.11</ele>
        <time>2021-06-02T14:46:09Z</time>
      </trkpt>
      <trkpt lat="30.523608842967054" lon="114.39260750523985">
        <ele>14.32</ele>
        <time>2021-06-02T14:46:15Z</time>
      </trkpt>
      <trkpt lat="30.523531022215753" lon="114.3924369108901">
        <ele>15.83</ele>
        <time>2021-06-02T14:46:21Z</time>
      </trkpt>
      <trkpt lat="30.523473966302035" lon="114.3923712639615">
        <ele>17.84</ele>
        <time>2021-06-02T14:46:24Z</time>
      </trkpt>
      <trkpt lat="30.52338730306095" lon="114.39231813044984">
        <ele>19.82</ele>
        <time>2021-06-02T14:46:27Z</time>
      </trkpt>
      <trkpt lat="30.523213112105786" lon="114.3922781107719">
        <ele>20.87</ele>
        <time>2021-06-02T14:46:33Z</time>
      </trkpt>
      <trkpt lat="30.522889372967164" lon="114.39229428647575">
        <ele>22.47</ele>
        <time>2021-06-02T14:46:45Z</time>
      </trkpt>
      <trkpt lat="30.522646811899065" lon="114.39229909883763">
        <ele>21.33</ele>
        <time>2021-06-02T14:46:54Z</time>
      </trkpt>
      <trkpt lat="30.52240034206749" lon="114.39226667147528">
        <ele>22.29</ele>
        <time>2021-06-02T14:47:03Z</time>
      </trkpt>
      <trkpt lat="30.522326265360086" lon="114.39228358623654">
        <ele>24.05</ele>
        <time>2021-06-02T14:47:06Z</time>
      </trkpt>
      <trkpt lat="30.522142946622033" lon="114.39246662498283">
        <ele>22.98</ele>
        <time>2021-06-02T14:47:15Z</time>
      </trkpt>
      <trkpt lat="30.522092476187574" lon="114.39255192756266">
        <ele>24.94</ele>
        <time>2021-06-02T14:47:18Z</time>
      </trkpt>
      <trkpt lat="30.522065308568692" lon="114.39264826294351">
        <ele>24.39</ele>
        <time>2021-06-02T14:47:21Z</time>
      </trkpt>
      <trkpt lat="30.522059868146393" lon="114.39285931836285">
        <ele>26.19</ele>
        <time>2021-06-02T14:47:27Z</time>
      </trkpt>
      <trkpt lat="30.522084359827247" lon="114.39295048220409">
        <ele>27.17</ele>
        <time>2021-06-02T14:47:30Z</time>
      </trkpt>
      <trkpt lat="30.522132138556106" lon="114.3930281624088">
        <ele>28.39</ele>
        <time>2021-06-02T14:47:33Z</time>
      </trkpt>
      <trkpt lat="30.522214777978586" lon="114.39310740287668">
        <ele>27.67</ele>
        <time>2021-06-02T14:47:36Z</time>
      </trkpt>
      <trkpt lat="30.522308750034" lon="114.39315492495545">
        <ele>25.81</ele>
        <time>2021-06-02T14:47:39Z</time>
      </trkpt>
      <trkpt lat="30.522595702461356" lon="114.3931541934599">
        <ele>23.81</ele>
        <time>2021-06-02T14:47:48Z</time>
      </trkpt>
      <trkpt lat="30.522922803331006" lon="114.39314531963879">
        <ele>19.72</ele>
        <time>2021-06-02T14:47:57Z</time>
      </trkpt>
      <trkpt lat="30.523016536891717" lon="114.39315682224036">
        <ele>18.02</ele>
        <time>2021-06-02T14:48:00Z</time>
      </trkpt>
      <trkpt lat="30.523224943079494" lon="114.39313265493323">
        <ele>18.42</ele>
        <time>2021-06-02T14:48:06Z</time>
      </trkpt>
      <trkpt lat="30.52331921574071" lon="114.39309790536132">
        <ele>19.66</ele>
        <time>2021-06-02T14:48:09Z</time>
      </trkpt>
      <trkpt lat="30.523404742168402" lon="114.39303702895961">
        <ele>19.19</ele>
        <time>2021-06-02T14:48:12Z</time>
      </trkpt>
      <trkpt lat="30.5234753928143" lon="114.3929521463219">
        <ele>19.22</ele>
        <time>2021-06-02T14:48:15Z</time>
      </trkpt>
      <trkpt lat="30.52352229684582" lon="114.39284001664858">
        <ele>16.01</ele>
        <time>2021-06-02T14:48:18Z</time>
      </trkpt>
      <trkpt lat="30.523540840331258" lon="114.39272656678058">
        <ele>17.17</ele>
        <time>2021-06-02T14:48:21Z</time>
      </trkpt>
      <trkpt lat="30.523519462487112" lon="114.39252373368753">
        <ele>17.01</ele>
        <time>2021-06-02T14:48:27Z</time>
      </trkpt>
      <trkpt lat="30.523443776341036" lon="114.3923725944471">
        <ele>19.65</ele>
        <time>2021-06-02T14:48:33Z</time>
      </trkpt>
      <trkpt lat="30.523316067488565" lon="114.3922971052727">
        <ele>18.33</ele>
        <time>2021-06-02T14:48:39Z</time>
      </trkpt>
      <trkpt lat="30.52302349242268" lon="114.39228678390312">
        <ele>20.36</ele>
        <time>2021-06-02T14:48:51Z</time>
      </trkpt>
      <trkpt lat="30.522733632366258" lon="114.3922977380869">
        <ele>22.27</ele>
        <time>2021-06-02T14:49:03Z</time>
      </trkpt>
      <trkpt lat="30.5224800860947" lon="114.39228077480188">
        <ele>23.93</ele>
        <time>2021-06-02T14:49:12Z</time>
      </trkpt>
      <trkpt lat="30.52227669324297" lon="114.39231913576259">
        <ele>23.01</ele>
        <time>2021-06-02T14:49:21Z</time>
      </trkpt>
      <trkpt lat="30.522122639812668" lon="114.3925236100045">
        <ele>23.32</ele>
        <time>2021-06-02T14:49:30Z</time>
      </trkpt>
      <trkpt lat="30.52206354348005" lon="114.39271177961383">
        <ele>25.02</ele>
        <time>2021-06-02T14:49:36Z</time>
      </trkpt>
      <trkpt lat="30.52206145801066" lon="114.39281617702592">
        <ele>26.27</ele>
        <time>2021-06-02T14:49:39Z</time>
      </trkpt>
      <trkpt lat="30.52213056162613" lon="114.3929988046967">
        <ele>27.19</ele>
        <time>2021-06-02T14:49:45Z</time>
      </trkpt>
      <trkpt lat="30.522266712000285" lon="114.39312246660444">
        <ele>24.01</ele>
        <time>2021-06-02T14:49:51Z</time>
      </trkpt>
      <trkpt lat="30.522357662559898" lon="114.39316375705799">
        <ele>22.66</ele>
        <time>2021-06-02T14:49:54Z</time>
      </trkpt>
      <trkpt lat="30.522708301708807" lon="114.39318908213211">
        <ele>17.74</ele>
        <time>2021-06-02T14:50:06Z</time>
      </trkpt>
      <trkpt lat="30.52289295810164" lon="114.39320909656276">
        <ele>10.27</ele>
        <time>2021-06-02T14:50:15Z</time>
      </trkpt>
      <trkpt lat="30.523063113432094" lon="114.39318276885858">
        <ele>12.79</ele>
        <time>2021-06-02T14:50:21Z</time>
      </trkpt>
      <trkpt lat="30.52332244776011" lon="114.39319116989203">
        <ele>14.28</ele>
        <time>2021-06-02T14:50:30Z</time>
      </trkpt>
      <trkpt lat="30.523393585638672" lon="114.39317944648259">
        <ele>13.78</ele>
        <time>2021-06-02T14:50:33Z</time>
      </trkpt>
      <trkpt lat="30.523516409633817" lon="114.3930644256578">
        <ele>13.26</ele>
        <time>2021-06-02T14:50:39Z</time>
      </trkpt>
      <trkpt lat="30.523611632387016" lon="114.39290262268833">
        <ele>12.15</ele>
        <time>2021-06-02T14:50:45Z</time>
      </trkpt>
      <trkpt lat="30.52362098398305" lon="114.39265392735871">
        <ele>11.26</ele>
        <time>2021-06-02T14:50:54Z</time>
      </trkpt>
      <trkpt lat="30.523531693357647" lon="114.39244175215494">
        <ele>13.69</ele>
        <time>2021-06-02T14:51:03Z</time>
      </trkpt>
      <trkpt lat="30.523447539777475" lon="114.39234445706526">
        <ele>17.3</ele>
        <time>2021-06-02T14:51:09Z</time>
      </trkpt>
      <trkpt lat="30.523377247040802" lon="114.39229283387695">
        <ele>18.39</ele>
        <time>2021-06-02T14:51:12Z</time>
      </trkpt>
      <trkpt lat="30.52325678717095" lon="114.39225536462358">
        <ele>18.8</ele>
        <time>2021-06-02T14:51:18Z</time>
      </trkpt>
      <trkpt lat="30.52310169929309" lon="114.39227040926401">
        <ele>20.09</ele>
        <time>2021-06-02T14:51:24Z</time>
      </trkpt>
      <trkpt lat="30.522966463093788" lon="114.39224917432496">
        <ele>21.24</ele>
        <time>2021-06-02T14:51:30Z</time>
      </trkpt>
      <trkpt lat="30.52269012394868" lon="114.39226349932817">
        <ele>22.13</ele>
        <time>2021-06-02T14:51:42Z</time>
      </trkpt>
      <trkpt lat="30.522398709802722" lon="114.39225706897113">
        <ele>22.26</ele>
        <time>2021-06-02T14:51:54Z</time>
      </trkpt>
      <trkpt lat="30.522315690538935" lon="114.3922634210099">
        <ele>22.72</ele>
        <time>2021-06-02T14:51:57Z</time>
      </trkpt>
      <trkpt lat="30.52225159005431" lon="114.39230650257123">
        <ele>21.75</ele>
        <time>2021-06-02T14:52:00Z</time>
      </trkpt>
      <trkpt lat="30.52207912780987" lon="114.39251675840684">
        <ele>22.41</ele>
        <time>2021-06-02T14:52:09Z</time>
      </trkpt>
      <trkpt lat="30.52203349463721" lon="114.3928029136704">
        <ele>24.25</ele>
        <time>2021-06-02T14:52:18Z</time>
      </trkpt>
      <trkpt lat="30.522173560197572" lon="114.39307597479575">
        <ele>22.69</ele>
        <time>2021-06-02T14:52:30Z</time>
      </trkpt>
      <trkpt lat="30.522275847067142" lon="114.39318601328796">
        <ele>24.21</ele>
        <time>2021-06-02T14:52:36Z</time>
      </trkpt>
      <trkpt lat="30.52252755765445" lon="114.39326361257847">
        <ele>18.02</ele>
        <time>2021-06-02T14:52:48Z</time>
      </trkpt>
      <trkpt lat="30.522785632996197" lon="114.39323396359809">
        <ele>17.24</ele>
        <time>2021-06-02T14:53:00Z</time>
      </trkpt>
      <trkpt lat="30.52301579482009" lon="114.3932328622627">
        <ele>15.97</ele>
        <time>2021-06-02T14:53:12Z</time>
      </trkpt>
      <trkpt lat="30.52328142807323" lon="114.39319407084213">
        <ele>17.31</ele>
        <time>2021-06-02T14:53:21Z</time>
      </trkpt>
      <trkpt lat="30.52341706475836" lon="114.39313240399424">
        <ele>19.17</ele>
        <time>2021-06-02T14:53:27Z</time>
      </trkpt>
      <trkpt lat="30.523533639473953" lon="114.393020644065">
        <ele>16.82</ele>
        <time>2021-06-02T14:53:33Z</time>
      </trkpt>
      <trkpt lat="30.523631254216415" lon="114.39286715328083">
        <ele>15.83</ele>
        <time>2021-06-02T14:53:39Z</time>
      </trkpt>
      <trkpt lat="30.523643098116057" lon="114.39279826513572">
        <ele>15.1</ele>
        <time>2021-06-02T14:53:42Z</time>
      </trkpt>
      <trkpt lat="30.523628804354164" lon="114.39257006533343">
        <ele>15.42</ele>
        <time>2021-06-02T14:53:51Z</time>
      </trkpt>
      <trkpt lat="30.523578765423647" lon="114.39244874377198">
        <ele>13.54</ele>
        <time>2021-06-02T14:53:57Z</time>
      </trkpt>
      <trkpt lat="30.523476258015673" lon="114.3923358346781">
        <ele>17.94</ele>
        <time>2021-06-02T14:54:06Z</time>
      </trkpt>
      <trkpt lat="30.52342293597416" lon="114.39232918317998">
        <ele>18.54</ele>
        <time>2021-06-02T14:54:09Z</time>
      </trkpt>
      <trkpt lat="30.52324964917355" lon="114.39226418696357">
        <ele>19.73</ele>
        <time>2021-06-02T14:54:15Z</time>
      </trkpt>
      <trkpt lat="30.52311881116836" lon="114.39227775110669">
        <ele>18.94</ele>
        <time>2021-06-02T14:54:21Z</time>
      </trkpt>
      <trkpt lat="30.523051857775705" lon="114.39226585830029">
        <ele>18.99</ele>
        <time>2021-06-02T14:54:24Z</time>
      </trkpt>
      <trkpt lat="30.52284704130408" lon="114.39228882523952">
        <ele>21.31</ele>
        <time>2021-06-02T14:54:33Z</time>
      </trkpt>
      <trkpt lat="30.522571434296715" lon="114.39226957145603">
        <ele>22.66</ele>
        <time>2021-06-02T14:54:45Z</time>
      </trkpt>
      <trkpt lat="30.522356149269044" lon="114.39229911016191">
        <ele>24.54</ele>
        <time>2021-06-02T14:54:54Z</time>
      </trkpt>
      <trkpt lat="30.522275867336628" lon="114.39233663034429">
        <ele>22.89</ele>
        <time>2021-06-02T14:54:57Z</time>
      </trkpt>
      <trkpt lat="30.522122520656936" lon="114.39252721094866">
        <ele>22.25</ele>
        <time>2021-06-02T14:55:06Z</time>
      </trkpt>
      <trkpt lat="30.52207077441088" lon="114.39271546054682">
        <ele>23.86</ele>
        <time>2021-06-02T14:55:12Z</time>
      </trkpt>
      <trkpt lat="30.52208603985772" lon="114.39290807105144">
        <ele>26.95</ele>
        <time>2021-06-02T14:55:18Z</time>
      </trkpt>
      <trkpt lat="30.52211597166588" lon="114.39299953495495">
        <ele>29.1</ele>
        <time>2021-06-02T14:55:21Z</time>
      </trkpt>
      <trkpt lat="30.522269273084643" lon="114.39312696777726">
        <ele>25.46</ele>
        <time>2021-06-02T14:55:30Z</time>
      </trkpt>
      <trkpt lat="30.52245459091844" lon="114.39319547496724">
        <ele>20.14</ele>
        <time>2021-06-02T14:55:39Z</time>
      </trkpt>
      <trkpt lat="30.522502329720687" lon="114.39318856293079">
        <ele>19.28</ele>
        <time>2021-06-02T14:55:42Z</time>
      </trkpt>
      <trkpt lat="30.522565645189772" lon="114.39320931810758">
        <ele>20.41</ele>
        <time>2021-06-02T14:55:48Z</time>
      </trkpt>
      <trkpt lat="30.522848273259214" lon="114.39319028181224">
        <ele>14.49</ele>
        <time>2021-06-02T14:56:03Z</time>
      </trkpt>
      <trkpt lat="30.523033003919235" lon="114.39318598984326">
        <ele>16.43</ele>
        <time>2021-06-02T14:56:12Z</time>
      </trkpt>
      <trkpt lat="30.523152798263933" lon="114.39315741177651">
        <ele>18.66</ele>
        <time>2021-06-02T14:56:18Z</time>
      </trkpt>
      <trkpt lat="30.523327681228253" lon="114.39316327252457">
        <ele>15.58</ele>
        <time>2021-06-02T14:56:24Z</time>
      </trkpt>
      <trkpt lat="30.52341918343098" lon="114.39312669248162">
        <ele>17.03</ele>
        <time>2021-06-02T14:56:27Z</time>
      </trkpt>
      <trkpt lat="30.523531896820675" lon="114.39296698996672">
        <ele>15.26</ele>
        <time>2021-06-02T14:56:33Z</time>
      </trkpt>
      <trkpt lat="30.523591255998156" lon="114.39279125353053">
        <ele>14.26</ele>
        <time>2021-06-02T14:56:39Z</time>
      </trkpt>
      <trkpt lat="30.523602247779568" lon="114.39254308838326">
        <ele>12.32</ele>
        <time>2021-06-02T14:56:48Z</time>
      </trkpt>
      <trkpt lat="30.523546664253363" lon="114.39244499293561">
        <ele>12.94</ele>
        <time>2021-06-02T14:56:57Z</time>
      </trkpt>
      <trkpt lat="30.523428318574172" lon="114.3923400660035">
        <ele>13.75</ele>
        <time>2021-06-02T14:57:03Z</time>
      </trkpt>
      <trkpt lat="30.523089944354005" lon="114.39224978392282">
        <ele>18.16</ele>
        <time>2021-06-02T14:57:18Z</time>
      </trkpt>
      <trkpt lat="30.522947148454904" lon="114.39223011942966">
        <ele>18.71</ele>
        <time>2021-06-02T14:57:24Z</time>
      </trkpt>
      <trkpt lat="30.52264668130074" lon="114.39225387700895">
        <ele>21.63</ele>
        <time>2021-06-02T14:57:36Z</time>
      </trkpt>
      <trkpt lat="30.522440094562835" lon="114.39227578367807">
        <ele>19.07</ele>
        <time>2021-06-02T14:57:45Z</time>
      </trkpt>
      <trkpt lat="30.522229770492288" lon="114.39239451570513">
        <ele>21.16</ele>
        <time>2021-06-02T14:57:54Z</time>
      </trkpt>
      <trkpt lat="30.52216240680073" lon="114.39246663489702">
        <ele>21.01</ele>
        <time>2021-06-02T14:57:57Z</time>
      </trkpt>
      <trkpt lat="30.522083683504214" lon="114.39266855818329">
        <ele>19.35</ele>
        <time>2021-06-02T14:58:03Z</time>
      </trkpt>
      <trkpt lat="30.52207435184789" lon="114.3927894799579">
        <ele>22.87</ele>
        <time>2021-06-02T14:58:06Z</time>
      </trkpt>
      <trkpt lat="30.522123850955097" lon="114.39299621404606">
        <ele>26.3</ele>
        <time>2021-06-02T14:58:12Z</time>
      </trkpt>
      <trkpt lat="30.522173849530727" lon="114.39307313404717">
        <ele>27.53</ele>
        <time>2021-06-02T14:58:15Z</time>
      </trkpt>
      <trkpt lat="30.5222478968033" lon="114.39314356224128">
        <ele>27.28</ele>
        <time>2021-06-02T14:58:18Z</time>
      </trkpt>
      <trkpt lat="30.5223175171876" lon="114.3931849228117">
        <ele>25.67</ele>
        <time>2021-06-02T14:58:21Z</time>
      </trkpt>
      <trkpt lat="30.52260507054275" lon="114.39318810234299">
        <ele>22.29</ele>
        <time>2021-06-02T14:58:30Z</time>
      </trkpt>
      <trkpt lat="30.52276730089833" lon="114.39318338036317">
        <ele>19.71</ele>
        <time>2021-06-02T14:58:36Z</time>
      </trkpt>
      <trkpt lat="30.522855807328828" lon="114.39320724624433">
        <ele>19.87</ele>
        <time>2021-06-02T14:58:39Z</time>
      </trkpt>
      <trkpt lat="30.52316013566888" lon="114.39318852993443">
        <ele>15.87</ele>
        <time>2021-06-02T14:58:48Z</time>
      </trkpt>
      <trkpt lat="30.52331790073408" lon="114.39316155211618">
        <ele>15.79</ele>
        <time>2021-06-02T14:58:54Z</time>
      </trkpt>
      <trkpt lat="30.523452170917476" lon="114.39307233803103">
        <ele>13.21</ele>
        <time>2021-06-02T14:59:03Z</time>
      </trkpt>
      <trkpt lat="30.523582660854323" lon="114.39293970256384">
        <ele>14.12</ele>
        <time>2021-06-02T14:59:09Z</time>
      </trkpt>
      <trkpt lat="30.523637892855685" lon="114.39277609934008">
        <ele>11.46</ele>
        <time>2021-06-02T14:59:15Z</time>
      </trkpt>
      <trkpt lat="30.523582508945196" lon="114.39246360764815">
        <ele>13.89</ele>
        <time>2021-06-02T14:59:27Z</time>
      </trkpt>
      <trkpt lat="30.52341711233167" lon="114.39231386919924">
        <ele>17.02</ele>
        <time>2021-06-02T14:59:39Z</time>
      </trkpt>
      <trkpt lat="30.523077546613592" lon="114.39225990662675">
        <ele>20.04</ele>
        <time>2021-06-02T14:59:51Z</time>
      </trkpt>
      <trkpt lat="30.522728805482487" lon="114.39226855047349">
        <ele>20.07</ele>
        <time>2021-06-02T15:00:03Z</time>
      </trkpt>
      <trkpt lat="30.522525015688224" lon="114.39227730368964">
        <ele>20.44</ele>
        <time>2021-06-02T15:00:09Z</time>
      </trkpt>
      <trkpt lat="30.52244798688844" lon="114.39224272499573">
        <ele>19.17</ele>
        <time>2021-06-02T15:00:12Z</time>
      </trkpt>
      <trkpt lat="30.52244798688844" lon="114.39224272499573">
        <ele>19.17</ele>
        <time>2021-06-02T15:00:18Z</time>
      </trkpt>
    </trkseg>
  </trk>
</gpx>