<?xml version="1.0" encoding="UTF-8"?>
<gpx xmlns="http://www.topografix.com/GPX/1/1" xmlns:gpxtpx="http://www.garmin.com/xmlschemas/TrackPointExtension/v1" xmlns:xsi="http://www.w3.org/2001/XMLSchema-instance" xsi:schemaLocation="http://www.topografix.com/GPX/1/1 http://www.topografix.com/GPX/1/1/gpx.xsd" version="1.1" creator="gpx.py -- https://github.com/tkrajina/gpxpy">
  <trk>
    <name>gpx from keep</name>
    <type>Run</type>
    <trkseg>
      <trkpt lat="36.03012056678904" lon="119.40161415730725">
        <ele>64.17388916015625</ele>
        <time>2023-05-18T09:06:42Z</time>
      </trkpt>
      <trkpt lat="36.03004950440852" lon="119.40124495103632">
        <ele>61.39617919921875</ele>
        <time>2023-05-18T09:06:57Z</time>
      </trkpt>
      <trkpt lat="36.02992847116144" lon="119.4009367916875">
        <ele>62.455810546875</ele>
        <time>2023-05-18T09:07:09Z</time>
      </trkpt>
      <trkpt lat="36.02978246114132" lon="119.4007026802757">
        <ele>63.9990234375</ele>
        <time>2023-05-18T09:07:21Z</time>
      </trkpt>
      <trkpt lat="36.0295394777069" lon="119.40047958863912">
        <ele>62.4107666015625</ele>
        <time>2023-05-18T09:07:36Z</time>
      </trkpt>
      <trkpt lat="36.02942948526234" lon="119.40037454596686">
        <ele>61.5582275390625</ele>
        <time>2023-05-18T09:07:42Z</time>
      </trkpt>
      <trkpt lat="36.02930750847005" lon="119.40034554457887">
        <ele>64.67071533203125</ele>
        <time>2023-05-18T09:07:48Z</time>
      </trkpt>
      <trkpt lat="36.02911455426942" lon="119.40035457092856">
        <ele>59.91021728515625</ele>
        <time>2023-05-18T09:08:00Z</time>
      </trkpt>
      <trkpt lat="36.028924593451784" lon="119.40032757824571">
        <ele>59.6385498046875</ele>
        <time>2023-05-18T09:08:09Z</time>
      </trkpt>
      <trkpt lat="36.02866667221004" lon="119.40044466825871">
        <ele>62.28692626953125</ele>
        <time>2023-05-18T09:08:21Z</time>
      </trkpt>
      <trkpt lat="36.02850272029067" lon="119.40050571880539">
        <ele>66.30841064453125</ele>
        <time>2023-05-18T09:08:27Z</time>
      </trkpt>
      <trkpt lat="36.0283297817061" lon="119.40062980419388">
        <ele>63.6793212890625</ele>
        <time>2023-05-18T09:08:36Z</time>
      </trkpt>
      <trkpt lat="36.02823681759968" lon="119.40071085819326">
        <ele>58.94085693359375</ele>
        <time>2023-05-18T09:08:42Z</time>
      </trkpt>
      <trkpt lat="36.027959912685446" lon="119.40088098191497">
        <ele>58.77581787109375</ele>
        <time>2023-05-18T09:08:57Z</time>
      </trkpt>
      <trkpt lat="36.02768599397527" lon="119.40097706570319">
        <ele>55.328125</ele>
        <time>2023-05-18T09:09:12Z</time>
      </trkpt>
      <trkpt lat="36.02758602374103" lon="119.40101209639191">
        <ele>56.43389892578125</ele>
        <time>2023-05-18T09:09:18Z</time>
      </trkpt>
      <trkpt lat="36.027533035922424" lon="119.40101210234279">
        <ele>54.4830322265625</ele>
        <time>2023-05-18T09:09:21Z</time>
      </trkpt>
      <trkpt lat="36.02742504742605" lon="119.40094307617018">
        <ele>51.20556640625</ele>
        <time>2023-05-18T09:09:27Z</time>
      </trkpt>
      <trkpt lat="36.02736905723987" lon="119.40092707361536">
        <ele>50.81378173828125</ele>
        <time>2023-05-18T09:09:30Z</time>
      </trkpt>
      <trkpt lat="36.02717607866145" lon="119.40080502833645">
        <ele>51.550537109375</ele>
        <time>2023-05-18T09:09:39Z</time>
      </trkpt>
      <trkpt lat="36.027035104250174" lon="119.40076802402976">
        <ele>54.667236328125</ele>
        <time>2023-05-18T09:09:45Z</time>
      </trkpt>
      <trkpt lat="36.02691412312265" lon="119.40071901106501">
        <ele>54.92657470703125</ele>
        <time>2023-05-18T09:09:51Z</time>
      </trkpt>
      <trkpt lat="36.026637186093616" lon="119.40071504000484">
        <ele>54.9072265625</ele>
        <time>2023-05-18T09:10:03Z</time>
      </trkpt>
      <trkpt lat="36.02630526245266" lon="119.40071507728095">
        <ele>57.38055419921875</ele>
        <time>2023-05-18T09:10:18Z</time>
      </trkpt>
      <trkpt lat="36.02603433373355" lon="119.400764134247">
        <ele>56.61773681640625</ele>
        <time>2023-05-18T09:10:30Z</time>
      </trkpt>
      <trkpt lat="36.02575740595615" lon="119.40081019038463">
        <ele>57.81207275390625</ele>
        <time>2023-05-18T09:10:42Z</time>
      </trkpt>
      <trkpt lat="36.02554645284308" lon="119.40080120916622">
        <ele>56.2979736328125</ele>
        <time>2023-05-18T09:10:51Z</time>
      </trkpt>
      <trkpt lat="36.02546946613255" lon="119.40077720474542">
        <ele>57.9615478515625</ele>
        <time>2023-05-18T09:10:54Z</time>
      </trkpt>
      <trkpt lat="36.02419762909278" lon="119.39999794109862">
        <ele>0.0</ele>
        <time>2023-05-18T09:12:19Z</time>
      </trkpt>
      <trkpt lat="36.02370967773699" lon="119.39953977287063">
        <ele>55.546630859375</ele>
        <time>2023-05-18T09:12:34Z</time>
      </trkpt>
      <trkpt lat="36.02388667625889" lon="119.39982989283925">
        <ele>58.14105224609375</ele>
        <time>2023-05-18T09:12:49Z</time>
      </trkpt>
      <trkpt lat="36.024104660322806" lon="119.40006298414704">
        <ele>55.72589111328125</ele>
        <time>2023-05-18T09:13:04Z</time>
      </trkpt>
      <trkpt lat="36.02437863196111" lon="119.40028406602943">
        <ele>57.8536376953125</ele>
        <time>2023-05-18T09:13:19Z</time>
      </trkpt>
      <trkpt lat="36.02458060975862" lon="119.40043111980117">
        <ele>59.81719970703125</ele>
        <time>2023-05-18T09:13:28Z</time>
      </trkpt>
      <trkpt lat="36.02483557702251" lon="119.40058217097113">
        <ele>57.90045166015625</ele>
        <time>2023-05-18T09:13:40Z</time>
      </trkpt>
      <trkpt lat="36.0249695596319" lon="119.40065819657701">
        <ele>58.23175048828125</ele>
        <time>2023-05-18T09:13:46Z</time>
      </trkpt>
      <trkpt lat="36.02520851234263" lon="119.40070119288796">
        <ele>57.790283203125</ele>
        <time>2023-05-18T09:13:58Z</time>
      </trkpt>
      <trkpt lat="36.025324498034124" lon="119.40076921667686">
        <ele>57.65838623046875</ele>
        <time>2023-05-18T09:14:10Z</time>
      </trkpt>
      <trkpt lat="36.02562843064642" lon="119.40078319015745">
        <ele>62.79534912109375</ele>
        <time>2023-05-18T09:14:28Z</time>
      </trkpt>
      <trkpt lat="36.02574740547851" lon="119.40079518332982">
        <ele>59.55401611328125</ele>
        <time>2023-05-18T09:14:34Z</time>
      </trkpt>
      <trkpt lat="36.025996341925634" lon="119.40076113688471">
        <ele>57.7271728515625</ele>
        <time>2023-05-18T09:14:46Z</time>
      </trkpt>
      <trkpt lat="36.026237277007205" lon="119.40070908167534">
        <ele>58.50787353515625</ele>
        <time>2023-05-18T09:14:58Z</time>
      </trkpt>
      <trkpt lat="36.02656620024909" lon="119.40070304149778">
        <ele>54.3663330078125</ele>
        <time>2023-05-18T09:15:13Z</time>
      </trkpt>
      <trkpt lat="36.02684414450116" lon="119.40074803462178">
        <ele>55.21539306640625</ele>
        <time>2023-05-18T09:15:25Z</time>
      </trkpt>
      <trkpt lat="36.02705210939682" lon="119.40081704880706">
        <ele>59.9111328125</ele>
        <time>2023-05-18T09:15:34Z</time>
      </trkpt>
      <trkpt lat="36.02711209523071" lon="119.40081504097839">
        <ele>59.09075927734375</ele>
        <time>2023-05-18T09:15:37Z</time>
      </trkpt>
      <trkpt lat="36.02740405206159" lon="119.40094207797499">
        <ele>60.756103515625</ele>
        <time>2023-05-18T09:15:52Z</time>
      </trkpt>
      <trkpt lat="36.02765002593102" lon="119.4010981373172">
        <ele>59.6826171875</ele>
        <time>2023-05-18T09:16:04Z</time>
      </trkpt>
      <trkpt lat="36.02776501048259" lon="119.40115315539273">
        <ele>57.65350341796875</ele>
        <time>2023-05-18T09:16:10Z</time>
      </trkpt>
      <trkpt lat="36.02793300500341" lon="119.40131522879575">
        <ele>57.92041015625</ele>
        <time>2023-05-18T09:16:19Z</time>
      </trkpt>
      <trkpt lat="36.02796100987193" lon="119.40136925673683">
        <ele>56.6776123046875</ele>
        <time>2023-05-18T09:16:22Z</time>
      </trkpt>
      <trkpt lat="36.02795709446315" lon="119.40175148179034">
        <ele>58.54071044921875</ele>
        <time>2023-05-18T09:16:37Z</time>
      </trkpt>
      <trkpt lat="36.02796011027446" lon="119.40182352471159">
        <ele>56.84747314453125</ele>
        <time>2023-05-18T09:16:40Z</time>
      </trkpt>
      <trkpt lat="36.028046174272504" lon="119.40217473013996">
        <ele>58.46636962890625</ele>
        <time>2023-05-18T09:16:52Z</time>
      </trkpt>
      <trkpt lat="36.02816722450767" lon="119.40248291103592">
        <ele>61.023681640625</ele>
        <time>2023-05-18T09:17:04Z</time>
      </trkpt>
      <trkpt lat="36.02826124325446" lon="119.40263599908954">
        <ele>62.3759765625</ele>
        <time>2023-05-18T09:17:10Z</time>
      </trkpt>
      <trkpt lat="36.02845124566119" lon="119.40280608887768">
        <ele>61.1119384765625</ele>
        <time>2023-05-18T09:17:19Z</time>
      </trkpt>
      <trkpt lat="36.02866623320966" lon="119.40293915281674">
        <ele>58.47149658203125</ele>
        <time>2023-05-18T09:17:28Z</time>
      </trkpt>
      <trkpt lat="36.028752243460524" lon="119.40304521407714">
        <ele>60.02294921875</ele>
        <time>2023-05-18T09:17:37Z</time>
      </trkpt>
      <trkpt lat="36.028794300646815" lon="119.40327536542812">
        <ele>59.4122314453125</ele>
        <time>2023-05-18T09:17:52Z</time>
      </trkpt>
      <trkpt lat="36.028783421291514" lon="119.40366363674556">
        <ele>56.61279296875</ele>
        <time>2023-05-18T09:18:07Z</time>
      </trkpt>
      <trkpt lat="36.02873152266967" lon="119.40394384279955">
        <ele>60.14453125</ele>
        <time>2023-05-18T09:18:19Z</time>
      </trkpt>
      <trkpt lat="36.028668570263505" lon="119.40404492318625">
        <ele>58.55694580078125</ele>
        <time>2023-05-18T09:18:28Z</time>
      </trkpt>
      <trkpt lat="36.02839368010352" lon="119.40418505664067">
        <ele>61.15869140625</ele>
        <time>2023-05-18T09:18:43Z</time>
      </trkpt>
      <trkpt lat="36.02816280863944" lon="119.40440624677322">
        <ele>60.21734619140625</ele>
        <time>2023-05-18T09:18:58Z</time>
      </trkpt>
      <trkpt lat="36.02796894409139" lon="119.40466446375561">
        <ele>63.41607666015625</ele>
        <time>2023-05-18T09:19:13Z</time>
      </trkpt>
      <trkpt lat="36.0278890126751" lon="119.40480357947372">
        <ele>61.29132080078125</ele>
        <time>2023-05-18T09:19:19Z</time>
      </trkpt>
      <trkpt lat="36.02777016533651" lon="119.40514085617708">
        <ele>57.6444091796875</ele>
        <time>2023-05-18T09:19:34Z</time>
      </trkpt>
      <trkpt lat="36.02771123824757" lon="119.40529598609342">
        <ele>58.72894287109375</ele>
        <time>2023-05-18T09:19:40Z</time>
      </trkpt>
      <trkpt lat="36.02769529489125" lon="119.40543209719621">
        <ele>59.18841552734375</ele>
        <time>2023-05-18T09:19:46Z</time>
      </trkpt>
      <trkpt lat="36.02764931844085" lon="119.40546512904139">
        <ele>58.8089599609375</ele>
        <time>2023-05-18T09:19:52Z</time>
      </trkpt>
      <trkpt lat="36.027566496658636" lon="119.40586046254495">
        <ele>61.19775390625</ele>
        <time>2023-05-18T09:20:13Z</time>
      </trkpt>
      <trkpt lat="36.027528521899825" lon="119.40590050013489">
        <ele>58.84576416015625</ele>
        <time>2023-05-18T09:20:22Z</time>
      </trkpt>
      <trkpt lat="36.027415518212514" lon="119.4058284528996">
        <ele>55.71234130859375</ele>
        <time>2023-05-18T09:20:31Z</time>
      </trkpt>
      <trkpt lat="36.02720844948641" lon="119.40554023941286">
        <ele>55.5302734375</ele>
        <time>2023-05-18T09:20:49Z</time>
      </trkpt>
      <trkpt lat="36.027045365551885" lon="119.4052290073885">
        <ele>59.8291015625</ele>
        <time>2023-05-18T09:21:04Z</time>
      </trkpt>
      <trkpt lat="36.02693127544305" lon="119.40491977692818">
        <ele>60.54522705078125</ele>
        <time>2023-05-18T09:21:16Z</time>
      </trkpt>
      <trkpt lat="36.02677721130022" lon="119.40464558305727">
        <ele>57.95947265625</ele>
        <time>2023-05-18T09:21:28Z</time>
      </trkpt>
      <trkpt lat="36.026698176045294" lon="119.404494477383">
        <ele>60.68603515625</ele>
        <time>2023-05-18T09:21:37Z</time>
      </trkpt>
      <trkpt lat="36.02665016718434" lon="119.40443743987053">
        <ele>61.29425048828125</ele>
        <time>2023-05-18T09:21:43Z</time>
      </trkpt>
      <trkpt lat="36.02661914387811" lon="119.40434937748077">
        <ele>58.725341796875</ele>
        <time>2023-05-18T09:21:49Z</time>
      </trkpt>
      <trkpt lat="36.02657703461703" lon="119.40399512166803">
        <ele>58.19561767578125</ele>
        <time>2023-05-18T09:22:04Z</time>
      </trkpt>
      <trkpt lat="36.02655292154246" lon="119.4036238589663">
        <ele>58.21533203125</ele>
        <time>2023-05-18T09:22:19Z</time>
      </trkpt>
      <trkpt lat="36.026591866377004" lon="119.40347374950467">
        <ele>58.50384521484375</ele>
        <time>2023-05-18T09:22:25Z</time>
      </trkpt>
      <trkpt lat="36.02657084939099" lon="119.4034017018758">
        <ele>58.78515625</ele>
        <time>2023-05-18T09:22:28Z</time>
      </trkpt>
      <trkpt lat="36.02651584822429" lon="119.40335567626848">
        <ele>58.939208984375</ele>
        <time>2023-05-18T09:22:31Z</time>
      </trkpt>
      <trkpt lat="36.026455871926075" lon="119.40338870579174">
        <ele>59.90692138671875</ele>
        <time>2023-05-18T09:22:34Z</time>
      </trkpt>
      <trkpt lat="36.02641190138924" lon="119.4034527551016">
        <ele>60.77838134765625</ele>
        <time>2023-05-18T09:22:37Z</time>
      </trkpt>
      <trkpt lat="36.026429921071646" lon="119.40353080747182">
        <ele>61.719482421875</ele>
        <time>2023-05-18T09:22:40Z</time>
      </trkpt>
      <trkpt lat="36.02646490688716" lon="119.40351078956347">
        <ele>62.09454345703125</ele>
        <time>2023-05-18T09:22:49Z</time>
      </trkpt>
      <trkpt lat="36.02643291149266" lon="119.40350178687245">
        <ele>63.4132080078125</ele>
        <time>2023-05-18T09:34:37Z</time>
      </trkpt>
      <trkpt lat="36.026404032792044" lon="119.4038670486396">
        <ele>60.01409912109375</ele>
        <time>2023-05-18T09:34:55Z</time>
      </trkpt>
      <trkpt lat="36.02640814977257" lon="119.40422430835841">
        <ele>60.26495361328125</ele>
        <time>2023-05-18T09:35:10Z</time>
      </trkpt>
      <trkpt lat="36.02641723052934" lon="119.40446548707594">
        <ele>61.5682373046875</ele>
        <time>2023-05-18T09:35:19Z</time>
      </trkpt>
      <trkpt lat="36.02643325668438" lon="119.40455054945731">
        <ele>61.3717041015625</ele>
        <time>2023-05-18T09:35:22Z</time>
      </trkpt>
      <trkpt lat="36.026442387159136" lon="119.40491783026073">
        <ele>61.602783203125</ele>
        <time>2023-05-18T09:35:37Z</time>
      </trkpt>
      <trkpt lat="36.0265324526116" lon="119.405148000679">
        <ele>60.2684326171875</ele>
        <time>2023-05-18T09:35:46Z</time>
      </trkpt>
      <trkpt lat="36.026576463828384" lon="119.40520404014887">
        <ele>60.1302490234375</ele>
        <time>2023-05-18T09:35:49Z</time>
      </trkpt>
      <trkpt lat="36.02664852188449" lon="119.4053971864868">
        <ele>62.23590087890625</ele>
        <time>2023-05-18T09:36:01Z</time>
      </trkpt>
      <trkpt lat="36.02680159752466" lon="119.40567639629178">
        <ele>61.29693603515625</ele>
        <time>2023-05-18T09:36:16Z</time>
      </trkpt>
      <trkpt lat="36.02682662175791" lon="119.40575045443184">
        <ele>61.70599365234375</ele>
        <time>2023-05-18T09:36:19Z</time>
      </trkpt>
      <trkpt lat="36.02686362833331" lon="119.40578748086898">
        <ele>62.98748779296875</ele>
        <time>2023-05-18T09:36:22Z</time>
      </trkpt>
      <trkpt lat="36.026909669997565" lon="119.40591458129757">
        <ele>61.80584716796875</ele>
        <time>2023-05-18T09:36:28Z</time>
      </trkpt>
      <trkpt lat="36.027080758252005" lon="119.4062178177406">
        <ele>57.10711669921875</ele>
        <time>2023-05-18T09:36:43Z</time>
      </trkpt>
      <trkpt lat="36.027275842478865" lon="119.4065150515072">
        <ele>59.9107666015625</ele>
        <time>2023-05-18T09:37:01Z</time>
      </trkpt>
      <trkpt lat="36.02740990082101" lon="119.40671521145828">
        <ele>57.70928955078125</ele>
        <time>2023-05-18T09:37:13Z</time>
      </trkpt>
      <trkpt lat="36.02761094510894" lon="119.40691436527904">
        <ele>60.8828125</ele>
        <time>2023-05-18T09:37:28Z</time>
      </trkpt>
      <trkpt lat="36.027734955341714" lon="119.4069984264919">
        <ele>60.70947265625</ele>
        <time>2023-05-18T09:37:37Z</time>
      </trkpt>
      <trkpt lat="36.02777301186743" lon="119.40713854833781">
        <ele>60.7945556640625</ele>
        <time>2023-05-18T09:37:43Z</time>
      </trkpt>
      <trkpt lat="36.02782400390289" lon="119.40714654985408">
        <ele>59.6646728515625</ele>
        <time>2023-05-18T09:37:46Z</time>
      </trkpt>
      <trkpt lat="36.02786603954503" lon="119.40724263230635">
        <ele>59.3189697265625</ele>
        <time>2023-05-18T09:37:52Z</time>
      </trkpt>
      <trkpt lat="36.027875069811245" lon="119.40731069335695">
        <ele>58.7835693359375</ele>
        <time>2023-05-18T09:37:55Z</time>
      </trkpt>
      <trkpt lat="36.028090105064514" lon="119.40748683108028">
        <ele>62.218994140625</ele>
        <time>2023-05-18T09:38:10Z</time>
      </trkpt>
      <trkpt lat="36.028162137243896" lon="119.40758691574906">
        <ele>59.459716796875</ele>
        <time>2023-05-18T09:38:16Z</time>
      </trkpt>
      <trkpt lat="36.02836615934466" lon="119.40772702366219">
        <ele>59.50579833984375</ele>
        <time>2023-05-18T09:38:31Z</time>
      </trkpt>
      <trkpt lat="36.02844915616589" lon="119.40775904440322">
        <ele>59.6639404296875</ele>
        <time>2023-05-18T09:38:37Z</time>
      </trkpt>
      <trkpt lat="36.02871418603252" lon="119.40794018576733">
        <ele>58.307373046875</ele>
        <time>2023-05-18T09:38:58Z</time>
      </trkpt>
      <trkpt lat="36.028861182675456" lon="119.40800022640231">
        <ele>61.7415771484375</ele>
        <time>2023-05-18T09:39:07Z</time>
      </trkpt>
      <trkpt lat="36.02892117092888" lon="119.40800422348478">
        <ele>61.7060546875</ele>
        <time>2023-05-18T09:39:10Z</time>
      </trkpt>
      <trkpt lat="36.02902117343443" lon="119.4080542600408">
        <ele>61.254150390625</ele>
        <time>2023-05-18T09:39:19Z</time>
      </trkpt>
      <trkpt lat="36.02928111781916" lon="119.40806223851925">
        <ele>59.245361328125</ele>
        <time>2023-05-18T09:39:40Z</time>
      </trkpt>
      <trkpt lat="36.02955106401191" lon="119.408078223544">
        <ele>57.7987060546875</ele>
        <time>2023-05-18T09:39:55Z</time>
      </trkpt>
      <trkpt lat="36.02981893282667" lon="119.40794106270329">
        <ele>57.9930419921875</ele>
        <time>2023-05-18T09:40:10Z</time>
      </trkpt>
      <trkpt lat="36.029867911480416" lon="119.407921038204">
        <ele>58.68743896484375</ele>
        <time>2023-05-18T09:40:13Z</time>
      </trkpt>
      <trkpt lat="36.03001381925053" lon="119.40780391112574">
        <ele>60.89605712890625</ele>
        <time>2023-05-18T09:40:22Z</time>
      </trkpt>
      <trkpt lat="36.030093741798716" lon="119.40768479036379">
        <ele>60.4366455078125</ele>
        <time>2023-05-18T09:40:28Z</time>
      </trkpt>
      <trkpt lat="36.0301517131996" lon="119.4076537548667">
        <ele>61.099609375</ele>
        <time>2023-05-18T09:40:34Z</time>
      </trkpt>
      <trkpt lat="36.03021869536276" lon="119.40764874267653">
        <ele>60.296875</ele>
        <time>2023-05-18T09:40:40Z</time>
      </trkpt>
      <trkpt lat="36.03042659327134" lon="119.40753761601867">
        <ele>63.9141845703125</ele>
        <time>2023-05-18T09:40:58Z</time>
      </trkpt>
      <trkpt lat="36.03047855363951" lon="119.40748055740309">
        <ele>64.237060546875</ele>
        <time>2023-05-18T09:41:04Z</time>
      </trkpt>
      <trkpt lat="36.0304735180799" lon="119.40740448788051">
        <ele>63.5006103515625</ele>
        <time>2023-05-18T09:41:10Z</time>
      </trkpt>
      <trkpt lat="36.030489480830305" lon="119.40733442182535">
        <ele>59.4742431640625</ele>
        <time>2023-05-18T09:41:22Z</time>
      </trkpt>
      <trkpt lat="36.03062336475616" lon="119.40715424282993">
        <ele>57.584228515625</ele>
        <time>2023-05-18T09:41:37Z</time>
      </trkpt>
      <trkpt lat="36.030656295537256" lon="119.40702212006688">
        <ele>53.15570068359375</ele>
        <time>2023-05-18T09:41:43Z</time>
      </trkpt>
      <trkpt lat="36.030764159325514" lon="119.40677889136602">
        <ele>55.93463134765625</ele>
        <time>2023-05-18T09:41:52Z</time>
      </trkpt>
      <trkpt lat="36.03088606388014" lon="119.40662874566205">
        <ele>56.87176513671875</ele>
        <time>2023-05-18T09:41:58Z</time>
      </trkpt>
      <trkpt lat="36.030967948836384" lon="119.40641054689067">
        <ele>58.95562744140625</ele>
        <time>2023-05-18T09:42:07Z</time>
      </trkpt>
      <trkpt lat="36.030979913903614" lon="119.40633648181124">
        <ele>58.44580078125</ele>
        <time>2023-05-18T09:42:10Z</time>
      </trkpt>
      <trkpt lat="36.03101287440076" lon="119.40626241468657">
        <ele>59.7998046875</ele>
        <time>2023-05-18T09:42:13Z</time>
      </trkpt>
      <trkpt lat="36.03097572361238" lon="119.40588409975192">
        <ele>58.29815673828125</ele>
        <time>2023-05-18T09:42:28Z</time>
      </trkpt>
      <trkpt lat="36.031006651021386" lon="119.40572396366073">
        <ele>59.28228759765625</ele>
        <time>2023-05-18T09:42:34Z</time>
      </trkpt>
      <trkpt lat="36.03096763288892" lon="119.40565691294127">
        <ele>56.17962646484375</ele>
        <time>2023-05-18T09:42:37Z</time>
      </trkpt>
      <trkpt lat="36.03096055171898" lon="119.40544874430687">
        <ele>59.93377685546875</ele>
        <time>2023-05-18T09:42:46Z</time>
      </trkpt>
      <trkpt lat="36.030894469179295" lon="119.40519654975817">
        <ele>52.2420654296875</ele>
        <time>2023-05-18T09:43:01Z</time>
      </trkpt>
      <trkpt lat="36.03082743377099" lon="119.40506245136211">
        <ele>50.882568359375</ele>
        <time>2023-05-18T09:43:07Z</time>
      </trkpt>
      <trkpt lat="36.03074135218433" lon="119.40478824762063">
        <ele>46.2191162109375</ele>
        <time>2023-05-18T09:43:19Z</time>
      </trkpt>
      <trkpt lat="36.03069234493976" lon="119.40473721387364">
        <ele>46.255615234375</ele>
        <time>2023-05-18T09:43:22Z</time>
      </trkpt>
      <trkpt lat="36.03065232750215" lon="119.40466316167931">
        <ele>48.0010986328125</ele>
        <time>2023-05-18T09:43:25Z</time>
      </trkpt>
      <trkpt lat="36.03043229508995" lon="119.4044280084308">
        <ele>56.46197509765625</ele>
        <time>2023-05-18T09:43:40Z</time>
      </trkpt>
      <trkpt lat="36.03024326614932" lon="119.40421687255187">
        <ele>56.85748291015625</ele>
        <time>2023-05-18T09:43:58Z</time>
      </trkpt>
      <trkpt lat="36.029974278686836" lon="119.4040697948015">
        <ele>55.798095703125</ele>
        <time>2023-05-18T09:44:22Z</time>
      </trkpt>
      <trkpt lat="36.02987627252109" lon="119.4039827424933">
        <ele>56.82928466796875</ele>
        <time>2023-05-18T09:44:34Z</time>
      </trkpt>
      <trkpt lat="36.029813277829945" lon="119.40395472928199">
        <ele>57.84234619140625</ele>
        <time>2023-05-18T09:44:40Z</time>
      </trkpt>
      <trkpt lat="36.02973429302885" lon="119.40394573164086">
        <ele>57.87384033203125</ele>
        <time>2023-05-18T09:44:46Z</time>
      </trkpt>
      <trkpt lat="36.02970031324528" lon="119.40398376297813">
        <ele>59.4505615234375</ele>
        <time>2023-05-18T09:44:52Z</time>
      </trkpt>
      <trkpt lat="36.02967130586142" lon="119.40394073509893">
        <ele>59.07977294921875</ele>
        <time>2023-05-18T09:45:01Z</time>
      </trkpt>
      <trkpt lat="36.02954432559212" lon="119.4039117284185">
        <ele>57.0457763671875</ele>
        <time>2023-05-18T09:45:10Z</time>
      </trkpt>
      <trkpt lat="36.029490343182445" lon="119.40392774602752">
        <ele>53.373046875</ele>
        <time>2023-05-18T09:45:13Z</time>
      </trkpt>
      <trkpt lat="36.0291684086762" lon="119.40390176342247">
        <ele>59.67767333984375</ele>
        <time>2023-05-18T09:45:34Z</time>
      </trkpt>
      <trkpt lat="36.02906240469443" lon="119.40381371212764">
        <ele>60.05987548828125</ele>
        <time>2023-05-18T09:45:46Z</time>
      </trkpt>
      <trkpt lat="36.02901841064376" lon="119.40380070776908">
        <ele>58.94561767578125</ele>
        <time>2023-05-18T09:45:49Z</time>
      </trkpt>
      <trkpt lat="36.02899538863348" lon="119.4037146490809">
        <ele>56.82171630859375</ele>
        <time>2023-05-18T09:45:58Z</time>
      </trkpt>
      <trkpt lat="36.02901531542894" lon="119.40349349131174">
        <ele>60.49407958984375</ele>
        <time>2023-05-18T09:46:07Z</time>
      </trkpt>
      <trkpt lat="36.02906528116076" lon="119.4034184335489">
        <ele>58.43170166015625</ele>
        <time>2023-05-18T09:46:13Z</time>
      </trkpt>
      <trkpt lat="36.02915624551429" lon="119.40336938943376">
        <ele>57.1151123046875</ele>
        <time>2023-05-18T09:46:19Z</time>
      </trkpt>
      <trkpt lat="36.029347183150335" lon="119.40330732529304">
        <ele>58.5552978515625</ele>
        <time>2023-05-18T09:46:31Z</time>
      </trkpt>
      <trkpt lat="36.02949212946411" lon="119.40323826175255">
        <ele>57.644775390625</ele>
        <time>2023-05-18T09:46:40Z</time>
      </trkpt>
      <trkpt lat="36.02961307801488" lon="119.4031571930319">
        <ele>59.1641845703125</ele>
        <time>2023-05-18T09:46:49Z</time>
      </trkpt>
      <trkpt lat="36.02974999445001" lon="119.4029750551234">
        <ele>59.40362548828125</ele>
        <time>2023-05-18T09:47:01Z</time>
      </trkpt>
      <trkpt lat="36.02985494623923" lon="119.40288898609064">
        <ele>60.707275390625</ele>
        <time>2023-05-18T09:47:07Z</time>
      </trkpt>
      <trkpt lat="36.02992390196208" lon="119.40278591033618">
        <ele>58.66583251953125</ele>
        <time>2023-05-18T09:47:13Z</time>
      </trkpt>
      <trkpt lat="36.02993786836223" lon="119.40267383549734">
        <ele>57.53436279296875</ele>
        <time>2023-05-18T09:47:19Z</time>
      </trkpt>
      <trkpt lat="36.030086774561305" lon="119.40244767308994">
        <ele>57.59136962890625</ele>
        <time>2023-05-18T09:47:34Z</time>
      </trkpt>
      <trkpt lat="36.03015668708109" lon="119.40216448689141">
        <ele>58.30230712890625</ele>
        <time>2023-05-18T09:47:55Z</time>
      </trkpt>
      <trkpt lat="36.03015367138614" lon="119.40209744567073">
        <ele>56.28704833984375</ele>
        <time>2023-05-18T09:47:58Z</time>
      </trkpt>
      <trkpt lat="36.03017964971733" lon="119.40203240267716">
        <ele>58.45611572265625</ele>
        <time>2023-05-18T09:48:04Z</time>
      </trkpt>
      <trkpt lat="36.03019758169871" lon="119.4017592349558">
        <ele>54.64190673828125</ele>
        <time>2023-05-18T09:48:22Z</time>
      </trkpt>
      <trkpt lat="36.030153511155696" lon="119.40139202378492">
        <ele>54.8048095703125</ele>
        <time>2023-05-18T09:48:43Z</time>
      </trkpt>
      <trkpt lat="36.03002747190721" lon="119.40105784787089">
        <ele>57.46392822265625</ele>
        <time>2023-05-18T09:48:58Z</time>
      </trkpt>
      <trkpt lat="36.02993946159163" lon="119.40089977003787">
        <ele>57.25140380859375</ele>
        <time>2023-05-18T09:49:07Z</time>
      </trkpt>
      <trkpt lat="36.029737456085236" lon="119.40061663913364">
        <ele>55.30914306640625</ele>
        <time>2023-05-18T09:49:22Z</time>
      </trkpt>
      <trkpt lat="36.02950946623252" lon="119.40037053489951">
        <ele>52.25341796875</ele>
        <time>2023-05-18T09:49:37Z</time>
      </trkpt>
      <trkpt lat="36.02939948095066" lon="119.40030651403228">
        <ele>58.3707275390625</ele>
        <time>2023-05-18T09:49:43Z</time>
      </trkpt>
      <trkpt lat="36.02933749502152" lon="119.40030552047723">
        <ele>57.163330078125</ele>
        <time>2023-05-18T09:49:46Z</time>
      </trkpt>
      <trkpt lat="36.0291915194768" lon="119.40024950799746">
        <ele>58.674560546875</ele>
        <time>2023-05-18T09:49:55Z</time>
      </trkpt>
      <trkpt lat="36.02917651415292" lon="119.40019448149494">
        <ele>59.218017578125</ele>
        <time>2023-05-18T09:49:58Z</time>
      </trkpt>
      <trkpt lat="36.028930570798806" lon="119.4001955096298">
        <ele>60.75665283203125</ele>
        <time>2023-05-18T09:50:10Z</time>
      </trkpt>
      <trkpt lat="36.02864964314081" lon="119.4002445662899">
        <ele>60.15643310546875</ele>
        <time>2023-05-18T09:50:25Z</time>
      </trkpt>
      <trkpt lat="36.0284227038468" lon="119.40029761908765">
        <ele>58.0767822265625</ele>
        <time>2023-05-18T09:50:37Z</time>
      </trkpt>
      <trkpt lat="36.02832172770005" lon="119.40030163249621">
        <ele>58.83062744140625</ele>
        <time>2023-05-18T09:50:43Z</time>
      </trkpt>
      <trkpt lat="36.02819377128512" lon="119.40038769153627">
        <ele>59.73382568359375</ele>
        <time>2023-05-18T09:50:52Z</time>
      </trkpt>
      <trkpt lat="36.025224265065276" lon="119.39899435275413">
        <ele>44.01556396484375</ele>
        <time>2023-05-18T09:54:11Z</time>
      </trkpt>
      <trkpt lat="36.02518027783029" lon="119.39901936879835">
        <ele>55.3431396484375</ele>
        <time>2023-05-18T09:54:17Z</time>
      </trkpt>
      <trkpt lat="36.02504330391437" lon="119.39896736112402">
        <ele>62.15423583984375</ele>
        <time>2023-05-18T09:54:29Z</time>
      </trkpt>
      <trkpt lat="36.024911324948704" lon="119.39887533552405">
        <ele>62.5870361328125</ele>
        <time>2023-05-18T09:54:41Z</time>
      </trkpt>
      <trkpt lat="36.024703368108206" lon="119.39882733797745">
        <ele>62.25054931640625</ele>
        <time>2023-05-18T09:54:59Z</time>
      </trkpt>
      <trkpt lat="36.02462438698325" lon="119.39883434988742">
        <ele>60.55902099609375</ele>
        <time>2023-05-18T09:55:05Z</time>
      </trkpt>
      <trkpt lat="36.02452141415368" lon="119.39886937669307">
        <ele>56.076171875</ele>
        <time>2023-05-18T09:55:11Z</time>
      </trkpt>
      <trkpt lat="36.024457427604474" lon="119.39885637820987">
        <ele>55.773681640625</ele>
        <time>2023-05-18T09:55:14Z</time>
      </trkpt>
      <trkpt lat="36.024389444454215" lon="119.39886839107727">
        <ele>56.19256591796875</ele>
        <time>2023-05-18T09:55:17Z</time>
      </trkpt>
      <trkpt lat="36.024340467143254" lon="119.39898044580542">
        <ele>54.9552001953125</ele>
        <time>2023-05-18T09:55:23Z</time>
      </trkpt>
      <trkpt lat="36.02435749161193" lon="119.39923855997216">
        <ele>59.28167724609375</ele>
        <time>2023-05-18T09:55:38Z</time>
      </trkpt>
      <trkpt lat="36.024334530286" lon="119.39951268992134">
        <ele>55.31317138671875</ele>
        <time>2023-05-18T09:55:56Z</time>
      </trkpt>
      <trkpt lat="36.02437957172693" lon="119.39989286849425">
        <ele>58.1619873046875</ele>
        <time>2023-05-18T09:56:20Z</time>
      </trkpt>
      <trkpt lat="36.02439258164475" lon="119.39998091071689">
        <ele>57.16668701171875</ele>
        <time>2023-05-18T09:56:26Z</time>
      </trkpt>
      <trkpt lat="36.02447060144242" lon="119.40022602587146">
        <ele>54.00555419921875</ele>
        <time>2023-05-18T09:56:44Z</time>
      </trkpt>
      <trkpt lat="36.02451560317247" lon="119.4003010594273">
        <ele>54.31976318359375</ele>
        <time>2023-05-18T09:56:50Z</time>
      </trkpt>
      <trkpt lat="36.02455361868126" lon="119.40044713122708">
        <ele>55.6204833984375</ele>
        <time>2023-05-18T09:57:02Z</time>
      </trkpt>
      <trkpt lat="36.0247215859517" lon="119.40048213077922">
        <ele>53.14776611328125</ele>
        <time>2023-05-18T09:57:14Z</time>
      </trkpt>
      <trkpt lat="36.02487157066614" lon="119.40059317279281">
        <ele>54.0579833984375</ele>
        <time>2023-05-18T09:57:23Z</time>
      </trkpt>
      <trkpt lat="36.02492555876139" lon="119.40059616833047">
        <ele>53.33599853515625</ele>
        <time>2023-05-18T09:57:26Z</time>
      </trkpt>
      <trkpt lat="36.024973554610185" lon="119.40063518379154">
        <ele>54.99761962890625</ele>
        <time>2023-05-18T09:57:29Z</time>
      </trkpt>
      <trkpt lat="36.025256500029826" lon="119.40069418372423">
        <ele>53.8111572265625</ele>
        <time>2023-05-18T09:57:47Z</time>
      </trkpt>
      <trkpt lat="36.025537444614145" lon="119.40074517974043">
        <ele>54.48272705078125</ele>
        <time>2023-05-18T09:58:05Z</time>
      </trkpt>
      <trkpt lat="36.02562942034295" lon="119.40072816020671">
        <ele>54.665283203125</ele>
        <time>2023-05-18T09:58:11Z</time>
      </trkpt>
      <trkpt lat="36.02573440330983" lon="119.40076716955859">
        <ele>55.654296875</ele>
        <time>2023-05-18T09:58:17Z</time>
      </trkpt>
      <trkpt lat="36.02605232246865" lon="119.40072511109197">
        <ele>55.50042724609375</ele>
        <time>2023-05-18T09:58:35Z</time>
      </trkpt>
      <trkpt lat="36.0263442462637" lon="119.4006750513378">
        <ele>52.80419921875</ele>
        <time>2023-05-18T09:58:53Z</time>
      </trkpt>
      <trkpt lat="36.02644821947551" lon="119.4006590310605">
        <ele>56.3701171875</ele>
        <time>2023-05-18T09:58:59Z</time>
      </trkpt>
      <trkpt lat="36.02674016041512" lon="119.40070402250095">
        <ele>57.4637451171875</ele>
        <time>2023-05-18T09:59:14Z</time>
      </trkpt>
      <trkpt lat="36.0270511033322" lon="119.4007830303881">
        <ele>58.30780029296875</ele>
        <time>2023-05-18T09:59:32Z</time>
      </trkpt>
      <trkpt lat="36.02735905326661" lon="119.40089405654611">
        <ele>55.35052490234375</ele>
        <time>2023-05-18T09:59:50Z</time>
      </trkpt>
      <trkpt lat="36.027544036708534" lon="119.40102911058494">
        <ele>57.653564453125</ele>
        <time>2023-05-18T10:00:08Z</time>
      </trkpt>
      <trkpt lat="36.02774001362028" lon="119.40114015085994">
        <ele>53.9556884765625</ele>
        <time>2023-05-18T10:00:47Z</time>
      </trkpt>
      <trkpt lat="36.02774300973189" lon="119.40112414150259">
        <ele>54.966552734375</ele>
        <time>2023-05-18T10:04:53Z</time>
      </trkpt>
      <trkpt lat="36.02790601349943" lon="119.40132623814607">
        <ele>56.25640869140625</ele>
        <time>2023-05-18T10:05:17Z</time>
      </trkpt>
      <trkpt lat="36.027957030132214" lon="119.40146030994264">
        <ele>57.1170654296875</ele>
        <time>2023-05-18T10:05:29Z</time>
      </trkpt>
      <trkpt lat="36.02799510269388" lon="119.40182552198767">
        <ele>55.67974853515625</ele>
        <time>2023-05-18T10:05:53Z</time>
      </trkpt>
      <trkpt lat="36.02804415370055" lon="119.40208867702081">
        <ele>55.681884765625</ele>
        <time>2023-05-18T10:06:05Z</time>
      </trkpt>
      <trkpt lat="36.02817020854129" lon="119.40242387302847">
        <ele>56.34381103515625</ele>
        <time>2023-05-18T10:06:20Z</time>
      </trkpt>
      <trkpt lat="36.02837823518292" lon="119.40270603151042">
        <ele>54.64276123046875</ele>
        <time>2023-05-18T10:06:38Z</time>
      </trkpt>
      <trkpt lat="36.028564232388945" lon="119.40285210654031">
        <ele>56.2188720703125</ele>
        <time>2023-05-18T10:06:50Z</time>
      </trkpt>
      <trkpt lat="36.028650240818386" lon="119.40295316394283">
        <ele>56.94525146484375</ele>
        <time>2023-05-18T10:06:56Z</time>
      </trkpt>
      <trkpt lat="36.0286952389419" lon="119.40298317892022">
        <ele>54.7008056640625</ele>
        <time>2023-05-18T10:06:59Z</time>
      </trkpt>
      <trkpt lat="36.02872825182909" lon="119.40305522349477">
        <ele>56.7855224609375</ele>
        <time>2023-05-18T10:07:02Z</time>
      </trkpt>
      <trkpt lat="36.02873834931859" lon="119.40339545433298">
        <ele>58.93975830078125</ele>
        <time>2023-05-18T10:07:17Z</time>
      </trkpt>
      <trkpt lat="36.028728468321056" lon="119.4037727203321">
        <ele>57.13140869140625</ele>
        <time>2023-05-18T10:07:32Z</time>
      </trkpt>
      <trkpt lat="36.02869753178179" lon="119.40394784950907">
        <ele>56.92498779296875</ele>
        <time>2023-05-18T10:07:41Z</time>
      </trkpt>
      <trkpt lat="36.02865655361434" lon="119.40398588163603">
        <ele>56.92938232421875</ele>
        <time>2023-05-18T10:07:44Z</time>
      </trkpt>
      <trkpt lat="36.02852260975002" lon="119.40406295270353">
        <ele>59.9022216796875</ele>
        <time>2023-05-18T10:07:53Z</time>
      </trkpt>
      <trkpt lat="36.02640105647432" lon="119.40393810014143">
        <ele>67.877197265625</ele>
        <time>2023-05-18T10:12:52Z</time>
      </trkpt>
      <trkpt lat="36.02643006973867" lon="119.40399914107354">
        <ele>61.60205078125</ele>
        <time>2023-05-18T10:12:58Z</time>
      </trkpt>
      <trkpt lat="36.02647214793885" lon="119.40426232929376">
        <ele>59.43603515625</ele>
        <time>2023-05-18T10:13:10Z</time>
      </trkpt>
      <trkpt lat="36.02653920177128" lon="119.40446347187621">
        <ele>60.3265380859375</ele>
        <time>2023-05-18T10:13:19Z</time>
      </trkpt>
      <trkpt lat="36.02666426744779" lon="119.4047296600218">
        <ele>59.8658447265625</ele>
        <time>2023-05-18T10:13:34Z</time>
      </trkpt>
      <trkpt lat="36.026745295390896" lon="119.40485774965241">
        <ele>59.18865966796875</ele>
        <time>2023-05-18T10:13:46Z</time>
      </trkpt>
      <trkpt lat="36.02677431857289" lon="119.40493880935192">
        <ele>58.72998046875</ele>
        <time>2023-05-18T10:13:52Z</time>
      </trkpt>
      <trkpt lat="36.026935380126375" lon="119.40520099746904">
        <ele>60.5675048828125</ele>
        <time>2023-05-18T10:14:07Z</time>
      </trkpt>
      <trkpt lat="36.02712543259294" lon="119.40544917491425">
        <ele>61.3399658203125</ele>
        <time>2023-05-18T10:14:22Z</time>
      </trkpt>
      <trkpt lat="36.027246481115235" lon="119.40564131762638">
        <ele>58.35662841796875</ele>
        <time>2023-05-18T10:14:37Z</time>
      </trkpt>
      <trkpt lat="36.027494471440406" lon="119.40575838606118">
        <ele>54.4942626953125</ele>
        <time>2023-05-18T10:14:55Z</time>
      </trkpt>
      <trkpt lat="36.027677432638875" lon="119.40576637213157">
        <ele>58.77947998046875</ele>
        <time>2023-05-18T10:15:07Z</time>
      </trkpt>
      <trkpt lat="36.02780538817398" lon="119.40572932721805">
        <ele>61.315185546875</ele>
        <time>2023-05-18T10:15:16Z</time>
      </trkpt>
      <trkpt lat="36.02801027510716" lon="119.40556516975255">
        <ele>60.0634765625</ele>
        <time>2023-05-18T10:15:31Z</time>
      </trkpt>
      <trkpt lat="36.028207132398826" lon="119.40531694722671">
        <ele>64.99090576171875</ele>
        <time>2023-05-18T10:15:49Z</time>
      </trkpt>
      <trkpt lat="36.028370991778004" lon="119.40504671460747">
        <ele>59.8363037109375</ele>
        <time>2023-05-18T10:16:07Z</time>
      </trkpt>
      <trkpt lat="36.02852085293864" lon="119.40476347769912">
        <ele>59.06109619140625</ele>
        <time>2023-05-18T10:16:25Z</time>
      </trkpt>
      <trkpt lat="36.02862874383742" lon="119.40452728553835">
        <ele>57.5906982421875</ele>
        <time>2023-05-18T10:16:37Z</time>
      </trkpt>
      <trkpt lat="36.028706614609554" lon="119.4042040355101">
        <ele>59.28466796875</ele>
        <time>2023-05-18T10:16:55Z</time>
      </trkpt>
      <trkpt lat="36.02874153999542" lon="119.40400388515987">
        <ele>59.134033203125</ele>
        <time>2023-05-18T10:17:07Z</time>
      </trkpt>
      <trkpt lat="36.0287785164393" lon="119.40395784765079">
        <ele>57.50701904296875</ele>
        <time>2023-05-18T10:17:13Z</time>
      </trkpt>
      <trkpt lat="36.02885940885314" lon="119.40367963953413">
        <ele>58.547607421875</ele>
        <time>2023-05-18T10:17:28Z</time>
      </trkpt>
      <trkpt lat="36.028875354310905" lon="119.40351552238724">
        <ele>60.43865966796875</ele>
        <time>2023-05-18T10:17:37Z</time>
      </trkpt>
      <trkpt lat="36.0288663395886" lon="119.403460485055">
        <ele>61.8056640625</ele>
        <time>2023-05-18T10:17:40Z</time>
      </trkpt>
      <trkpt lat="36.02888423467799" lon="119.40312024981858">
        <ele>60.74267578125</ele>
        <time>2023-05-18T10:17:58Z</time>
      </trkpt>
      <trkpt lat="36.02881813465947" lon="119.40270798341535">
        <ele>61.65869140625</ele>
        <time>2023-05-18T10:18:22Z</time>
      </trkpt>
      <trkpt lat="36.02879008713622" lon="119.40250485518554">
        <ele>63.71746826171875</ele>
        <time>2023-05-18T10:18:34Z</time>
      </trkpt>
      <trkpt lat="36.02873907783574" lon="119.40242380914353">
        <ele>62.8746337890625</ele>
        <time>2023-05-18T10:18:40Z</time>
      </trkpt>
      <trkpt lat="36.0288710490669" lon="119.40242979814485">
        <ele>58.7650146484375</ele>
        <time>2023-05-18T10:18:55Z</time>
      </trkpt>
      <trkpt lat="36.02899997374898" lon="119.40224966988993">
        <ele>59.677001953125</ele>
        <time>2023-05-18T10:19:10Z</time>
      </trkpt>
      <trkpt lat="36.02915486522115" lon="119.401949466945">
        <ele>62.96478271484375</ele>
        <time>2023-05-18T10:19:31Z</time>
      </trkpt>
      <trkpt lat="36.0291898393464" lon="119.40187341681998">
        <ele>62.67413330078125</ele>
        <time>2023-05-18T10:19:37Z</time>
      </trkpt>
      <trkpt lat="36.02925382092926" lon="119.40185739995022">
        <ele>60.45465087890625</ele>
        <time>2023-05-18T10:19:43Z</time>
      </trkpt>
      <trkpt lat="36.029462788610786" lon="119.40192441712995">
        <ele>57.46282958984375</ele>
        <time>2023-05-18T10:19:58Z</time>
      </trkpt>
      <trkpt lat="36.02974471053836" lon="119.40186735086917">
        <ele>56.19378662109375</ele>
        <time>2023-05-18T10:20:16Z</time>
      </trkpt>
      <trkpt lat="36.03004862160312" lon="119.40178426668528">
        <ele>58.552001953125</ele>
        <time>2023-05-18T10:20:37Z</time>
      </trkpt>
      <trkpt lat="36.03035455367841" lon="119.40179423833446">
        <ele>62.0589599609375</ele>
        <time>2023-05-18T10:21:07Z</time>
      </trkpt>
      <trkpt lat="36.03050052018047" lon="119.40179422194024">
        <ele>66.44732666015625</ele>
        <time>2023-05-18T10:21:19Z</time>
      </trkpt>
      <trkpt lat="36.030530523669796" lon="119.4018392456837">
        <ele>65.1461181640625</ele>
        <time>2023-05-18T10:21:28Z</time>
      </trkpt>
      <trkpt lat="36.03061649816637" lon="119.40181422095034">
        <ele>66.7108154296875</ele>
        <time>2023-05-18T10:21:34Z</time>
      </trkpt>
      <trkpt lat="36.03065047389489" lon="119.40174217390981">
        <ele>66.58563232421875</ele>
        <time>2023-05-18T10:21:37Z</time>
      </trkpt>
      <trkpt lat="36.03065341092274" lon="119.40146000710705">
        <ele>60.4010009765625</ele>
        <time>2023-05-18T10:21:49Z</time>
      </trkpt>
      <trkpt lat="36.03063538253782" lon="119.40130592011931">
        <ele>59.3123779296875</ele>
        <time>2023-05-18T10:21:58Z</time>
      </trkpt>
      <trkpt lat="36.030576350866575" lon="119.4010828002301">
        <ele>58.36199951171875</ele>
        <time>2023-05-18T10:22:16Z</time>
      </trkpt>
      <trkpt lat="36.03061934080403" lon="119.40108179484044">
        <ele>59.7236328125</ele>
        <time>2023-05-18T10:22:22Z</time>
      </trkpt>
    </trkseg>
  </trk>
</gpx>