<?xml version="1.0" encoding="UTF-8"?>
<gpx xmlns="http://www.topografix.com/GPX/1/1" xmlns:gpxtpx="http://www.garmin.com/xmlschemas/TrackPointExtension/v1" xmlns:xsi="http://www.w3.org/2001/XMLSchema-instance" xsi:schemaLocation="http://www.topografix.com/GPX/1/1 http://www.topografix.com/GPX/1/1/gpx.xsd" version="1.1" creator="gpx.py -- https://github.com/tkrajina/gpxpy">
  <trk>
    <name>gpx from keep</name>
    <type>Run</type>
    <trkseg>
      <trkpt lat="36.03046259364799" lon="119.41560800407562">
        <ele>58.753736367449164</ele>
        <time>2025-01-21T14:36:58Z</time>
        <extensions>
          <gpxtpx:TrackPointExtension>
            <gpxtpx:hr>102</gpxtpx:hr>
          </gpxtpx:TrackPointExtension>
        </extensions>
      </trkpt>
      <trkpt lat="36.03046623358232" lon="119.41561178909497">
        <ele>58.75203269440681</ele>
        <time>2025-01-21T14:36:59Z</time>
        <extensions>
          <gpxtpx:TrackPointExtension>
            <gpxtpx:hr>102</gpxtpx:hr>
          </gpxtpx:TrackPointExtension>
        </extensions>
      </trkpt>
      <trkpt lat="36.030470683958725" lon="119.41561589120414">
        <ele>58.74582975637168</ele>
        <time>2025-01-21T14:37:00Z</time>
        <extensions>
          <gpxtpx:TrackPointExtension>
            <gpxtpx:hr>102</gpxtpx:hr>
          </gpxtpx:TrackPointExtension>
        </extensions>
      </trkpt>
      <trkpt lat="36.030474690808404" lon="119.41562042102791">
        <ele>58.73978680558503</ele>
        <time>2025-01-21T14:37:01Z</time>
        <extensions>
          <gpxtpx:TrackPointExtension>
            <gpxtpx:hr>102</gpxtpx:hr>
          </gpxtpx:TrackPointExtension>
        </extensions>
      </trkpt>
      <trkpt lat="36.03047944674628" lon="119.41562599272507">
        <ele>58.70983476843685</ele>
        <time>2025-01-21T14:37:02Z</time>
        <extensions>
          <gpxtpx:TrackPointExtension>
            <gpxtpx:hr>102</gpxtpx:hr>
          </gpxtpx:TrackPointExtension>
        </extensions>
      </trkpt>
      <trkpt lat="36.030484062639744" lon="119.41563277947144">
        <ele>58.70397888030857</ele>
        <time>2025-01-21T14:37:02Z</time>
        <extensions>
          <gpxtpx:TrackPointExtension>
            <gpxtpx:hr>102</gpxtpx:hr>
          </gpxtpx:TrackPointExtension>
        </extensions>
      </trkpt>
      <trkpt lat="36.03048812265104" lon="119.41564002845998">
        <ele>58.701652785763144</ele>
        <time>2025-01-21T14:37:03Z</time>
        <extensions>
          <gpxtpx:TrackPointExtension>
            <gpxtpx:hr>102</gpxtpx:hr>
          </gpxtpx:TrackPointExtension>
        </extensions>
      </trkpt>
      <trkpt lat="36.030491713892964" lon="119.41564763654998">
        <ele>58.69487685058266</ele>
        <time>2025-01-21T14:37:04Z</time>
        <extensions>
          <gpxtpx:TrackPointExtension>
            <gpxtpx:hr>114</gpxtpx:hr>
          </gpxtpx:TrackPointExtension>
        </extensions>
      </trkpt>
      <trkpt lat="36.030493818637986" lon="119.41565784996119">
        <ele>58.690756579861045</ele>
        <time>2025-01-21T14:37:06Z</time>
        <extensions>
          <gpxtpx:TrackPointExtension>
            <gpxtpx:hr>114</gpxtpx:hr>
          </gpxtpx:TrackPointExtension>
        </extensions>
      </trkpt>
      <trkpt lat="36.03049565515168" lon="119.41567269581574">
        <ele>58.68805716559291</ele>
        <time>2025-01-21T14:37:07Z</time>
        <extensions>
          <gpxtpx:TrackPointExtension>
            <gpxtpx:hr>114</gpxtpx:hr>
          </gpxtpx:TrackPointExtension>
        </extensions>
      </trkpt>
      <trkpt lat="36.03049648954626" lon="119.41569213049269">
        <ele>58.68414662219584</ele>
        <time>2025-01-21T14:37:08Z</time>
        <extensions>
          <gpxtpx:TrackPointExtension>
            <gpxtpx:hr>114</gpxtpx:hr>
          </gpxtpx:TrackPointExtension>
        </extensions>
      </trkpt>
      <trkpt lat="36.03049530738125" lon="119.41571329578612">
        <ele>58.67932697478682</ele>
        <time>2025-01-21T14:37:09Z</time>
        <extensions>
          <gpxtpx:TrackPointExtension>
            <gpxtpx:hr>114</gpxtpx:hr>
          </gpxtpx:TrackPointExtension>
        </extensions>
      </trkpt>
      <trkpt lat="36.030491081654326" lon="119.41573453289436">
        <ele>58.675414632074535</ele>
        <time>2025-01-21T14:37:10Z</time>
        <extensions>
          <gpxtpx:TrackPointExtension>
            <gpxtpx:hr>114</gpxtpx:hr>
          </gpxtpx:TrackPointExtension>
        </extensions>
      </trkpt>
      <trkpt lat="36.03048239157043" lon="119.4157536390673">
        <ele>58.67263395059854</ele>
        <time>2025-01-21T14:37:11Z</time>
        <extensions>
          <gpxtpx:TrackPointExtension>
            <gpxtpx:hr>114</gpxtpx:hr>
          </gpxtpx:TrackPointExtension>
        </extensions>
      </trkpt>
      <trkpt lat="36.03046844525248" lon="119.41576850765475">
        <ele>58.45754318963736</ele>
        <time>2025-01-21T14:37:12Z</time>
        <extensions>
          <gpxtpx:TrackPointExtension>
            <gpxtpx:hr>114</gpxtpx:hr>
          </gpxtpx:TrackPointExtension>
        </extensions>
      </trkpt>
      <trkpt lat="36.030449369178434" lon="119.41577660684294">
        <ele>58.38035932183266</ele>
        <time>2025-01-21T14:37:13Z</time>
        <extensions>
          <gpxtpx:TrackPointExtension>
            <gpxtpx:hr>119</gpxtpx:hr>
          </gpxtpx:TrackPointExtension>
        </extensions>
      </trkpt>
      <trkpt lat="36.03042628617403" lon="119.41577860083132">
        <ele>58.32964488398284</ele>
        <time>2025-01-21T14:37:14Z</time>
        <extensions>
          <gpxtpx:TrackPointExtension>
            <gpxtpx:hr>119</gpxtpx:hr>
          </gpxtpx:TrackPointExtension>
        </extensions>
      </trkpt>
      <trkpt lat="36.030398541643216" lon="119.41577630003941">
        <ele>58.298899818211794</ele>
        <time>2025-01-21T14:37:15Z</time>
        <extensions>
          <gpxtpx:TrackPointExtension>
            <gpxtpx:hr>119</gpxtpx:hr>
          </gpxtpx:TrackPointExtension>
        </extensions>
      </trkpt>
      <trkpt lat="36.030366501853024" lon="119.41577155071873">
        <ele>58.28795998170972</ele>
        <time>2025-01-21T14:37:16Z</time>
        <extensions>
          <gpxtpx:TrackPointExtension>
            <gpxtpx:hr>119</gpxtpx:hr>
          </gpxtpx:TrackPointExtension>
        </extensions>
      </trkpt>
      <trkpt lat="36.03033197851739" lon="119.41576350685017">
        <ele>58.275401782244444</ele>
        <time>2025-01-21T14:37:17Z</time>
        <extensions>
          <gpxtpx:TrackPointExtension>
            <gpxtpx:hr>119</gpxtpx:hr>
          </gpxtpx:TrackPointExtension>
        </extensions>
      </trkpt>
      <trkpt lat="36.030296472295944" lon="119.41575089532584">
        <ele>58.25873407069594</ele>
        <time>2025-01-21T14:37:18Z</time>
        <extensions>
          <gpxtpx:TrackPointExtension>
            <gpxtpx:hr>125</gpxtpx:hr>
          </gpxtpx:TrackPointExtension>
        </extensions>
      </trkpt>
      <trkpt lat="36.03026117371805" lon="119.41573465271976">
        <ele>58.24169779010117</ele>
        <time>2025-01-21T14:37:19Z</time>
        <extensions>
          <gpxtpx:TrackPointExtension>
            <gpxtpx:hr>125</gpxtpx:hr>
          </gpxtpx:TrackPointExtension>
        </extensions>
      </trkpt>
      <trkpt lat="36.030226349948165" lon="119.41571677399926">
        <ele>58.22634876333177</ele>
        <time>2025-01-21T14:37:20Z</time>
        <extensions>
          <gpxtpx:TrackPointExtension>
            <gpxtpx:hr>125</gpxtpx:hr>
          </gpxtpx:TrackPointExtension>
        </extensions>
      </trkpt>
      <trkpt lat="36.030188137840526" lon="119.41570175295143">
        <ele>58.2326545920223</ele>
        <time>2025-01-21T14:37:21Z</time>
        <extensions>
          <gpxtpx:TrackPointExtension>
            <gpxtpx:hr>125</gpxtpx:hr>
          </gpxtpx:TrackPointExtension>
        </extensions>
      </trkpt>
      <trkpt lat="36.03015348569707" lon="119.41568475584404">
        <ele>58.25597824435681</ele>
        <time>2025-01-21T14:37:22Z</time>
        <extensions>
          <gpxtpx:TrackPointExtension>
            <gpxtpx:hr>125</gpxtpx:hr>
          </gpxtpx:TrackPointExtension>
        </extensions>
      </trkpt>
      <trkpt lat="36.030127978055006" lon="119.41567061876219">
        <ele>58.28357035946101</ele>
        <time>2025-01-21T14:37:22Z</time>
        <extensions>
          <gpxtpx:TrackPointExtension>
            <gpxtpx:hr>125</gpxtpx:hr>
          </gpxtpx:TrackPointExtension>
        </extensions>
      </trkpt>
      <trkpt lat="36.03009681452457" lon="119.41565273552541">
        <ele>58.32179515808821</ele>
        <time>2025-01-21T14:37:23Z</time>
        <extensions>
          <gpxtpx:TrackPointExtension>
            <gpxtpx:hr>125</gpxtpx:hr>
          </gpxtpx:TrackPointExtension>
        </extensions>
      </trkpt>
      <trkpt lat="36.0300653894183" lon="119.41563444271178">
        <ele>58.36757563240826</ele>
        <time>2025-01-21T14:37:24Z</time>
        <extensions>
          <gpxtpx:TrackPointExtension>
            <gpxtpx:hr>125</gpxtpx:hr>
          </gpxtpx:TrackPointExtension>
        </extensions>
      </trkpt>
      <trkpt lat="36.030033408033695" lon="119.41561350297988">
        <ele>58.41836855560541</ele>
        <time>2025-01-21T14:37:25Z</time>
        <extensions>
          <gpxtpx:TrackPointExtension>
            <gpxtpx:hr>125</gpxtpx:hr>
          </gpxtpx:TrackPointExtension>
        </extensions>
      </trkpt>
      <trkpt lat="36.03000164349327" lon="119.41558885535964">
        <ele>58.47806256636977</ele>
        <time>2025-01-21T14:37:26Z</time>
        <extensions>
          <gpxtpx:TrackPointExtension>
            <gpxtpx:hr>125</gpxtpx:hr>
          </gpxtpx:TrackPointExtension>
        </extensions>
      </trkpt>
      <trkpt lat="36.02997090326937" lon="119.41556260308269">
        <ele>58.56424384564161</ele>
        <time>2025-01-21T14:37:27Z</time>
        <extensions>
          <gpxtpx:TrackPointExtension>
            <gpxtpx:hr>125</gpxtpx:hr>
          </gpxtpx:TrackPointExtension>
        </extensions>
      </trkpt>
      <trkpt lat="36.02994065858824" lon="119.41553649130253">
        <ele>58.62440736684948</ele>
        <time>2025-01-21T14:37:28Z</time>
        <extensions>
          <gpxtpx:TrackPointExtension>
            <gpxtpx:hr>125</gpxtpx:hr>
          </gpxtpx:TrackPointExtension>
        </extensions>
      </trkpt>
      <trkpt lat="36.02991017294413" lon="119.41551256131807">
        <ele>58.67058678343892</ele>
        <time>2025-01-21T14:37:29Z</time>
        <extensions>
          <gpxtpx:TrackPointExtension>
            <gpxtpx:hr>125</gpxtpx:hr>
          </gpxtpx:TrackPointExtension>
        </extensions>
      </trkpt>
      <trkpt lat="36.02987915613693" lon="119.41549237706207">
        <ele>58.71721095684916</ele>
        <time>2025-01-21T14:37:30Z</time>
      </trkpt>
      <trkpt lat="36.02984810999635" lon="119.41547525763484">
        <ele>58.79330724105239</ele>
        <time>2025-01-21T14:37:31Z</time>
      </trkpt>
      <trkpt lat="36.029817698572224" lon="119.41546103353534">
        <ele>58.850407236255705</ele>
        <time>2025-01-21T14:37:32Z</time>
      </trkpt>
      <trkpt lat="36.02978714908277" lon="119.41544976891457">
        <ele>58.91753534693271</ele>
        <time>2025-01-21T14:37:33Z</time>
      </trkpt>
      <trkpt lat="36.02975514014437" lon="119.41544081573325">
        <ele>59.02772948332131</ele>
        <time>2025-01-21T14:37:34Z</time>
      </trkpt>
      <trkpt lat="36.029721682538835" lon="119.41543395046281">
        <ele>59.10977484844625</ele>
        <time>2025-01-21T14:37:35Z</time>
      </trkpt>
      <trkpt lat="36.029687572277645" lon="119.41542950339884">
        <ele>59.170977307483554</ele>
        <time>2025-01-21T14:37:36Z</time>
      </trkpt>
      <trkpt lat="36.029654243113164" lon="119.41542786294856">
        <ele>59.23074790369719</ele>
        <time>2025-01-21T14:37:37Z</time>
      </trkpt>
      <trkpt lat="36.02962277873785" lon="119.41542947198627">
        <ele>59.27832771278918</ele>
        <time>2025-01-21T14:37:38Z</time>
      </trkpt>
      <trkpt lat="36.02959312322465" lon="119.41543368419669">
        <ele>59.28400825243443</ele>
        <time>2025-01-21T14:37:39Z</time>
      </trkpt>
      <trkpt lat="36.02956532199137" lon="119.41544031753929">
        <ele>59.30630244873464</ele>
        <time>2025-01-21T14:37:40Z</time>
      </trkpt>
      <trkpt lat="36.02953936021545" lon="119.41544980773213">
        <ele>59.31655315402895</ele>
        <time>2025-01-21T14:37:41Z</time>
      </trkpt>
      <trkpt lat="36.02951617690399" lon="119.41546096217489">
        <ele>59.28298901487142</ele>
        <time>2025-01-21T14:37:42Z</time>
      </trkpt>
      <trkpt lat="36.02949605186561" lon="119.41547131524642">
        <ele>59.264628424309194</ele>
        <time>2025-01-21T14:37:43Z</time>
      </trkpt>
      <trkpt lat="36.02947673474185" lon="119.41548007430218">
        <ele>59.22011456824839</ele>
        <time>2025-01-21T14:37:44Z</time>
      </trkpt>
      <trkpt lat="36.029458702833985" lon="119.41548773954128">
        <ele>59.15400404203683</ele>
        <time>2025-01-21T14:37:45Z</time>
      </trkpt>
      <trkpt lat="36.0294457200829" lon="119.41549501714401">
        <ele>59.06837896257639</ele>
        <time>2025-01-21T14:37:46Z</time>
      </trkpt>
      <trkpt lat="36.029440494050064" lon="119.41550290759616">
        <ele>58.969652745872736</ele>
        <time>2025-01-21T14:37:47Z</time>
      </trkpt>
      <trkpt lat="36.029445226529845" lon="119.4155106403644">
        <ele>58.85772847291082</ele>
        <time>2025-01-21T14:37:48Z</time>
      </trkpt>
      <trkpt lat="36.02945896043951" lon="119.41551509584508">
        <ele>58.760477321222425</ele>
        <time>2025-01-21T14:37:49Z</time>
      </trkpt>
      <trkpt lat="36.02947840924632" lon="119.4155178381615">
        <ele>58.666467890143394</ele>
        <time>2025-01-21T14:37:50Z</time>
      </trkpt>
      <trkpt lat="36.02950058799964" lon="119.41552397634517">
        <ele>58.53446189220995</ele>
        <time>2025-01-21T14:37:51Z</time>
      </trkpt>
      <trkpt lat="36.029521308438696" lon="119.41553661018828">
        <ele>58.36163652315736</ele>
        <time>2025-01-21T14:37:52Z</time>
      </trkpt>
      <trkpt lat="36.02953687819683" lon="119.41555517657234">
        <ele>58.235566882416606</ele>
        <time>2025-01-21T14:37:53Z</time>
      </trkpt>
      <trkpt lat="36.02954597398536" lon="119.41557717658534">
        <ele>58.15306529216468</ele>
        <time>2025-01-21T14:37:54Z</time>
      </trkpt>
      <trkpt lat="36.029549876683895" lon="119.41559918797701">
        <ele>58.06076052039862</ele>
        <time>2025-01-21T14:37:55Z</time>
      </trkpt>
      <trkpt lat="36.02955143445552" lon="119.41561822092076">
        <ele>57.99708173144609</ele>
        <time>2025-01-21T14:37:56Z</time>
      </trkpt>
      <trkpt lat="36.029552372610866" lon="119.41563225444295">
        <ele>57.92458524927497</ele>
        <time>2025-01-21T14:37:57Z</time>
      </trkpt>
      <trkpt lat="36.029551721112945" lon="119.41563974117729">
        <ele>57.871063919737935</ele>
        <time>2025-01-21T14:37:58Z</time>
      </trkpt>
      <trkpt lat="36.02954779475116" lon="119.41563799279169">
        <ele>57.83280005771667</ele>
        <time>2025-01-21T14:37:59Z</time>
      </trkpt>
      <trkpt lat="36.029540159607194" lon="119.41562520316897">
        <ele>57.7906931899488</ele>
        <time>2025-01-21T14:38:00Z</time>
      </trkpt>
      <trkpt lat="36.029530541223735" lon="119.41560287738521">
        <ele>57.815130908973515</ele>
        <time>2025-01-21T14:38:01Z</time>
      </trkpt>
      <trkpt lat="36.02952095661401" lon="119.41557577658425">
        <ele>57.84205628372729</ele>
        <time>2025-01-21T14:38:02Z</time>
      </trkpt>
      <trkpt lat="36.02951065056945" lon="119.41554978815219">
        <ele>57.88387151248753</ele>
        <time>2025-01-21T14:38:03Z</time>
      </trkpt>
      <trkpt lat="36.02949779034045" lon="119.41552822424549">
        <ele>57.943464359268546</ele>
        <time>2025-01-21T14:38:04Z</time>
      </trkpt>
      <trkpt lat="36.02948099503622" lon="119.41551174578812">
        <ele>57.99903007503599</ele>
        <time>2025-01-21T14:38:05Z</time>
      </trkpt>
      <trkpt lat="36.02945938246313" lon="119.41549977131989">
        <ele>58.10551392659545</ele>
        <time>2025-01-21T14:38:06Z</time>
      </trkpt>
      <trkpt lat="36.02943438946524" lon="119.4154926483164">
        <ele>58.190727329812944</ele>
        <time>2025-01-21T14:38:07Z</time>
      </trkpt>
      <trkpt lat="36.02940808221186" lon="119.4154904730172">
        <ele>58.27150244452059</ele>
        <time>2025-01-21T14:38:08Z</time>
      </trkpt>
      <trkpt lat="36.02938207102301" lon="119.41549212536518">
        <ele>58.348348806612194</ele>
        <time>2025-01-21T14:38:09Z</time>
      </trkpt>
      <trkpt lat="36.02935720598143" lon="119.41549662394759">
        <ele>58.409489123150706</ele>
        <time>2025-01-21T14:38:10Z</time>
      </trkpt>
      <trkpt lat="36.02933314818045" lon="119.41550387481549">
        <ele>58.48621201142669</ele>
        <time>2025-01-21T14:38:11Z</time>
      </trkpt>
      <trkpt lat="36.02930976976651" lon="119.41551352834315">
        <ele>58.55329854506999</ele>
        <time>2025-01-21T14:38:12Z</time>
      </trkpt>
      <trkpt lat="36.02928700406111" lon="119.41552487844338">
        <ele>58.617354297079146</ele>
        <time>2025-01-21T14:38:13Z</time>
      </trkpt>
      <trkpt lat="36.029263494768564" lon="119.41553769190259">
        <ele>58.67490371875465</ele>
        <time>2025-01-21T14:38:14Z</time>
      </trkpt>
      <trkpt lat="36.02923882184987" lon="119.41555042198078">
        <ele>58.74166973866522</ele>
        <time>2025-01-21T14:38:15Z</time>
      </trkpt>
      <trkpt lat="36.029213636722346" lon="119.41556144416646">
        <ele>58.80929737072438</ele>
        <time>2025-01-21T14:38:16Z</time>
      </trkpt>
      <trkpt lat="36.0291880211012" lon="119.41557148173597">
        <ele>58.851038824766874</ele>
        <time>2025-01-21T14:38:17Z</time>
      </trkpt>
      <trkpt lat="36.02916238562355" lon="119.4155817373475">
        <ele>58.85558387916535</ele>
        <time>2025-01-21T14:38:18Z</time>
      </trkpt>
      <trkpt lat="36.029137766567864" lon="119.41559345535542">
        <ele>58.872904567047954</ele>
        <time>2025-01-21T14:38:19Z</time>
      </trkpt>
      <trkpt lat="36.02911386414816" lon="119.41560778101078">
        <ele>58.93275825213641</ele>
        <time>2025-01-21T14:38:20Z</time>
      </trkpt>
      <trkpt lat="36.0290895620654" lon="119.41562417562156">
        <ele>58.96709150727838</ele>
        <time>2025-01-21T14:38:21Z</time>
      </trkpt>
      <trkpt lat="36.02906410273925" lon="119.4156418080985">
        <ele>58.9949868125841</ele>
        <time>2025-01-21T14:38:22Z</time>
      </trkpt>
      <trkpt lat="36.0290374373285" lon="119.41566023719021">
        <ele>59.04150239843875</ele>
        <time>2025-01-21T14:38:23Z</time>
      </trkpt>
      <trkpt lat="36.029010551864495" lon="119.41567835462904">
        <ele>59.10393860936165</ele>
        <time>2025-01-21T14:38:24Z</time>
      </trkpt>
      <trkpt lat="36.02898477826303" lon="119.41569525907252">
        <ele>59.17843365203589</ele>
        <time>2025-01-21T14:38:25Z</time>
      </trkpt>
      <trkpt lat="36.028960725861204" lon="119.41571168667464">
        <ele>59.22811856959015</ele>
        <time>2025-01-21T14:38:26Z</time>
      </trkpt>
      <trkpt lat="36.02893937795089" lon="119.4157282273265">
        <ele>59.290947671979666</ele>
        <time>2025-01-21T14:38:27Z</time>
      </trkpt>
      <trkpt lat="36.02892047177507" lon="119.415745202945">
        <ele>59.40569911990315</ele>
        <time>2025-01-21T14:38:28Z</time>
      </trkpt>
      <trkpt lat="36.02890191904423" lon="119.415763471764">
        <ele>59.50382866989821</ele>
        <time>2025-01-21T14:38:29Z</time>
      </trkpt>
      <trkpt lat="36.02888312142031" lon="119.41578275843847">
        <ele>59.59584002569318</ele>
        <time>2025-01-21T14:38:30Z</time>
      </trkpt>
      <trkpt lat="36.028864405745196" lon="119.41580248604144">
        <ele>59.68521665688604</ele>
        <time>2025-01-21T14:38:31Z</time>
      </trkpt>
      <trkpt lat="36.02884485559818" lon="119.41582254819147">
        <ele>59.79060515575111</ele>
        <time>2025-01-21T14:38:32Z</time>
      </trkpt>
      <trkpt lat="36.02882449703558" lon="119.41584236966622">
        <ele>59.852613762021065</ele>
        <time>2025-01-21T14:38:33Z</time>
      </trkpt>
      <trkpt lat="36.0288052801148" lon="119.4158610609253">
        <ele>59.9083301378414</ele>
        <time>2025-01-21T14:38:34Z</time>
      </trkpt>
      <trkpt lat="36.02878716727974" lon="119.41587898741867">
        <ele>59.95537781063467</ele>
        <time>2025-01-21T14:38:35Z</time>
      </trkpt>
      <trkpt lat="36.028769361353646" lon="119.41589644056177">
        <ele>59.977460116147995</ele>
        <time>2025-01-21T14:38:36Z</time>
      </trkpt>
      <trkpt lat="36.02875194702201" lon="119.41591268236692">
        <ele>59.98020005784929</ele>
        <time>2025-01-21T14:38:37Z</time>
      </trkpt>
      <trkpt lat="36.028733489651266" lon="119.41592810108301">
        <ele>59.970860838890076</ele>
        <time>2025-01-21T14:38:38Z</time>
      </trkpt>
      <trkpt lat="36.028711710888516" lon="119.41594315454586">
        <ele>59.95144622772932</ele>
        <time>2025-01-21T14:38:39Z</time>
      </trkpt>
      <trkpt lat="36.028686485029205" lon="119.41595651567519">
        <ele>59.94515152927488</ele>
        <time>2025-01-21T14:38:40Z</time>
      </trkpt>
      <trkpt lat="36.02865886789883" lon="119.41596717692433">
        <ele>59.88828308787197</ele>
        <time>2025-01-21T14:38:41Z</time>
      </trkpt>
      <trkpt lat="36.02863033428644" lon="119.41597565554552">
        <ele>59.82047452311963</ele>
        <time>2025-01-21T14:38:42Z</time>
      </trkpt>
      <trkpt lat="36.028603066047445" lon="119.4159828358372">
        <ele>59.79243509285152</ele>
        <time>2025-01-21T14:38:43Z</time>
      </trkpt>
      <trkpt lat="36.0285774986727" lon="119.41598892282587">
        <ele>59.74793046619743</ele>
        <time>2025-01-21T14:38:44Z</time>
      </trkpt>
      <trkpt lat="36.028551558620414" lon="119.41599352335125">
        <ele>59.7064702315256</ele>
        <time>2025-01-21T14:38:45Z</time>
      </trkpt>
      <trkpt lat="36.02852407214559" lon="119.4159962120077">
        <ele>59.67242344003171</ele>
        <time>2025-01-21T14:38:46Z</time>
      </trkpt>
      <trkpt lat="36.02849573850073" lon="119.4159969609554">
        <ele>59.64827436674386</ele>
        <time>2025-01-21T14:38:47Z</time>
      </trkpt>
      <trkpt lat="36.02846707509355" lon="119.41599669805048">
        <ele>59.60815379396081</ele>
        <time>2025-01-21T14:38:48Z</time>
      </trkpt>
      <trkpt lat="36.02843880959696" lon="119.41599623141992">
        <ele>59.56229535769671</ele>
        <time>2025-01-21T14:38:49Z</time>
      </trkpt>
      <trkpt lat="36.02841155493469" lon="119.41599596847912">
        <ele>59.527519246563315</ele>
        <time>2025-01-21T14:38:50Z</time>
      </trkpt>
      <trkpt lat="36.02838487856016" lon="119.41599617736034">
        <ele>59.52471758984029</ele>
        <time>2025-01-21T14:38:51Z</time>
      </trkpt>
      <trkpt lat="36.02835786406726" lon="119.41599685334731">
        <ele>59.47327832598239</ele>
        <time>2025-01-21T14:38:52Z</time>
      </trkpt>
      <trkpt lat="36.028330254134524" lon="119.4159980961658">
        <ele>59.43620910309255</ele>
        <time>2025-01-21T14:38:53Z</time>
      </trkpt>
      <trkpt lat="36.0283018539464" lon="119.41600013536971">
        <ele>59.43156316038221</ele>
        <time>2025-01-21T14:38:54Z</time>
      </trkpt>
      <trkpt lat="36.02827263857029" lon="119.41600270007821">
        <ele>59.42478016857058</ele>
        <time>2025-01-21T14:38:55Z</time>
      </trkpt>
      <trkpt lat="36.028243893348225" lon="119.41600476006197">
        <ele>59.4346459498629</ele>
        <time>2025-01-21T14:38:56Z</time>
      </trkpt>
      <trkpt lat="36.02821620471898" lon="119.41600572339416">
        <ele>59.44109259080142</ele>
        <time>2025-01-21T14:38:57Z</time>
      </trkpt>
      <trkpt lat="36.028189729215605" lon="119.4160058133533">
        <ele>59.44961804058403</ele>
        <time>2025-01-21T14:38:58Z</time>
      </trkpt>
      <trkpt lat="36.02816449505755" lon="119.41600615749101">
        <ele>59.49510800745338</ele>
        <time>2025-01-21T14:38:59Z</time>
      </trkpt>
      <trkpt lat="36.02813940451118" lon="119.41600796454772">
        <ele>59.54533334914595</ele>
        <time>2025-01-21T14:39:00Z</time>
      </trkpt>
      <trkpt lat="36.02811318634079" lon="119.41601095991955">
        <ele>59.60131697077304</ele>
        <time>2025-01-21T14:39:01Z</time>
      </trkpt>
      <trkpt lat="36.02808576805078" lon="119.4160133763125">
        <ele>59.67485703993589</ele>
        <time>2025-01-21T14:39:02Z</time>
      </trkpt>
      <trkpt lat="36.02805873270022" lon="119.4160144811702">
        <ele>59.73612943664193</ele>
        <time>2025-01-21T14:39:03Z</time>
      </trkpt>
      <trkpt lat="36.02803286310492" lon="119.41601491430151">
        <ele>59.80119443498552</ele>
        <time>2025-01-21T14:39:04Z</time>
      </trkpt>
      <trkpt lat="36.02800746691313" lon="119.41601425554406">
        <ele>59.87408779934049</ele>
        <time>2025-01-21T14:39:05Z</time>
      </trkpt>
      <trkpt lat="36.02798202745906" lon="119.416011747235">
        <ele>59.956416754983366</ele>
        <time>2025-01-21T14:39:06Z</time>
      </trkpt>
      <trkpt lat="36.02795610349896" lon="119.41600759451545">
        <ele>60.04724848084152</ele>
        <time>2025-01-21T14:39:07Z</time>
      </trkpt>
      <trkpt lat="36.02792962681498" lon="119.41600244566463">
        <ele>60.10084275715053</ele>
        <time>2025-01-21T14:39:08Z</time>
      </trkpt>
      <trkpt lat="36.02790383446985" lon="119.41599711647545">
        <ele>60.1446743812412</ele>
        <time>2025-01-21T14:39:09Z</time>
      </trkpt>
      <trkpt lat="36.027878199846135" lon="119.41599106001337">
        <ele>60.20101548079401</ele>
        <time>2025-01-21T14:39:10Z</time>
      </trkpt>
      <trkpt lat="36.02785184162102" lon="119.41598249015512">
        <ele>60.28091935068369</ele>
        <time>2025-01-21T14:39:11Z</time>
      </trkpt>
      <trkpt lat="36.02782621604317" lon="119.41597083040584">
        <ele>60.3359271902591</ele>
        <time>2025-01-21T14:39:12Z</time>
      </trkpt>
      <trkpt lat="36.02780206483452" lon="119.41595671017878">
        <ele>60.38934924546629</ele>
        <time>2025-01-21T14:39:13Z</time>
      </trkpt>
      <trkpt lat="36.027777630400834" lon="119.41594094566251">
        <ele>60.47435877285898</ele>
        <time>2025-01-21T14:39:14Z</time>
      </trkpt>
      <trkpt lat="36.02775274851175" lon="119.41592438023548">
        <ele>60.53707457147539</ele>
        <time>2025-01-21T14:39:15Z</time>
      </trkpt>
      <trkpt lat="36.0277291779868" lon="119.41590795286302">
        <ele>60.61305798590183</ele>
        <time>2025-01-21T14:39:16Z</time>
      </trkpt>
      <trkpt lat="36.027706971414474" lon="119.4158923427992">
        <ele>60.67188164964318</ele>
        <time>2025-01-21T14:39:17Z</time>
      </trkpt>
      <trkpt lat="36.02768550174514" lon="119.41587770149842">
        <ele>60.71350566856563</ele>
        <time>2025-01-21T14:39:18Z</time>
      </trkpt>
      <trkpt lat="36.02766399095667" lon="119.4158636122167">
        <ele>60.735463741235435</ele>
        <time>2025-01-21T14:39:19Z</time>
      </trkpt>
      <trkpt lat="36.02764156193314" lon="119.41584845711287">
        <ele>60.741714933887124</ele>
        <time>2025-01-21T14:39:20Z</time>
      </trkpt>
      <trkpt lat="36.02761888932209" lon="119.41583184177576">
        <ele>60.73174731340259</ele>
        <time>2025-01-21T14:39:21Z</time>
      </trkpt>
      <trkpt lat="36.02759697017889" lon="119.4158157201086">
        <ele>60.71157603804022</ele>
        <time>2025-01-21T14:39:22Z</time>
      </trkpt>
      <trkpt lat="36.02757549283247" lon="119.4158009281667">
        <ele>60.68286034092307</ele>
        <time>2025-01-21T14:39:23Z</time>
      </trkpt>
      <trkpt lat="36.027553513466415" lon="119.41578658912178">
        <ele>60.638998955488205</ele>
        <time>2025-01-21T14:39:24Z</time>
      </trkpt>
      <trkpt lat="36.02753086531887" lon="119.41577185369894">
        <ele>60.59276537131518</ele>
        <time>2025-01-21T14:39:25Z</time>
      </trkpt>
      <trkpt lat="36.02750774734855" lon="119.41575582527139">
        <ele>60.55903743673116</ele>
        <time>2025-01-21T14:39:26Z</time>
      </trkpt>
      <trkpt lat="36.0274848709344" lon="119.41573917994262">
        <ele>60.50218846369535</ele>
        <time>2025-01-21T14:39:27Z</time>
      </trkpt>
      <trkpt lat="36.0274632545338" lon="119.41572458511224">
        <ele>60.426933880895376</ele>
        <time>2025-01-21T14:39:28Z</time>
      </trkpt>
      <trkpt lat="36.027442324004504" lon="119.41571227056076">
        <ele>60.36715910676867</ele>
        <time>2025-01-21T14:39:29Z</time>
      </trkpt>
      <trkpt lat="36.02742155777475" lon="119.41570120228599">
        <ele>60.30109588429332</ele>
        <time>2025-01-21T14:39:30Z</time>
      </trkpt>
      <trkpt lat="36.02740106847007" lon="119.41569094337244">
        <ele>60.23262364603579</ele>
        <time>2025-01-21T14:39:31Z</time>
      </trkpt>
      <trkpt lat="36.027380818071556" lon="119.41568182467395">
        <ele>60.17332728859037</ele>
        <time>2025-01-21T14:39:32Z</time>
      </trkpt>
      <trkpt lat="36.02736049655488" lon="119.41567526551282">
        <ele>60.12351905182004</ele>
        <time>2025-01-21T14:39:33Z</time>
      </trkpt>
      <trkpt lat="36.02733957044501" lon="119.41567134065374">
        <ele>60.079197300598025</ele>
        <time>2025-01-21T14:39:34Z</time>
      </trkpt>
      <trkpt lat="36.02731998821077" lon="119.41566859879872">
        <ele>60.04632068891078</ele>
        <time>2025-01-21T14:39:35Z</time>
      </trkpt>
      <trkpt lat="36.02730232376596" lon="119.41566703167777">
        <ele>60.01206599920988</ele>
        <time>2025-01-21T14:39:36Z</time>
      </trkpt>
      <trkpt lat="36.02728462618149" lon="119.4156663361775">
        <ele>59.984526788815856</ele>
        <time>2025-01-21T14:39:37Z</time>
      </trkpt>
      <trkpt lat="36.02726683575475" lon="119.41566539834541">
        <ele>59.97691940702498</ele>
        <time>2025-01-21T14:39:38Z</time>
      </trkpt>
      <trkpt lat="36.02724873600074" lon="119.41566309075593">
        <ele>59.960386203601956</ele>
        <time>2025-01-21T14:39:39Z</time>
      </trkpt>
      <trkpt lat="36.027229307579056" lon="119.41565932844682">
        <ele>59.927684026770294</ele>
        <time>2025-01-21T14:39:40Z</time>
      </trkpt>
      <trkpt lat="36.027207626172185" lon="119.41565515124259">
        <ele>59.9158974820748</ele>
        <time>2025-01-21T14:39:41Z</time>
      </trkpt>
      <trkpt lat="36.027184024147864" lon="119.4156506398413">
        <ele>59.900347393006086</ele>
        <time>2025-01-21T14:39:42Z</time>
      </trkpt>
      <trkpt lat="36.02715929663851" lon="119.41564646272413">
        <ele>59.89305304735899</ele>
        <time>2025-01-21T14:39:43Z</time>
      </trkpt>
      <trkpt lat="36.02713338125802" lon="119.41564375609711">
        <ele>59.916336856782436</ele>
        <time>2025-01-21T14:39:44Z</time>
      </trkpt>
      <trkpt lat="36.02710729880337" lon="119.41564191212667">
        <ele>59.94635991752148</ele>
        <time>2025-01-21T14:39:45Z</time>
      </trkpt>
      <trkpt lat="36.02708182397899" lon="119.41563920173661">
        <ele>59.963629338890314</ele>
        <time>2025-01-21T14:39:46Z</time>
      </trkpt>
      <trkpt lat="36.02705657355039" lon="119.41563509690144">
        <ele>59.97124756872654</ele>
        <time>2025-01-21T14:39:47Z</time>
      </trkpt>
      <trkpt lat="36.02703222308068" lon="119.41563010710043">
        <ele>59.954954078421</ele>
        <time>2025-01-21T14:39:48Z</time>
      </trkpt>
      <trkpt lat="36.027009183759006" lon="119.415624901782">
        <ele>59.91219293791801</ele>
        <time>2025-01-21T14:39:49Z</time>
      </trkpt>
      <trkpt lat="36.02698581768851" lon="119.41561999812346">
        <ele>59.87090548221022</ele>
        <time>2025-01-21T14:39:50Z</time>
      </trkpt>
      <trkpt lat="36.02696082618068" lon="119.41561518742225">
        <ele>59.84511208999902</ele>
        <time>2025-01-21T14:39:51Z</time>
      </trkpt>
      <trkpt lat="36.026935393279544" lon="119.41561001108089">
        <ele>59.79702351056039</ele>
        <time>2025-01-21T14:39:52Z</time>
      </trkpt>
      <trkpt lat="36.02691129819866" lon="119.41560547697507">
        <ele>59.77034064941108</ele>
        <time>2025-01-21T14:39:53Z</time>
      </trkpt>
      <trkpt lat="36.02688778547676" lon="119.41560293968926">
        <ele>59.74284891784191</ele>
        <time>2025-01-21T14:39:54Z</time>
      </trkpt>
      <trkpt lat="36.02686312072417" lon="119.41560256684723">
        <ele>59.744094559922814</ele>
        <time>2025-01-21T14:39:55Z</time>
      </trkpt>
      <trkpt lat="36.02683728459293" lon="119.41560412150316">
        <ele>59.752410053275526</ele>
        <time>2025-01-21T14:39:56Z</time>
      </trkpt>
      <trkpt lat="36.02681062505267" lon="119.41560767358713">
        <ele>59.77394974976778</ele>
        <time>2025-01-21T14:39:57Z</time>
      </trkpt>
      <trkpt lat="36.02678414958717" lon="119.41561225956642">
        <ele>59.803950601257384</ele>
        <time>2025-01-21T14:39:58Z</time>
      </trkpt>
      <trkpt lat="36.02675928906122" lon="119.41561629077525">
        <ele>59.830316063947976</ele>
        <time>2025-01-21T14:39:59Z</time>
      </trkpt>
      <trkpt lat="36.02673545154097" lon="119.41561912998985">
        <ele>59.89873413648456</ele>
        <time>2025-01-21T14:40:00Z</time>
      </trkpt>
      <trkpt lat="36.02671188795819" lon="119.41561976790868">
        <ele>59.9486291911453</ele>
        <time>2025-01-21T14:40:01Z</time>
      </trkpt>
      <trkpt lat="36.02668967039188" lon="119.41561743946141">
        <ele>59.97149079386145</ele>
        <time>2025-01-21T14:40:02Z</time>
      </trkpt>
      <trkpt lat="36.02666957773412" lon="119.41561368510602">
        <ele>59.99462731089443</ele>
        <time>2025-01-21T14:40:03Z</time>
      </trkpt>
      <trkpt lat="36.02665089695991" lon="119.41561044962562">
        <ele>59.9896671352908</ele>
        <time>2025-01-21T14:40:04Z</time>
      </trkpt>
      <trkpt lat="36.02663393076393" lon="119.41560902835427">
        <ele>59.988470380194485</ele>
        <time>2025-01-21T14:40:05Z</time>
      </trkpt>
      <trkpt lat="36.02661921747387" lon="119.41561007054416">
        <ele>59.98546328302473</ele>
        <time>2025-01-21T14:40:06Z</time>
      </trkpt>
      <trkpt lat="36.02660666829968" lon="119.41561290834868">
        <ele>59.98542180284858</ele>
        <time>2025-01-21T14:40:07Z</time>
      </trkpt>
      <trkpt lat="36.02659740883996" lon="119.41561649728173">
        <ele>60.007636439055204</ele>
        <time>2025-01-21T14:40:08Z</time>
      </trkpt>
      <trkpt lat="36.02659372764855" lon="119.41562024040317">
        <ele>60.03259759955108</ele>
        <time>2025-01-21T14:40:09Z</time>
      </trkpt>
      <trkpt lat="36.026598449015246" lon="119.4156232321571">
        <ele>60.040120996534824</ele>
        <time>2025-01-21T14:40:10Z</time>
      </trkpt>
      <trkpt lat="36.02661305277323" lon="119.41562419965544">
        <ele>60.05225781723857</ele>
        <time>2025-01-21T14:40:11Z</time>
      </trkpt>
      <trkpt lat="36.02663615174211" lon="119.41562244425349">
        <ele>60.056840635836124</ele>
        <time>2025-01-21T14:40:12Z</time>
      </trkpt>
      <trkpt lat="36.026663070007295" lon="119.41561832771055">
        <ele>60.04942441359162</ele>
        <time>2025-01-21T14:40:13Z</time>
      </trkpt>
      <trkpt lat="36.026690024404814" lon="119.41561258999428">
        <ele>60.06996185518801</ele>
        <time>2025-01-21T14:40:14Z</time>
      </trkpt>
      <trkpt lat="36.02671696761785" lon="119.41560622146652">
        <ele>60.102591157890856</ele>
        <time>2025-01-21T14:40:15Z</time>
      </trkpt>
      <trkpt lat="36.02674331642387" lon="119.41559977493245">
        <ele>60.134060873650014</ele>
        <time>2025-01-21T14:40:16Z</time>
      </trkpt>
      <trkpt lat="36.026767827509794" lon="119.4155930718891">
        <ele>60.16741575114429</ele>
        <time>2025-01-21T14:40:17Z</time>
      </trkpt>
      <trkpt lat="36.02679141489523" lon="119.41558590187887">
        <ele>60.215867900289595</ele>
        <time>2025-01-21T14:40:18Z</time>
      </trkpt>
      <trkpt lat="36.026815537838445" lon="119.41557913357495">
        <ele>60.26261634752154</ele>
        <time>2025-01-21T14:40:19Z</time>
      </trkpt>
      <trkpt lat="36.02684029641517" lon="119.41557425393916">
        <ele>60.29321359656751</ele>
        <time>2025-01-21T14:40:20Z</time>
      </trkpt>
      <trkpt lat="36.02686602531578" lon="119.41557133336778">
        <ele>60.320793396793306</ele>
        <time>2025-01-21T14:40:21Z</time>
      </trkpt>
      <trkpt lat="36.02689260443847" lon="119.41556952466397">
        <ele>60.34668378159404</ele>
        <time>2025-01-21T14:40:22Z</time>
      </trkpt>
      <trkpt lat="36.02691878188898" lon="119.41556892329704">
        <ele>60.352299423888326</ele>
        <time>2025-01-21T14:40:23Z</time>
      </trkpt>
      <trkpt lat="36.02694420110926" lon="119.41556926751636">
        <ele>60.34967897552997</ele>
        <time>2025-01-21T14:40:24Z</time>
      </trkpt>
      <trkpt lat="36.02696929590919" lon="119.41556984001197">
        <ele>60.35067653656006</ele>
        <time>2025-01-21T14:40:25Z</time>
      </trkpt>
      <trkpt lat="36.02699350855613" lon="119.41557121232896">
        <ele>60.34709869325161</ele>
        <time>2025-01-21T14:40:26Z</time>
      </trkpt>
      <trkpt lat="36.027016235588405" lon="119.41557405401178">
        <ele>60.32172719761729</ele>
        <time>2025-01-21T14:40:27Z</time>
      </trkpt>
      <trkpt lat="36.02703806962263" lon="119.4155779244287">
        <ele>60.2870477726683</ele>
        <time>2025-01-21T14:40:28Z</time>
      </trkpt>
      <trkpt lat="36.02705993170045" lon="119.41558210757863">
        <ele>60.277318408712745</ele>
        <time>2025-01-21T14:40:29Z</time>
      </trkpt>
      <trkpt lat="36.02708253068357" lon="119.41558627438556">
        <ele>60.26852116640657</ele>
        <time>2025-01-21T14:40:30Z</time>
      </trkpt>
      <trkpt lat="36.02710628942365" lon="119.4155902241475">
        <ele>60.24922838807106</ele>
        <time>2025-01-21T14:40:31Z</time>
      </trkpt>
      <trkpt lat="36.027130461392396" lon="119.41559388453366">
        <ele>60.2470540497452</ele>
        <time>2025-01-21T14:40:32Z</time>
      </trkpt>
      <trkpt lat="36.02715340172749" lon="119.41559725630813">
        <ele>60.23929714970291</ele>
        <time>2025-01-21T14:40:33Z</time>
      </trkpt>
      <trkpt lat="36.02717562165595" lon="119.41560068360462">
        <ele>60.21499739959836</ele>
        <time>2025-01-21T14:40:34Z</time>
      </trkpt>
      <trkpt lat="36.02719844530475" lon="119.41560455287136">
        <ele>60.19733247719705</ele>
        <time>2025-01-21T14:40:35Z</time>
      </trkpt>
      <trkpt lat="36.027221688435944" lon="119.41560946167205">
        <ele>60.18905402254313</ele>
        <time>2025-01-21T14:40:36Z</time>
      </trkpt>
      <trkpt lat="36.02724484370402" lon="119.41561529160013">
        <ele>60.17943031899631</ele>
        <time>2025-01-21T14:40:37Z</time>
      </trkpt>
      <trkpt lat="36.02726840599495" lon="119.41562149214073">
        <ele>60.15840060822666</ele>
        <time>2025-01-21T14:40:38Z</time>
      </trkpt>
      <trkpt lat="36.02729206383598" lon="119.41562804268888">
        <ele>60.14040109794587</ele>
        <time>2025-01-21T14:40:39Z</time>
      </trkpt>
      <trkpt lat="36.027314617211815" lon="119.41563436419771">
        <ele>60.131745795719326</ele>
        <time>2025-01-21T14:40:40Z</time>
      </trkpt>
      <trkpt lat="36.027336560502924" lon="119.41564047799807">
        <ele>60.10452689602971</ele>
        <time>2025-01-21T14:40:41Z</time>
      </trkpt>
      <trkpt lat="36.02735889591284" lon="119.41564708748228">
        <ele>60.05987061280757</ele>
        <time>2025-01-21T14:40:42Z</time>
      </trkpt>
      <trkpt lat="36.027381213063286" lon="119.41565409149429">
        <ele>60.02739916276187</ele>
        <time>2025-01-21T14:40:43Z</time>
      </trkpt>
      <trkpt lat="36.027403378769726" lon="119.415661555015">
        <ele>60.015624477528036</ele>
        <time>2025-01-21T14:40:44Z</time>
      </trkpt>
      <trkpt lat="36.02742539696055" lon="119.41567076350479">
        <ele>60.00851091183722</ele>
        <time>2025-01-21T14:40:45Z</time>
      </trkpt>
      <trkpt lat="36.027446781767985" lon="119.41568298507416">
        <ele>60.015168687328696</ele>
        <time>2025-01-21T14:40:46Z</time>
      </trkpt>
      <trkpt lat="36.02746801434077" lon="119.41569818354579">
        <ele>60.01253259181976</ele>
        <time>2025-01-21T14:40:47Z</time>
      </trkpt>
      <trkpt lat="36.02748950690743" lon="119.41571528819227">
        <ele>59.99280096497387</ele>
        <time>2025-01-21T14:40:48Z</time>
      </trkpt>
      <trkpt lat="36.02751024922514" lon="119.41573300787523">
        <ele>59.96549306623638</ele>
        <time>2025-01-21T14:40:49Z</time>
      </trkpt>
      <trkpt lat="36.027530251895286" lon="119.41575051577261">
        <ele>59.92965284921229</ele>
        <time>2025-01-21T14:40:50Z</time>
      </trkpt>
      <trkpt lat="36.027551209828985" lon="119.41576844300843">
        <ele>59.88697917666286</ele>
        <time>2025-01-21T14:40:51Z</time>
      </trkpt>
      <trkpt lat="36.02757374216824" lon="119.4157878882787">
        <ele>59.84618039987981</ele>
        <time>2025-01-21T14:40:52Z</time>
      </trkpt>
      <trkpt lat="36.02759666497202" lon="119.41580848833631">
        <ele>59.792363157495856</ele>
        <time>2025-01-21T14:40:53Z</time>
      </trkpt>
      <trkpt lat="36.02761916525329" lon="119.41582960822467">
        <ele>59.738026146776974</ele>
        <time>2025-01-21T14:40:54Z</time>
      </trkpt>
      <trkpt lat="36.02764094186238" lon="119.41585024730226">
        <ele>59.69901170581579</ele>
        <time>2025-01-21T14:40:55Z</time>
      </trkpt>
      <trkpt lat="36.02766185791334" lon="119.41586917539757">
        <ele>59.636253867298365</ele>
        <time>2025-01-21T14:40:56Z</time>
      </trkpt>
      <trkpt lat="36.02768330415231" lon="119.41588717543121">
        <ele>59.587783405557275</ele>
        <time>2025-01-21T14:40:57Z</time>
      </trkpt>
      <trkpt lat="36.02770645190335" lon="119.41590574334492">
        <ele>59.56598697975278</ele>
        <time>2025-01-21T14:40:58Z</time>
      </trkpt>
      <trkpt lat="36.02773047858628" lon="119.41592443795496">
        <ele>59.53128026518971</ele>
        <time>2025-01-21T14:40:59Z</time>
      </trkpt>
      <trkpt lat="36.027754178644074" lon="119.41594155456643">
        <ele>59.489274815656245</ele>
        <time>2025-01-21T14:41:00Z</time>
      </trkpt>
      <trkpt lat="36.02777717860469" lon="119.41595702031695">
        <ele>59.475792148150504</ele>
        <time>2025-01-21T14:41:01Z</time>
      </trkpt>
      <trkpt lat="36.02779936676429" lon="119.41597101183274">
        <ele>59.49101725593209</ele>
        <time>2025-01-21T14:41:02Z</time>
      </trkpt>
      <trkpt lat="36.02782113714358" lon="119.41598363583587">
        <ele>59.509465149603784</ele>
        <time>2025-01-21T14:41:03Z</time>
      </trkpt>
      <trkpt lat="36.02784337997577" lon="119.41599549883179">
        <ele>59.555049519985914</ele>
        <time>2025-01-21T14:41:04Z</time>
      </trkpt>
      <trkpt lat="36.02786566192556" lon="119.41600569068314">
        <ele>59.60443902015686</ele>
        <time>2025-01-21T14:41:05Z</time>
      </trkpt>
      <trkpt lat="36.027887100451544" lon="119.41601363381558">
        <ele>59.663477659225464</ele>
        <time>2025-01-21T14:41:06Z</time>
      </trkpt>
      <trkpt lat="36.02790853712635" lon="119.41602021977546">
        <ele>59.740640751086175</ele>
        <time>2025-01-21T14:41:07Z</time>
      </trkpt>
      <trkpt lat="36.02793069946404" lon="119.41602595050833">
        <ele>59.819657230749726</ele>
        <time>2025-01-21T14:41:08Z</time>
      </trkpt>
      <trkpt lat="36.02795285308964" lon="119.41603058095716">
        <ele>59.89063605759293</ele>
        <time>2025-01-21T14:41:09Z</time>
      </trkpt>
      <trkpt lat="36.0279750236919" lon="119.41603447773886">
        <ele>59.95391535013914</ele>
        <time>2025-01-21T14:41:10Z</time>
      </trkpt>
      <trkpt lat="36.02799795610711" lon="119.41603899408908">
        <ele>60.00732054002583</ele>
        <time>2025-01-21T14:41:11Z</time>
      </trkpt>
      <trkpt lat="36.02802055825457" lon="119.41604491787496">
        <ele>60.04275158327073</ele>
        <time>2025-01-21T14:41:12Z</time>
      </trkpt>
      <trkpt lat="36.028041869031966" lon="119.41605176813707">
        <ele>60.05002103932202</ele>
        <time>2025-01-21T14:41:13Z</time>
      </trkpt>
      <trkpt lat="36.02806346330822" lon="119.4160589470467">
        <ele>60.077357184141874</ele>
        <time>2025-01-21T14:41:14Z</time>
      </trkpt>
      <trkpt lat="36.02808607620711" lon="119.41606632291716">
        <ele>60.1006359225139</ele>
        <time>2025-01-21T14:41:15Z</time>
      </trkpt>
      <trkpt lat="36.028108152969644" lon="119.41607373992991">
        <ele>60.077892950735986</ele>
        <time>2025-01-21T14:41:16Z</time>
      </trkpt>
      <trkpt lat="36.02812954636956" lon="119.4160815678917">
        <ele>60.04972863290459</ele>
        <time>2025-01-21T14:41:17Z</time>
      </trkpt>
      <trkpt lat="36.0281516153262" lon="119.416090237538">
        <ele>60.00538432877511</ele>
        <time>2025-01-21T14:41:18Z</time>
      </trkpt>
      <trkpt lat="36.028174533553305" lon="119.41609899564077">
        <ele>59.92558164149523</ele>
        <time>2025-01-21T14:41:19Z</time>
      </trkpt>
      <trkpt lat="36.02819725778126" lon="119.4161061093146">
        <ele>59.85720284283161</ele>
        <time>2025-01-21T14:41:20Z</time>
      </trkpt>
      <trkpt lat="36.02822000810709" lon="119.4161100057041">
        <ele>59.77669160440564</ele>
        <time>2025-01-21T14:41:21Z</time>
      </trkpt>
      <trkpt lat="36.028243054028614" lon="119.41611052232916">
        <ele>59.69037820305675</ele>
        <time>2025-01-21T14:41:22Z</time>
      </trkpt>
      <trkpt lat="36.02826577713751" lon="119.41610896967846">
        <ele>59.600701375864446</ele>
        <time>2025-01-21T14:41:23Z</time>
      </trkpt>
      <trkpt lat="36.028288300900336" lon="119.41610615803579">
        <ele>59.47142705973238</ele>
        <time>2025-01-21T14:41:24Z</time>
      </trkpt>
      <trkpt lat="36.02831128423454" lon="119.41610255153076">
        <ele>59.35137933306396</ele>
        <time>2025-01-21T14:41:25Z</time>
      </trkpt>
      <trkpt lat="36.02833437055209" lon="119.41609890489187">
        <ele>59.255696304142475</ele>
        <time>2025-01-21T14:41:26Z</time>
      </trkpt>
      <trkpt lat="36.02835725169678" lon="119.41609493080017">
        <ele>59.15863313525915</ele>
        <time>2025-01-21T14:41:27Z</time>
      </trkpt>
      <trkpt lat="36.02838064145384" lon="119.41608970397064">
        <ele>59.06839670240879</ele>
        <time>2025-01-21T14:41:28Z</time>
      </trkpt>
      <trkpt lat="36.028404084615524" lon="119.41608372184855">
        <ele>58.97635108418763</ele>
        <time>2025-01-21T14:41:29Z</time>
      </trkpt>
      <trkpt lat="36.02842621227324" lon="119.41607820794808">
        <ele>58.90672981645912</ele>
        <time>2025-01-21T14:41:30Z</time>
      </trkpt>
      <trkpt lat="36.0284481179637" lon="119.41607357398328">
        <ele>58.85575126670301</ele>
        <time>2025-01-21T14:41:31Z</time>
      </trkpt>
      <trkpt lat="36.02847189785328" lon="119.41606931466265">
        <ele>58.80516186449677</ele>
        <time>2025-01-21T14:41:32Z</time>
      </trkpt>
      <trkpt lat="36.02849704758019" lon="119.41606543423104">
        <ele>58.80865110922605</ele>
        <time>2025-01-21T14:41:33Z</time>
      </trkpt>
      <trkpt lat="36.02852237433495" lon="119.41606194067286">
        <ele>58.81168736703694</ele>
        <time>2025-01-21T14:41:34Z</time>
      </trkpt>
      <trkpt lat="36.02854720029817" lon="119.41605823698016">
        <ele>58.810994668863714</ele>
        <time>2025-01-21T14:41:35Z</time>
      </trkpt>
      <trkpt lat="36.02857066195866" lon="119.41605345169634">
        <ele>58.84124979469925</ele>
        <time>2025-01-21T14:41:36Z</time>
      </trkpt>
      <trkpt lat="36.028592755165846" lon="119.41604655938308">
        <ele>58.87945854756981</ele>
        <time>2025-01-21T14:41:37Z</time>
      </trkpt>
      <trkpt lat="36.028614423681475" lon="119.4160370739019">
        <ele>58.93787400145084</ele>
        <time>2025-01-21T14:41:38Z</time>
      </trkpt>
      <trkpt lat="36.028635733879526" lon="119.4160253631399">
        <ele>59.023258581757545</ele>
        <time>2025-01-21T14:41:39Z</time>
      </trkpt>
      <trkpt lat="36.02865593155287" lon="119.41601223518025">
        <ele>59.120008677244186</ele>
        <time>2025-01-21T14:41:40Z</time>
      </trkpt>
      <trkpt lat="36.02867528218049" lon="119.41599780769153">
        <ele>59.22130302898586</ele>
        <time>2025-01-21T14:41:41Z</time>
      </trkpt>
      <trkpt lat="36.02869524527895" lon="119.41598175148592">
        <ele>59.332952819764614</ele>
        <time>2025-01-21T14:41:42Z</time>
      </trkpt>
      <trkpt lat="36.02871550133429" lon="119.41596500188285">
        <ele>59.44979613646865</ele>
        <time>2025-01-21T14:41:43Z</time>
      </trkpt>
      <trkpt lat="36.02873537137806" lon="119.41594837109132">
        <ele>59.549134362488985</ele>
        <time>2025-01-21T14:41:44Z</time>
      </trkpt>
      <trkpt lat="36.02875543944666" lon="119.4159317529733">
        <ele>59.65216879732907</ele>
        <time>2025-01-21T14:41:45Z</time>
      </trkpt>
      <trkpt lat="36.02877556650623" lon="119.41591516834687">
        <ele>59.753501392900944</ele>
        <time>2025-01-21T14:41:46Z</time>
      </trkpt>
      <trkpt lat="36.028794933101814" lon="119.41589773096011">
        <ele>59.83668364956975</ele>
        <time>2025-01-21T14:41:47Z</time>
      </trkpt>
      <trkpt lat="36.028813046912646" lon="119.4158790025682">
        <ele>59.90903486870229</ele>
        <time>2025-01-21T14:41:48Z</time>
      </trkpt>
      <trkpt lat="36.02883055438716" lon="119.41585931992245">
        <ele>59.96054055634886</ele>
        <time>2025-01-21T14:41:49Z</time>
      </trkpt>
      <trkpt lat="36.02884799138546" lon="119.4158387722382">
        <ele>59.9939821427688</ele>
        <time>2025-01-21T14:41:50Z</time>
      </trkpt>
      <trkpt lat="36.02886592328453" lon="119.41581773283245">
        <ele>60.01456042472273</ele>
        <time>2025-01-21T14:41:51Z</time>
      </trkpt>
      <trkpt lat="36.028885534301935" lon="119.41579706229132">
        <ele>60.03781991172582</ele>
        <time>2025-01-21T14:41:52Z</time>
      </trkpt>
      <trkpt lat="36.028905873077875" lon="119.41577721356524">
        <ele>60.04165260773152</ele>
        <time>2025-01-21T14:41:53Z</time>
      </trkpt>
      <trkpt lat="36.02892493554545" lon="119.41575843230916">
        <ele>60.024646929465234</ele>
        <time>2025-01-21T14:41:54Z</time>
      </trkpt>
      <trkpt lat="36.028942757064854" lon="119.41574061128577">
        <ele>60.00563797168434</ele>
        <time>2025-01-21T14:41:55Z</time>
      </trkpt>
      <trkpt lat="36.028960424740795" lon="119.41572415234776">
        <ele>59.95581721235067</ele>
        <time>2025-01-21T14:41:56Z</time>
      </trkpt>
      <trkpt lat="36.02897880116509" lon="119.41570944020854">
        <ele>59.90414581913501</ele>
        <time>2025-01-21T14:41:57Z</time>
      </trkpt>
      <trkpt lat="36.0289982934667" lon="119.41569587748081">
        <ele>59.847529652528465</ele>
        <time>2025-01-21T14:41:58Z</time>
      </trkpt>
      <trkpt lat="36.029018529237426" lon="119.4156832184143">
        <ele>59.79782332200557</ele>
        <time>2025-01-21T14:41:59Z</time>
      </trkpt>
      <trkpt lat="36.02903880808324" lon="119.41567157113833">
        <ele>59.76858774200082</ele>
        <time>2025-01-21T14:42:00Z</time>
      </trkpt>
      <trkpt lat="36.029058848419794" lon="119.41565973966433">
        <ele>59.756873935461044</ele>
        <time>2025-01-21T14:42:01Z</time>
      </trkpt>
      <trkpt lat="36.029078728438165" lon="119.4156461194562">
        <ele>59.7486532619223</ele>
        <time>2025-01-21T14:42:02Z</time>
      </trkpt>
      <trkpt lat="36.02909782181281" lon="119.41563127682542">
        <ele>59.757879143580794</ele>
        <time>2025-01-21T14:42:03Z</time>
      </trkpt>
      <trkpt lat="36.02911591875664" lon="119.41561687022445">
        <ele>59.76160284969956</ele>
        <time>2025-01-21T14:42:04Z</time>
      </trkpt>
      <trkpt lat="36.02913459265433" lon="119.4156039357728">
        <ele>59.77081797737628</ele>
        <time>2025-01-21T14:42:05Z</time>
      </trkpt>
      <trkpt lat="36.02915486185599" lon="119.41559282783552">
        <ele>59.789596043527126</ele>
        <time>2025-01-21T14:42:06Z</time>
      </trkpt>
      <trkpt lat="36.02917562988432" lon="119.41558312888442">
        <ele>59.81870724260807</ele>
        <time>2025-01-21T14:42:07Z</time>
      </trkpt>
      <trkpt lat="36.02919647409709" lon="119.41557337454603">
        <ele>59.84358800947666</ele>
        <time>2025-01-21T14:42:08Z</time>
      </trkpt>
      <trkpt lat="36.029217348046735" lon="119.41556263437256">
        <ele>59.839824855327606</ele>
        <time>2025-01-21T14:42:09Z</time>
      </trkpt>
      <trkpt lat="36.029238058201955" lon="119.41555154785321">
        <ele>59.84512035083026</ele>
        <time>2025-01-21T14:42:10Z</time>
      </trkpt>
      <trkpt lat="36.029259092121585" lon="119.41554033779846">
        <ele>59.836789135821164</ele>
        <time>2025-01-21T14:42:11Z</time>
      </trkpt>
      <trkpt lat="36.02928114640531" lon="119.41552837214415">
        <ele>59.81357872765511</ele>
        <time>2025-01-21T14:42:12Z</time>
      </trkpt>
      <trkpt lat="36.029303401578154" lon="119.41551629948101">
        <ele>59.820015276782215</ele>
        <time>2025-01-21T14:42:13Z</time>
      </trkpt>
      <trkpt lat="36.029324790624706" lon="119.41550510907385">
        <ele>59.81469890102744</ele>
        <time>2025-01-21T14:42:14Z</time>
      </trkpt>
      <trkpt lat="36.02934553916469" lon="119.41549548870285">
        <ele>59.80590219050646</ele>
        <time>2025-01-21T14:42:15Z</time>
      </trkpt>
      <trkpt lat="36.02936685079213" lon="119.41548756311373">
        <ele>59.81154789868742</ele>
        <time>2025-01-21T14:42:16Z</time>
      </trkpt>
      <trkpt lat="36.02938860800943" lon="119.41548077888473">
        <ele>59.80120864044875</ele>
        <time>2025-01-21T14:42:17Z</time>
      </trkpt>
      <trkpt lat="36.02941038796519" lon="119.41547415127458">
        <ele>59.782993267290294</ele>
        <time>2025-01-21T14:42:18Z</time>
      </trkpt>
      <trkpt lat="36.02943337057284" lon="119.41546713212242">
        <ele>59.79348085913807</ele>
        <time>2025-01-21T14:42:19Z</time>
      </trkpt>
      <trkpt lat="36.02945727140873" lon="119.41546005593462">
        <ele>59.8081817207858</ele>
        <time>2025-01-21T14:42:20Z</time>
      </trkpt>
      <trkpt lat="36.029480829325074" lon="119.415453865888">
        <ele>59.81636497192085</ele>
        <time>2025-01-21T14:42:21Z</time>
      </trkpt>
      <trkpt lat="36.0295038430817" lon="119.41544900480689">
        <ele>59.84516776911914</ele>
        <time>2025-01-21T14:42:22Z</time>
      </trkpt>
      <trkpt lat="36.02952642351431" lon="119.41544525755225">
        <ele>59.888229607604444</ele>
        <time>2025-01-21T14:42:23Z</time>
      </trkpt>
      <trkpt lat="36.02954858091624" lon="119.41544252536666">
        <ele>59.91906602215022</ele>
        <time>2025-01-21T14:42:24Z</time>
      </trkpt>
      <trkpt lat="36.02957196300193" lon="119.41544037378307">
        <ele>59.96161204576492</ele>
        <time>2025-01-21T14:42:25Z</time>
      </trkpt>
      <trkpt lat="36.02959722636605" lon="119.41543835028733">
        <ele>60.01148250885308</ele>
        <time>2025-01-21T14:42:26Z</time>
      </trkpt>
      <trkpt lat="36.02962276909052" lon="119.41543754512355">
        <ele>60.0258729737252</ele>
        <time>2025-01-21T14:42:27Z</time>
      </trkpt>
      <trkpt lat="36.029647738844744" lon="119.41543925919156">
        <ele>60.02865976281464</ele>
        <time>2025-01-21T14:42:28Z</time>
      </trkpt>
      <trkpt lat="36.029673329333356" lon="119.41544396451532">
        <ele>60.02181826625019</ele>
        <time>2025-01-21T14:42:29Z</time>
      </trkpt>
      <trkpt lat="36.029699628844014" lon="119.41545150796698">
        <ele>60.027156746946275</ele>
        <time>2025-01-21T14:42:30Z</time>
      </trkpt>
      <trkpt lat="36.0297251691377" lon="119.41546049103184">
        <ele>60.02568144071847</ele>
        <time>2025-01-21T14:42:31Z</time>
      </trkpt>
      <trkpt lat="36.029750397660536" lon="119.41546977150011">
        <ele>60.01942400448024</ele>
        <time>2025-01-21T14:42:32Z</time>
      </trkpt>
      <trkpt lat="36.02977617360034" lon="119.4154791342249">
        <ele>60.009983049705625</ele>
        <time>2025-01-21T14:42:33Z</time>
      </trkpt>
      <trkpt lat="36.02980170373201" lon="119.4154886486319">
        <ele>60.026151028461754</ele>
        <time>2025-01-21T14:42:34Z</time>
      </trkpt>
      <trkpt lat="36.029825941280386" lon="119.4154982179946">
        <ele>60.033355079591274</ele>
        <time>2025-01-21T14:42:35Z</time>
      </trkpt>
      <trkpt lat="36.02984942992548" lon="119.41550756529244">
        <ele>60.01990910992026</ele>
        <time>2025-01-21T14:42:36Z</time>
      </trkpt>
      <trkpt lat="36.0298727900053" lon="119.41551713446783">
        <ele>59.986013050191104</ele>
        <time>2025-01-21T14:42:37Z</time>
      </trkpt>
      <trkpt lat="36.0298954373082" lon="119.41552747653806">
        <ele>59.94917026627809</ele>
        <time>2025-01-21T14:42:38Z</time>
      </trkpt>
      <trkpt lat="36.029916633091894" lon="119.41553902134807">
        <ele>59.91046517342329</ele>
        <time>2025-01-21T14:42:39Z</time>
      </trkpt>
      <trkpt lat="36.029936548367466" lon="119.415551759018">
        <ele>59.898949513211846</ele>
        <time>2025-01-21T14:42:40Z</time>
      </trkpt>
      <trkpt lat="36.029955690006894" lon="119.4155649197432">
        <ele>59.89164817612618</ele>
        <time>2025-01-21T14:42:41Z</time>
      </trkpt>
      <trkpt lat="36.02997554844404" lon="119.41557854472121">
        <ele>59.87591960094869</ele>
        <time>2025-01-21T14:42:42Z</time>
      </trkpt>
      <trkpt lat="36.029997122091245" lon="119.41559294663858">
        <ele>59.883296363055706</ele>
        <time>2025-01-21T14:42:43Z</time>
      </trkpt>
      <trkpt lat="36.030019269715496" lon="119.4156075423634">
        <ele>59.90456298645586</ele>
        <time>2025-01-21T14:42:44Z</time>
      </trkpt>
      <trkpt lat="36.03004081535128" lon="119.41562152854146">
        <ele>59.912845915183425</ele>
        <time>2025-01-21T14:42:45Z</time>
      </trkpt>
      <trkpt lat="36.03006178344673" lon="119.41563435634207">
        <ele>59.96968136355281</ele>
        <time>2025-01-21T14:42:46Z</time>
      </trkpt>
      <trkpt lat="36.03008251156894" lon="119.41564612569057">
        <ele>60.02136829122901</ele>
        <time>2025-01-21T14:42:47Z</time>
      </trkpt>
      <trkpt lat="36.030103093832984" lon="119.41565636773747">
        <ele>60.04768466390669</ele>
        <time>2025-01-21T14:42:48Z</time>
      </trkpt>
      <trkpt lat="36.030124261254386" lon="119.4156655959934">
        <ele>60.10742490179837</ele>
        <time>2025-01-21T14:42:49Z</time>
      </trkpt>
      <trkpt lat="36.030146464518424" lon="119.41567505808804">
        <ele>60.186083966866136</ele>
        <time>2025-01-21T14:42:50Z</time>
      </trkpt>
      <trkpt lat="36.030169093772585" lon="119.41568456350537">
        <ele>60.22211923729628</ele>
        <time>2025-01-21T14:42:51Z</time>
      </trkpt>
      <trkpt lat="36.030191808100604" lon="119.41569365012428">
        <ele>60.326970832422376</ele>
        <time>2025-01-21T14:42:52Z</time>
      </trkpt>
      <trkpt lat="36.03021492102643" lon="119.41570245453426">
        <ele>60.404421837069094</ele>
        <time>2025-01-21T14:42:53Z</time>
      </trkpt>
      <trkpt lat="36.03023833807281" lon="119.41571175408475">
        <ele>60.446481372229755</ele>
        <time>2025-01-21T14:42:54Z</time>
      </trkpt>
      <trkpt lat="36.03026143814134" lon="119.41572126438433">
        <ele>60.524042702279985</ele>
        <time>2025-01-21T14:42:55Z</time>
      </trkpt>
      <trkpt lat="36.03028436763093" lon="119.41573026932191">
        <ele>60.57717194221914</ele>
        <time>2025-01-21T14:42:56Z</time>
      </trkpt>
      <trkpt lat="36.030307448848895" lon="119.41573927847283">
        <ele>60.606366007588804</ele>
        <time>2025-01-21T14:42:57Z</time>
      </trkpt>
      <trkpt lat="36.030330485163894" lon="119.41574859732394">
        <ele>60.65296003874391</ele>
        <time>2025-01-21T14:42:58Z</time>
      </trkpt>
      <trkpt lat="36.03035421821378" lon="119.41575699353437">
        <ele>60.70370124466717</ele>
        <time>2025-01-21T14:42:59Z</time>
      </trkpt>
      <trkpt lat="36.03037955345481" lon="119.41576310088959">
        <ele>60.72719371970743</ele>
        <time>2025-01-21T14:43:00Z</time>
      </trkpt>
      <trkpt lat="36.03040480667369" lon="119.41576697238028">
        <ele>60.77292699366808</ele>
        <time>2025-01-21T14:43:01Z</time>
      </trkpt>
      <trkpt lat="36.03042841366441" lon="119.41576886005677">
        <ele>60.81016619876027</ele>
        <time>2025-01-21T14:43:02Z</time>
      </trkpt>
      <trkpt lat="36.0304507935315" lon="119.4157688448401">
        <ele>60.84266551863402</ele>
        <time>2025-01-21T14:43:03Z</time>
      </trkpt>
      <trkpt lat="36.030472220084945" lon="119.41576814120994">
        <ele>60.85921897832304</ele>
        <time>2025-01-21T14:43:04Z</time>
      </trkpt>
      <trkpt lat="36.03049217655116" lon="119.41576802083188">
        <ele>60.84569497592747</ele>
        <time>2025-01-21T14:43:05Z</time>
      </trkpt>
      <trkpt lat="36.030511456002735" lon="119.41576960396964">
        <ele>60.828163305297494</ele>
        <time>2025-01-21T14:43:06Z</time>
      </trkpt>
      <trkpt lat="36.030531216069875" lon="119.41577337922548">
        <ele>60.809196174144745</ele>
        <time>2025-01-21T14:43:07Z</time>
      </trkpt>
      <trkpt lat="36.03055054981752" lon="119.41578038816712">
        <ele>60.75940160546452</ele>
        <time>2025-01-21T14:43:08Z</time>
      </trkpt>
      <trkpt lat="36.03056765133519" lon="119.41579162744073">
        <ele>60.71859127935022</ele>
        <time>2025-01-21T14:43:09Z</time>
      </trkpt>
      <trkpt lat="36.03058219107955" lon="119.41580734258052">
        <ele>60.65958895999938</ele>
        <time>2025-01-21T14:43:10Z</time>
      </trkpt>
      <trkpt lat="36.03059132417431" lon="119.41582706421616">
        <ele>60.574337512254715</ele>
        <time>2025-01-21T14:43:11Z</time>
      </trkpt>
      <trkpt lat="36.03059198087091" lon="119.41584887316165">
        <ele>60.49064850155264</ele>
        <time>2025-01-21T14:43:12Z</time>
      </trkpt>
      <trkpt lat="36.03058596477577" lon="119.41587110107847">
        <ele>60.391020589508116</ele>
        <time>2025-01-21T14:43:13Z</time>
      </trkpt>
      <trkpt lat="36.03057775395015" lon="119.41589643979029">
        <ele>60.27639072667807</ele>
        <time>2025-01-21T14:43:14Z</time>
      </trkpt>
      <trkpt lat="36.03057096002621" lon="119.41592718502972">
        <ele>60.153963533230126</ele>
        <time>2025-01-21T14:43:15Z</time>
      </trkpt>
      <trkpt lat="36.03056657025051" lon="119.41596043898377">
        <ele>60.01895616110414</ele>
        <time>2025-01-21T14:43:16Z</time>
      </trkpt>
      <trkpt lat="36.030564946329584" lon="119.41599253320165">
        <ele>59.884728255681694</ele>
        <time>2025-01-21T14:43:17Z</time>
      </trkpt>
      <trkpt lat="36.0305664492798" lon="119.41602273460559">
        <ele>59.753259350545704</ele>
        <time>2025-01-21T14:43:18Z</time>
      </trkpt>
      <trkpt lat="36.03057021121535" lon="119.41605341024439">
        <ele>59.619934416376054</ele>
        <time>2025-01-21T14:43:19Z</time>
      </trkpt>
      <trkpt lat="36.03057434606695" lon="119.41608399734157">
        <ele>59.49184026103467</ele>
        <time>2025-01-21T14:43:20Z</time>
      </trkpt>
      <trkpt lat="36.03057765891787" lon="119.41611274263632">
        <ele>59.35163168422878</ele>
        <time>2025-01-21T14:43:21Z</time>
      </trkpt>
      <trkpt lat="36.03057983809553" lon="119.41614078794092">
        <ele>59.21788201760501</ele>
        <time>2025-01-21T14:43:22Z</time>
      </trkpt>
      <trkpt lat="36.03058080982522" lon="119.41616925442622">
        <ele>59.09352426044643</ele>
        <time>2025-01-21T14:43:23Z</time>
      </trkpt>
      <trkpt lat="36.030580903917986" lon="119.41619723325718">
        <ele>58.977093022316694</ele>
        <time>2025-01-21T14:43:24Z</time>
      </trkpt>
      <trkpt lat="36.030580454156876" lon="119.41622388146028">
        <ele>58.858907205983996</ele>
        <time>2025-01-21T14:43:25Z</time>
      </trkpt>
      <trkpt lat="36.030579829069154" lon="119.41624927615202">
        <ele>58.74607815872878</ele>
        <time>2025-01-21T14:43:26Z</time>
      </trkpt>
      <trkpt lat="36.030579044368714" lon="119.4162734852817">
        <ele>58.626282850280404</ele>
        <time>2025-01-21T14:43:27Z</time>
      </trkpt>
      <trkpt lat="36.030576975232385" lon="119.41629468368939">
        <ele>58.518104444257915</ele>
        <time>2025-01-21T14:43:28Z</time>
      </trkpt>
      <trkpt lat="36.03057174133247" lon="119.41630883220856">
        <ele>58.41822809353471</ele>
        <time>2025-01-21T14:43:29Z</time>
      </trkpt>
      <trkpt lat="36.03056281915701" lon="119.41630956194622">
        <ele>58.33091780077666</ele>
        <time>2025-01-21T14:43:30Z</time>
      </trkpt>
      <trkpt lat="36.03055431817092" lon="119.41629359133158">
        <ele>58.24408066179603</ele>
        <time>2025-01-21T14:43:31Z</time>
      </trkpt>
      <trkpt lat="36.03055041645128" lon="119.41626629025134">
        <ele>58.16878645122051</ele>
        <time>2025-01-21T14:43:32Z</time>
      </trkpt>
      <trkpt lat="36.030550107385665" lon="119.41623609373268">
        <ele>58.10342131461948</ele>
        <time>2025-01-21T14:43:33Z</time>
      </trkpt>
      <trkpt lat="36.03055099947109" lon="119.4162061335088">
        <ele>58.0568317277357</ele>
        <time>2025-01-21T14:43:34Z</time>
      </trkpt>
      <trkpt lat="36.03055203433144" lon="119.41617596238981">
        <ele>58.02888693474233</ele>
        <time>2025-01-21T14:43:35Z</time>
      </trkpt>
      <trkpt lat="36.030553126414745" lon="119.41614563403277">
        <ele>58.018798409961164</ele>
        <time>2025-01-21T14:43:36Z</time>
      </trkpt>
      <trkpt lat="36.030554363746674" lon="119.41611604103423">
        <ele>58.026825189590454</ele>
        <time>2025-01-21T14:43:37Z</time>
      </trkpt>
      <trkpt lat="36.03055604314017" lon="119.41608937280579">
        <ele>58.07376427296549</ele>
        <time>2025-01-21T14:43:38Z</time>
      </trkpt>
      <trkpt lat="36.03055753134029" lon="119.41606532149224">
        <ele>58.14493009354919</ele>
        <time>2025-01-21T14:43:39Z</time>
      </trkpt>
      <trkpt lat="36.03055864895386" lon="119.41604166727242">
        <ele>58.21757690887898</ele>
        <time>2025-01-21T14:43:40Z</time>
      </trkpt>
      <trkpt lat="36.030559306832686" lon="119.4160183162982">
        <ele>58.31595052219927</ele>
        <time>2025-01-21T14:43:41Z</time>
      </trkpt>
      <trkpt lat="36.030559480785705" lon="119.41599485226499">
        <ele>58.43611708562821</ele>
        <time>2025-01-21T14:43:42Z</time>
      </trkpt>
      <trkpt lat="36.030559889930196" lon="119.41597089013179">
        <ele>58.56992776039988</ele>
        <time>2025-01-21T14:43:43Z</time>
      </trkpt>
      <trkpt lat="36.03056056677564" lon="119.41594298530725">
        <ele>58.721503634005785</ele>
        <time>2025-01-21T14:43:44Z</time>
      </trkpt>
      <trkpt lat="36.030560562163096" lon="119.41591447959614">
        <ele>58.88514654152095</ele>
        <time>2025-01-21T14:43:45Z</time>
      </trkpt>
      <trkpt lat="36.03055924283538" lon="119.41588969101676">
        <ele>59.05314401630312</ele>
        <time>2025-01-21T14:43:46Z</time>
      </trkpt>
      <trkpt lat="36.03055678829691" lon="119.4158654971355">
        <ele>59.22767206840217</ele>
        <time>2025-01-21T14:43:47Z</time>
      </trkpt>
      <trkpt lat="36.030554024543264" lon="119.41583714071751">
        <ele>59.41183614358306</ele>
        <time>2025-01-21T14:43:48Z</time>
      </trkpt>
      <trkpt lat="36.03055190969285" lon="119.41580250155026">
        <ele>59.602321645244956</ele>
        <time>2025-01-21T14:43:49Z</time>
      </trkpt>
      <trkpt lat="36.03055132010557" lon="119.41576563969608">
        <ele>59.776816927827895</ele>
        <time>2025-01-21T14:43:50Z</time>
      </trkpt>
      <trkpt lat="36.030552275229915" lon="119.41572844213319">
        <ele>59.94311728514731</ele>
        <time>2025-01-21T14:43:51Z</time>
      </trkpt>
      <trkpt lat="36.0305536421326" lon="119.41569108741938">
        <ele>60.08406706806272</ele>
        <time>2025-01-21T14:43:52Z</time>
      </trkpt>
      <trkpt lat="36.03055429131239" lon="119.41565511679784">
        <ele>60.21484934166074</ele>
        <time>2025-01-21T14:43:53Z</time>
      </trkpt>
      <trkpt lat="36.03055360020576" lon="119.41562108166923">
        <ele>60.34244217630476</ele>
        <time>2025-01-21T14:43:54Z</time>
      </trkpt>
      <trkpt lat="36.03055147695304" lon="119.41558732453377">
        <ele>60.45996651425958</ele>
        <time>2025-01-21T14:43:55Z</time>
      </trkpt>
      <trkpt lat="36.03054877029278" lon="119.4155534506513">
        <ele>60.56487631984055</ele>
        <time>2025-01-21T14:43:56Z</time>
      </trkpt>
      <trkpt lat="36.030547168872125" lon="119.41552064044762">
        <ele>60.65350914839655</ele>
        <time>2025-01-21T14:43:57Z</time>
      </trkpt>
      <trkpt lat="36.030547326024795" lon="119.41548827721957">
        <ele>60.72782609704882</ele>
        <time>2025-01-21T14:43:58Z</time>
      </trkpt>
      <trkpt lat="36.0305480283669" lon="119.41545597504422">
        <ele>60.79444817081094</ele>
        <time>2025-01-21T14:43:59Z</time>
      </trkpt>
      <trkpt lat="36.03054811809527" lon="119.41542482965112">
        <ele>60.850431679748</ele>
        <time>2025-01-21T14:44:00Z</time>
      </trkpt>
      <trkpt lat="36.03054768983429" lon="119.41539413930842">
        <ele>60.89738962613046</ele>
        <time>2025-01-21T14:44:01Z</time>
      </trkpt>
      <trkpt lat="36.030547082825905" lon="119.4153632884381">
        <ele>60.93728977814317</ele>
        <time>2025-01-21T14:44:02Z</time>
      </trkpt>
      <trkpt lat="36.03054630160788" lon="119.41533389496526">
        <ele>60.97203243803233</ele>
        <time>2025-01-21T14:44:03Z</time>
      </trkpt>
      <trkpt lat="36.03054569978216" lon="119.4153056235319">
        <ele>61.003056607209146</ele>
        <time>2025-01-21T14:44:04Z</time>
      </trkpt>
      <trkpt lat="36.030545603982155" lon="119.41527584213364">
        <ele>61.031320525333285</ele>
        <time>2025-01-21T14:44:05Z</time>
      </trkpt>
      <trkpt lat="36.03054590188603" lon="119.41524539456688">
        <ele>61.05758879892528</ele>
        <time>2025-01-21T14:44:06Z</time>
      </trkpt>
      <trkpt lat="36.030546867133204" lon="119.41521721917577">
        <ele>61.08258615992963</ele>
        <time>2025-01-21T14:44:07Z</time>
      </trkpt>
      <trkpt lat="36.03054865867674" lon="119.41519239690523">
        <ele>61.106960284523666</ele>
        <time>2025-01-21T14:44:08Z</time>
      </trkpt>
    </trkseg>
  </trk>
</gpx>