<?xml version="1.0" encoding="UTF-8"?>
<gpx xmlns="http://www.topografix.com/GPX/1/1" xmlns:gpxtpx="http://www.garmin.com/xmlschemas/TrackPointExtension/v1" xmlns:xsi="http://www.w3.org/2001/XMLSchema-instance" xsi:schemaLocation="http://www.topografix.com/GPX/1/1 http://www.topografix.com/GPX/1/1/gpx.xsd" version="1.1" creator="gpx.py -- https://github.com/tkrajina/gpxpy">
  <trk>
    <name>gpx from keep</name>
    <type>Run</type>
    <trkseg>
      <trkpt lat="31.174982896868936" lon="121.46389905382577">
        <ele>8.027259076945484</ele>
        <time>2024-07-03T11:26:49Z</time>
      </trkpt>
      <trkpt lat="31.175198136577603" lon="121.46386180996775">
        <ele>9.996951282024384</ele>
        <time>2024-07-03T11:26:58Z</time>
      </trkpt>
      <trkpt lat="31.175281844997027" lon="121.46377244907502">
        <ele>10.69209809601307</ele>
        <time>2024-07-03T11:27:01Z</time>
      </trkpt>
      <trkpt lat="31.175351764431078" lon="121.46372544222982">
        <ele>8.060779569670558</ele>
        <time>2024-07-03T11:27:04Z</time>
      </trkpt>
      <trkpt lat="31.175667123345036" lon="121.46366884698443">
        <ele>8.518545270897448</ele>
        <time>2024-07-03T11:27:22Z</time>
      </trkpt>
      <trkpt lat="31.175753992513666" lon="121.46364929524206">
        <ele>8.669723465107381</ele>
        <time>2024-07-03T11:27:28Z</time>
      </trkpt>
      <trkpt lat="31.175777776653195" lon="121.46370076119554">
        <ele>10.931498610414565</ele>
        <time>2024-07-03T11:27:31Z</time>
      </trkpt>
      <trkpt lat="31.175829086081205" lon="121.46374931293109">
        <ele>10.384564050473273</ele>
        <time>2024-07-03T11:27:37Z</time>
      </trkpt>
      <trkpt lat="31.175985239627096" lon="121.46363065243742">
        <ele>10.936154250055552</ele>
        <time>2024-07-03T11:27:49Z</time>
      </trkpt>
      <trkpt lat="31.176016608859296" lon="121.46359083874034">
        <ele>10.500063676387072</ele>
        <time>2024-07-03T11:27:52Z</time>
      </trkpt>
      <trkpt lat="31.176064956094905" lon="121.4635648573883">
        <ele>9.645996125414968</ele>
        <time>2024-07-03T11:27:55Z</time>
      </trkpt>
      <trkpt lat="31.176209058323515" lon="121.46354722059242">
        <ele>8.544624763540924</ele>
        <time>2024-07-03T11:28:07Z</time>
      </trkpt>
      <trkpt lat="31.17648644717702" lon="121.46346349295173">
        <ele>10.159111359156668</ele>
        <time>2024-07-03T11:28:29Z</time>
      </trkpt>
      <trkpt lat="31.176845807799218" lon="121.463410923716">
        <ele>10.981794905848801</ele>
        <time>2024-07-03T11:28:44Z</time>
      </trkpt>
      <trkpt lat="31.176947286973196" lon="121.46338639709181">
        <ele>12.228521228767931</ele>
        <time>2024-07-03T11:28:47Z</time>
      </trkpt>
      <trkpt lat="31.177053205214353" lon="121.46338656578736">
        <ele>13.52594004292041</ele>
        <time>2024-07-03T11:28:50Z</time>
      </trkpt>
      <trkpt lat="31.17715438777646" lon="121.46334588943752">
        <ele>13.670580783858895</ele>
        <time>2024-07-03T11:28:53Z</time>
      </trkpt>
      <trkpt lat="31.177480863111466" lon="121.4633309972816">
        <ele>18.050727212801576</ele>
        <time>2024-07-03T11:29:02Z</time>
      </trkpt>
      <trkpt lat="31.17757519380547" lon="121.46329450525748">
        <ele>17.898734655231237</ele>
        <time>2024-07-03T11:29:05Z</time>
      </trkpt>
      <trkpt lat="31.17776780246399" lon="121.4633023260244">
        <ele>20.03697708528489</ele>
        <time>2024-07-03T11:29:11Z</time>
      </trkpt>
      <trkpt lat="31.177836222590535" lon="121.4632897184603">
        <ele>18.589775685220957</ele>
        <time>2024-07-03T11:29:14Z</time>
      </trkpt>
      <trkpt lat="31.177989199214604" lon="121.46339941740118">
        <ele>21.308394429273903</ele>
        <time>2024-07-03T11:29:20Z</time>
      </trkpt>
      <trkpt lat="31.178054276736074" lon="121.46347500180603">
        <ele>20.169068541377783</ele>
        <time>2024-07-03T11:29:23Z</time>
      </trkpt>
      <trkpt lat="31.1782263716678" lon="121.46354613555141">
        <ele>16.611068022437394</ele>
        <time>2024-07-03T11:29:29Z</time>
      </trkpt>
      <trkpt lat="31.17828257374778" lon="121.46361207050643">
        <ele>17.249512775801122</ele>
        <time>2024-07-03T11:29:32Z</time>
      </trkpt>
      <trkpt lat="31.178438319789123" lon="121.46369629565413">
        <ele>16.383145317435265</ele>
        <time>2024-07-03T11:29:38Z</time>
      </trkpt>
      <trkpt lat="31.178491339707215" lon="121.46378719963089">
        <ele>19.228080485016108</ele>
        <time>2024-07-03T11:29:41Z</time>
      </trkpt>
      <trkpt lat="31.178644079162822" lon="121.46381327483823">
        <ele>20.249312208034098</ele>
        <time>2024-07-03T11:29:47Z</time>
      </trkpt>
      <trkpt lat="31.17874733851971" lon="121.46386803637891">
        <ele>16.890201066620648</ele>
        <time>2024-07-03T11:29:53Z</time>
      </trkpt>
      <trkpt lat="31.17894497639454" lon="121.46389576980495">
        <ele>11.384450544603169</ele>
        <time>2024-07-03T11:30:02Z</time>
      </trkpt>
      <trkpt lat="31.17905013204439" lon="121.46387622895307">
        <ele>11.004440505057573</ele>
        <time>2024-07-03T11:30:05Z</time>
      </trkpt>
      <trkpt lat="31.179131200863946" lon="121.46389573785113">
        <ele>13.417223560623825</ele>
        <time>2024-07-03T11:30:08Z</time>
      </trkpt>
      <trkpt lat="31.17927966891211" lon="121.46385149538092">
        <ele>14.4849524917081</ele>
        <time>2024-07-03T11:30:14Z</time>
      </trkpt>
      <trkpt lat="31.179411947875685" lon="121.46369841580731">
        <ele>13.179406340233982</ele>
        <time>2024-07-03T11:30:21Z</time>
      </trkpt>
      <trkpt lat="31.179453483021447" lon="121.46360751545166">
        <ele>13.09813470300287</ele>
        <time>2024-07-03T11:30:24Z</time>
      </trkpt>
      <trkpt lat="31.179539196727642" lon="121.4635802879286">
        <ele>14.181965672411025</ele>
        <time>2024-07-03T11:30:27Z</time>
      </trkpt>
      <trkpt lat="31.17961317578375" lon="121.46357756205168">
        <ele>15.143080737441778</ele>
        <time>2024-07-03T11:30:30Z</time>
      </trkpt>
      <trkpt lat="31.17969278450985" lon="121.46365962407266">
        <ele>15.454977146349847</ele>
        <time>2024-07-03T11:30:33Z</time>
      </trkpt>
      <trkpt lat="31.17978194551096" lon="121.46365870645927">
        <ele>16.609934628009796</ele>
        <time>2024-07-03T11:30:36Z</time>
      </trkpt>
      <trkpt lat="31.179834445449384" lon="121.46363847920992">
        <ele>16.142971481196582</ele>
        <time>2024-07-03T11:30:39Z</time>
      </trkpt>
      <trkpt lat="31.180063932170235" lon="121.46368443479741">
        <ele>17.62272041849792</ele>
        <time>2024-07-03T11:30:45Z</time>
      </trkpt>
      <trkpt lat="31.180128146856898" lon="121.46363421933341">
        <ele>17.371568758040667</ele>
        <time>2024-07-03T11:30:48Z</time>
      </trkpt>
      <trkpt lat="31.18042925059748" lon="121.46372610548362">
        <ele>12.057865422219038</ele>
        <time>2024-07-03T11:31:00Z</time>
      </trkpt>
      <trkpt lat="31.180501818424798" lon="121.46375873063135">
        <ele>13.12454732041806</ele>
        <time>2024-07-03T11:31:03Z</time>
      </trkpt>
      <trkpt lat="31.180609134482918" lon="121.46377867558364">
        <ele>12.780338367447257</ele>
        <time>2024-07-03T11:31:09Z</time>
      </trkpt>
      <trkpt lat="31.180748341894" lon="121.46386994476839">
        <ele>13.251918193884194</ele>
        <time>2024-07-03T11:31:15Z</time>
      </trkpt>
      <trkpt lat="31.18090569356826" lon="121.46390409007682">
        <ele>14.779526849277318</ele>
        <time>2024-07-03T11:31:21Z</time>
      </trkpt>
      <trkpt lat="31.18117545767615" lon="121.46411693478487">
        <ele>16.197362285107374</ele>
        <time>2024-07-03T11:31:33Z</time>
      </trkpt>
      <trkpt lat="31.18126189411001" lon="121.46413503614062">
        <ele>16.266273233108222</ele>
        <time>2024-07-03T11:31:36Z</time>
      </trkpt>
      <trkpt lat="31.18136125465299" lon="121.46412878086343">
        <ele>17.225823985412717</ele>
        <time>2024-07-03T11:31:39Z</time>
      </trkpt>
      <trkpt lat="31.181455689859323" lon="121.46415009898402">
        <ele>15.985765632241964</ele>
        <time>2024-07-03T11:31:42Z</time>
      </trkpt>
      <trkpt lat="31.18152687051061" lon="121.4641973834311">
        <ele>15.520250491797924</ele>
        <time>2024-07-03T11:31:45Z</time>
      </trkpt>
      <trkpt lat="31.181546521859765" lon="121.46425247881963">
        <ele>14.698817994445562</ele>
        <time>2024-07-03T11:31:51Z</time>
      </trkpt>
      <trkpt lat="31.181537100095326" lon="121.46445286793762">
        <ele>14.381385180167854</ele>
        <time>2024-07-03T11:31:57Z</time>
      </trkpt>
      <trkpt lat="31.181714648475232" lon="121.46466273614152">
        <ele>14.078044462949038</ele>
        <time>2024-07-03T11:32:06Z</time>
      </trkpt>
      <trkpt lat="31.18171878218444" lon="121.46480298495308">
        <ele>14.308757034130394</ele>
        <time>2024-07-03T11:32:15Z</time>
      </trkpt>
      <trkpt lat="31.181766344194166" lon="121.46489804362929">
        <ele>14.373942844569683</ele>
        <time>2024-07-03T11:32:18Z</time>
      </trkpt>
      <trkpt lat="31.181859798889118" lon="121.46481744203977">
        <ele>12.858246767893434</ele>
        <time>2024-07-03T11:32:21Z</time>
      </trkpt>
      <trkpt lat="31.18192700572625" lon="121.46487877708148">
        <ele>13.675241369754076</ele>
        <time>2024-07-03T11:32:25Z</time>
      </trkpt>
      <trkpt lat="31.181981924070538" lon="121.46488028398544">
        <ele>15.20043167565018</ele>
        <time>2024-07-03T11:32:28Z</time>
      </trkpt>
      <trkpt lat="31.182140824362474" lon="121.46482392371303">
        <ele>11.81041156500578</ele>
        <time>2024-07-03T11:32:37Z</time>
      </trkpt>
      <trkpt lat="31.182223802757544" lon="121.46482403629716">
        <ele>12.437019770033658</ele>
        <time>2024-07-03T11:32:40Z</time>
      </trkpt>
      <trkpt lat="31.182312878025662" lon="121.46486657866352">
        <ele>9.187915093265474</ele>
        <time>2024-07-03T11:32:46Z</time>
      </trkpt>
      <trkpt lat="31.18234343489544" lon="121.4652754319454">
        <ele>5.561220545321703</ele>
        <time>2024-07-03T11:33:13Z</time>
      </trkpt>
      <trkpt lat="31.182377148959038" lon="121.46536056568544">
        <ele>3.856813690625131</ele>
        <time>2024-07-03T11:33:19Z</time>
      </trkpt>
      <trkpt lat="31.182466006968568" lon="121.46542585666464">
        <ele>5.954500109888613</ele>
        <time>2024-07-03T11:33:25Z</time>
      </trkpt>
      <trkpt lat="31.18254972048694" lon="121.46555320580438">
        <ele>6.0060757007449865</ele>
        <time>2024-07-03T11:33:31Z</time>
      </trkpt>
      <trkpt lat="31.182642707589014" lon="121.46557791771345">
        <ele>6.655293814837933</ele>
        <time>2024-07-03T11:33:34Z</time>
      </trkpt>
      <trkpt lat="31.182665827358754" lon="121.46569104808485">
        <ele>7.175615861080587</ele>
        <time>2024-07-03T11:33:37Z</time>
      </trkpt>
      <trkpt lat="31.182874849708192" lon="121.46582396725266">
        <ele>9.944365739822388</ele>
        <time>2024-07-03T11:33:43Z</time>
      </trkpt>
      <trkpt lat="31.183160839200593" lon="121.46592126160598">
        <ele>11.740154569968581</ele>
        <time>2024-07-03T11:33:52Z</time>
      </trkpt>
      <trkpt lat="31.183269639399246" lon="121.46599535229286">
        <ele>12.060667514801025</ele>
        <time>2024-07-03T11:33:55Z</time>
      </trkpt>
      <trkpt lat="31.183323695234154" lon="121.4660512660132">
        <ele>11.730487986467779</ele>
        <time>2024-07-03T11:33:58Z</time>
      </trkpt>
      <trkpt lat="31.18343913809346" lon="121.46611796479408">
        <ele>13.741723441518843</ele>
        <time>2024-07-03T11:34:01Z</time>
      </trkpt>
      <trkpt lat="31.183511379258523" lon="121.46612442647181">
        <ele>15.151647717691958</ele>
        <time>2024-07-03T11:34:04Z</time>
      </trkpt>
      <trkpt lat="31.183591573270377" lon="121.46620025596141">
        <ele>12.433992858976126</ele>
        <time>2024-07-03T11:34:07Z</time>
      </trkpt>
      <trkpt lat="31.183646342247084" lon="121.46628780764803">
        <ele>13.860684617422521</ele>
        <time>2024-07-03T11:34:10Z</time>
      </trkpt>
      <trkpt lat="31.183726332636308" lon="121.46626127280783">
        <ele>13.30447747465223</ele>
        <time>2024-07-03T11:34:13Z</time>
      </trkpt>
      <trkpt lat="31.18374455434841" lon="121.46640966247053">
        <ele>13.879968294873834</ele>
        <time>2024-07-03T11:34:16Z</time>
      </trkpt>
      <trkpt lat="31.183861157054224" lon="121.46646174758703">
        <ele>13.793064872734249</ele>
        <time>2024-07-03T11:34:19Z</time>
      </trkpt>
      <trkpt lat="31.184022345210472" lon="121.4666522346548">
        <ele>11.694716286845505</ele>
        <time>2024-07-03T11:34:28Z</time>
      </trkpt>
      <trkpt lat="31.184153084282826" lon="121.46671753898185">
        <ele>11.981914049945772</ele>
        <time>2024-07-03T11:34:32Z</time>
      </trkpt>
      <trkpt lat="31.184238682182986" lon="121.46681862440022">
        <ele>10.730952522717416</ele>
        <time>2024-07-03T11:34:38Z</time>
      </trkpt>
      <trkpt lat="31.184234090388625" lon="121.46687582934194">
        <ele>11.396453423425555</ele>
        <time>2024-07-03T11:34:41Z</time>
      </trkpt>
      <trkpt lat="31.18428197009059" lon="121.46698900666017">
        <ele>12.081676473841071</ele>
        <time>2024-07-03T11:34:47Z</time>
      </trkpt>
      <trkpt lat="31.184293522655143" lon="121.46708082632792">
        <ele>12.913881010375917</ele>
        <time>2024-07-03T11:34:50Z</time>
      </trkpt>
      <trkpt lat="31.184365049880885" lon="121.467117067467">
        <ele>12.846990785561502</ele>
        <time>2024-07-03T11:34:53Z</time>
      </trkpt>
      <trkpt lat="31.18441748680012" lon="121.46719505558198">
        <ele>12.732485549524426</ele>
        <time>2024-07-03T11:34:56Z</time>
      </trkpt>
      <trkpt lat="31.184490116246987" lon="121.46715290274285">
        <ele>9.97702267114073</ele>
        <time>2024-07-03T11:34:59Z</time>
      </trkpt>
      <trkpt lat="31.18455258501879" lon="121.46718587597766">
        <ele>7.6086867321282625</ele>
        <time>2024-07-03T11:35:02Z</time>
      </trkpt>
      <trkpt lat="31.184612778311767" lon="121.46725116155982">
        <ele>8.222647395916283</ele>
        <time>2024-07-03T11:35:05Z</time>
      </trkpt>
      <trkpt lat="31.184607266662272" lon="121.46735533770975">
        <ele>8.648543315008283</ele>
        <time>2024-07-03T11:35:08Z</time>
      </trkpt>
      <trkpt lat="31.184700015339185" lon="121.46740393232065">
        <ele>9.768563805148005</ele>
        <time>2024-07-03T11:35:11Z</time>
      </trkpt>
      <trkpt lat="31.184834740623177" lon="121.46756839203877">
        <ele>10.835145735181868</ele>
        <time>2024-07-03T11:35:17Z</time>
      </trkpt>
      <trkpt lat="31.184871799044963" lon="121.46765699264682">
        <ele>11.323455510661006</ele>
        <time>2024-07-03T11:35:20Z</time>
      </trkpt>
      <trkpt lat="31.18492496268166" lon="121.46766056427944">
        <ele>9.52393875271082</ele>
        <time>2024-07-03T11:35:23Z</time>
      </trkpt>
      <trkpt lat="31.185034313332938" lon="121.46770792251559">
        <ele>8.137719104997814</ele>
        <time>2024-07-03T11:35:29Z</time>
      </trkpt>
      <trkpt lat="31.185010490760796" lon="121.46776755325615">
        <ele>9.295794984325767</ele>
        <time>2024-07-03T11:35:32Z</time>
      </trkpt>
      <trkpt lat="31.185039239846677" lon="121.46781110852278">
        <ele>10.485689162276685</ele>
        <time>2024-07-03T11:35:35Z</time>
      </trkpt>
      <trkpt lat="31.185132056369888" lon="121.46784444144576">
        <ele>8.85311530996114</ele>
        <time>2024-07-03T11:35:38Z</time>
      </trkpt>
      <trkpt lat="31.185255292744483" lon="121.46805639960175">
        <ele>9.438503675162792</ele>
        <time>2024-07-03T11:35:47Z</time>
      </trkpt>
      <trkpt lat="31.18531502981357" lon="121.46811862329179">
        <ele>7.111646542325616</ele>
        <time>2024-07-03T11:35:50Z</time>
      </trkpt>
      <trkpt lat="31.185392078171876" lon="121.46828286502053">
        <ele>8.205174947157502</ele>
        <time>2024-07-03T11:35:56Z</time>
      </trkpt>
      <trkpt lat="31.185408723996208" lon="121.46836390460093">
        <ele>7.443486236035824</ele>
        <time>2024-07-03T11:35:59Z</time>
      </trkpt>
      <trkpt lat="31.185462059548694" lon="121.46844384237231">
        <ele>10.46071567106992</ele>
        <time>2024-07-03T11:36:02Z</time>
      </trkpt>
      <trkpt lat="31.185541605494716" lon="121.46851907280724">
        <ele>9.847204419784248</ele>
        <time>2024-07-03T11:36:05Z</time>
      </trkpt>
      <trkpt lat="31.185591483122113" lon="121.46861006187913">
        <ele>10.647652341984212</ele>
        <time>2024-07-03T11:36:08Z</time>
      </trkpt>
      <trkpt lat="31.185710256291024" lon="121.46874276363137">
        <ele>13.047649461776018</ele>
        <time>2024-07-03T11:36:14Z</time>
      </trkpt>
      <trkpt lat="31.18576320334953" lon="121.46883305401408">
        <ele>12.797588140703738</ele>
        <time>2024-07-03T11:36:17Z</time>
      </trkpt>
      <trkpt lat="31.18578980191231" lon="121.46895754421475">
        <ele>15.175964169204235</ele>
        <time>2024-07-03T11:36:20Z</time>
      </trkpt>
      <trkpt lat="31.185845325417088" lon="121.4689765330846">
        <ele>15.2276029586792</ele>
        <time>2024-07-03T11:36:23Z</time>
      </trkpt>
      <trkpt lat="31.185799388885528" lon="121.4689679185874">
        <ele>13.564780250191689</ele>
        <time>2024-07-03T11:36:26Z</time>
      </trkpt>
      <trkpt lat="31.18587089476398" lon="121.46907146864477">
        <ele>12.396585033275187</ele>
        <time>2024-07-03T11:36:29Z</time>
      </trkpt>
      <trkpt lat="31.185898084311898" lon="121.46915537747628">
        <ele>12.147369863465428</ele>
        <time>2024-07-03T11:36:32Z</time>
      </trkpt>
      <trkpt lat="31.1858929930755" lon="121.4692470752215">
        <ele>11.598286571912467</ele>
        <time>2024-07-03T11:36:42Z</time>
      </trkpt>
      <trkpt lat="31.18583659018829" lon="121.46929827863453">
        <ele>11.029023903422058</ele>
        <time>2024-07-03T11:36:48Z</time>
      </trkpt>
      <trkpt lat="31.18589377154533" lon="121.4693398084329">
        <ele>12.472389690577984</ele>
        <time>2024-07-03T11:36:52Z</time>
      </trkpt>
      <trkpt lat="31.185984175480275" lon="121.46948160529399">
        <ele>13.42708958312869</ele>
        <time>2024-07-03T11:37:01Z</time>
      </trkpt>
      <trkpt lat="31.186020764899133" lon="121.46965127133466">
        <ele>12.5523053528741</ele>
        <time>2024-07-03T11:37:07Z</time>
      </trkpt>
      <trkpt lat="31.186069271594565" lon="121.46967488311871">
        <ele>12.063761076889932</ele>
        <time>2024-07-03T11:37:10Z</time>
      </trkpt>
      <trkpt lat="31.18613206771547" lon="121.46977633030754">
        <ele>13.641664563678205</ele>
        <time>2024-07-03T11:37:13Z</time>
      </trkpt>
      <trkpt lat="31.186210621214695" lon="121.4698423731704">
        <ele>14.411328689195216</ele>
        <time>2024-07-03T11:37:16Z</time>
      </trkpt>
      <trkpt lat="31.186326237364966" lon="121.47001700547274">
        <ele>11.867664898745716</ele>
        <time>2024-07-03T11:37:22Z</time>
      </trkpt>
      <trkpt lat="31.186270026775354" lon="121.47000184063972">
        <ele>10.50501723214984</ele>
        <time>2024-07-03T11:37:28Z</time>
      </trkpt>
      <trkpt lat="31.186264779160727" lon="121.47005973989269">
        <ele>9.916546231135726</ele>
        <time>2024-07-03T11:37:31Z</time>
      </trkpt>
      <trkpt lat="31.18631538461805" lon="121.47018091560652">
        <ele>12.61675341706723</ele>
        <time>2024-07-03T11:37:37Z</time>
      </trkpt>
      <trkpt lat="31.18647293987252" lon="121.47008467003785">
        <ele>9.447180260904133</ele>
        <time>2024-07-03T11:37:43Z</time>
      </trkpt>
      <trkpt lat="31.186575630396412" lon="121.47011461597323">
        <ele>10.349040555767715</ele>
        <time>2024-07-03T11:37:46Z</time>
      </trkpt>
      <trkpt lat="31.186668405650444" lon="121.47024543210186">
        <ele>12.687247454188764</ele>
        <time>2024-07-03T11:37:52Z</time>
      </trkpt>
      <trkpt lat="31.1867740846402" lon="121.47044594474127">
        <ele>14.781011618673801</ele>
        <time>2024-07-03T11:37:58Z</time>
      </trkpt>
      <trkpt lat="31.186841075076533" lon="121.47066563843663">
        <ele>15.795234641060233</ele>
        <time>2024-07-03T11:38:04Z</time>
      </trkpt>
      <trkpt lat="31.18684907827708" lon="121.47078083821481">
        <ele>19.45216009672731</ele>
        <time>2024-07-03T11:38:07Z</time>
      </trkpt>
      <trkpt lat="31.186883422513024" lon="121.47092843830936">
        <ele>16.774401805363595</ele>
        <time>2024-07-03T11:38:10Z</time>
      </trkpt>
      <trkpt lat="31.186936532051174" lon="121.47101196294656">
        <ele>15.415030363947153</ele>
        <time>2024-07-03T11:38:13Z</time>
      </trkpt>
      <trkpt lat="31.18695903928082" lon="121.47110092509082">
        <ele>15.01658542919904</ele>
        <time>2024-07-03T11:38:16Z</time>
      </trkpt>
      <trkpt lat="31.18694908933404" lon="121.47117328571908">
        <ele>14.253309112973511</ele>
        <time>2024-07-03T11:38:22Z</time>
      </trkpt>
      <trkpt lat="31.187051508567368" lon="121.47113401690594">
        <ele>8.446268565952778</ele>
        <time>2024-07-03T11:38:37Z</time>
      </trkpt>
      <trkpt lat="31.187166386999433" lon="121.47137021403239">
        <ele>7.04968249425292</ele>
        <time>2024-07-03T11:38:52Z</time>
      </trkpt>
      <trkpt lat="31.187204810039052" lon="121.47151084178876">
        <ele>8.488003654405475</ele>
        <time>2024-07-03T11:39:00Z</time>
      </trkpt>
      <trkpt lat="31.187339463040477" lon="121.47161059363569">
        <ele>8.37138195335865</ele>
        <time>2024-07-03T11:39:07Z</time>
      </trkpt>
      <trkpt lat="31.187425164158334" lon="121.47165215942937">
        <ele>8.011913160793483</ele>
        <time>2024-07-03T11:39:10Z</time>
      </trkpt>
      <trkpt lat="31.187479865035634" lon="121.47170836084874">
        <ele>7.61604914534837</ele>
        <time>2024-07-03T11:39:13Z</time>
      </trkpt>
      <trkpt lat="31.187510801432502" lon="121.47199224952648">
        <ele>7.426921960897744</ele>
        <time>2024-07-03T11:39:22Z</time>
      </trkpt>
      <trkpt lat="31.187437858988034" lon="121.4721041416665">
        <ele>8.488026699051261</ele>
        <time>2024-07-03T11:39:25Z</time>
      </trkpt>
      <trkpt lat="31.187382944004938" lon="121.47234614836715">
        <ele>7.170578196644783</ele>
        <time>2024-07-03T11:39:34Z</time>
      </trkpt>
      <trkpt lat="31.187407537419425" lon="121.47240335609011">
        <ele>7.378129839897156</ele>
        <time>2024-07-03T11:39:37Z</time>
      </trkpt>
      <trkpt lat="31.1874740671571" lon="121.47246024937525">
        <ele>7.694396224804223</ele>
        <time>2024-07-03T11:39:40Z</time>
      </trkpt>
      <trkpt lat="31.187480274796926" lon="121.47257660563506">
        <ele>7.934469874948263</ele>
        <time>2024-07-03T11:39:43Z</time>
      </trkpt>
      <trkpt lat="31.187442347617147" lon="121.4726694138641">
        <ele>7.2763116071000695</ele>
        <time>2024-07-03T11:39:46Z</time>
      </trkpt>
      <trkpt lat="31.187314026359186" lon="121.47273351596705">
        <ele>7.876430901698768</ele>
        <time>2024-07-03T11:39:52Z</time>
      </trkpt>
      <trkpt lat="31.187316592102697" lon="121.47279143591703">
        <ele>7.870165662840009</ele>
        <time>2024-07-03T11:39:58Z</time>
      </trkpt>
      <trkpt lat="31.187275238471265" lon="121.47282542174348">
        <ele>8.822420742362738</ele>
        <time>2024-07-03T11:40:04Z</time>
      </trkpt>
      <trkpt lat="31.18721601431693" lon="121.47291383170011">
        <ele>9.933611252345145</ele>
        <time>2024-07-03T11:40:13Z</time>
      </trkpt>
      <trkpt lat="31.187232248256528" lon="121.4729917890154">
        <ele>10.234896012581885</ele>
        <time>2024-07-03T11:40:16Z</time>
      </trkpt>
      <trkpt lat="31.18721231980892" lon="121.47306849394921">
        <ele>12.734967628493905</ele>
        <time>2024-07-03T11:40:19Z</time>
      </trkpt>
      <trkpt lat="31.1873001908779" lon="121.4733708135358">
        <ele>11.158859121613204</ele>
        <time>2024-07-03T11:40:28Z</time>
      </trkpt>
      <trkpt lat="31.187307861439955" lon="121.47359383967901">
        <ele>10.618532481603324</ele>
        <time>2024-07-03T11:40:34Z</time>
      </trkpt>
      <trkpt lat="31.187341676477956" lon="121.47372864141009">
        <ele>9.204541778191924</ele>
        <time>2024-07-03T11:40:37Z</time>
      </trkpt>
      <trkpt lat="31.187417068903688" lon="121.47385689387073">
        <ele>12.6114113451913</ele>
        <time>2024-07-03T11:40:40Z</time>
      </trkpt>
      <trkpt lat="31.187532121181743" lon="121.4739012778206">
        <ele>14.731841580942273</ele>
        <time>2024-07-03T11:40:43Z</time>
      </trkpt>
      <trkpt lat="31.187629660644582" lon="121.4739026673845">
        <ele>13.353406688198447</ele>
        <time>2024-07-03T11:40:46Z</time>
      </trkpt>
      <trkpt lat="31.187714995242064" lon="121.47394824801833">
        <ele>19.25913241226226</ele>
        <time>2024-07-03T11:40:50Z</time>
      </trkpt>
      <trkpt lat="31.18788376219984" lon="121.4741716060009">
        <ele>17.389366971328855</ele>
        <time>2024-07-03T11:40:58Z</time>
      </trkpt>
      <trkpt lat="31.18793010043304" lon="121.47426388718884">
        <ele>18.83639590255916</ele>
        <time>2024-07-03T11:41:02Z</time>
      </trkpt>
      <trkpt lat="31.187906275180413" lon="121.47432691420678">
        <ele>14.317676710896194</ele>
        <time>2024-07-03T11:41:05Z</time>
      </trkpt>
      <trkpt lat="31.18794099787845" lon="121.4744195357862">
        <ele>15.075572429224849</ele>
        <time>2024-07-03T11:41:11Z</time>
      </trkpt>
      <trkpt lat="31.187958645919128" lon="121.4745842201318">
        <ele>10.455907994881272</ele>
        <time>2024-07-03T11:41:23Z</time>
      </trkpt>
      <trkpt lat="31.18791890226118" lon="121.4747003431515">
        <ele>9.37452459614724</ele>
        <time>2024-07-03T11:41:29Z</time>
      </trkpt>
      <trkpt lat="31.187928890109013" lon="121.47461760822796">
        <ele>8.413262124173343</ele>
        <time>2024-07-03T11:41:35Z</time>
      </trkpt>
      <trkpt lat="31.18791064111249" lon="121.47455782673258">
        <ele>8.311933915130794</ele>
        <time>2024-07-03T11:41:38Z</time>
      </trkpt>
      <trkpt lat="31.187998801861582" lon="121.47453937678128">
        <ele>9.875266925431788</ele>
        <time>2024-07-03T11:41:44Z</time>
      </trkpt>
      <trkpt lat="31.188048002404592" lon="121.47454683109228">
        <ele>9.540033422410488</ele>
        <time>2024-07-03T11:41:47Z</time>
      </trkpt>
      <trkpt lat="31.188079310795246" lon="121.47450019144473">
        <ele>9.043539493344724</ele>
        <time>2024-07-03T11:41:50Z</time>
      </trkpt>
      <trkpt lat="31.18804162038587" lon="121.47461996366259">
        <ele>9.66998868715018</ele>
        <time>2024-07-03T11:41:59Z</time>
      </trkpt>
      <trkpt lat="31.188070526966122" lon="121.47470892248185">
        <ele>9.290962508879602</ele>
        <time>2024-07-03T11:42:02Z</time>
      </trkpt>
      <trkpt lat="31.18827455730233" lon="121.47499240021058">
        <ele>12.940771384164691</ele>
        <time>2024-07-03T11:42:11Z</time>
      </trkpt>
      <trkpt lat="31.188264977902815" lon="121.47522812881265">
        <ele>16.03173175919801</ele>
        <time>2024-07-03T11:42:17Z</time>
      </trkpt>
      <trkpt lat="31.188176127807765" lon="121.47535730191652">
        <ele>12.692952803336084</ele>
        <time>2024-07-03T11:42:23Z</time>
      </trkpt>
      <trkpt lat="31.188114956020552" lon="121.47556957654153">
        <ele>12.176004252396524</ele>
        <time>2024-07-03T11:42:29Z</time>
      </trkpt>
      <trkpt lat="31.188195485836825" lon="121.47575572750182">
        <ele>15.041290792636573</ele>
        <time>2024-07-03T11:42:35Z</time>
      </trkpt>
      <trkpt lat="31.18832817223483" lon="121.47584627623115">
        <ele>14.602337869815528</ele>
        <time>2024-07-03T11:42:41Z</time>
      </trkpt>
      <trkpt lat="31.188359960141224" lon="121.47595117495881">
        <ele>17.2799139469862</ele>
        <time>2024-07-03T11:42:44Z</time>
      </trkpt>
      <trkpt lat="31.188308652984315" lon="121.47607780355726">
        <ele>14.81778721138835</ele>
        <time>2024-07-03T11:42:47Z</time>
      </trkpt>
      <trkpt lat="31.188146460410444" lon="121.4761900006555">
        <ele>16.893237479031086</ele>
        <time>2024-07-03T11:42:53Z</time>
      </trkpt>
      <trkpt lat="31.188147311701172" lon="121.47627935553135">
        <ele>16.23209262173623</ele>
        <time>2024-07-03T11:42:57Z</time>
      </trkpt>
      <trkpt lat="31.188166654793" lon="121.4763509701563">
        <ele>15.699168110266328</ele>
        <time>2024-07-03T11:43:01Z</time>
      </trkpt>
      <trkpt lat="31.18814197934051" lon="121.47659041960785">
        <ele>14.668564457446337</ele>
        <time>2024-07-03T11:43:16Z</time>
      </trkpt>
      <trkpt lat="31.18828049488267" lon="121.47669801361255">
        <ele>10.554280368611217</ele>
        <time>2024-07-03T11:43:25Z</time>
      </trkpt>
      <trkpt lat="31.18834849552984" lon="121.4767166441056">
        <ele>11.722847107797861</ele>
        <time>2024-07-03T11:43:28Z</time>
      </trkpt>
      <trkpt lat="31.18845451622877" lon="121.47662880844187">
        <ele>10.117697360925376</ele>
        <time>2024-07-03T11:43:37Z</time>
      </trkpt>
      <trkpt lat="31.188498825810186" lon="121.4766795533788">
        <ele>8.91513327602297</ele>
        <time>2024-07-03T11:43:43Z</time>
      </trkpt>
      <trkpt lat="31.18846399160145" lon="121.4768225694147">
        <ele>7.975211902521551</ele>
        <time>2024-07-03T11:43:49Z</time>
      </trkpt>
      <trkpt lat="31.188412881620003" lon="121.47687332515643">
        <ele>9.424001795239747</ele>
        <time>2024-07-03T11:43:52Z</time>
      </trkpt>
      <trkpt lat="31.188345650308406" lon="121.47689256884898">
        <ele>10.960901358164847</ele>
        <time>2024-07-03T11:43:55Z</time>
      </trkpt>
      <trkpt lat="31.188314703544187" lon="121.47695230692231">
        <ele>11.147180803120136</ele>
        <time>2024-07-03T11:43:58Z</time>
      </trkpt>
      <trkpt lat="31.188312624416174" lon="121.4770925312555">
        <ele>8.238659675233066</ele>
        <time>2024-07-03T11:44:01Z</time>
      </trkpt>
      <trkpt lat="31.188340050584028" lon="121.47728584829045">
        <ele>5.86289616394788</ele>
        <time>2024-07-03T11:44:04Z</time>
      </trkpt>
      <trkpt lat="31.18839292821598" lon="121.47740286396787">
        <ele>4.434051839634776</ele>
        <time>2024-07-03T11:44:07Z</time>
      </trkpt>
      <trkpt lat="31.188405926849267" lon="121.4775252382539">
        <ele>4.943092731758952</ele>
        <time>2024-07-03T11:44:10Z</time>
      </trkpt>
      <trkpt lat="31.188452685844396" lon="121.47768294544107">
        <ele>8.688544679433107</ele>
        <time>2024-07-03T11:44:13Z</time>
      </trkpt>
      <trkpt lat="31.18847200436962" lon="121.47782861634742">
        <ele>7.01480907946825</ele>
        <time>2024-07-03T11:44:16Z</time>
      </trkpt>
      <trkpt lat="31.188459335445042" lon="121.47796494384815">
        <ele>10.400200116448104</ele>
        <time>2024-07-03T11:44:22Z</time>
      </trkpt>
      <trkpt lat="31.188556683006464" lon="121.4779748057596">
        <ele>12.209369058720767</ele>
        <time>2024-07-03T11:44:25Z</time>
      </trkpt>
      <trkpt lat="31.188631685001635" lon="121.47808969736528">
        <ele>15.158531054854393</ele>
        <time>2024-07-03T11:44:28Z</time>
      </trkpt>
      <trkpt lat="31.18865535685666" lon="121.47818156688434">
        <ele>17.77443055342883</ele>
        <time>2024-07-03T11:44:31Z</time>
      </trkpt>
      <trkpt lat="31.188904839498193" lon="121.47837616126102">
        <ele>19.103226211853325</ele>
        <time>2024-07-03T11:44:40Z</time>
      </trkpt>
      <trkpt lat="31.18897997908507" lon="121.47839385093282">
        <ele>17.247823205776513</ele>
        <time>2024-07-03T11:44:43Z</time>
      </trkpt>
      <trkpt lat="31.189036883905445" lon="121.47847534499792">
        <ele>18.51071745250374</ele>
        <time>2024-07-03T11:44:46Z</time>
      </trkpt>
      <trkpt lat="31.189042885119164" lon="121.47859585429703">
        <ele>20.716115946881473</ele>
        <time>2024-07-03T11:44:49Z</time>
      </trkpt>
      <trkpt lat="31.18911832085469" lon="121.4786598531995">
        <ele>25.612829701043665</ele>
        <time>2024-07-03T11:44:52Z</time>
      </trkpt>
      <trkpt lat="31.189060770790068" lon="121.47868320407967">
        <ele>21.124130117706954</ele>
        <time>2024-07-03T11:44:55Z</time>
      </trkpt>
      <trkpt lat="31.189129962226772" lon="121.47868340104034">
        <ele>18.654863147065043</ele>
        <time>2024-07-03T11:44:58Z</time>
      </trkpt>
      <trkpt lat="31.18922780196403" lon="121.4787908742117">
        <ele>14.88621739950031</ele>
        <time>2024-07-03T11:45:08Z</time>
      </trkpt>
      <trkpt lat="31.189315685149992" lon="121.47899255224884">
        <ele>12.794072896242142</ele>
        <time>2024-07-03T11:45:23Z</time>
      </trkpt>
      <trkpt lat="31.189334756031364" lon="121.47908820978125">
        <ele>9.888623028062284</ele>
        <time>2024-07-03T11:45:29Z</time>
      </trkpt>
      <trkpt lat="31.189371171258266" lon="121.47914209102196">
        <ele>10.49275871552527</ele>
        <time>2024-07-03T11:45:35Z</time>
      </trkpt>
      <trkpt lat="31.189417640308488" lon="121.47935903736153">
        <ele>3.1261000372469425</ele>
        <time>2024-07-03T11:46:02Z</time>
      </trkpt>
      <trkpt lat="31.1893447073919" lon="121.47951208366445">
        <ele>17.169916534796357</ele>
        <time>2024-07-03T12:06:54Z</time>
      </trkpt>
      <trkpt lat="31.18937296734712" lon="121.47981147161958">
        <ele>14.060639321804047</ele>
        <time>2024-07-03T12:07:09Z</time>
      </trkpt>
      <trkpt lat="31.189239246019763" lon="121.48000712265205">
        <ele>14.115240986458957</ele>
        <time>2024-07-03T12:07:15Z</time>
      </trkpt>
      <trkpt lat="31.18921847373696" lon="121.48012465981324">
        <ele>12.518682231195271</ele>
        <time>2024-07-03T12:07:18Z</time>
      </trkpt>
      <trkpt lat="31.189323498568402" lon="121.48021991371527">
        <ele>13.967235297895968</ele>
        <time>2024-07-03T12:07:21Z</time>
      </trkpt>
      <trkpt lat="31.189399378374084" lon="121.48031495627365">
        <ele>13.081134523265064</ele>
        <time>2024-07-03T12:07:24Z</time>
      </trkpt>
      <trkpt lat="31.189349369634837" lon="121.48042329665536">
        <ele>14.250043768435717</ele>
        <time>2024-07-03T12:07:27Z</time>
      </trkpt>
      <trkpt lat="31.18937766916599" lon="121.48048603114454">
        <ele>13.11941475700587</ele>
        <time>2024-07-03T12:07:30Z</time>
      </trkpt>
      <trkpt lat="31.18941985265462" lon="121.48051721760298">
        <ele>12.176350265741348</ele>
        <time>2024-07-03T12:07:33Z</time>
      </trkpt>
      <trkpt lat="31.189407409244293" lon="121.4807942643448">
        <ele>12.318418372422457</ele>
        <time>2024-07-03T12:07:48Z</time>
      </trkpt>
      <trkpt lat="31.189362227946024" lon="121.48089407499673">
        <ele>12.078227361664176</ele>
        <time>2024-07-03T12:07:54Z</time>
      </trkpt>
      <trkpt lat="31.189231624499865" lon="121.48094581282739">
        <ele>12.373433603905141</ele>
        <time>2024-07-03T12:08:00Z</time>
      </trkpt>
      <trkpt lat="31.18918612337681" lon="121.48087451307106">
        <ele>10.333729828707874</ele>
        <time>2024-07-03T12:08:03Z</time>
      </trkpt>
      <trkpt lat="31.18903602651004" lon="121.48094765238858">
        <ele>13.336653511971235</ele>
        <time>2024-07-03T12:08:13Z</time>
      </trkpt>
      <trkpt lat="31.188973922293673" lon="121.4809408979602">
        <ele>12.300552946515381</ele>
        <time>2024-07-03T12:08:19Z</time>
      </trkpt>
      <trkpt lat="31.188771448007532" lon="121.48084691965389">
        <ele>10.80478216521442</ele>
        <time>2024-07-03T12:08:34Z</time>
      </trkpt>
      <trkpt lat="31.188711021797527" lon="121.48078181752184">
        <ele>12.048630924895406</ele>
        <time>2024-07-03T12:08:37Z</time>
      </trkpt>
      <trkpt lat="31.188624133519415" lon="121.48072316341174">
        <ele>12.564316413365304</ele>
        <time>2024-07-03T12:08:40Z</time>
      </trkpt>
      <trkpt lat="31.18850014383189" lon="121.48072346079087">
        <ele>11.73331542685628</ele>
        <time>2024-07-03T12:08:43Z</time>
      </trkpt>
      <trkpt lat="31.188409802275228" lon="121.48075084314507">
        <ele>11.14195675868541</ele>
        <time>2024-07-03T12:08:46Z</time>
      </trkpt>
      <trkpt lat="31.1883453475554" lon="121.48074777892967">
        <ele>10.841380829922855</ele>
        <time>2024-07-03T12:08:49Z</time>
      </trkpt>
      <trkpt lat="31.188321798996867" lon="121.48086566212969">
        <ele>11.376799228601158</ele>
        <time>2024-07-03T12:08:55Z</time>
      </trkpt>
      <trkpt lat="31.188369105553072" lon="121.48113335834533">
        <ele>10.683670250698924</ele>
        <time>2024-07-03T12:09:10Z</time>
      </trkpt>
      <trkpt lat="31.188331751108798" lon="121.4812452121118">
        <ele>10.534787167795002</ele>
        <time>2024-07-03T12:09:16Z</time>
      </trkpt>
      <trkpt lat="31.18833492655372" lon="121.48137537768606">
        <ele>10.51577321253717</ele>
        <time>2024-07-03T12:09:22Z</time>
      </trkpt>
      <trkpt lat="31.188208012215522" lon="121.48138420666979">
        <ele>9.538473441265523</ele>
        <time>2024-07-03T12:09:31Z</time>
      </trkpt>
      <trkpt lat="31.188158239105146" lon="121.48140398049333">
        <ele>9.561221443116665</ele>
        <time>2024-07-03T12:09:34Z</time>
      </trkpt>
      <trkpt lat="31.188079864732895" lon="121.48140618315024">
        <ele>9.389501149766147</ele>
        <time>2024-07-03T12:09:40Z</time>
      </trkpt>
      <trkpt lat="31.187949901835978" lon="121.48136676364325">
        <ele>10.534704492427409</ele>
        <time>2024-07-03T12:09:46Z</time>
      </trkpt>
      <trkpt lat="31.18790969638166" lon="121.48131061920041">
        <ele>10.80538241006434</ele>
        <time>2024-07-03T12:09:49Z</time>
      </trkpt>
      <trkpt lat="31.187914961276896" lon="121.48114179833493">
        <ele>11.423662746325135</ele>
        <time>2024-07-03T12:09:58Z</time>
      </trkpt>
      <trkpt lat="31.187870623229987" lon="121.48108798697193">
        <ele>11.94126037787646</ele>
        <time>2024-07-03T12:10:01Z</time>
      </trkpt>
      <trkpt lat="31.18779138514546" lon="121.48105475727262">
        <ele>12.917755218222737</ele>
        <time>2024-07-03T12:10:04Z</time>
      </trkpt>
      <trkpt lat="31.187681776707336" lon="121.48086297779628">
        <ele>9.498923800885677</ele>
        <time>2024-07-03T12:10:20Z</time>
      </trkpt>
      <trkpt lat="31.18768519275395" lon="121.48089843839458">
        <ele>4.10655542742461</ele>
        <time>2024-07-03T12:10:50Z</time>
      </trkpt>
    </trkseg>
  </trk>
</gpx>