<?xml version="1.0" encoding="UTF-8"?>
<gpx xmlns="http://www.topografix.com/GPX/1/1" xmlns:gpxtpx="http://www.garmin.com/xmlschemas/TrackPointExtension/v1" xmlns:xsi="http://www.w3.org/2001/XMLSchema-instance" xsi:schemaLocation="http://www.topografix.com/GPX/1/1 http://www.topografix.com/GPX/1/1/gpx.xsd" version="1.1" creator="gpx.py -- https://github.com/tkrajina/gpxpy">
  <trk>
    <name>gpx from keep</name>
    <type>Run</type>
    <trkseg>
      <trkpt lat="30.522104543850986" lon="114.39258409593991">
        <ele>15.44</ele>
        <time>2021-05-26T14:17:02Z</time>
      </trkpt>
      <trkpt lat="30.522097216702804" lon="114.39263909039295">
        <ele>15.67</ele>
        <time>2021-05-26T14:17:05Z</time>
      </trkpt>
      <trkpt lat="30.522084430619884" lon="114.39269880611502">
        <ele>15.94</ele>
        <time>2021-05-26T14:17:08Z</time>
      </trkpt>
      <trkpt lat="30.52213682040511" lon="114.39290844091802">
        <ele>16.37</ele>
        <time>2021-05-26T14:17:14Z</time>
      </trkpt>
      <trkpt lat="30.522201863573812" lon="114.39304677698748">
        <ele>16.98</ele>
        <time>2021-05-26T14:17:17Z</time>
      </trkpt>
      <trkpt lat="30.522289575426385" lon="114.39313612009352">
        <ele>19.29</ele>
        <time>2021-05-26T14:17:20Z</time>
      </trkpt>
      <trkpt lat="30.522391567492893" lon="114.39318337206724">
        <ele>18.42</ele>
        <time>2021-05-26T14:17:23Z</time>
      </trkpt>
      <trkpt lat="30.52268596917706" lon="114.39322160079524">
        <ele>15.52</ele>
        <time>2021-05-26T14:17:32Z</time>
      </trkpt>
      <trkpt lat="30.52301258953132" lon="114.3932105664064">
        <ele>19.28</ele>
        <time>2021-05-26T14:17:41Z</time>
      </trkpt>
      <trkpt lat="30.523104756425234" lon="114.39319386158965">
        <ele>19.22</ele>
        <time>2021-05-26T14:17:44Z</time>
      </trkpt>
      <trkpt lat="30.52330520904568" lon="114.39319728157938">
        <ele>18.98</ele>
        <time>2021-05-26T14:17:50Z</time>
      </trkpt>
      <trkpt lat="30.523470095924203" lon="114.39313531451921">
        <ele>23.83</ele>
        <time>2021-05-26T14:17:56Z</time>
      </trkpt>
      <trkpt lat="30.5236135794366" lon="114.39297496169097">
        <ele>18.68</ele>
        <time>2021-05-26T14:18:02Z</time>
      </trkpt>
      <trkpt lat="30.523661269250713" lon="114.39284489729862">
        <ele>17.95</ele>
        <time>2021-05-26T14:18:05Z</time>
      </trkpt>
      <trkpt lat="30.5236760409115" lon="114.39272383544909">
        <ele>20.5</ele>
        <time>2021-05-26T14:18:08Z</time>
      </trkpt>
      <trkpt lat="30.523669079743026" lon="114.39259146075919">
        <ele>19.53</ele>
        <time>2021-05-26T14:18:12Z</time>
      </trkpt>
      <trkpt lat="30.523627891010225" lon="114.39247065928889">
        <ele>20.23</ele>
        <time>2021-05-26T14:18:14Z</time>
      </trkpt>
      <trkpt lat="30.523557299588088" lon="114.39242469757221">
        <ele>18.1</ele>
        <time>2021-05-26T14:18:17Z</time>
      </trkpt>
      <trkpt lat="30.52338734137974" lon="114.39226828740982">
        <ele>21.46</ele>
        <time>2021-05-26T14:18:23Z</time>
      </trkpt>
      <trkpt lat="30.523083478851934" lon="114.3922265478757">
        <ele>22.31</ele>
        <time>2021-05-26T14:18:32Z</time>
      </trkpt>
      <trkpt lat="30.522747830125766" lon="114.39220226305243">
        <ele>18.7</ele>
        <time>2021-05-26T14:18:44Z</time>
      </trkpt>
      <trkpt lat="30.52268379236914" lon="114.39221431649501">
        <ele>17.37</ele>
        <time>2021-05-26T14:18:47Z</time>
      </trkpt>
      <trkpt lat="30.522386569876726" lon="114.392215168069">
        <ele>18.59</ele>
        <time>2021-05-26T14:18:56Z</time>
      </trkpt>
      <trkpt lat="30.52231025118576" lon="114.39226639181165">
        <ele>18.57</ele>
        <time>2021-05-26T14:18:59Z</time>
      </trkpt>
      <trkpt lat="30.522115821958305" lon="114.39249041133709">
        <ele>21.01</ele>
        <time>2021-05-26T14:19:08Z</time>
      </trkpt>
      <trkpt lat="30.522084935056952" lon="114.39258998757354">
        <ele>20.09</ele>
        <time>2021-05-26T14:19:11Z</time>
      </trkpt>
      <trkpt lat="30.522068516567842" lon="114.39272472298758">
        <ele>20.38</ele>
        <time>2021-05-26T14:19:14Z</time>
      </trkpt>
      <trkpt lat="30.522072084543126" lon="114.39284353416177">
        <ele>20.58</ele>
        <time>2021-05-26T14:19:17Z</time>
      </trkpt>
      <trkpt lat="30.522142970779935" lon="114.39303718473224">
        <ele>22.16</ele>
        <time>2021-05-26T14:19:23Z</time>
      </trkpt>
      <trkpt lat="30.52220569864138" lon="114.39311056374956">
        <ele>22.03</ele>
        <time>2021-05-26T14:19:26Z</time>
      </trkpt>
      <trkpt lat="30.522377827920433" lon="114.3931857127458">
        <ele>21.97</ele>
        <time>2021-05-26T14:19:32Z</time>
      </trkpt>
      <trkpt lat="30.522561426208625" lon="114.39321379930662">
        <ele>21.04</ele>
        <time>2021-05-26T14:19:38Z</time>
      </trkpt>
      <trkpt lat="30.522843694991924" lon="114.39319780381334">
        <ele>18.87</ele>
        <time>2021-05-26T14:19:47Z</time>
      </trkpt>
      <trkpt lat="30.523132255709154" lon="114.39318977038765">
        <ele>20.27</ele>
        <time>2021-05-26T14:19:56Z</time>
      </trkpt>
      <trkpt lat="30.523239914970492" lon="114.3931825079867">
        <ele>20.61</ele>
        <time>2021-05-26T14:19:59Z</time>
      </trkpt>
      <trkpt lat="30.523524416062262" lon="114.39304896155399">
        <ele>22.56</ele>
        <time>2021-05-26T14:20:08Z</time>
      </trkpt>
      <trkpt lat="30.52363369256525" lon="114.39290253256436">
        <ele>20.09</ele>
        <time>2021-05-26T14:20:14Z</time>
      </trkpt>
      <trkpt lat="30.523665797900104" lon="114.39279647456239">
        <ele>20.5</ele>
        <time>2021-05-26T14:20:17Z</time>
      </trkpt>
      <trkpt lat="30.523663473088124" lon="114.39269103690025">
        <ele>20.25</ele>
        <time>2021-05-26T14:20:20Z</time>
      </trkpt>
      <trkpt lat="30.523640888978413" lon="114.39258929031837">
        <ele>17.8</ele>
        <time>2021-05-26T14:20:23Z</time>
      </trkpt>
      <trkpt lat="30.52356284430033" lon="114.39240194158846">
        <ele>17.53</ele>
        <time>2021-05-26T14:20:29Z</time>
      </trkpt>
      <trkpt lat="30.523412281202113" lon="114.39226656684632">
        <ele>17.96</ele>
        <time>2021-05-26T14:20:35Z</time>
      </trkpt>
      <trkpt lat="30.5232557493127" lon="114.39217916470392">
        <ele>17.56</ele>
        <time>2021-05-26T14:20:41Z</time>
      </trkpt>
      <trkpt lat="30.523155606807123" lon="114.39217233337378">
        <ele>17.54</ele>
        <time>2021-05-26T14:20:44Z</time>
      </trkpt>
      <trkpt lat="30.52307496435136" lon="114.39220766297652">
        <ele>15.66</ele>
        <time>2021-05-26T14:20:47Z</time>
      </trkpt>
      <trkpt lat="30.522934361350334" lon="114.39224297284909">
        <ele>19.3</ele>
        <time>2021-05-26T14:20:53Z</time>
      </trkpt>
      <trkpt lat="30.522656014669195" lon="114.39222520946959">
        <ele>17.17</ele>
        <time>2021-05-26T14:21:02Z</time>
      </trkpt>
      <trkpt lat="30.522468334382612" lon="114.39223124190029">
        <ele>18.43</ele>
        <time>2021-05-26T14:21:08Z</time>
      </trkpt>
      <trkpt lat="30.522377569390933" lon="114.39225612882134">
        <ele>16.84</ele>
        <time>2021-05-26T14:21:11Z</time>
      </trkpt>
      <trkpt lat="30.52216502058718" lon="114.3924826690853">
        <ele>18.99</ele>
        <time>2021-05-26T14:21:20Z</time>
      </trkpt>
      <trkpt lat="30.522119881763064" lon="114.39257461338443">
        <ele>19.51</ele>
        <time>2021-05-26T14:21:23Z</time>
      </trkpt>
      <trkpt lat="30.522080628070285" lon="114.39277317564927">
        <ele>18.02</ele>
        <time>2021-05-26T14:21:29Z</time>
      </trkpt>
      <trkpt lat="30.52211487628386" lon="114.3929342578016">
        <ele>20.05</ele>
        <time>2021-05-26T14:21:35Z</time>
      </trkpt>
      <trkpt lat="30.522258844728132" lon="114.39313433976454">
        <ele>18.67</ele>
        <time>2021-05-26T14:21:44Z</time>
      </trkpt>
      <trkpt lat="30.522339279319294" lon="114.39319312487213">
        <ele>19.29</ele>
        <time>2021-05-26T14:21:47Z</time>
      </trkpt>
      <trkpt lat="30.52269046039128" lon="114.3931841809229">
        <ele>19.6</ele>
        <time>2021-05-26T14:21:59Z</time>
      </trkpt>
      <trkpt lat="30.523016586424763" lon="114.39319724288035">
        <ele>17.11</ele>
        <time>2021-05-26T14:22:11Z</time>
      </trkpt>
      <trkpt lat="30.523255305439267" lon="114.39322629944651">
        <ele>19.36</ele>
        <time>2021-05-26T14:22:20Z</time>
      </trkpt>
      <trkpt lat="30.52348295582825" lon="114.39313441422385">
        <ele>21.09</ele>
        <time>2021-05-26T14:22:29Z</time>
      </trkpt>
      <trkpt lat="30.52353712899617" lon="114.39306092464273">
        <ele>20.92</ele>
        <time>2021-05-26T14:22:32Z</time>
      </trkpt>
      <trkpt lat="30.523606031404434" lon="114.39281366934891">
        <ele>18.0</ele>
        <time>2021-05-26T14:22:41Z</time>
      </trkpt>
      <trkpt lat="30.523613861856802" lon="114.39273024741448">
        <ele>18.12</ele>
        <time>2021-05-26T14:22:44Z</time>
      </trkpt>
      <trkpt lat="30.523542112882655" lon="114.39248194263482">
        <ele>18.7</ele>
        <time>2021-05-26T14:22:53Z</time>
      </trkpt>
      <trkpt lat="30.523490052849276" lon="114.39239856103444">
        <ele>19.17</ele>
        <time>2021-05-26T14:22:56Z</time>
      </trkpt>
      <trkpt lat="30.523342891709753" lon="114.39231407959188">
        <ele>18.13</ele>
        <time>2021-05-26T14:23:02Z</time>
      </trkpt>
      <trkpt lat="30.52328233688578" lon="114.39229583509382">
        <ele>15.17</ele>
        <time>2021-05-26T14:23:05Z</time>
      </trkpt>
      <trkpt lat="30.52311589228497" lon="114.39232529355861">
        <ele>18.16</ele>
        <time>2021-05-26T14:23:11Z</time>
      </trkpt>
      <trkpt lat="30.522797525729843" lon="114.39230962090535">
        <ele>17.47</ele>
        <time>2021-05-26T14:23:23Z</time>
      </trkpt>
      <trkpt lat="30.52264691369582" lon="114.3923067608418">
        <ele>19.99</ele>
        <time>2021-05-26T14:23:29Z</time>
      </trkpt>
      <trkpt lat="30.522331672408225" lon="114.39235610518746">
        <ele>19.52</ele>
        <time>2021-05-26T14:23:41Z</time>
      </trkpt>
      <trkpt lat="30.5222042182969" lon="114.39247139595413">
        <ele>20.67</ele>
        <time>2021-05-26T14:23:47Z</time>
      </trkpt>
      <trkpt lat="30.52211746981905" lon="114.39269412473674">
        <ele>22.92</ele>
        <time>2021-05-26T14:23:53Z</time>
      </trkpt>
      <trkpt lat="30.52210796479932" lon="114.39280073275957">
        <ele>22.95</ele>
        <time>2021-05-26T14:23:56Z</time>
      </trkpt>
      <trkpt lat="30.52213608373735" lon="114.39292262464828">
        <ele>22.22</ele>
        <time>2021-05-26T14:23:59Z</time>
      </trkpt>
      <trkpt lat="30.52222421774317" lon="114.39306361131364">
        <ele>23.07</ele>
        <time>2021-05-26T14:24:05Z</time>
      </trkpt>
      <trkpt lat="30.522362619333396" lon="114.39314988338397">
        <ele>22.11</ele>
        <time>2021-05-26T14:24:11Z</time>
      </trkpt>
      <trkpt lat="30.522522647297972" lon="114.39317750992888">
        <ele>23.92</ele>
        <time>2021-05-26T14:24:17Z</time>
      </trkpt>
      <trkpt lat="30.522612296727633" lon="114.39317164797873">
        <ele>23.34</ele>
        <time>2021-05-26T14:24:20Z</time>
      </trkpt>
      <trkpt lat="30.5229132276056" lon="114.3932062157122">
        <ele>23.81</ele>
        <time>2021-05-26T14:24:32Z</time>
      </trkpt>
      <trkpt lat="30.52320882333749" lon="114.39317677661921">
        <ele>22.35</ele>
        <time>2021-05-26T14:24:47Z</time>
      </trkpt>
      <trkpt lat="30.52327916250186" lon="114.39317053465655">
        <ele>22.23</ele>
        <time>2021-05-26T14:24:50Z</time>
      </trkpt>
      <trkpt lat="30.523405451469838" lon="114.39311890049362">
        <ele>20.15</ele>
        <time>2021-05-26T14:24:56Z</time>
      </trkpt>
      <trkpt lat="30.523538506407615" lon="114.39300744057107">
        <ele>19.59</ele>
        <time>2021-05-26T14:25:02Z</time>
      </trkpt>
      <trkpt lat="30.523636701902422" lon="114.39285711061815">
        <ele>18.99</ele>
        <time>2021-05-26T14:25:08Z</time>
      </trkpt>
      <trkpt lat="30.523652307734178" lon="114.39271123224982">
        <ele>18.07</ele>
        <time>2021-05-26T14:25:14Z</time>
      </trkpt>
      <trkpt lat="30.52364474222356" lon="114.3926455250469">
        <ele>17.8</ele>
        <time>2021-05-26T14:25:17Z</time>
      </trkpt>
      <trkpt lat="30.52355080742872" lon="114.39245836641949">
        <ele>17.82</ele>
        <time>2021-05-26T14:25:26Z</time>
      </trkpt>
      <trkpt lat="30.52349850045533" lon="114.39238802823847">
        <ele>19.1</ele>
        <time>2021-05-26T14:25:29Z</time>
      </trkpt>
      <trkpt lat="30.52343696819979" lon="114.39233813545893">
        <ele>19.87</ele>
        <time>2021-05-26T14:25:32Z</time>
      </trkpt>
      <trkpt lat="30.523283686780772" lon="114.39229533495683">
        <ele>19.43</ele>
        <time>2021-05-26T14:25:38Z</time>
      </trkpt>
      <trkpt lat="30.523037950658292" lon="114.3923213628845">
        <ele>19.94</ele>
        <time>2021-05-26T14:25:50Z</time>
      </trkpt>
      <trkpt lat="30.522861003521538" lon="114.39229774751023">
        <ele>20.44</ele>
        <time>2021-05-26T14:25:56Z</time>
      </trkpt>
      <trkpt lat="30.522631689896087" lon="114.39229113682337">
        <ele>21.79</ele>
        <time>2021-05-26T14:26:05Z</time>
      </trkpt>
      <trkpt lat="30.522429131453997" lon="114.39230561153111">
        <ele>20.11</ele>
        <time>2021-05-26T14:26:14Z</time>
      </trkpt>
      <trkpt lat="30.52228068881313" lon="114.39234274192177">
        <ele>18.6</ele>
        <time>2021-05-26T14:26:20Z</time>
      </trkpt>
      <trkpt lat="30.52222115264999" lon="114.39240404824001">
        <ele>18.25</ele>
        <time>2021-05-26T14:26:23Z</time>
      </trkpt>
      <trkpt lat="30.522143151879998" lon="114.3925742131738">
        <ele>19.59</ele>
        <time>2021-05-26T14:26:29Z</time>
      </trkpt>
      <trkpt lat="30.522119747505233" lon="114.3926841921206">
        <ele>19.34</ele>
        <time>2021-05-26T14:26:32Z</time>
      </trkpt>
      <trkpt lat="30.522127245202288" lon="114.39280170292672">
        <ele>17.73</ele>
        <time>2021-05-26T14:26:35Z</time>
      </trkpt>
      <trkpt lat="30.52216227959612" lon="114.39294650080384">
        <ele>17.7</ele>
        <time>2021-05-26T14:26:38Z</time>
      </trkpt>
      <trkpt lat="30.522214391380093" lon="114.39303698435525">
        <ele>17.8</ele>
        <time>2021-05-26T14:26:41Z</time>
      </trkpt>
      <trkpt lat="30.522299557949932" lon="114.3931040216021">
        <ele>16.99</ele>
        <time>2021-05-26T14:26:44Z</time>
      </trkpt>
      <trkpt lat="30.522423351294048" lon="114.39315586468241">
        <ele>17.5</ele>
        <time>2021-05-26T14:26:47Z</time>
      </trkpt>
      <trkpt lat="30.5227928689454" lon="114.39317411780878">
        <ele>19.19</ele>
        <time>2021-05-26T14:26:56Z</time>
      </trkpt>
      <trkpt lat="30.522903534741506" lon="114.3931520414954">
        <ele>18.28</ele>
        <time>2021-05-26T14:26:59Z</time>
      </trkpt>
      <trkpt lat="30.523229138971136" lon="114.39315748144803">
        <ele>19.34</ele>
        <time>2021-05-26T14:27:08Z</time>
      </trkpt>
      <trkpt lat="30.523325081688288" lon="114.39316532307612">
        <ele>19.22</ele>
        <time>2021-05-26T14:27:11Z</time>
      </trkpt>
      <trkpt lat="30.523416527078812" lon="114.39314226659222">
        <ele>19.98</ele>
        <time>2021-05-26T14:27:14Z</time>
      </trkpt>
      <trkpt lat="30.523558322117783" lon="114.39307335781689">
        <ele>20.66</ele>
        <time>2021-05-26T14:27:20Z</time>
      </trkpt>
      <trkpt lat="30.523629039865295" lon="114.39293372078095">
        <ele>19.64</ele>
        <time>2021-05-26T14:27:26Z</time>
      </trkpt>
      <trkpt lat="30.523640552081268" lon="114.39260251378688">
        <ele>14.54</ele>
        <time>2021-05-26T14:27:38Z</time>
      </trkpt>
      <trkpt lat="30.523613584995857" lon="114.39253079510995">
        <ele>16.81</ele>
        <time>2021-05-26T14:27:41Z</time>
      </trkpt>
      <trkpt lat="30.523550680913175" lon="114.39247322031092">
        <ele>15.89</ele>
        <time>2021-05-26T14:27:44Z</time>
      </trkpt>
      <trkpt lat="30.52349625846457" lon="114.39237962604906">
        <ele>16.55</ele>
        <time>2021-05-26T14:27:47Z</time>
      </trkpt>
      <trkpt lat="30.523377577547816" lon="114.39229498443807">
        <ele>17.02</ele>
        <time>2021-05-26T14:27:53Z</time>
      </trkpt>
      <trkpt lat="30.523094923083022" lon="114.39228684359388">
        <ele>19.23</ele>
        <time>2021-05-26T14:28:05Z</time>
      </trkpt>
      <trkpt lat="30.52285602715441" lon="114.3922707704757">
        <ele>17.57</ele>
        <time>2021-05-26T14:28:14Z</time>
      </trkpt>
      <trkpt lat="30.522537700104607" lon="114.39229565843358">
        <ele>17.51</ele>
        <time>2021-05-26T14:28:32Z</time>
      </trkpt>
      <trkpt lat="30.52248290706257" lon="114.39228479584094">
        <ele>15.58</ele>
        <time>2021-05-26T14:28:41Z</time>
      </trkpt>
      <trkpt lat="30.522228407212154" lon="114.39238058206367">
        <ele>13.23</ele>
        <time>2021-05-26T14:29:08Z</time>
      </trkpt>
      <trkpt lat="30.522167605546205" lon="114.39254629574529">
        <ele>20.58</ele>
        <time>2021-05-26T14:29:14Z</time>
      </trkpt>
      <trkpt lat="30.522105180930197" lon="114.39265677499492">
        <ele>23.19</ele>
        <time>2021-05-26T14:29:17Z</time>
      </trkpt>
      <trkpt lat="30.52209865399675" lon="114.39288268432446">
        <ele>23.04</ele>
        <time>2021-05-26T14:29:23Z</time>
      </trkpt>
      <trkpt lat="30.52220315259329" lon="114.39304256587413">
        <ele>22.32</ele>
        <time>2021-05-26T14:29:29Z</time>
      </trkpt>
      <trkpt lat="30.522264028278727" lon="114.39310678248982">
        <ele>25.51</ele>
        <time>2021-05-26T14:29:32Z</time>
      </trkpt>
      <trkpt lat="30.52253288814089" lon="114.39318069071969">
        <ele>24.03</ele>
        <time>2021-05-26T14:29:41Z</time>
      </trkpt>
      <trkpt lat="30.52270439366265" lon="114.39315511320835">
        <ele>24.42</ele>
        <time>2021-05-26T14:29:47Z</time>
      </trkpt>
      <trkpt lat="30.522804609731068" lon="114.39317699851375">
        <ele>23.41</ele>
        <time>2021-05-26T14:29:50Z</time>
      </trkpt>
      <trkpt lat="30.522971372447557" lon="114.3931397079413">
        <ele>20.91</ele>
        <time>2021-05-26T14:29:56Z</time>
      </trkpt>
      <trkpt lat="30.523329700055363" lon="114.39315822118586">
        <ele>18.68</ele>
        <time>2021-05-26T14:30:05Z</time>
      </trkpt>
      <trkpt lat="30.52342341428518" lon="114.39313015337312">
        <ele>18.0</ele>
        <time>2021-05-26T14:30:08Z</time>
      </trkpt>
      <trkpt lat="30.523571279416952" lon="114.39297650228822">
        <ele>20.89</ele>
        <time>2021-05-26T14:30:14Z</time>
      </trkpt>
      <trkpt lat="30.52362761815258" lon="114.39279901540309">
        <ele>19.68</ele>
        <time>2021-05-26T14:30:20Z</time>
      </trkpt>
      <trkpt lat="30.523599388053462" lon="114.39250176756826">
        <ele>16.58</ele>
        <time>2021-05-26T14:30:29Z</time>
      </trkpt>
      <trkpt lat="30.523532035091662" lon="114.39240650292287">
        <ele>17.41</ele>
        <time>2021-05-26T14:30:32Z</time>
      </trkpt>
      <trkpt lat="30.523450599791072" lon="114.39234439703564">
        <ele>20.59</ele>
        <time>2021-05-26T14:30:35Z</time>
      </trkpt>
      <trkpt lat="30.523283150721124" lon="114.39226949820043">
        <ele>19.07</ele>
        <time>2021-05-26T14:30:41Z</time>
      </trkpt>
      <trkpt lat="30.52318236614861" lon="114.39225387457235">
        <ele>19.75</ele>
        <time>2021-05-26T14:30:44Z</time>
      </trkpt>
      <trkpt lat="30.522948109662455" lon="114.39232058308897">
        <ele>19.1</ele>
        <time>2021-05-26T14:30:53Z</time>
      </trkpt>
      <trkpt lat="30.52261449795651" lon="114.39228352491024">
        <ele>17.73</ele>
        <time>2021-05-26T14:31:08Z</time>
      </trkpt>
      <trkpt lat="30.52245885686819" lon="114.39228489597646">
        <ele>20.02</ele>
        <time>2021-05-26T14:31:14Z</time>
      </trkpt>
      <trkpt lat="30.5223006580654" lon="114.39233878079438">
        <ele>19.0</ele>
        <time>2021-05-26T14:31:20Z</time>
      </trkpt>
      <trkpt lat="30.522235446490125" lon="114.3923772311545">
        <ele>18.23</ele>
        <time>2021-05-26T14:31:23Z</time>
      </trkpt>
      <trkpt lat="30.522184192111663" lon="114.39244580934347">
        <ele>20.43</ele>
        <time>2021-05-26T14:31:26Z</time>
      </trkpt>
      <trkpt lat="30.5221213908193" lon="114.39261311347119">
        <ele>19.91</ele>
        <time>2021-05-26T14:31:32Z</time>
      </trkpt>
      <trkpt lat="30.52212907697177" lon="114.39280915487498">
        <ele>20.34</ele>
        <time>2021-05-26T14:31:38Z</time>
      </trkpt>
      <trkpt lat="30.52218983001466" lon="114.3929896820292">
        <ele>19.01</ele>
        <time>2021-05-26T14:31:44Z</time>
      </trkpt>
      <trkpt lat="30.522400673418982" lon="114.39316574738658">
        <ele>20.19</ele>
        <time>2021-05-26T14:31:53Z</time>
      </trkpt>
      <trkpt lat="30.522702321483475" lon="114.39314595080633">
        <ele>24.76</ele>
        <time>2021-05-26T14:32:05Z</time>
      </trkpt>
      <trkpt lat="30.52304034730297" lon="114.39315765235068">
        <ele>22.28</ele>
        <time>2021-05-26T14:32:20Z</time>
      </trkpt>
      <trkpt lat="30.523283001005716" lon="114.39316404293035">
        <ele>18.7</ele>
        <time>2021-05-26T14:32:32Z</time>
      </trkpt>
      <trkpt lat="30.52350281945436" lon="114.39306418565643">
        <ele>17.82</ele>
        <time>2021-05-26T14:32:41Z</time>
      </trkpt>
      <trkpt lat="30.523566427454114" lon="114.39301081133047">
        <ele>16.94</ele>
        <time>2021-05-26T14:32:44Z</time>
      </trkpt>
      <trkpt lat="30.523634304691235" lon="114.39286905376619">
        <ele>15.36</ele>
        <time>2021-05-26T14:32:50Z</time>
      </trkpt>
      <trkpt lat="30.523643415020473" lon="114.39278509167566">
        <ele>15.71</ele>
        <time>2021-05-26T14:32:53Z</time>
      </trkpt>
      <trkpt lat="30.52361033903586" lon="114.39259071082971">
        <ele>17.46</ele>
        <time>2021-05-26T14:32:59Z</time>
      </trkpt>
      <trkpt lat="30.52351435735791" lon="114.39241684571144">
        <ele>18.85</ele>
        <time>2021-05-26T14:33:05Z</time>
      </trkpt>
      <trkpt lat="30.52344071867926" lon="114.39234003593924">
        <ele>17.95</ele>
        <time>2021-05-26T14:33:08Z</time>
      </trkpt>
      <trkpt lat="30.523256366721224" lon="114.3922961352905">
        <ele>16.22</ele>
        <time>2021-05-26T14:33:14Z</time>
      </trkpt>
      <trkpt lat="30.523176448239603" lon="114.3923056981559">
        <ele>15.27</ele>
        <time>2021-05-26T14:33:17Z</time>
      </trkpt>
      <trkpt lat="30.523097613020628" lon="114.39228647348483">
        <ele>17.16</ele>
        <time>2021-05-26T14:33:20Z</time>
      </trkpt>
      <trkpt lat="30.522779844610888" lon="114.39230552991536">
        <ele>17.65</ele>
        <time>2021-05-26T14:33:38Z</time>
      </trkpt>
      <trkpt lat="30.522693190996772" lon="114.39229345715079">
        <ele>17.86</ele>
        <time>2021-05-26T14:33:41Z</time>
      </trkpt>
      <trkpt lat="30.52253763321973" lon="114.39230895191189">
        <ele>18.56</ele>
        <time>2021-05-26T14:33:47Z</time>
      </trkpt>
      <trkpt lat="30.52246463016725" lon="114.39229874957446">
        <ele>17.34</ele>
        <time>2021-05-26T14:33:53Z</time>
      </trkpt>
      <trkpt lat="30.522293103090767" lon="114.39236050651473">
        <ele>16.32</ele>
        <time>2021-05-26T14:34:02Z</time>
      </trkpt>
      <trkpt lat="30.52217044146732" lon="114.39248620998826">
        <ele>18.41</ele>
        <time>2021-05-26T14:34:08Z</time>
      </trkpt>
      <trkpt lat="30.52210680920572" lon="114.39264937304615">
        <ele>18.18</ele>
        <time>2021-05-26T14:34:14Z</time>
      </trkpt>
      <trkpt lat="30.522102762785504" lon="114.39283488175012">
        <ele>16.35</ele>
        <time>2021-05-26T14:34:20Z</time>
      </trkpt>
      <trkpt lat="30.522170537596292" lon="114.39302261077458">
        <ele>20.36</ele>
        <time>2021-05-26T14:34:26Z</time>
      </trkpt>
      <trkpt lat="30.522245948828743" lon="114.39306738220682">
        <ele>21.15</ele>
        <time>2021-05-26T14:34:29Z</time>
      </trkpt>
      <trkpt lat="30.522311334404336" lon="114.39313094863383">
        <ele>22.78</ele>
        <time>2021-05-26T14:34:32Z</time>
      </trkpt>
      <trkpt lat="30.522384964184795" lon="114.39316959847157">
        <ele>22.8</ele>
        <time>2021-05-26T14:34:35Z</time>
      </trkpt>
      <trkpt lat="30.52272320386364" lon="114.39315524315712">
        <ele>23.25</ele>
        <time>2021-05-26T14:34:47Z</time>
      </trkpt>
      <trkpt lat="30.523022658562827" lon="114.39316367401598">
        <ele>21.54</ele>
        <time>2021-05-26T14:34:59Z</time>
      </trkpt>
      <trkpt lat="30.523328679402223" lon="114.39315549047176">
        <ele>19.27</ele>
        <time>2021-05-26T14:35:11Z</time>
      </trkpt>
      <trkpt lat="30.52345626656796" lon="114.39313857544022">
        <ele>17.21</ele>
        <time>2021-05-26T14:35:17Z</time>
      </trkpt>
      <trkpt lat="30.523559479806565" lon="114.393021064058">
        <ele>19.9</ele>
        <time>2021-05-26T14:35:23Z</time>
      </trkpt>
      <trkpt lat="30.523643759431337" lon="114.39284633775654">
        <ele>18.19</ele>
        <time>2021-05-26T14:35:29Z</time>
      </trkpt>
      <trkpt lat="30.523649757131864" lon="114.39266622045238">
        <ele>17.5</ele>
        <time>2021-05-26T14:35:35Z</time>
      </trkpt>
      <trkpt lat="30.523592416332924" lon="114.39249470574975">
        <ele>17.65</ele>
        <time>2021-05-26T14:35:41Z</time>
      </trkpt>
      <trkpt lat="30.523484591627483" lon="114.39235091858785">
        <ele>17.61</ele>
        <time>2021-05-26T14:35:47Z</time>
      </trkpt>
      <trkpt lat="30.52340401998596" lon="114.3923043667725">
        <ele>18.73</ele>
        <time>2021-05-26T14:35:50Z</time>
      </trkpt>
      <trkpt lat="30.523236542629473" lon="114.3922794410133">
        <ele>23.1</ele>
        <time>2021-05-26T14:35:56Z</time>
      </trkpt>
      <trkpt lat="30.522916491416915" lon="114.39228662434795">
        <ele>19.72</ele>
        <time>2021-05-26T14:36:08Z</time>
      </trkpt>
      <trkpt lat="30.52260539200228" lon="114.39230113955983">
        <ele>19.12</ele>
        <time>2021-05-26T14:36:20Z</time>
      </trkpt>
      <trkpt lat="30.522399910821242" lon="114.39230404125311">
        <ele>18.67</ele>
        <time>2021-05-26T14:36:29Z</time>
      </trkpt>
      <trkpt lat="30.52221670669693" lon="114.3924214728226">
        <ele>19.47</ele>
        <time>2021-05-26T14:36:38Z</time>
      </trkpt>
      <trkpt lat="30.522137199773677" lon="114.39260805207226">
        <ele>21.43</ele>
        <time>2021-05-26T14:36:44Z</time>
      </trkpt>
      <trkpt lat="30.522112978720408" lon="114.39273216473849">
        <ele>20.36</ele>
        <time>2021-05-26T14:36:47Z</time>
      </trkpt>
      <trkpt lat="30.52212321086957" lon="114.39286845047387">
        <ele>19.57</ele>
        <time>2021-05-26T14:36:50Z</time>
      </trkpt>
      <trkpt lat="30.52215884611304" lon="114.39297430812839">
        <ele>21.89</ele>
        <time>2021-05-26T14:36:53Z</time>
      </trkpt>
      <trkpt lat="30.52227098609014" lon="114.39309722994497">
        <ele>19.14</ele>
        <time>2021-05-26T14:36:59Z</time>
      </trkpt>
      <trkpt lat="30.522430743523934" lon="114.39316503706304">
        <ele>21.85</ele>
        <time>2021-05-26T14:37:05Z</time>
      </trkpt>
      <trkpt lat="30.52271084732995" lon="114.3931704172072">
        <ele>21.78</ele>
        <time>2021-05-26T14:37:17Z</time>
      </trkpt>
      <trkpt lat="30.52282377554786" lon="114.39315852356374">
        <ele>21.84</ele>
        <time>2021-05-26T14:37:23Z</time>
      </trkpt>
      <trkpt lat="30.523068322679524" lon="114.39317937794226">
        <ele>19.44</ele>
        <time>2021-05-26T14:37:32Z</time>
      </trkpt>
      <trkpt lat="30.523391281801153" lon="114.39316326223289">
        <ele>19.09</ele>
        <time>2021-05-26T14:37:47Z</time>
      </trkpt>
      <trkpt lat="30.523521958243858" lon="114.39310074518717">
        <ele>17.82</ele>
        <time>2021-05-26T14:37:53Z</time>
      </trkpt>
      <trkpt lat="30.52356455621779" lon="114.39304808113998">
        <ele>19.13</ele>
        <time>2021-05-26T14:37:56Z</time>
      </trkpt>
      <trkpt lat="30.52362567762878" lon="114.39288186717145">
        <ele>18.19</ele>
        <time>2021-05-26T14:38:02Z</time>
      </trkpt>
      <trkpt lat="30.523624688802226" lon="114.39267429268386">
        <ele>19.19</ele>
        <time>2021-05-26T14:38:08Z</time>
      </trkpt>
      <trkpt lat="30.52360140711096" lon="114.3925828588118">
        <ele>17.46</ele>
        <time>2021-05-26T14:38:11Z</time>
      </trkpt>
      <trkpt lat="30.523566000472872" lon="114.39251336075776">
        <ele>19.14</ele>
        <time>2021-05-26T14:38:14Z</time>
      </trkpt>
      <trkpt lat="30.52341171624555" lon="114.39233077364722">
        <ele>20.25</ele>
        <time>2021-05-26T14:38:23Z</time>
      </trkpt>
      <trkpt lat="30.523233622096747" lon="114.3922772804614">
        <ele>18.64</ele>
        <time>2021-05-26T14:38:32Z</time>
      </trkpt>
      <trkpt lat="30.523094307266753" lon="114.3923047182731">
        <ele>19.71</ele>
        <time>2021-05-26T14:38:38Z</time>
      </trkpt>
      <trkpt lat="30.522785979757458" lon="114.39228458440773">
        <ele>19.22</ele>
        <time>2021-05-26T14:38:50Z</time>
      </trkpt>
      <trkpt lat="30.52246674975978" lon="114.39229692908856">
        <ele>19.74</ele>
        <time>2021-05-26T14:39:02Z</time>
      </trkpt>
      <trkpt lat="30.5222843803959" lon="114.392391994797">
        <ele>19.66</ele>
        <time>2021-05-26T14:39:11Z</time>
      </trkpt>
      <trkpt lat="30.522176116709527" lon="114.39250832575664">
        <ele>20.58</ele>
        <time>2021-05-26T14:39:17Z</time>
      </trkpt>
      <trkpt lat="30.522131338378983" lon="114.39260234060139">
        <ele>22.12</ele>
        <time>2021-05-26T14:39:20Z</time>
      </trkpt>
      <trkpt lat="30.52211813473198" lon="114.39271500021091">
        <ele>22.66</ele>
        <time>2021-05-26T14:39:23Z</time>
      </trkpt>
      <trkpt lat="30.522159416722882" lon="114.39293440763869">
        <ele>25.09</ele>
        <time>2021-05-26T14:39:29Z</time>
      </trkpt>
      <trkpt lat="30.522199515441308" lon="114.39301234794443">
        <ele>25.53</ele>
        <time>2021-05-26T14:39:32Z</time>
      </trkpt>
      <trkpt lat="30.522258501728782" lon="114.39307920525984">
        <ele>25.58</ele>
        <time>2021-05-26T14:39:35Z</time>
      </trkpt>
      <trkpt lat="30.522337073875875" lon="114.39312771766673">
        <ele>24.73</ele>
        <time>2021-05-26T14:39:38Z</time>
      </trkpt>
      <trkpt lat="30.522650784014505" lon="114.39315866438649">
        <ele>20.9</ele>
        <time>2021-05-26T14:39:47Z</time>
      </trkpt>
      <trkpt lat="30.522970528114605" lon="114.39316377427919">
        <ele>19.0</ele>
        <time>2021-05-26T14:39:56Z</time>
      </trkpt>
      <trkpt lat="30.52327342689765" lon="114.39314698848513">
        <ele>18.43</ele>
        <time>2021-05-26T14:40:05Z</time>
      </trkpt>
      <trkpt lat="30.523496706167595" lon="114.39305047207719">
        <ele>18.99</ele>
        <time>2021-05-26T14:40:14Z</time>
      </trkpt>
      <trkpt lat="30.523581554546745" lon="114.39295542670159">
        <ele>18.08</ele>
        <time>2021-05-26T14:40:20Z</time>
      </trkpt>
      <trkpt lat="30.523619398038132" lon="114.39288384772031">
        <ele>19.16</ele>
        <time>2021-05-26T14:40:23Z</time>
      </trkpt>
      <trkpt lat="30.523594520802906" lon="114.39259884303377">
        <ele>18.45</ele>
        <time>2021-05-26T14:40:32Z</time>
      </trkpt>
      <trkpt lat="30.52346511445378" lon="114.39240636319066">
        <ele>17.12</ele>
        <time>2021-05-26T14:40:38Z</time>
      </trkpt>
      <trkpt lat="30.52338075676054" lon="114.39233416467545">
        <ele>17.98</ele>
        <time>2021-05-26T14:40:41Z</time>
      </trkpt>
      <trkpt lat="30.523257358558823" lon="114.39230393732721">
        <ele>17.3</ele>
        <time>2021-05-26T14:40:44Z</time>
      </trkpt>
      <trkpt lat="30.523060082160672" lon="114.39228425307465">
        <ele>16.31</ele>
        <time>2021-05-26T14:40:50Z</time>
      </trkpt>
      <trkpt lat="30.522806920216585" lon="114.39228573461341">
        <ele>16.9</ele>
        <time>2021-05-26T14:40:59Z</time>
      </trkpt>
      <trkpt lat="30.52256097284023" lon="114.39226375998352">
        <ele>17.82</ele>
        <time>2021-05-26T14:41:08Z</time>
      </trkpt>
      <trkpt lat="30.522360528145807" lon="114.39233681000651">
        <ele>27.48</ele>
        <time>2021-05-26T14:41:20Z</time>
      </trkpt>
      <trkpt lat="30.52219851910437" lon="114.39247505693902">
        <ele>26.73</ele>
        <time>2021-05-26T14:41:29Z</time>
      </trkpt>
      <trkpt lat="30.5221230031249" lon="114.39262286602113">
        <ele>27.19</ele>
        <time>2021-05-26T14:41:35Z</time>
      </trkpt>
      <trkpt lat="30.52210280519499" lon="114.39271756095248">
        <ele>26.06</ele>
        <time>2021-05-26T14:41:38Z</time>
      </trkpt>
      <trkpt lat="30.522142422937677" lon="114.39291898366275">
        <ele>26.77</ele>
        <time>2021-05-26T14:41:44Z</time>
      </trkpt>
      <trkpt lat="30.522236632001135" lon="114.39303876472245">
        <ele>26.35</ele>
        <time>2021-05-26T14:41:50Z</time>
      </trkpt>
      <trkpt lat="30.522385888197533" lon="114.39314417177512">
        <ele>25.48</ele>
        <time>2021-05-26T14:41:56Z</time>
      </trkpt>
      <trkpt lat="30.522473042074413" lon="114.39315726482529">
        <ele>25.23</ele>
        <time>2021-05-26T14:41:59Z</time>
      </trkpt>
      <trkpt lat="30.522631550479392" lon="114.39314441072241">
        <ele>22.89</ele>
        <time>2021-05-26T14:42:05Z</time>
      </trkpt>
      <trkpt lat="30.52297411133386" lon="114.39317728782001">
        <ele>22.26</ele>
        <time>2021-05-26T14:42:17Z</time>
      </trkpt>
      <trkpt lat="30.523255607717594" lon="114.39315114966125">
        <ele>19.17</ele>
        <time>2021-05-26T14:42:29Z</time>
      </trkpt>
      <trkpt lat="30.523473686574594" lon="114.39305308286849">
        <ele>17.89</ele>
        <time>2021-05-26T14:42:38Z</time>
      </trkpt>
      <trkpt lat="30.52352486317891" lon="114.39299425716686">
        <ele>15.69</ele>
        <time>2021-05-26T14:42:41Z</time>
      </trkpt>
      <trkpt lat="30.523557683815888" lon="114.39291076507298">
        <ele>14.93</ele>
        <time>2021-05-26T14:42:44Z</time>
      </trkpt>
      <trkpt lat="30.523563802693346" lon="114.39282077140584">
        <ele>17.51</ele>
        <time>2021-05-26T14:42:47Z</time>
      </trkpt>
      <trkpt lat="30.52358971350339" lon="114.39273817960598">
        <ele>18.44</ele>
        <time>2021-05-26T14:42:51Z</time>
      </trkpt>
      <trkpt lat="30.523589006058522" lon="114.39266399014359">
        <ele>19.12</ele>
        <time>2021-05-26T14:42:53Z</time>
      </trkpt>
      <trkpt lat="30.523547990025943" lon="114.39251215052255">
        <ele>21.01</ele>
        <time>2021-05-26T14:42:59Z</time>
      </trkpt>
      <trkpt lat="30.523440706618214" lon="114.39237389480145">
        <ele>18.81</ele>
        <time>2021-05-26T14:43:08Z</time>
      </trkpt>
      <trkpt lat="30.523371785328735" lon="114.39232840320854">
        <ele>20.35</ele>
        <time>2021-05-26T14:43:11Z</time>
      </trkpt>
      <trkpt lat="30.52321181694656" lon="114.3922988161945">
        <ele>18.49</ele>
        <time>2021-05-26T14:43:17Z</time>
      </trkpt>
      <trkpt lat="30.52311399812949" lon="114.39230763894771">
        <ele>17.0</ele>
        <time>2021-05-26T14:43:20Z</time>
      </trkpt>
      <trkpt lat="30.522964409072834" lon="114.3922747710293">
        <ele>16.52</ele>
        <time>2021-05-26T14:43:26Z</time>
      </trkpt>
      <trkpt lat="30.52283182246739" lon="114.39229437676106">
        <ele>19.32</ele>
        <time>2021-05-26T14:43:32Z</time>
      </trkpt>
      <trkpt lat="30.522516640511693" lon="114.39229820919665">
        <ele>20.39</ele>
        <time>2021-05-26T14:43:48Z</time>
      </trkpt>
      <trkpt lat="30.522382410885445" lon="114.3923049915813">
        <ele>18.47</ele>
        <time>2021-05-26T14:43:53Z</time>
      </trkpt>
      <trkpt lat="30.52230254647151" lon="114.3923319089875">
        <ele>18.65</ele>
        <time>2021-05-26T14:43:56Z</time>
      </trkpt>
      <trkpt lat="30.522227599428675" lon="114.39239006454972">
        <ele>20.24</ele>
        <time>2021-05-26T14:43:59Z</time>
      </trkpt>
      <trkpt lat="30.5221284136246" lon="114.39253962417489">
        <ele>21.15</ele>
        <time>2021-05-26T14:44:05Z</time>
      </trkpt>
      <trkpt lat="30.522095995023214" lon="114.39263198853605">
        <ele>20.57</ele>
        <time>2021-05-26T14:44:08Z</time>
      </trkpt>
      <trkpt lat="30.522088598995637" lon="114.39273427540311">
        <ele>20.72</ele>
        <time>2021-05-26T14:44:11Z</time>
      </trkpt>
      <trkpt lat="30.522109543222076" lon="114.39287897330013">
        <ele>21.18</ele>
        <time>2021-05-26T14:44:14Z</time>
      </trkpt>
      <trkpt lat="30.52217317266732" lon="114.39300158523424">
        <ele>21.24</ele>
        <time>2021-05-26T14:44:17Z</time>
      </trkpt>
      <trkpt lat="30.522249667332794" lon="114.39310332164447">
        <ele>20.85</ele>
        <time>2021-05-26T14:44:20Z</time>
      </trkpt>
      <trkpt lat="30.522349335704284" lon="114.39317741068972">
        <ele>21.97</ele>
        <time>2021-05-26T14:44:23Z</time>
      </trkpt>
      <trkpt lat="30.522456440019813" lon="114.3931915939371">
        <ele>24.62</ele>
        <time>2021-05-26T14:44:26Z</time>
      </trkpt>
      <trkpt lat="30.522736064131042" lon="114.39315588326718">
        <ele>20.44</ele>
        <time>2021-05-26T14:44:32Z</time>
      </trkpt>
      <trkpt lat="30.52309088536547" lon="114.39318990060988">
        <ele>19.72</ele>
        <time>2021-05-26T14:44:41Z</time>
      </trkpt>
      <trkpt lat="30.52319019659672" lon="114.39319131052989">
        <ele>20.25</ele>
        <time>2021-05-26T14:44:44Z</time>
      </trkpt>
      <trkpt lat="30.52344920168393" lon="114.39311813009209">
        <ele>18.32</ele>
        <time>2021-05-26T14:44:53Z</time>
      </trkpt>
      <trkpt lat="30.52352374853813" lon="114.39305949432733">
        <ele>18.22</ele>
        <time>2021-05-26T14:44:56Z</time>
      </trkpt>
      <trkpt lat="30.523595450647303" lon="114.39293833214553">
        <ele>15.54</ele>
        <time>2021-05-26T14:45:02Z</time>
      </trkpt>
      <trkpt lat="30.52362807751975" lon="114.39283881585233">
        <ele>17.07</ele>
        <time>2021-05-26T14:45:05Z</time>
      </trkpt>
      <trkpt lat="30.52364127625686" lon="114.39257768727475">
        <ele>18.16</ele>
        <time>2021-05-26T14:45:14Z</time>
      </trkpt>
      <trkpt lat="30.52360643759363" lon="114.39249953695176">
        <ele>20.77</ele>
        <time>2021-05-26T14:45:17Z</time>
      </trkpt>
      <trkpt lat="30.5235438880355" lon="114.39241859603544">
        <ele>22.25</ele>
        <time>2021-05-26T14:45:20Z</time>
      </trkpt>
      <trkpt lat="30.523388355748235" lon="114.39232955343417">
        <ele>19.27</ele>
        <time>2021-05-26T14:45:26Z</time>
      </trkpt>
      <trkpt lat="30.522997754233963" lon="114.39229550630205">
        <ele>18.77</ele>
        <time>2021-05-26T14:45:35Z</time>
      </trkpt>
      <trkpt lat="30.522629078004133" lon="114.39228316474973">
        <ele>17.09</ele>
        <time>2021-05-26T14:45:47Z</time>
      </trkpt>
      <trkpt lat="30.522341151125836" lon="114.3922649412918">
        <ele>17.48</ele>
        <time>2021-05-26T14:45:56Z</time>
      </trkpt>
      <trkpt lat="30.522248038620166" lon="114.39230052102242">
        <ele>19.19</ele>
        <time>2021-05-26T14:46:05Z</time>
      </trkpt>
    </trkseg>
  </trk>
</gpx>