<?xml version="1.0" encoding="UTF-8"?>
<gpx xmlns="http://www.topografix.com/GPX/1/1" xmlns:gpxtpx="http://www.garmin.com/xmlschemas/TrackPointExtension/v1" xmlns:xsi="http://www.w3.org/2001/XMLSchema-instance" xsi:schemaLocation="http://www.topografix.com/GPX/1/1 http://www.topografix.com/GPX/1/1/gpx.xsd" version="1.1" creator="gpx.py -- https://github.com/tkrajina/gpxpy">
  <trk>
    <name>gpx from keep</name>
    <type>Run</type>
    <trkseg>
      <trkpt lat="35.97465285857054" lon="119.5079955925819">
        <ele>79.56</ele>
        <time>2020-05-26T13:27:54Z</time>
      </trkpt>
      <trkpt lat="35.97472842767029" lon="119.50800317094318">
        <ele>95.28</ele>
        <time>2020-05-26T13:28:00Z</time>
      </trkpt>
      <trkpt lat="35.974887739024375" lon="119.5079629024738">
        <ele>101.18</ele>
        <time>2020-05-26T13:28:06Z</time>
      </trkpt>
      <trkpt lat="35.97497726856573" lon="119.50796137146412">
        <ele>102.5</ele>
        <time>2020-05-26T13:28:09Z</time>
      </trkpt>
      <trkpt lat="35.97506083110007" lon="119.50790849506689">
        <ele>104.0</ele>
        <time>2020-05-26T13:28:12Z</time>
      </trkpt>
      <trkpt lat="35.975034643720434" lon="119.50768982455972">
        <ele>104.64</ele>
        <time>2020-05-26T13:28:18Z</time>
      </trkpt>
      <trkpt lat="35.975092045680555" lon="119.50764885738563">
        <ele>102.47</ele>
        <time>2020-05-26T13:28:21Z</time>
      </trkpt>
      <trkpt lat="35.9753112759973" lon="119.50761941713401">
        <ele>102.2</ele>
        <time>2020-05-26T13:28:30Z</time>
      </trkpt>
      <trkpt lat="35.975351040407446" lon="119.50771422838724">
        <ele>101.52</ele>
        <time>2020-05-26T13:28:33Z</time>
      </trkpt>
      <trkpt lat="35.9753766181681" lon="119.50809855416482">
        <ele>104.14</ele>
        <time>2020-05-26T13:28:45Z</time>
      </trkpt>
      <trkpt lat="35.975393325379365" lon="119.50848202933068">
        <ele>102.66</ele>
        <time>2020-05-26T13:28:57Z</time>
      </trkpt>
      <trkpt lat="35.97541719328994" lon="119.50867962087528">
        <ele>101.88</ele>
        <time>2020-05-26T13:29:03Z</time>
      </trkpt>
      <trkpt lat="35.97542245695082" lon="119.50894491610647">
        <ele>101.79</ele>
        <time>2020-05-26T13:29:12Z</time>
      </trkpt>
      <trkpt lat="35.975443630764055" lon="119.50904219668254">
        <ele>103.77</ele>
        <time>2020-05-26T13:29:15Z</time>
      </trkpt>
      <trkpt lat="35.97543783488413" lon="119.50913655782945">
        <ele>101.52</ele>
        <time>2020-05-26T13:29:18Z</time>
      </trkpt>
      <trkpt lat="35.97546702912074" lon="119.5092250790376">
        <ele>102.07</ele>
        <time>2020-05-26T13:29:21Z</time>
      </trkpt>
      <trkpt lat="35.97547767311279" lon="119.50931867995399">
        <ele>102.5</ele>
        <time>2020-05-26T13:29:24Z</time>
      </trkpt>
      <trkpt lat="35.975449302507066" lon="119.50964130911454">
        <ele>102.51</ele>
        <time>2020-05-26T13:29:33Z</time>
      </trkpt>
      <trkpt lat="35.975465504250195" lon="119.50991760174134">
        <ele>104.6</ele>
        <time>2020-05-26T13:29:42Z</time>
      </trkpt>
      <trkpt lat="35.97545460808564" lon="119.51001126257864">
        <ele>103.15</ele>
        <time>2020-05-26T13:29:45Z</time>
      </trkpt>
      <trkpt lat="35.97546205080871" lon="119.51011924170099">
        <ele>103.41</ele>
        <time>2020-05-26T13:29:48Z</time>
      </trkpt>
      <trkpt lat="35.97540047854772" lon="119.51015843855902">
        <ele>103.69</ele>
        <time>2020-05-26T13:29:51Z</time>
      </trkpt>
      <trkpt lat="35.97511634009827" lon="119.51016122191393">
        <ele>107.22</ele>
        <time>2020-05-26T13:30:03Z</time>
      </trkpt>
      <trkpt lat="35.97486345921565" lon="119.51019723153031">
        <ele>104.55</ele>
        <time>2020-05-26T13:30:15Z</time>
      </trkpt>
      <trkpt lat="35.97464723300971" lon="119.51016059797597">
        <ele>103.62</ele>
        <time>2020-05-26T13:30:24Z</time>
      </trkpt>
      <trkpt lat="35.97459598044418" lon="119.51020326434416">
        <ele>104.99</ele>
        <time>2020-05-26T13:30:27Z</time>
      </trkpt>
      <trkpt lat="35.97446269067408" lon="119.51021192517717">
        <ele>106.53</ele>
        <time>2020-05-26T13:30:33Z</time>
      </trkpt>
      <trkpt lat="35.974402692886486" lon="119.51022428092946">
        <ele>104.53</ele>
        <time>2020-05-26T13:30:36Z</time>
      </trkpt>
      <trkpt lat="35.974257651301166" lon="119.51022119686566">
        <ele>104.97</ele>
        <time>2020-05-26T13:30:41Z</time>
      </trkpt>
      <trkpt lat="35.974002568885126" lon="119.51027986421059">
        <ele>101.98</ele>
        <time>2020-05-26T13:30:54Z</time>
      </trkpt>
      <trkpt lat="35.97385866064272" lon="119.5102669373558">
        <ele>101.6</ele>
        <time>2020-05-26T13:31:00Z</time>
      </trkpt>
      <trkpt lat="35.97379770001848" lon="119.51028162665189">
        <ele>102.07</ele>
        <time>2020-05-26T13:31:03Z</time>
      </trkpt>
      <trkpt lat="35.973725521960816" lon="119.51025950980753">
        <ele>103.83</ele>
        <time>2020-05-26T13:31:06Z</time>
      </trkpt>
      <trkpt lat="35.97342349975737" lon="119.51031912764378">
        <ele>105.9</ele>
        <time>2020-05-26T13:31:21Z</time>
      </trkpt>
      <trkpt lat="35.97320640073365" lon="119.51032428989642">
        <ele>108.19</ele>
        <time>2020-05-26T13:31:30Z</time>
      </trkpt>
      <trkpt lat="35.97307338901797" lon="119.51036138783697">
        <ele>106.91</ele>
        <time>2020-05-26T13:31:36Z</time>
      </trkpt>
      <trkpt lat="35.97277997013357" lon="119.51037133057848">
        <ele>104.79</ele>
        <time>2020-05-26T13:31:51Z</time>
      </trkpt>
      <trkpt lat="35.97248538285569" lon="119.51035784571171">
        <ele>104.77</ele>
        <time>2020-05-26T13:32:06Z</time>
      </trkpt>
      <trkpt lat="35.97233720157404" lon="119.51038987435419">
        <ele>104.79</ele>
        <time>2020-05-26T13:32:15Z</time>
      </trkpt>
      <trkpt lat="35.972047451854145" lon="119.5104116758407">
        <ele>104.24</ele>
        <time>2020-05-26T13:32:33Z</time>
      </trkpt>
      <trkpt lat="35.97174512254975" lon="119.51042850799104">
        <ele>105.44</ele>
        <time>2020-05-26T13:32:51Z</time>
      </trkpt>
      <trkpt lat="35.971688383881755" lon="119.51041413017919">
        <ele>106.13</ele>
        <time>2020-05-26T13:32:54Z</time>
      </trkpt>
      <trkpt lat="35.971638496759" lon="119.51037652463829">
        <ele>107.36</ele>
        <time>2020-05-26T13:32:57Z</time>
      </trkpt>
      <trkpt lat="35.97162340116115" lon="119.51031331123826">
        <ele>107.22</ele>
        <time>2020-05-26T13:33:00Z</time>
      </trkpt>
      <trkpt lat="35.9716019000662" lon="119.50988452440852">
        <ele>109.33</ele>
        <time>2020-05-26T13:33:21Z</time>
      </trkpt>
      <trkpt lat="35.97160372841281" lon="119.50960448186791">
        <ele>110.4</ele>
        <time>2020-05-26T13:33:39Z</time>
      </trkpt>
      <trkpt lat="35.97157570315973" lon="119.50937830411473">
        <ele>111.08</ele>
        <time>2020-05-26T13:33:48Z</time>
      </trkpt>
      <trkpt lat="35.971541536362814" lon="119.50901415921285">
        <ele>112.55</ele>
        <time>2020-05-26T13:34:03Z</time>
      </trkpt>
      <trkpt lat="35.9715182094858" lon="119.50880439915223">
        <ele>111.75</ele>
        <time>2020-05-26T13:34:12Z</time>
      </trkpt>
      <trkpt lat="35.97145930459313" lon="119.50856218228924">
        <ele>115.89</ele>
        <time>2020-05-26T13:34:27Z</time>
      </trkpt>
      <trkpt lat="35.97147171501923" lon="119.50821813337926">
        <ele>114.13</ele>
        <time>2020-05-26T13:34:45Z</time>
      </trkpt>
      <trkpt lat="35.971447596408346" lon="119.50785200623525">
        <ele>115.28</ele>
        <time>2020-05-26T13:35:03Z</time>
      </trkpt>
      <trkpt lat="35.971462242250624" lon="119.50757043058317">
        <ele>115.38</ele>
        <time>2020-05-26T13:35:18Z</time>
      </trkpt>
      <trkpt lat="35.971442258173816" lon="119.50728479528551">
        <ele>110.45</ele>
        <time>2020-05-26T13:35:30Z</time>
      </trkpt>
      <trkpt lat="35.97143865618664" lon="119.50695126331364">
        <ele>112.19</ele>
        <time>2020-05-26T13:35:39Z</time>
      </trkpt>
      <trkpt lat="35.97141106611938" lon="119.50657374460364">
        <ele>118.06</ele>
        <time>2020-05-26T13:35:51Z</time>
      </trkpt>
      <trkpt lat="35.971393149754704" lon="119.50630808613435">
        <ele>117.01</ele>
        <time>2020-05-26T13:36:00Z</time>
      </trkpt>
      <trkpt lat="35.97140133945641" lon="119.50611259145762">
        <ele>115.33</ele>
        <time>2020-05-26T13:36:06Z</time>
      </trkpt>
      <trkpt lat="35.97136924614293" lon="119.50577385810156">
        <ele>116.07</ele>
        <time>2020-05-26T13:36:15Z</time>
      </trkpt>
      <trkpt lat="35.971331717757195" lon="119.50531785289775">
        <ele>118.3</ele>
        <time>2020-05-26T13:36:27Z</time>
      </trkpt>
      <trkpt lat="35.97133483227017" lon="119.50521857017712">
        <ele>118.45</ele>
        <time>2020-05-26T13:36:30Z</time>
      </trkpt>
      <trkpt lat="35.97129981045151" lon="119.50504160353555">
        <ele>113.03</ele>
        <time>2020-05-26T13:36:36Z</time>
      </trkpt>
      <trkpt lat="35.97131601425119" lon="119.50472508598774">
        <ele>112.72</ele>
        <time>2020-05-26T13:36:45Z</time>
      </trkpt>
      <trkpt lat="35.97129940446633" lon="119.50448800280867">
        <ele>112.03</ele>
        <time>2020-05-26T13:36:51Z</time>
      </trkpt>
      <trkpt lat="35.97117286372854" lon="119.5042841984538">
        <ele>113.69</ele>
        <time>2020-05-26T13:37:00Z</time>
      </trkpt>
      <trkpt lat="35.97111459682184" lon="119.50421749373965">
        <ele>114.61</ele>
        <time>2020-05-26T13:37:03Z</time>
      </trkpt>
      <trkpt lat="35.97100731731774" lon="119.50422135484862">
        <ele>115.17</ele>
        <time>2020-05-26T13:37:09Z</time>
      </trkpt>
      <trkpt lat="35.97085826606951" lon="119.50427391317649">
        <ele>112.71</ele>
        <time>2020-05-26T13:37:15Z</time>
      </trkpt>
      <trkpt lat="35.9707560764626" lon="119.50427949410174">
        <ele>111.3</ele>
        <time>2020-05-26T13:37:18Z</time>
      </trkpt>
      <trkpt lat="35.97058285841925" lon="119.50425758780892">
        <ele>109.07</ele>
        <time>2020-05-26T13:37:24Z</time>
      </trkpt>
      <trkpt lat="35.970520127148305" lon="119.5042977458707">
        <ele>110.97</ele>
        <time>2020-05-26T13:37:27Z</time>
      </trkpt>
      <trkpt lat="35.97035155898289" lon="119.50427815936227">
        <ele>105.83</ele>
        <time>2020-05-26T13:37:33Z</time>
      </trkpt>
      <trkpt lat="35.970079109234625" lon="119.50431231051023">
        <ele>108.57</ele>
        <time>2020-05-26T13:37:45Z</time>
      </trkpt>
      <trkpt lat="35.97000031021693" lon="119.50430015234853">
        <ele>111.5</ele>
        <time>2020-05-26T13:37:48Z</time>
      </trkpt>
      <trkpt lat="35.969924780078756" lon="119.50431464232256">
        <ele>112.05</ele>
        <time>2020-05-26T13:37:51Z</time>
      </trkpt>
      <trkpt lat="35.969838531006666" lon="119.5043049040907">
        <ele>114.41</ele>
        <time>2020-05-26T13:37:54Z</time>
      </trkpt>
      <trkpt lat="35.969667820613964" lon="119.50433954389973">
        <ele>114.02</ele>
        <time>2020-05-26T13:38:00Z</time>
      </trkpt>
      <trkpt lat="35.9695697516245" lon="119.5043295758359">
        <ele>113.86</ele>
        <time>2020-05-26T13:38:03Z</time>
      </trkpt>
      <trkpt lat="35.96932760100735" lon="119.50437998546836">
        <ele>112.32</ele>
        <time>2020-05-26T13:38:12Z</time>
      </trkpt>
      <trkpt lat="35.969187282466244" lon="119.50436546825902">
        <ele>109.9</ele>
        <time>2020-05-26T13:38:18Z</time>
      </trkpt>
      <trkpt lat="35.969060421473436" lon="119.50440785696168">
        <ele>109.87</ele>
        <time>2020-05-26T13:38:24Z</time>
      </trkpt>
      <trkpt lat="35.968900722837475" lon="119.50439848964723">
        <ele>111.9</ele>
        <time>2020-05-26T13:38:30Z</time>
      </trkpt>
      <trkpt lat="35.9686170019707" lon="119.5044605089871">
        <ele>113.35</ele>
        <time>2020-05-26T13:38:42Z</time>
      </trkpt>
      <trkpt lat="35.968515983274585" lon="119.50444410141272">
        <ele>112.37</ele>
        <time>2020-05-26T13:38:48Z</time>
      </trkpt>
      <trkpt lat="35.968238724393764" lon="119.50445769401307">
        <ele>113.61</ele>
        <time>2020-05-26T13:39:00Z</time>
      </trkpt>
      <trkpt lat="35.96809429562945" lon="119.50444921644417">
        <ele>113.22</ele>
        <time>2020-05-26T13:39:06Z</time>
      </trkpt>
      <trkpt lat="35.968039424069964" lon="119.50449426402263">
        <ele>114.3</ele>
        <time>2020-05-26T13:39:09Z</time>
      </trkpt>
      <trkpt lat="35.96781934619961" lon="119.50447552813284">
        <ele>113.85</ele>
        <time>2020-05-26T13:39:18Z</time>
      </trkpt>
      <trkpt lat="35.96767868632158" lon="119.50449298871747">
        <ele>115.25</ele>
        <time>2020-05-26T13:39:24Z</time>
      </trkpt>
      <trkpt lat="35.96735190711897" lon="119.50452127092389">
        <ele>116.07</ele>
        <time>2020-05-26T13:39:39Z</time>
      </trkpt>
      <trkpt lat="35.967134517841444" lon="119.50453550270834">
        <ele>115.15</ele>
        <time>2020-05-26T13:39:48Z</time>
      </trkpt>
      <trkpt lat="35.96705663882466" lon="119.50452347454012">
        <ele>115.91</ele>
        <time>2020-05-26T13:39:51Z</time>
      </trkpt>
      <trkpt lat="35.96692356716037" lon="119.50458184216708">
        <ele>118.45</ele>
        <time>2020-05-26T13:39:57Z</time>
      </trkpt>
      <trkpt lat="35.966650609166585" lon="119.50457376621593">
        <ele>120.41</ele>
        <time>2020-05-26T13:40:09Z</time>
      </trkpt>
      <trkpt lat="35.966527130027494" lon="119.50457120797081">
        <ele>118.45</ele>
        <time>2020-05-26T13:40:15Z</time>
      </trkpt>
      <trkpt lat="35.966208679978365" lon="119.50461790876652">
        <ele>116.2</ele>
        <time>2020-05-26T13:40:27Z</time>
      </trkpt>
      <trkpt lat="35.96605841997337" lon="119.50463943917313">
        <ele>116.67</ele>
        <time>2020-05-26T13:40:33Z</time>
      </trkpt>
      <trkpt lat="35.96590014082359" lon="119.50464210100608">
        <ele>116.28</ele>
        <time>2020-05-26T13:40:39Z</time>
      </trkpt>
      <trkpt lat="35.96583773042056" lon="119.50466038051731">
        <ele>116.21</ele>
        <time>2020-05-26T13:40:42Z</time>
      </trkpt>
      <trkpt lat="35.96573094470737" lon="119.50480762145989">
        <ele>117.72</ele>
        <time>2020-05-26T13:40:48Z</time>
      </trkpt>
      <trkpt lat="35.96567159307356" lon="119.5048533289581">
        <ele>118.13</ele>
        <time>2020-05-26T13:40:51Z</time>
      </trkpt>
      <trkpt lat="35.96563847096667" lon="119.50490594561462">
        <ele>119.17</ele>
        <time>2020-05-26T13:40:54Z</time>
      </trkpt>
      <trkpt lat="35.96565569399225" lon="119.5050608542179">
        <ele>119.4</ele>
        <time>2020-05-26T13:41:00Z</time>
      </trkpt>
      <trkpt lat="35.96567769058643" lon="119.50513378862887">
        <ele>117.86</ele>
        <time>2020-05-26T13:41:03Z</time>
      </trkpt>
      <trkpt lat="35.965626626598855" lon="119.50522881232018">
        <ele>118.12</ele>
        <time>2020-05-26T13:41:06Z</time>
      </trkpt>
      <trkpt lat="35.96564879302964" lon="119.50530408648825">
        <ele>117.26</ele>
        <time>2020-05-26T13:41:09Z</time>
      </trkpt>
      <trkpt lat="35.96566867147367" lon="119.50555080782712">
        <ele>116.64</ele>
        <time>2020-05-26T13:41:18Z</time>
      </trkpt>
      <trkpt lat="35.96569666725786" lon="119.50563670098266">
        <ele>116.97</ele>
        <time>2020-05-26T13:41:21Z</time>
      </trkpt>
      <trkpt lat="35.96567263845213" lon="119.50603012105547">
        <ele>120.03</ele>
        <time>2020-05-26T13:41:33Z</time>
      </trkpt>
      <trkpt lat="35.96567124320766" lon="119.5061366827374">
        <ele>118.91</ele>
        <time>2020-05-26T13:41:36Z</time>
      </trkpt>
      <trkpt lat="35.96570844858988" lon="119.50622497530861">
        <ele>117.95</ele>
        <time>2020-05-26T13:41:39Z</time>
      </trkpt>
      <trkpt lat="35.96572419119686" lon="119.50656617783127">
        <ele>119.86</ele>
        <time>2020-05-26T13:41:48Z</time>
      </trkpt>
      <trkpt lat="35.96570357184864" lon="119.50693859759308">
        <ele>120.45</ele>
        <time>2020-05-26T13:41:57Z</time>
      </trkpt>
      <trkpt lat="35.965706900238885" lon="119.50733830396973">
        <ele>117.95</ele>
        <time>2020-05-26T13:42:09Z</time>
      </trkpt>
      <trkpt lat="35.96569810865385" lon="119.50754849607263">
        <ele>118.56</ele>
        <time>2020-05-26T13:42:18Z</time>
      </trkpt>
      <trkpt lat="35.96574548872632" lon="119.50789540521816">
        <ele>122.51</ele>
        <time>2020-05-26T13:42:30Z</time>
      </trkpt>
      <trkpt lat="35.96571849217499" lon="119.50818351994151">
        <ele>118.29</ele>
        <time>2020-05-26T13:42:39Z</time>
      </trkpt>
      <trkpt lat="35.96574327399816" lon="119.50848734211914">
        <ele>117.52</ele>
        <time>2020-05-26T13:42:48Z</time>
      </trkpt>
      <trkpt lat="35.965750656765586" lon="119.50877083590792">
        <ele>120.38</ele>
        <time>2020-05-26T13:42:57Z</time>
      </trkpt>
      <trkpt lat="35.96576767110942" lon="119.50886118727581">
        <ele>119.63</ele>
        <time>2020-05-26T13:43:00Z</time>
      </trkpt>
      <trkpt lat="35.96576914533492" lon="119.50927304833881">
        <ele>118.02</ele>
        <time>2020-05-26T13:43:12Z</time>
      </trkpt>
      <trkpt lat="35.965778022843374" lon="119.50962236450079">
        <ele>118.03</ele>
        <time>2020-05-26T13:43:24Z</time>
      </trkpt>
      <trkpt lat="35.96578793531217" lon="119.51003914327816">
        <ele>118.29</ele>
        <time>2020-05-26T13:43:36Z</time>
      </trkpt>
      <trkpt lat="35.965772470441365" lon="119.51040828629871">
        <ele>122.33</ele>
        <time>2020-05-26T13:43:48Z</time>
      </trkpt>
      <trkpt lat="35.96579074881292" lon="119.51057567896716">
        <ele>121.88</ele>
        <time>2020-05-26T13:43:54Z</time>
      </trkpt>
      <trkpt lat="35.965797140109835" lon="119.51084327124167">
        <ele>118.56</ele>
        <time>2020-05-26T13:44:03Z</time>
      </trkpt>
      <trkpt lat="35.96578046553625" lon="119.51090961454163">
        <ele>119.13</ele>
        <time>2020-05-26T13:44:06Z</time>
      </trkpt>
      <trkpt lat="35.96580968981693" lon="119.51098788598314">
        <ele>121.45</ele>
        <time>2020-05-26T13:44:12Z</time>
      </trkpt>
      <trkpt lat="35.96599506202609" lon="119.51094071855528">
        <ele>119.91</ele>
        <time>2020-05-26T13:44:24Z</time>
      </trkpt>
      <trkpt lat="35.96627952309302" lon="119.5109010190724">
        <ele>116.24</ele>
        <time>2020-05-26T13:44:42Z</time>
      </trkpt>
      <trkpt lat="35.96658837272412" lon="119.51087948737725">
        <ele>117.2</ele>
        <time>2020-05-26T13:44:51Z</time>
      </trkpt>
      <trkpt lat="35.96680381186415" lon="119.51087300530389">
        <ele>116.51</ele>
        <time>2020-05-26T13:44:57Z</time>
      </trkpt>
      <trkpt lat="35.96689783266614" lon="119.51085345613983">
        <ele>117.51</ele>
        <time>2020-05-26T13:45:00Z</time>
      </trkpt>
      <trkpt lat="35.96719800273083" lon="119.51082644511881">
        <ele>118.87</ele>
        <time>2020-05-26T13:45:09Z</time>
      </trkpt>
      <trkpt lat="35.967503504051656" lon="119.51078100593719">
        <ele>118.71</ele>
        <time>2020-05-26T13:45:21Z</time>
      </trkpt>
      <trkpt lat="35.96778056309722" lon="119.51077045349514">
        <ele>120.31</ele>
        <time>2020-05-26T13:45:30Z</time>
      </trkpt>
      <trkpt lat="35.968095924158895" lon="119.51072770389534">
        <ele>119.88</ele>
        <time>2020-05-26T13:45:42Z</time>
      </trkpt>
      <trkpt lat="35.968401634344275" lon="119.51069826303507">
        <ele>115.47</ele>
        <time>2020-05-26T13:45:54Z</time>
      </trkpt>
      <trkpt lat="35.96872336324039" lon="119.51068588020603">
        <ele>115.68</ele>
        <time>2020-05-26T13:46:06Z</time>
      </trkpt>
      <trkpt lat="35.969017840797385" lon="119.51069510549438">
        <ele>114.78</ele>
        <time>2020-05-26T13:46:21Z</time>
      </trkpt>
      <trkpt lat="35.969102380991224" lon="119.51068490546768">
        <ele>112.99</ele>
        <time>2020-05-26T13:46:24Z</time>
      </trkpt>
      <trkpt lat="35.96919101309006" lon="119.5106469482484">
        <ele>114.25</ele>
        <time>2020-05-26T13:46:27Z</time>
      </trkpt>
      <trkpt lat="35.969478162693036" lon="119.51062738659519">
        <ele>113.9</ele>
        <time>2020-05-26T13:46:39Z</time>
      </trkpt>
      <trkpt lat="35.96954706884738" lon="119.51067665064119">
        <ele>113.12</ele>
        <time>2020-05-26T13:46:45Z</time>
      </trkpt>
      <trkpt lat="35.96970051826639" lon="119.51067151921085">
        <ele>117.17</ele>
        <time>2020-05-26T13:46:54Z</time>
      </trkpt>
      <trkpt lat="35.96988192164248" lon="119.51060694354106">
        <ele>116.18</ele>
        <time>2020-05-26T13:47:06Z</time>
      </trkpt>
      <trkpt lat="35.97016512061382" lon="119.51059680096625">
        <ele>113.72</ele>
        <time>2020-05-26T13:47:15Z</time>
      </trkpt>
      <trkpt lat="35.97026468870634" lon="119.51061553776933">
        <ele>114.57</ele>
        <time>2020-05-26T13:47:21Z</time>
      </trkpt>
      <trkpt lat="35.970546112314835" lon="119.5105385120775">
        <ele>111.73</ele>
        <time>2020-05-26T13:47:30Z</time>
      </trkpt>
      <trkpt lat="35.97094202322892" lon="119.51049012196874">
        <ele>110.08</ele>
        <time>2020-05-26T13:47:39Z</time>
      </trkpt>
      <trkpt lat="35.97130081163797" lon="119.51048135828002">
        <ele>114.37</ele>
        <time>2020-05-26T13:47:48Z</time>
      </trkpt>
      <trkpt lat="35.97158509309629" lon="119.51043480939416">
        <ele>112.33</ele>
        <time>2020-05-26T13:48:00Z</time>
      </trkpt>
      <trkpt lat="35.97164212335903" lon="119.51042588957364">
        <ele>113.01</ele>
        <time>2020-05-26T13:48:03Z</time>
      </trkpt>
      <trkpt lat="35.9716642076758" lon="119.51036079590598">
        <ele>110.9</ele>
        <time>2020-05-26T13:48:06Z</time>
      </trkpt>
      <trkpt lat="35.97160586002527" lon="119.51003515940079">
        <ele>114.59</ele>
        <time>2020-05-26T13:48:24Z</time>
      </trkpt>
      <trkpt lat="35.97161460262752" lon="119.50984458819121">
        <ele>114.54</ele>
        <time>2020-05-26T13:48:36Z</time>
      </trkpt>
      <trkpt lat="35.97159912885358" lon="119.50975138756222">
        <ele>115.0</ele>
        <time>2020-05-26T13:48:42Z</time>
      </trkpt>
      <trkpt lat="35.971609412208615" lon="119.50954537754177">
        <ele>112.19</ele>
        <time>2020-05-26T13:48:54Z</time>
      </trkpt>
      <trkpt lat="35.97154202437031" lon="119.50920518111317">
        <ele>113.62</ele>
        <time>2020-05-26T13:49:06Z</time>
      </trkpt>
      <trkpt lat="35.971533246614165" lon="119.50901093962206">
        <ele>115.54</ele>
        <time>2020-05-26T13:49:12Z</time>
      </trkpt>
      <trkpt lat="35.971545752530965" lon="119.5089144585243">
        <ele>116.02</ele>
        <time>2020-05-26T13:49:15Z</time>
      </trkpt>
      <trkpt lat="35.97144591585321" lon="119.50854264425207">
        <ele>121.59</ele>
        <time>2020-05-26T13:49:24Z</time>
      </trkpt>
      <trkpt lat="35.97140962731586" lon="119.5083548218346">
        <ele>123.95</ele>
        <time>2020-05-26T13:49:30Z</time>
      </trkpt>
      <trkpt lat="35.971405723422016" lon="119.50825209116681">
        <ele>127.66</ele>
        <time>2020-05-26T13:49:33Z</time>
      </trkpt>
      <trkpt lat="35.97142855929125" lon="119.50814982005889">
        <ele>128.18</ele>
        <time>2020-05-26T13:49:36Z</time>
      </trkpt>
      <trkpt lat="35.97142787522875" lon="119.50804804915018">
        <ele>126.14</ele>
        <time>2020-05-26T13:49:39Z</time>
      </trkpt>
      <trkpt lat="35.97140511173151" lon="119.50793800919818">
        <ele>125.3</ele>
        <time>2020-05-26T13:49:42Z</time>
      </trkpt>
      <trkpt lat="35.97144853241375" lon="119.50756901088097">
        <ele>116.56</ele>
        <time>2020-05-26T13:49:54Z</time>
      </trkpt>
      <trkpt lat="35.97143088082711" lon="119.5074196739424">
        <ele>115.83</ele>
        <time>2020-05-26T13:50:00Z</time>
      </trkpt>
      <trkpt lat="35.97145832374267" lon="119.5069948694385">
        <ele>119.36</ele>
        <time>2020-05-26T13:50:12Z</time>
      </trkpt>
      <trkpt lat="35.97143316385408" lon="119.50661503097592">
        <ele>112.37</ele>
        <time>2020-05-26T13:50:24Z</time>
      </trkpt>
      <trkpt lat="35.97139867172857" lon="119.50626811923497">
        <ele>112.83</ele>
        <time>2020-05-26T13:50:36Z</time>
      </trkpt>
      <trkpt lat="35.97137974468908" lon="119.50621123397528">
        <ele>112.2</ele>
        <time>2020-05-26T13:50:39Z</time>
      </trkpt>
      <trkpt lat="35.97138145852162" lon="119.50613393003792">
        <ele>114.05</ele>
        <time>2020-05-26T13:50:42Z</time>
      </trkpt>
      <trkpt lat="35.97134745346428" lon="119.50603792798302">
        <ele>114.31</ele>
        <time>2020-05-26T13:50:45Z</time>
      </trkpt>
      <trkpt lat="35.971349528197585" lon="119.50594085549915">
        <ele>114.36</ele>
        <time>2020-05-26T13:50:48Z</time>
      </trkpt>
      <trkpt lat="35.97129220056419" lon="119.50569779585918">
        <ele>111.01</ele>
        <time>2020-05-26T13:50:57Z</time>
      </trkpt>
      <trkpt lat="35.97130700718628" lon="119.50533357204975">
        <ele>113.6</ele>
        <time>2020-05-26T13:51:09Z</time>
      </trkpt>
      <trkpt lat="35.97133159061588" lon="119.50525535751292">
        <ele>112.83</ele>
        <time>2020-05-26T13:51:12Z</time>
      </trkpt>
      <trkpt lat="35.97128411883838" lon="119.50485402723163">
        <ele>113.51</ele>
        <time>2020-05-26T13:51:24Z</time>
      </trkpt>
      <trkpt lat="35.97126613162348" lon="119.50456002822128">
        <ele>110.39</ele>
        <time>2020-05-26T13:51:33Z</time>
      </trkpt>
      <trkpt lat="35.97131123706727" lon="119.50442432706498">
        <ele>112.2</ele>
        <time>2020-05-26T13:51:39Z</time>
      </trkpt>
      <trkpt lat="35.971379400962604" lon="119.50432070331823">
        <ele>112.33</ele>
        <time>2020-05-26T13:51:45Z</time>
      </trkpt>
      <trkpt lat="35.97150572332037" lon="119.50424477688584">
        <ele>114.18</ele>
        <time>2020-05-26T13:51:54Z</time>
      </trkpt>
      <trkpt lat="35.97160424217723" lon="119.50425799472661">
        <ele>112.63</ele>
        <time>2020-05-26T13:51:57Z</time>
      </trkpt>
      <trkpt lat="35.97173139252329" lon="119.50423066496074">
        <ele>110.29</ele>
        <time>2020-05-26T13:52:00Z</time>
      </trkpt>
      <trkpt lat="35.97201877082534" lon="119.50422935137611">
        <ele>113.47</ele>
        <time>2020-05-26T13:52:06Z</time>
      </trkpt>
      <trkpt lat="35.972355231688965" lon="119.50415790191556">
        <ele>111.9</ele>
        <time>2020-05-26T13:52:15Z</time>
      </trkpt>
      <trkpt lat="35.97258138126969" lon="119.50413426061952">
        <ele>110.97</ele>
        <time>2020-05-26T13:52:24Z</time>
      </trkpt>
      <trkpt lat="35.97287797907576" lon="119.50414377618493">
        <ele>110.81</ele>
        <time>2020-05-26T13:52:33Z</time>
      </trkpt>
      <trkpt lat="35.97299999727041" lon="119.50416990285964">
        <ele>107.7</ele>
        <time>2020-05-26T13:52:39Z</time>
      </trkpt>
      <trkpt lat="35.97314964595514" lon="119.50417980027625">
        <ele>107.78</ele>
        <time>2020-05-26T13:52:48Z</time>
      </trkpt>
      <trkpt lat="35.97329528705318" lon="119.50413091171569">
        <ele>109.46</ele>
        <time>2020-05-26T13:53:00Z</time>
      </trkpt>
      <trkpt lat="35.97338520662248" lon="119.50412801076116">
        <ele>108.7</ele>
        <time>2020-05-26T13:53:06Z</time>
      </trkpt>
      <trkpt lat="35.973555877217606" lon="119.50408753130162">
        <ele>111.03</ele>
        <time>2020-05-26T13:53:18Z</time>
      </trkpt>
      <trkpt lat="35.973890265176216" lon="119.50408759702">
        <ele>106.29</ele>
        <time>2020-05-26T13:53:33Z</time>
      </trkpt>
      <trkpt lat="35.974284604831425" lon="119.50403636540902">
        <ele>103.05</ele>
        <time>2020-05-26T13:53:39Z</time>
      </trkpt>
      <trkpt lat="35.974484212725066" lon="119.50405852137217">
        <ele>103.9</ele>
        <time>2020-05-26T13:53:42Z</time>
      </trkpt>
      <trkpt lat="35.97464103257852" lon="119.50403835071612">
        <ele>103.22</ele>
        <time>2020-05-26T13:53:45Z</time>
      </trkpt>
      <trkpt lat="35.97473273358199" lon="119.50399929215116">
        <ele>102.53</ele>
        <time>2020-05-26T13:53:48Z</time>
      </trkpt>
      <trkpt lat="35.97482272299459" lon="119.50400026093514">
        <ele>102.53</ele>
        <time>2020-05-26T13:53:51Z</time>
      </trkpt>
      <trkpt lat="35.97494141022542" lon="119.50405134600301">
        <ele>101.26</ele>
        <time>2020-05-26T13:53:57Z</time>
      </trkpt>
      <trkpt lat="35.975006511015415" lon="119.5040217371502">
        <ele>101.72</ele>
        <time>2020-05-26T13:54:00Z</time>
      </trkpt>
      <trkpt lat="35.97512201003011" lon="119.50402875520332">
        <ele>100.94</ele>
        <time>2020-05-26T13:54:09Z</time>
      </trkpt>
      <trkpt lat="35.975180036965334" lon="119.50409617994177">
        <ele>102.75</ele>
        <time>2020-05-26T13:54:15Z</time>
      </trkpt>
      <trkpt lat="35.97519125070254" lon="119.50424835950572">
        <ele>103.02</ele>
        <time>2020-05-26T13:54:27Z</time>
      </trkpt>
      <trkpt lat="35.97517424815839" lon="119.50431263533736">
        <ele>103.33</ele>
        <time>2020-05-26T13:54:33Z</time>
      </trkpt>
      <trkpt lat="35.97519842402374" lon="119.50440857843844">
        <ele>105.37</ele>
        <time>2020-05-26T13:54:39Z</time>
      </trkpt>
      <trkpt lat="35.97519785210427" lon="119.50445449527399">
        <ele>104.81</ele>
        <time>2020-05-26T13:54:42Z</time>
      </trkpt>
      <trkpt lat="35.97523147643914" lon="119.50481570948412">
        <ele>103.74</ele>
        <time>2020-05-26T13:55:06Z</time>
      </trkpt>
      <trkpt lat="35.97525079452016" lon="119.50530324386166">
        <ele>99.79</ele>
        <time>2020-05-26T13:55:21Z</time>
      </trkpt>
      <trkpt lat="35.9752492034749" lon="119.50575286009276">
        <ele>101.43</ele>
        <time>2020-05-26T13:55:30Z</time>
      </trkpt>
      <trkpt lat="35.9752869613672" lon="119.50599830069378">
        <ele>100.66</ele>
        <time>2020-05-26T13:55:36Z</time>
      </trkpt>
      <trkpt lat="35.97526687175484" lon="119.50619542551827">
        <ele>101.23</ele>
        <time>2020-05-26T13:55:42Z</time>
      </trkpt>
      <trkpt lat="35.975284616757925" lon="119.50629310756467">
        <ele>99.85</ele>
        <time>2020-05-26T13:55:48Z</time>
      </trkpt>
      <trkpt lat="35.975292318966126" lon="119.50664074954247">
        <ele>101.32</ele>
        <time>2020-05-26T13:55:57Z</time>
      </trkpt>
      <trkpt lat="35.97532344683153" lon="119.50705675485801">
        <ele>102.31</ele>
        <time>2020-05-26T13:56:06Z</time>
      </trkpt>
      <trkpt lat="35.97531914861945" lon="119.50720926210631">
        <ele>103.51</ele>
        <time>2020-05-26T13:56:09Z</time>
      </trkpt>
      <trkpt lat="35.975296300197954" lon="119.50736574912555">
        <ele>103.39</ele>
        <time>2020-05-26T13:56:12Z</time>
      </trkpt>
      <trkpt lat="35.975232083719014" lon="119.507489929319">
        <ele>103.53</ele>
        <time>2020-05-26T13:56:15Z</time>
      </trkpt>
      <trkpt lat="35.975223529457" lon="119.5075672727664">
        <ele>104.34</ele>
        <time>2020-05-26T13:56:18Z</time>
      </trkpt>
      <trkpt lat="35.97515705320713" lon="119.50768567335507">
        <ele>104.3</ele>
        <time>2020-05-26T13:56:30Z</time>
      </trkpt>
      <trkpt lat="35.97508591129557" lon="119.50790242528137">
        <ele>105.33</ele>
        <time>2020-05-26T13:56:45Z</time>
      </trkpt>
      <trkpt lat="35.97504835784752" lon="119.5079662901195">
        <ele>106.98</ele>
        <time>2020-05-26T13:56:51Z</time>
      </trkpt>
      <trkpt lat="35.9749267562914" lon="119.50800605815029">
        <ele>106.74</ele>
        <time>2020-05-26T13:57:03Z</time>
      </trkpt>
      <trkpt lat="35.97464449933511" lon="119.50798325378261">
        <ele>110.23</ele>
        <time>2020-05-26T13:57:27Z</time>
      </trkpt>
      <trkpt lat="35.97457667117098" lon="119.50795863682984">
        <ele>109.95</ele>
        <time>2020-05-26T13:57:33Z</time>
      </trkpt>
      <trkpt lat="35.974487388647574" lon="119.50783792861225">
        <ele>104.96</ele>
        <time>2020-05-26T13:57:45Z</time>
      </trkpt>
      <trkpt lat="35.97445297835698" lon="119.50784668828283">
        <ele>104.65</ele>
        <time>2020-05-26T13:57:48Z</time>
      </trkpt>
    </trkseg>
  </trk>
</gpx>