<?xml version="1.0" encoding="UTF-8"?>
<gpx xmlns="http://www.topografix.com/GPX/1/1" xmlns:gpxtpx="http://www.garmin.com/xmlschemas/TrackPointExtension/v1" xmlns:xsi="http://www.w3.org/2001/XMLSchema-instance" xsi:schemaLocation="http://www.topografix.com/GPX/1/1 http://www.topografix.com/GPX/1/1/gpx.xsd" version="1.1" creator="gpx.py -- https://github.com/tkrajina/gpxpy">
  <trk>
    <name>gpx from keep</name>
    <type>Run</type>
    <trkseg>
      <trkpt lat="31.11137696534953" lon="121.36488068133248">
        <ele>15.941277546808124</ele>
        <time>2024-07-05T11:53:03Z</time>
      </trkpt>
      <trkpt lat="31.11137322458533" lon="121.36480313520612">
        <ele>14.345880548469722</ele>
        <time>2024-07-05T11:53:06Z</time>
      </trkpt>
      <trkpt lat="31.111386773467082" lon="121.36474331225101">
        <ele>13.279808360151947</ele>
        <time>2024-07-05T11:53:09Z</time>
      </trkpt>
      <trkpt lat="31.11122121227413" lon="121.36457450055815">
        <ele>12.164327632635832</ele>
        <time>2024-07-05T11:53:15Z</time>
      </trkpt>
      <trkpt lat="31.11108790317052" lon="121.36437218096063">
        <ele>10.802704744972289</ele>
        <time>2024-07-05T11:53:24Z</time>
      </trkpt>
      <trkpt lat="31.111089189455427" lon="121.36427981403708">
        <ele>9.866358873434365</ele>
        <time>2024-07-05T11:53:27Z</time>
      </trkpt>
      <trkpt lat="31.110923112661247" lon="121.36434094638746">
        <ele>11.296320579014719</ele>
        <time>2024-07-05T11:53:33Z</time>
      </trkpt>
      <trkpt lat="31.110859572944975" lon="121.36442310901596">
        <ele>7.551431521773338</ele>
        <time>2024-07-05T11:53:39Z</time>
      </trkpt>
      <trkpt lat="31.110686805379753" lon="121.36447115058793">
        <ele>9.204023239202797</ele>
        <time>2024-07-05T11:53:45Z</time>
      </trkpt>
      <trkpt lat="31.110633554605986" lon="121.36450968780888">
        <ele>9.921126916073263</ele>
        <time>2024-07-05T11:53:48Z</time>
      </trkpt>
      <trkpt lat="31.11054654027265" lon="121.36452949483748">
        <ele>11.193562757223845</ele>
        <time>2024-07-05T11:53:51Z</time>
      </trkpt>
      <trkpt lat="31.110430444083445" lon="121.36461949209551">
        <ele>10.988984450697899</ele>
        <time>2024-07-05T11:53:57Z</time>
      </trkpt>
      <trkpt lat="31.110401050106823" lon="121.36468288421258">
        <ele>11.80357218068093</ele>
        <time>2024-07-05T11:54:00Z</time>
      </trkpt>
      <trkpt lat="31.110286610094395" lon="121.36469897261496">
        <ele>10.148753078654408</ele>
        <time>2024-07-05T11:54:06Z</time>
      </trkpt>
      <trkpt lat="31.11018807620502" lon="121.36476460748118">
        <ele>8.366129789501429</ele>
        <time>2024-07-05T11:54:12Z</time>
      </trkpt>
      <trkpt lat="31.110134785261295" lon="121.3647408160831">
        <ele>8.598492061719298</ele>
        <time>2024-07-05T11:54:15Z</time>
      </trkpt>
      <trkpt lat="31.11005601830541" lon="121.36480892061587">
        <ele>9.580018225125968</ele>
        <time>2024-07-05T11:54:18Z</time>
      </trkpt>
      <trkpt lat="31.109841300862136" lon="121.3648508930244">
        <ele>14.343455326743424</ele>
        <time>2024-07-05T11:54:25Z</time>
      </trkpt>
      <trkpt lat="31.10975155651258" lon="121.36492291079615">
        <ele>12.727937972173095</ele>
        <time>2024-07-05T11:54:28Z</time>
      </trkpt>
      <trkpt lat="31.1096881266687" lon="121.36500890895208">
        <ele>12.830432361923158</ele>
        <time>2024-07-05T11:54:31Z</time>
      </trkpt>
      <trkpt lat="31.109559783572486" lon="121.36502701781521">
        <ele>12.271161265671253</ele>
        <time>2024-07-05T11:54:34Z</time>
      </trkpt>
      <trkpt lat="31.10947742638346" lon="121.36510382370803">
        <ele>12.953070209361613</ele>
        <time>2024-07-05T11:54:37Z</time>
      </trkpt>
      <trkpt lat="31.10936423744559" lon="121.36507098129118">
        <ele>13.181494967080653</ele>
        <time>2024-07-05T11:54:40Z</time>
      </trkpt>
      <trkpt lat="31.10933037968252" lon="121.36514952693025">
        <ele>14.236711515113711</ele>
        <time>2024-07-05T11:54:43Z</time>
      </trkpt>
      <trkpt lat="31.109120684447685" lon="121.36513855364049">
        <ele>14.377534145489335</ele>
        <time>2024-07-05T11:54:49Z</time>
      </trkpt>
      <trkpt lat="31.10904730115028" lon="121.36519986422557">
        <ele>14.620031961239874</ele>
        <time>2024-07-05T11:54:52Z</time>
      </trkpt>
      <trkpt lat="31.1089820829255" lon="121.36518697253983">
        <ele>12.482427349314094</ele>
        <time>2024-07-05T11:54:55Z</time>
      </trkpt>
      <trkpt lat="31.108942364114522" lon="121.3650541210985">
        <ele>11.947364611551166</ele>
        <time>2024-07-05T11:54:58Z</time>
      </trkpt>
      <trkpt lat="31.108971060317177" lon="121.36499765098596">
        <ele>12.604979306459427</ele>
        <time>2024-07-05T11:55:04Z</time>
      </trkpt>
      <trkpt lat="31.108870310723287" lon="121.36509159776813">
        <ele>11.528947664424777</ele>
        <time>2024-07-05T11:55:07Z</time>
      </trkpt>
      <trkpt lat="31.10880443005053" lon="121.36512063278968">
        <ele>9.89206085074693</ele>
        <time>2024-07-05T11:55:10Z</time>
      </trkpt>
      <trkpt lat="31.108797497604872" lon="121.36520658681286">
        <ele>10.9932311931625</ele>
        <time>2024-07-05T11:55:13Z</time>
      </trkpt>
      <trkpt lat="31.108746400261353" lon="121.36528032173555">
        <ele>8.54599950555712</ele>
        <time>2024-07-05T11:55:16Z</time>
      </trkpt>
      <trkpt lat="31.108557997861595" lon="121.365324606789">
        <ele>7.999618015252054</ele>
        <time>2024-07-05T11:55:25Z</time>
      </trkpt>
      <trkpt lat="31.108512179214692" lon="121.36537284212194">
        <ele>6.634357736445963</ele>
        <time>2024-07-05T11:55:28Z</time>
      </trkpt>
      <trkpt lat="31.10821364896272" lon="121.36550679052137">
        <ele>7.829389207996428</ele>
        <time>2024-07-05T11:55:43Z</time>
      </trkpt>
      <trkpt lat="31.108161941148047" lon="121.36555500258996">
        <ele>6.562281705439091</ele>
        <time>2024-07-05T11:55:46Z</time>
      </trkpt>
      <trkpt lat="31.108107895236383" lon="121.36554108709336">
        <ele>7.944121587090194</ele>
        <time>2024-07-05T11:55:49Z</time>
      </trkpt>
      <trkpt lat="31.107930462718038" lon="121.36560353179632">
        <ele>8.852640359662473</ele>
        <time>2024-07-05T11:55:55Z</time>
      </trkpt>
      <trkpt lat="31.107747180782503" lon="121.36563732440042">
        <ele>10.079512656666338</ele>
        <time>2024-07-05T11:56:01Z</time>
      </trkpt>
      <trkpt lat="31.107641239519616" lon="121.36579535146087">
        <ele>7.347580932080746</ele>
        <time>2024-07-05T11:56:04Z</time>
      </trkpt>
      <trkpt lat="31.107565190854586" lon="121.36579866965499">
        <ele>8.557881988584995</ele>
        <time>2024-07-05T11:56:07Z</time>
      </trkpt>
      <trkpt lat="31.1074399820331" lon="121.36577552477141">
        <ele>9.24776777997613</ele>
        <time>2024-07-05T11:56:11Z</time>
      </trkpt>
      <trkpt lat="31.107127899427248" lon="121.36590712265502">
        <ele>9.15180581342429</ele>
        <time>2024-07-05T11:56:20Z</time>
      </trkpt>
      <trkpt lat="31.10704718558802" lon="121.36600074277013">
        <ele>8.911522506736219</ele>
        <time>2024-07-05T11:56:23Z</time>
      </trkpt>
      <trkpt lat="31.10696318338353" lon="121.36603115537149">
        <ele>8.209169602952898</ele>
        <time>2024-07-05T11:56:26Z</time>
      </trkpt>
      <trkpt lat="31.106848243359337" lon="121.36600616248467">
        <ele>7.197604715824127</ele>
        <time>2024-07-05T11:56:33Z</time>
      </trkpt>
      <trkpt lat="31.1067895583328" lon="121.36607428854157">
        <ele>9.109495834447443</ele>
        <time>2024-07-05T11:56:36Z</time>
      </trkpt>
      <trkpt lat="31.10675541574246" lon="121.3659808881774">
        <ele>8.054812883026898</ele>
        <time>2024-07-05T11:56:39Z</time>
      </trkpt>
      <trkpt lat="31.10675717034285" lon="121.36592448393829">
        <ele>8.148517802357674</ele>
        <time>2024-07-05T11:56:42Z</time>
      </trkpt>
      <trkpt lat="31.106740541008193" lon="121.36589456195065">
        <ele>9.08315710350871</ele>
        <time>2024-07-05T11:56:54Z</time>
      </trkpt>
      <trkpt lat="31.10668023696889" lon="121.36585420195779">
        <ele>9.052335136570036</ele>
        <time>2024-07-05T11:56:57Z</time>
      </trkpt>
      <trkpt lat="31.1066616690046" lon="121.36580391211452">
        <ele>10.241109150461853</ele>
        <time>2024-07-05T11:57:00Z</time>
      </trkpt>
      <trkpt lat="31.10658576857653" lon="121.36573071230072">
        <ele>9.481000290252268</ele>
        <time>2024-07-05T11:57:06Z</time>
      </trkpt>
      <trkpt lat="31.106562133344028" lon="121.36566229635615">
        <ele>7.4488752987235785</ele>
        <time>2024-07-05T11:57:12Z</time>
      </trkpt>
      <trkpt lat="31.106575788500177" lon="121.36560268606964">
        <ele>8.200867915526032</ele>
        <time>2024-07-05T11:57:15Z</time>
      </trkpt>
      <trkpt lat="31.106532017233164" lon="121.36556288906652">
        <ele>8.599278907291591</ele>
        <time>2024-07-05T11:57:24Z</time>
      </trkpt>
      <trkpt lat="31.106594432958815" lon="121.36547131059565">
        <ele>8.128073372878134</ele>
        <time>2024-07-05T11:57:30Z</time>
      </trkpt>
      <trkpt lat="31.106529255716477" lon="121.36536836123678">
        <ele>5.177904123440385</ele>
        <time>2024-07-05T11:57:33Z</time>
      </trkpt>
      <trkpt lat="31.106452555700734" lon="121.36531264736244">
        <ele>5.987795747816563</ele>
        <time>2024-07-05T11:57:36Z</time>
      </trkpt>
      <trkpt lat="31.106424438723" lon="121.36526483890539">
        <ele>6.4036836521700025</ele>
        <time>2024-07-05T11:57:39Z</time>
      </trkpt>
      <trkpt lat="31.1063621850265" lon="121.36522394268665">
        <ele>6.589934146031737</ele>
        <time>2024-07-05T11:57:42Z</time>
      </trkpt>
      <trkpt lat="31.1062401782951" lon="121.3653162309748">
        <ele>8.499460345134139</ele>
        <time>2024-07-05T11:57:48Z</time>
      </trkpt>
      <trkpt lat="31.106189602766985" lon="121.36542684312427">
        <ele>9.390990967862308</ele>
        <time>2024-07-05T11:57:54Z</time>
      </trkpt>
      <trkpt lat="31.106184753229396" lon="121.36549675130192">
        <ele>9.366901657544076</ele>
        <time>2024-07-05T11:57:57Z</time>
      </trkpt>
      <trkpt lat="31.10622889407909" lon="121.36557086304902">
        <ele>9.108021377585828</ele>
        <time>2024-07-05T11:58:00Z</time>
      </trkpt>
      <trkpt lat="31.10624639954602" lon="121.36565587297041">
        <ele>9.439058987423778</ele>
        <time>2024-07-05T11:58:03Z</time>
      </trkpt>
      <trkpt lat="31.106367315267335" lon="121.36584730756259">
        <ele>9.195980477146804</ele>
        <time>2024-07-05T11:58:09Z</time>
      </trkpt>
      <trkpt lat="31.10643385964373" lon="121.36602641503627">
        <ele>10.36149116512388</ele>
        <time>2024-07-05T11:58:15Z</time>
      </trkpt>
      <trkpt lat="31.106541274988444" lon="121.36615045964074">
        <ele>10.913299698382616</ele>
        <time>2024-07-05T11:58:21Z</time>
      </trkpt>
      <trkpt lat="31.106522509507766" lon="121.36619873878456">
        <ele>9.085679981857538</ele>
        <time>2024-07-05T11:58:27Z</time>
      </trkpt>
      <trkpt lat="31.106427481587303" lon="121.36625397210963">
        <ele>7.1256404630839825</ele>
        <time>2024-07-05T11:58:33Z</time>
      </trkpt>
      <trkpt lat="31.106319769744744" lon="121.36628083750904">
        <ele>8.34491098858416</ele>
        <time>2024-07-05T11:58:37Z</time>
      </trkpt>
      <trkpt lat="31.1062416310084" lon="121.36635072829323">
        <ele>6.641178198158741</ele>
        <time>2024-07-05T11:58:40Z</time>
      </trkpt>
      <trkpt lat="31.10616970935146" lon="121.36646970470558">
        <ele>7.148283321410418</ele>
        <time>2024-07-05T11:58:43Z</time>
      </trkpt>
      <trkpt lat="31.105873563691084" lon="121.36644576702932">
        <ele>5.607784271240234</ele>
        <time>2024-07-05T11:58:49Z</time>
      </trkpt>
      <trkpt lat="31.105785113960394" lon="121.36653203575405">
        <ele>5.450833986513317</ele>
        <time>2024-07-05T11:58:52Z</time>
      </trkpt>
      <trkpt lat="31.10577438536932" lon="121.36661951147696">
        <ele>6.169550712220371</ele>
        <time>2024-07-05T11:58:55Z</time>
      </trkpt>
      <trkpt lat="31.105565921206733" lon="121.3667549775473">
        <ele>7.040682786144316</ele>
        <time>2024-07-05T11:59:01Z</time>
      </trkpt>
      <trkpt lat="31.10550623049316" lon="121.36668461679918">
        <ele>5.492965291254222</ele>
        <time>2024-07-05T11:59:04Z</time>
      </trkpt>
      <trkpt lat="31.105424509783305" lon="121.36662695225975">
        <ele>5.6290807239711285</ele>
        <time>2024-07-05T11:59:07Z</time>
      </trkpt>
      <trkpt lat="31.10537852906302" lon="121.36667686830164">
        <ele>6.35862969327718</ele>
        <time>2024-07-05T11:59:10Z</time>
      </trkpt>
      <trkpt lat="31.10519495677163" lon="121.36675493065552">
        <ele>6.2924571465700865</ele>
        <time>2024-07-05T11:59:16Z</time>
      </trkpt>
      <trkpt lat="31.1051301391729" lon="121.36676591267289">
        <ele>5.48735083732754</ele>
        <time>2024-07-05T11:59:19Z</time>
      </trkpt>
      <trkpt lat="31.104957560870023" lon="121.36686199251402">
        <ele>8.696387304924428</ele>
        <time>2024-07-05T11:59:25Z</time>
      </trkpt>
      <trkpt lat="31.104848139008144" lon="121.36686077543949">
        <ele>8.495730538852513</ele>
        <time>2024-07-05T11:59:28Z</time>
      </trkpt>
      <trkpt lat="31.10476578832119" lon="121.36682627820078">
        <ele>9.647359961643815</ele>
        <time>2024-07-05T11:59:31Z</time>
      </trkpt>
      <trkpt lat="31.104767852640684" lon="121.36688087752005">
        <ele>9.713911735452712</ele>
        <time>2024-07-05T11:59:34Z</time>
      </trkpt>
      <trkpt lat="31.10473753406044" lon="121.36693032880645">
        <ele>9.551896524615586</ele>
        <time>2024-07-05T11:59:43Z</time>
      </trkpt>
      <trkpt lat="31.10479886977677" lon="121.36716413493653">
        <ele>8.55071327649057</ele>
        <time>2024-07-05T12:00:01Z</time>
      </trkpt>
      <trkpt lat="31.104842072170314" lon="121.36719028991729">
        <ele>9.676861681975424</ele>
        <time>2024-07-05T12:00:16Z</time>
      </trkpt>
      <trkpt lat="31.10487254916989" lon="121.36713238947239">
        <ele>8.703134838491678</ele>
        <time>2024-07-05T12:00:22Z</time>
      </trkpt>
      <trkpt lat="31.1048219458209" lon="121.36717762242078">
        <ele>7.542438665404916</ele>
        <time>2024-07-05T12:00:28Z</time>
      </trkpt>
      <trkpt lat="31.104797773487956" lon="121.367348448622">
        <ele>9.425444032996893</ele>
        <time>2024-07-05T12:00:34Z</time>
      </trkpt>
      <trkpt lat="31.104826051267814" lon="121.36744838136978">
        <ele>10.812228828668594</ele>
        <time>2024-07-05T12:00:37Z</time>
      </trkpt>
      <trkpt lat="31.10488120148234" lon="121.36753799092315">
        <ele>10.016846309415996</ele>
        <time>2024-07-05T12:00:40Z</time>
      </trkpt>
      <trkpt lat="31.10488455265802" lon="121.36769825662243">
        <ele>12.69458279479295</ele>
        <time>2024-07-05T12:00:44Z</time>
      </trkpt>
      <trkpt lat="31.104933761829717" lon="121.36779194151124">
        <ele>12.928003783337772</ele>
        <time>2024-07-05T12:00:47Z</time>
      </trkpt>
      <trkpt lat="31.10497717574709" lon="121.36801486783877">
        <ele>12.149201369844377</ele>
        <time>2024-07-05T12:00:54Z</time>
      </trkpt>
      <trkpt lat="31.105048957874804" lon="121.36811889188328">
        <ele>12.761293240822852</ele>
        <time>2024-07-05T12:00:57Z</time>
      </trkpt>
      <trkpt lat="31.10508006573018" lon="121.36823175959475">
        <ele>13.19226516224444</ele>
        <time>2024-07-05T12:01:00Z</time>
      </trkpt>
      <trkpt lat="31.10507557476267" lon="121.36833353552063">
        <ele>12.440275078639388</ele>
        <time>2024-07-05T12:01:03Z</time>
      </trkpt>
      <trkpt lat="31.105134294287623" lon="121.36841219375508">
        <ele>13.349087757989764</ele>
        <time>2024-07-05T12:01:06Z</time>
      </trkpt>
      <trkpt lat="31.104990380759666" lon="121.36858431167158">
        <ele>12.991906971670687</ele>
        <time>2024-07-05T12:01:15Z</time>
      </trkpt>
      <trkpt lat="31.104956791396706" lon="121.36852768856862">
        <ele>12.13906461186707</ele>
        <time>2024-07-05T12:01:24Z</time>
      </trkpt>
      <trkpt lat="31.104809174626677" lon="121.36863738765642">
        <ele>11.22648632992059</ele>
        <time>2024-07-05T12:01:30Z</time>
      </trkpt>
      <trkpt lat="31.104734389783697" lon="121.36867372678684">
        <ele>10.327030112035573</ele>
        <time>2024-07-05T12:01:33Z</time>
      </trkpt>
      <trkpt lat="31.104685062859026" lon="121.36866428683986">
        <ele>10.085538694635034</ele>
        <time>2024-07-05T12:01:36Z</time>
      </trkpt>
      <trkpt lat="31.104661443867254" lon="121.36858589899902">
        <ele>9.345398246310651</ele>
        <time>2024-07-05T12:01:39Z</time>
      </trkpt>
      <trkpt lat="31.104596970080948" lon="121.36852247955335">
        <ele>9.382342427968979</ele>
        <time>2024-07-05T12:01:42Z</time>
      </trkpt>
      <trkpt lat="31.10455406689553" lon="121.3684522421562">
        <ele>8.690229398198426</ele>
        <time>2024-07-05T12:01:45Z</time>
      </trkpt>
      <trkpt lat="31.10448534865708" lon="121.36839582079234">
        <ele>9.535697016865015</ele>
        <time>2024-07-05T12:01:48Z</time>
      </trkpt>
      <trkpt lat="31.104356958940627" lon="121.36842321018068">
        <ele>9.593290799297392</ele>
        <time>2024-07-05T12:01:51Z</time>
      </trkpt>
      <trkpt lat="31.104303461255757" lon="121.36845952885668">
        <ele>9.49202577676624</ele>
        <time>2024-07-05T12:01:54Z</time>
      </trkpt>
      <trkpt lat="31.10413016140609" lon="121.36851676039619">
        <ele>12.020663204602897</ele>
        <time>2024-07-05T12:02:00Z</time>
      </trkpt>
      <trkpt lat="31.10404456779921" lon="121.36850093020377">
        <ele>12.02645069733262</ele>
        <time>2024-07-05T12:02:03Z</time>
      </trkpt>
      <trkpt lat="31.10396321388346" lon="121.36839992990353">
        <ele>10.592473227530718</ele>
        <time>2024-07-05T12:02:12Z</time>
      </trkpt>
      <trkpt lat="31.103841040150034" lon="121.36840942570358">
        <ele>9.956298783421516</ele>
        <time>2024-07-05T12:02:21Z</time>
      </trkpt>
      <trkpt lat="31.103819036229392" lon="121.36827246469568">
        <ele>8.481426536105573</ele>
        <time>2024-07-05T12:02:27Z</time>
      </trkpt>
      <trkpt lat="31.103769801102484" lon="121.36823684450857">
        <ele>8.241273005492985</ele>
        <time>2024-07-05T12:02:30Z</time>
      </trkpt>
      <trkpt lat="31.103776439659523" lon="121.36812757641913">
        <ele>7.994619210250676</ele>
        <time>2024-07-05T12:02:36Z</time>
      </trkpt>
      <trkpt lat="31.103702811770923" lon="121.36814373414795">
        <ele>7.639270939864218</ele>
        <time>2024-07-05T12:02:39Z</time>
      </trkpt>
      <trkpt lat="31.103679570346213" lon="121.36803533855314">
        <ele>6.35764295887202</ele>
        <time>2024-07-05T12:02:42Z</time>
      </trkpt>
      <trkpt lat="31.10355669710557" lon="121.36791972788974">
        <ele>6.894056105054915</ele>
        <time>2024-07-05T12:02:52Z</time>
      </trkpt>
      <trkpt lat="31.103481931317397" lon="121.36790484810471">
        <ele>6.395161825232208</ele>
        <time>2024-07-05T12:02:55Z</time>
      </trkpt>
      <trkpt lat="31.103327431622926" lon="121.36796505456003">
        <ele>7.0451645739376545</ele>
        <time>2024-07-05T12:03:01Z</time>
      </trkpt>
      <trkpt lat="31.10327455392901" lon="121.36803064223653">
        <ele>7.270050880499184</ele>
        <time>2024-07-05T12:03:04Z</time>
      </trkpt>
      <trkpt lat="31.10326360574952" lon="121.36814959557175">
        <ele>7.933312874287367</ele>
        <time>2024-07-05T12:03:07Z</time>
      </trkpt>
      <trkpt lat="31.103376220916363" lon="121.36837471201635">
        <ele>9.538826577365398</ele>
        <time>2024-07-05T12:03:13Z</time>
      </trkpt>
      <trkpt lat="31.103536724050755" lon="121.36853136596764">
        <ele>9.414473554119468</ele>
        <time>2024-07-05T12:03:19Z</time>
      </trkpt>
      <trkpt lat="31.103540734358354" lon="121.36863560823701">
        <ele>9.223539860919118</ele>
        <time>2024-07-05T12:03:22Z</time>
      </trkpt>
      <trkpt lat="31.103565898103955" lon="121.36870863814052">
        <ele>9.68647478427738</ele>
        <time>2024-07-05T12:03:25Z</time>
      </trkpt>
      <trkpt lat="31.10354420385498" lon="121.3687935679398">
        <ele>9.835966132581234</ele>
        <time>2024-07-05T12:03:28Z</time>
      </trkpt>
      <trkpt lat="31.103517736600132" lon="121.36880291595996">
        <ele>7.291962911374867</ele>
        <time>2024-07-05T12:03:34Z</time>
      </trkpt>
      <trkpt lat="31.10347672840265" lon="121.36885996307686">
        <ele>16.90696430578828</ele>
        <time>2024-07-05T12:04:37Z</time>
      </trkpt>
      <trkpt lat="31.103495620741715" lon="121.36891458306073">
        <ele>15.373814639635384</ele>
        <time>2024-07-05T12:04:40Z</time>
      </trkpt>
      <trkpt lat="31.103562273528013" lon="121.36895650420779">
        <ele>13.601488153450191</ele>
        <time>2024-07-05T12:04:43Z</time>
      </trkpt>
      <trkpt lat="31.103688106555598" lon="121.36880921884845">
        <ele>12.048710750415921</ele>
        <time>2024-07-05T12:04:46Z</time>
      </trkpt>
      <trkpt lat="31.103754037761874" lon="121.36879035594494">
        <ele>10.08137734234333</ele>
        <time>2024-07-05T12:04:49Z</time>
      </trkpt>
      <trkpt lat="31.1038625465167" lon="121.36879438367643">
        <ele>10.162690297700465</ele>
        <time>2024-07-05T12:04:52Z</time>
      </trkpt>
      <trkpt lat="31.10394305158118" lon="121.3687144452067">
        <ele>10.789838262833655</ele>
        <time>2024-07-05T12:04:56Z</time>
      </trkpt>
      <trkpt lat="31.103908896179412" lon="121.36883734203516">
        <ele>9.848180448636413</ele>
        <time>2024-07-05T12:05:02Z</time>
      </trkpt>
      <trkpt lat="31.103988925078262" lon="121.36881738552047">
        <ele>8.909214213490486</ele>
        <time>2024-07-05T12:05:05Z</time>
      </trkpt>
      <trkpt lat="31.104069869944055" lon="121.36884043863962">
        <ele>7.658106476999819</ele>
        <time>2024-07-05T12:05:11Z</time>
      </trkpt>
      <trkpt lat="31.104145636908683" lon="121.36883166441723">
        <ele>6.7364879455417395</ele>
        <time>2024-07-05T12:05:14Z</time>
      </trkpt>
      <trkpt lat="31.104243992502077" lon="121.36885956543891">
        <ele>7.308099512942135</ele>
        <time>2024-07-05T12:05:17Z</time>
      </trkpt>
      <trkpt lat="31.104309476561564" lon="121.36878062942787">
        <ele>8.622781369835138</ele>
        <time>2024-07-05T12:05:20Z</time>
      </trkpt>
      <trkpt lat="31.104647239181634" lon="121.36869759474723">
        <ele>6.380155297927558</ele>
        <time>2024-07-05T12:05:29Z</time>
      </trkpt>
      <trkpt lat="31.10474107819533" lon="121.36861776775332">
        <ele>8.077837015502155</ele>
        <time>2024-07-05T12:05:32Z</time>
      </trkpt>
      <trkpt lat="31.10485420302716" lon="121.36857152372998">
        <ele>7.51130358222872</ele>
        <time>2024-07-05T12:05:35Z</time>
      </trkpt>
      <trkpt lat="31.10493075697004" lon="121.36856369810832">
        <ele>7.976006731390953</ele>
        <time>2024-07-05T12:05:38Z</time>
      </trkpt>
      <trkpt lat="31.10499408774733" lon="121.3685247899283">
        <ele>6.498918529599905</ele>
        <time>2024-07-05T12:05:41Z</time>
      </trkpt>
      <trkpt lat="31.105138433129298" lon="121.36848337131092">
        <ele>7.373767739161849</ele>
        <time>2024-07-05T12:05:47Z</time>
      </trkpt>
      <trkpt lat="31.105161716860895" lon="121.36843209370022">
        <ele>6.74690929800272</ele>
        <time>2024-07-05T12:05:56Z</time>
      </trkpt>
      <trkpt lat="31.105142751468414" lon="121.36828704863582">
        <ele>6.172591305337846</ele>
        <time>2024-07-05T12:06:02Z</time>
      </trkpt>
      <trkpt lat="31.105078846224647" lon="121.36813231405212">
        <ele>6.23599446285516</ele>
        <time>2024-07-05T12:06:08Z</time>
      </trkpt>
      <trkpt lat="31.10506491198174" lon="121.36801599072581">
        <ele>6.9369092201814055</ele>
        <time>2024-07-05T12:06:11Z</time>
      </trkpt>
      <trkpt lat="31.104989513012214" lon="121.36781837087887">
        <ele>9.181072271429002</ele>
        <time>2024-07-05T12:06:17Z</time>
      </trkpt>
      <trkpt lat="31.104995320467378" lon="121.36771260972992">
        <ele>9.109996031969786</ele>
        <time>2024-07-05T12:06:20Z</time>
      </trkpt>
      <trkpt lat="31.104930983886202" lon="121.3674894873103">
        <ele>11.683768861927092</ele>
        <time>2024-07-05T12:06:26Z</time>
      </trkpt>
      <trkpt lat="31.104917366327545" lon="121.36727944402672">
        <ele>13.052387886680663</ele>
        <time>2024-07-05T12:06:32Z</time>
      </trkpt>
      <trkpt lat="31.10484762314458" lon="121.36719031901433">
        <ele>13.357925660908222</ele>
        <time>2024-07-05T12:06:35Z</time>
      </trkpt>
      <trkpt lat="31.10479567331866" lon="121.36718119528157">
        <ele>12.740028568543494</ele>
        <time>2024-07-05T12:06:38Z</time>
      </trkpt>
      <trkpt lat="31.10483734712446" lon="121.36714583480061">
        <ele>12.956156438216567</ele>
        <time>2024-07-05T12:06:41Z</time>
      </trkpt>
      <trkpt lat="31.105012430847285" lon="121.36709273670142">
        <ele>11.922951734624803</ele>
        <time>2024-07-05T12:06:53Z</time>
      </trkpt>
      <trkpt lat="31.105267892836505" lon="121.36695235401328">
        <ele>11.972963723354042</ele>
        <time>2024-07-05T12:07:03Z</time>
      </trkpt>
      <trkpt lat="31.105516168536816" lon="121.36682960453072">
        <ele>13.36559482011944</ele>
        <time>2024-07-05T12:07:14Z</time>
      </trkpt>
      <trkpt lat="31.105847588082998" lon="121.36674190956273">
        <ele>12.861780820414424</ele>
        <time>2024-07-05T12:07:26Z</time>
      </trkpt>
      <trkpt lat="31.10604769820975" lon="121.36665003926252">
        <ele>9.613709945231676</ele>
        <time>2024-07-05T12:07:44Z</time>
      </trkpt>
      <trkpt lat="31.106262023624314" lon="121.36648054064845">
        <ele>11.040440732613206</ele>
        <time>2024-07-05T12:08:02Z</time>
      </trkpt>
      <trkpt lat="31.106430333086852" lon="121.36645880853649">
        <ele>9.729619619436562</ele>
        <time>2024-07-05T12:08:11Z</time>
      </trkpt>
      <trkpt lat="31.10648358956324" lon="121.36641601342642">
        <ele>9.427902241237462</ele>
        <time>2024-07-05T12:08:14Z</time>
      </trkpt>
      <trkpt lat="31.10659914671765" lon="121.36639948708958">
        <ele>9.906004711985588</ele>
        <time>2024-07-05T12:08:17Z</time>
      </trkpt>
      <trkpt lat="31.106772836417857" lon="121.36641742623385">
        <ele>9.936372954398394</ele>
        <time>2024-07-05T12:08:29Z</time>
      </trkpt>
      <trkpt lat="31.10677650645211" lon="121.36653583791241">
        <ele>8.576189815998077</ele>
        <time>2024-07-05T12:08:35Z</time>
      </trkpt>
      <trkpt lat="31.106804486594683" lon="121.36660800896054">
        <ele>9.623723504133523</ele>
        <time>2024-07-05T12:08:41Z</time>
      </trkpt>
      <trkpt lat="31.1068022665047" lon="121.36678455066024">
        <ele>8.71259998716414</ele>
        <time>2024-07-05T12:08:47Z</time>
      </trkpt>
      <trkpt lat="31.10682601776085" lon="121.36686183091808">
        <ele>8.467154243029654</ele>
        <time>2024-07-05T12:08:53Z</time>
      </trkpt>
      <trkpt lat="31.106871547117724" lon="121.3668946621001">
        <ele>8.721939262934029</ele>
        <time>2024-07-05T12:08:56Z</time>
      </trkpt>
      <trkpt lat="31.106955691608952" lon="121.36680989416858">
        <ele>8.312890321947634</ele>
        <time>2024-07-05T12:09:09Z</time>
      </trkpt>
      <trkpt lat="31.107119641289838" lon="121.36678190469901">
        <ele>8.516292538493872</ele>
        <time>2024-07-05T12:09:27Z</time>
      </trkpt>
      <trkpt lat="31.107148614225967" lon="121.36675497693119">
        <ele>6.564511804841459</ele>
        <time>2024-07-05T12:09:36Z</time>
      </trkpt>
      <trkpt lat="31.107195875245377" lon="121.36681584644623">
        <ele>11.137257803231478</ele>
        <time>2024-07-05T12:10:00Z</time>
      </trkpt>
      <trkpt lat="31.107256082731947" lon="121.36650233973684">
        <ele>9.711509163491428</ele>
        <time>2024-07-05T12:10:15Z</time>
      </trkpt>
      <trkpt lat="31.10714666366504" lon="121.3664461485498">
        <ele>9.804455914534628</ele>
        <time>2024-07-05T12:10:18Z</time>
      </trkpt>
      <trkpt lat="31.1071004426328" lon="121.36639157091552">
        <ele>10.397158471867442</ele>
        <time>2024-07-05T12:10:21Z</time>
      </trkpt>
      <trkpt lat="31.10706645132812" lon="121.36625013044423">
        <ele>10.654231633991003</ele>
        <time>2024-07-05T12:10:24Z</time>
      </trkpt>
      <trkpt lat="31.10700442424757" lon="121.36622377153702">
        <ele>12.157418480142951</ele>
        <time>2024-07-05T12:10:27Z</time>
      </trkpt>
      <trkpt lat="31.10716445898549" lon="121.36614287316894">
        <ele>10.144351224415004</ele>
        <time>2024-07-05T12:10:42Z</time>
      </trkpt>
      <trkpt lat="31.107330857056954" lon="121.36609176499479">
        <ele>9.895072775892913</ele>
        <time>2024-07-05T12:10:51Z</time>
      </trkpt>
      <trkpt lat="31.107449379682965" lon="121.36609065894436">
        <ele>9.99102012719959</ele>
        <time>2024-07-05T12:10:57Z</time>
      </trkpt>
      <trkpt lat="31.107503311522507" lon="121.36605103208261">
        <ele>9.354146792553365</ele>
        <time>2024-07-05T12:11:00Z</time>
      </trkpt>
      <trkpt lat="31.1078861127828" lon="121.36590610188902">
        <ele>11.344718913547695</ele>
        <time>2024-07-05T12:11:13Z</time>
      </trkpt>
      <trkpt lat="31.10799080133629" lon="121.36587904673904">
        <ele>13.124272052198648</ele>
        <time>2024-07-05T12:11:17Z</time>
      </trkpt>
      <trkpt lat="31.10806874535635" lon="121.36592820074532">
        <ele>11.736398990266025</ele>
        <time>2024-07-05T12:11:21Z</time>
      </trkpt>
      <trkpt lat="31.108177132640797" lon="121.36582391861863">
        <ele>11.0577500956133</ele>
        <time>2024-07-05T12:11:25Z</time>
      </trkpt>
      <trkpt lat="31.108415233783592" lon="121.36564905160817">
        <ele>10.345045728608966</ele>
        <time>2024-07-05T12:11:34Z</time>
      </trkpt>
      <trkpt lat="31.108532721308812" lon="121.36561363950946">
        <ele>9.772145199589431</ele>
        <time>2024-07-05T12:11:37Z</time>
      </trkpt>
      <trkpt lat="31.108658728897886" lon="121.36551763684642">
        <ele>11.341313631273806</ele>
        <time>2024-07-05T12:11:43Z</time>
      </trkpt>
      <trkpt lat="31.108724476928735" lon="121.36548693640388">
        <ele>12.440305454656482</ele>
        <time>2024-07-05T12:11:46Z</time>
      </trkpt>
      <trkpt lat="31.10878518439908" lon="121.36548300524875">
        <ele>10.909998131915927</ele>
        <time>2024-07-05T12:11:52Z</time>
      </trkpt>
      <trkpt lat="31.108891798437355" lon="121.36543732285652">
        <ele>12.002647359855473</ele>
        <time>2024-07-05T12:12:01Z</time>
      </trkpt>
      <trkpt lat="31.10893815042871" lon="121.36548117190247">
        <ele>10.251123491674662</ele>
        <time>2024-07-05T12:12:07Z</time>
      </trkpt>
      <trkpt lat="31.109004190702862" lon="121.36550995538461">
        <ele>10.691276278346777</ele>
        <time>2024-07-05T12:12:16Z</time>
      </trkpt>
      <trkpt lat="31.109089484098572" lon="121.36546052973246">
        <ele>9.355193060822785</ele>
        <time>2024-07-05T12:12:22Z</time>
      </trkpt>
      <trkpt lat="31.109111860747944" lon="121.36541482986553">
        <ele>8.91253517754376</ele>
        <time>2024-07-05T12:12:25Z</time>
      </trkpt>
      <trkpt lat="31.109193405695247" lon="121.36532912291999">
        <ele>8.390477656386793</ele>
        <time>2024-07-05T12:12:31Z</time>
      </trkpt>
      <trkpt lat="31.109299682256573" lon="121.36536910351106">
        <ele>7.719218425452709</ele>
        <time>2024-07-05T12:12:34Z</time>
      </trkpt>
      <trkpt lat="31.109552159825274" lon="121.36522369523824">
        <ele>7.385429217480123</ele>
        <time>2024-07-05T12:12:43Z</time>
      </trkpt>
      <trkpt lat="31.109673649436466" lon="121.3651478279309">
        <ele>9.561414766125381</ele>
        <time>2024-07-05T12:12:46Z</time>
      </trkpt>
      <trkpt lat="31.109791766764246" lon="121.36514418995735">
        <ele>9.474265484139323</ele>
        <time>2024-07-05T12:12:49Z</time>
      </trkpt>
      <trkpt lat="31.109877216835525" lon="121.36506822015117">
        <ele>8.94754665158689</ele>
        <time>2024-07-05T12:12:52Z</time>
      </trkpt>
      <trkpt lat="31.11000039277673" lon="121.36504746533102">
        <ele>9.186481316573918</ele>
        <time>2024-07-05T12:12:55Z</time>
      </trkpt>
      <trkpt lat="31.110115573920964" lon="121.36499895659648">
        <ele>12.71278821863234</ele>
        <time>2024-07-05T12:12:58Z</time>
      </trkpt>
      <trkpt lat="31.110261207731913" lon="121.3648581410233">
        <ele>13.09056126140058</ele>
        <time>2024-07-05T12:13:04Z</time>
      </trkpt>
      <trkpt lat="31.11054354388856" lon="121.36480229530758">
        <ele>14.663692409172654</ele>
        <time>2024-07-05T12:13:13Z</time>
      </trkpt>
      <trkpt lat="31.110637301397677" lon="121.36478359498699">
        <ele>13.538231827318668</ele>
        <time>2024-07-05T12:13:16Z</time>
      </trkpt>
      <trkpt lat="31.11075513042939" lon="121.36471941521991">
        <ele>12.700941727496684</ele>
        <time>2024-07-05T12:13:20Z</time>
      </trkpt>
      <trkpt lat="31.110818119671126" lon="121.36466594908117">
        <ele>11.465012430213392</ele>
        <time>2024-07-05T12:13:26Z</time>
      </trkpt>
      <trkpt lat="31.11096811747362" lon="121.36461767268193">
        <ele>9.9100137706846</ele>
        <time>2024-07-05T12:13:35Z</time>
      </trkpt>
      <trkpt lat="31.111064140586464" lon="121.36463244096333">
        <ele>11.353403134271502</ele>
        <time>2024-07-05T12:13:41Z</time>
      </trkpt>
      <trkpt lat="31.11112342768939" lon="121.36461888747702">
        <ele>10.274589790031314</ele>
        <time>2024-07-05T12:13:50Z</time>
      </trkpt>
      <trkpt lat="31.11118508922697" lon="121.36464023206841">
        <ele>11.755566906183958</ele>
        <time>2024-07-05T12:13:53Z</time>
      </trkpt>
      <trkpt lat="31.11123745408468" lon="121.3646056495148">
        <ele>12.208148919977248</ele>
        <time>2024-07-05T12:13:59Z</time>
      </trkpt>
      <trkpt lat="31.11141546609951" lon="121.36442249344194">
        <ele>8.966822089627385</ele>
        <time>2024-07-05T12:14:11Z</time>
      </trkpt>
      <trkpt lat="31.111515046797688" lon="121.36442751154699">
        <ele>9.033646856434643</ele>
        <time>2024-07-05T12:14:14Z</time>
      </trkpt>
      <trkpt lat="31.11168240281273" lon="121.36433974360257">
        <ele>10.492059729993343</ele>
        <time>2024-07-05T12:14:20Z</time>
      </trkpt>
      <trkpt lat="31.11176379845703" lon="121.36427437939105">
        <ele>11.2612871741876</ele>
        <time>2024-07-05T12:14:23Z</time>
      </trkpt>
      <trkpt lat="31.111868047972525" lon="121.36426487136862">
        <ele>10.780220272019506</ele>
        <time>2024-07-05T12:14:26Z</time>
      </trkpt>
      <trkpt lat="31.11197834118267" lon="121.3642217260842">
        <ele>10.550415863282979</ele>
        <time>2024-07-05T12:14:29Z</time>
      </trkpt>
      <trkpt lat="31.112076782155455" lon="121.36416253060125">
        <ele>9.03595027141273</ele>
        <time>2024-07-05T12:14:35Z</time>
      </trkpt>
      <trkpt lat="31.112122336442397" lon="121.36420653368313">
        <ele>8.350555887445807</ele>
        <time>2024-07-05T12:14:38Z</time>
      </trkpt>
      <trkpt lat="31.112187874734058" lon="121.36418698030697">
        <ele>8.330288988538086</ele>
        <time>2024-07-05T12:14:47Z</time>
      </trkpt>
      <trkpt lat="31.11227104198046" lon="121.36422458705745">
        <ele>8.615849470719695</ele>
        <time>2024-07-05T12:14:50Z</time>
      </trkpt>
      <trkpt lat="31.112349054975763" lon="121.36421302887572">
        <ele>8.48011568095535</ele>
        <time>2024-07-05T12:14:56Z</time>
      </trkpt>
      <trkpt lat="31.112420936056107" lon="121.36411826547906">
        <ele>8.304159129038453</ele>
        <time>2024-07-05T12:14:59Z</time>
      </trkpt>
      <trkpt lat="31.11248570091437" lon="121.36411552131086">
        <ele>8.413487545214593</ele>
        <time>2024-07-05T12:15:02Z</time>
      </trkpt>
      <trkpt lat="31.112560289406808" lon="121.36396185146387">
        <ele>8.93484166637063</ele>
        <time>2024-07-05T12:15:08Z</time>
      </trkpt>
      <trkpt lat="31.112642176688016" lon="121.36394725656133">
        <ele>10.307125107385218</ele>
        <time>2024-07-05T12:15:11Z</time>
      </trkpt>
      <trkpt lat="31.11271954181136" lon="121.36390358613781">
        <ele>11.314382047392428</ele>
        <time>2024-07-05T12:15:14Z</time>
      </trkpt>
      <trkpt lat="31.112809013040813" lon="121.36389111701588">
        <ele>11.411988372914493</ele>
        <time>2024-07-05T12:15:17Z</time>
      </trkpt>
      <trkpt lat="31.112988237601364" lon="121.36382066370228">
        <ele>11.048361985944211</ele>
        <time>2024-07-05T12:15:24Z</time>
      </trkpt>
      <trkpt lat="31.113109266344544" lon="121.36372573387351">
        <ele>9.915145761333406</ele>
        <time>2024-07-05T12:15:30Z</time>
      </trkpt>
      <trkpt lat="31.11313539883821" lon="121.36363650835182">
        <ele>9.439438803121448</ele>
        <time>2024-07-05T12:15:33Z</time>
      </trkpt>
      <trkpt lat="31.113228742802786" lon="121.36363065551224">
        <ele>9.507619068026543</ele>
        <time>2024-07-05T12:15:36Z</time>
      </trkpt>
      <trkpt lat="31.11336985379319" lon="121.36365338221236">
        <ele>10.309449128806591</ele>
        <time>2024-07-05T12:15:40Z</time>
      </trkpt>
      <trkpt lat="31.113472814794225" lon="121.36357819487094">
        <ele>9.88089145347476</ele>
        <time>2024-07-05T12:15:44Z</time>
      </trkpt>
      <trkpt lat="31.113594015821615" lon="121.36357749550326">
        <ele>11.792102885432541</ele>
        <time>2024-07-05T12:15:48Z</time>
      </trkpt>
      <trkpt lat="31.11381161068851" lon="121.36348930056654">
        <ele>11.447818899527192</ele>
        <time>2024-07-05T12:15:56Z</time>
      </trkpt>
      <trkpt lat="31.113762557396498" lon="121.36352096983255">
        <ele>11.564123883843422</ele>
        <time>2024-07-05T12:16:00Z</time>
      </trkpt>
      <trkpt lat="31.113854511667768" lon="121.36348058669381">
        <ele>9.426419229246676</ele>
        <time>2024-07-05T12:16:03Z</time>
      </trkpt>
      <trkpt lat="31.1138022454211" lon="121.36348825218204">
        <ele>8.795708642341197</ele>
        <time>2024-07-05T12:16:06Z</time>
      </trkpt>
      <trkpt lat="31.11391914196386" lon="121.36349212435468">
        <ele>6.973952930420637</ele>
        <time>2024-07-05T12:16:12Z</time>
      </trkpt>
      <trkpt lat="31.11397826756635" lon="121.36345573269053">
        <ele>7.241751004010439</ele>
        <time>2024-07-05T12:16:15Z</time>
      </trkpt>
      <trkpt lat="31.114047237595955" lon="121.3633526042832">
        <ele>8.199853263795376</ele>
        <time>2024-07-05T12:16:30Z</time>
      </trkpt>
      <trkpt lat="31.114103254623956" lon="121.36335836289463">
        <ele>8.756934880279005</ele>
        <time>2024-07-05T12:16:33Z</time>
      </trkpt>
      <trkpt lat="31.11434767251876" lon="121.36321302618367">
        <ele>12.25593033991754</ele>
        <time>2024-07-05T12:16:45Z</time>
      </trkpt>
      <trkpt lat="31.114440130813666" lon="121.3632142366001">
        <ele>12.893152728676796</ele>
        <time>2024-07-05T12:16:48Z</time>
      </trkpt>
      <trkpt lat="31.114675804355027" lon="121.36316545456192">
        <ele>10.36930756084621</ele>
        <time>2024-07-05T12:16:54Z</time>
      </trkpt>
      <trkpt lat="31.114846829813782" lon="121.3632401482537">
        <ele>9.394863829948008</ele>
        <time>2024-07-05T12:16:57Z</time>
      </trkpt>
      <trkpt lat="31.114826142519327" lon="121.36302043340098">
        <ele>7.9692814173176885</ele>
        <time>2024-07-05T12:17:00Z</time>
      </trkpt>
      <trkpt lat="31.114872065973458" lon="121.36292733439439">
        <ele>9.292038246057928</ele>
        <time>2024-07-05T12:17:03Z</time>
      </trkpt>
      <trkpt lat="31.11498385723376" lon="121.36297734397154">
        <ele>8.94786062836647</ele>
        <time>2024-07-05T12:17:06Z</time>
      </trkpt>
      <trkpt lat="31.115038671652194" lon="121.36291296995816">
        <ele>9.37445910088718</ele>
        <time>2024-07-05T12:17:09Z</time>
      </trkpt>
      <trkpt lat="31.115105138102653" lon="121.36293072067092">
        <ele>5.767196740023792</ele>
        <time>2024-07-05T12:17:15Z</time>
      </trkpt>
      <trkpt lat="31.11531917880016" lon="121.36288219520677">
        <ele>6.08710022456944</ele>
        <time>2024-07-05T12:17:31Z</time>
      </trkpt>
      <trkpt lat="31.115606018046584" lon="121.36273493382596">
        <ele>8.092008688487113</ele>
        <time>2024-07-05T12:17:55Z</time>
      </trkpt>
      <trkpt lat="31.11580770538849" lon="121.36267179827762">
        <ele>8.367777863517404</ele>
        <time>2024-07-05T12:18:10Z</time>
      </trkpt>
      <trkpt lat="31.115888726112644" lon="121.36267192839138">
        <ele>9.614614692516625</ele>
        <time>2024-07-05T12:18:16Z</time>
      </trkpt>
      <trkpt lat="31.11593608415646" lon="121.36265133525824">
        <ele>9.861391086131334</ele>
        <time>2024-07-05T12:18:19Z</time>
      </trkpt>
      <trkpt lat="31.11602150581747" lon="121.36258749346935">
        <ele>9.8623559884727</ele>
        <time>2024-07-05T12:18:25Z</time>
      </trkpt>
      <trkpt lat="31.116112503710315" lon="121.36254525954405">
        <ele>9.39338298048824</ele>
        <time>2024-07-05T12:18:31Z</time>
      </trkpt>
      <trkpt lat="31.11622331886916" lon="121.3625267055957">
        <ele>6.4755103550851345</ele>
        <time>2024-07-05T12:18:37Z</time>
      </trkpt>
      <trkpt lat="31.11653186949382" lon="121.36238482943202">
        <ele>11.128188983537257</ele>
        <time>2024-07-05T12:18:49Z</time>
      </trkpt>
      <trkpt lat="31.11661570738108" lon="121.36230582999741">
        <ele>13.414582338184118</ele>
        <time>2024-07-05T12:18:52Z</time>
      </trkpt>
      <trkpt lat="31.11685172395065" lon="121.3622635828876">
        <ele>14.883456118404865</ele>
        <time>2024-07-05T12:18:58Z</time>
      </trkpt>
      <trkpt lat="31.11688442668545" lon="121.36221857209847">
        <ele>12.651913863606751</ele>
        <time>2024-07-05T12:19:01Z</time>
      </trkpt>
      <trkpt lat="31.117051231976937" lon="121.36215574978965">
        <ele>11.780814704485238</ele>
        <time>2024-07-05T12:19:07Z</time>
      </trkpt>
      <trkpt lat="31.117081672050467" lon="121.3622465187665">
        <ele>9.960158091969788</ele>
        <time>2024-07-05T12:19:10Z</time>
      </trkpt>
      <trkpt lat="31.1171739032956" lon="121.36216753257509">
        <ele>9.863968634977937</ele>
        <time>2024-07-05T12:19:13Z</time>
      </trkpt>
      <trkpt lat="31.117243698934658" lon="121.36205175363706">
        <ele>10.659694831818342</ele>
        <time>2024-07-05T12:19:16Z</time>
      </trkpt>
      <trkpt lat="31.11731817528712" lon="121.36203661811057">
        <ele>9.991668623872101</ele>
        <time>2024-07-05T12:19:22Z</time>
      </trkpt>
      <trkpt lat="31.11731817528712" lon="121.36203661811057">
        <ele>9.991668623872101</ele>
        <time>2024-07-05T12:19:22Z</time>
      </trkpt>
      <trkpt lat="31.117357623403223" lon="121.36205310303689">
        <ele>7.617154251784086</ele>
        <time>2024-07-05T12:20:34Z</time>
      </trkpt>
      <trkpt lat="31.11734893280721" lon="121.36194924826091">
        <ele>10.123709398321807</ele>
        <time>2024-07-05T12:20:40Z</time>
      </trkpt>
      <trkpt lat="31.117300364983613" lon="121.36183067950405">
        <ele>11.25705967657268</ele>
        <time>2024-07-05T12:20:46Z</time>
      </trkpt>
      <trkpt lat="31.117092490950412" lon="121.36189609590166">
        <ele>7.186961697414517</ele>
        <time>2024-07-05T12:21:07Z</time>
      </trkpt>
      <trkpt lat="31.1170420574923" lon="121.3619407611071">
        <ele>7.743195469491184</ele>
        <time>2024-07-05T12:21:10Z</time>
      </trkpt>
      <trkpt lat="31.11692724331832" lon="121.36197239028101">
        <ele>9.55565164797008</ele>
        <time>2024-07-05T12:21:16Z</time>
      </trkpt>
      <trkpt lat="31.116870041332902" lon="121.36196221054311">
        <ele>10.317611320875585</ele>
        <time>2024-07-05T12:21:19Z</time>
      </trkpt>
      <trkpt lat="31.11658354018308" lon="121.36212862835391">
        <ele>7.760880291461945</ele>
        <time>2024-07-05T12:21:28Z</time>
      </trkpt>
      <trkpt lat="31.116472354340353" lon="121.36213414748873">
        <ele>9.355756169185042</ele>
        <time>2024-07-05T12:21:31Z</time>
      </trkpt>
      <trkpt lat="31.116303911465778" lon="121.36219991842475">
        <ele>8.559590166434646</ele>
        <time>2024-07-05T12:21:37Z</time>
      </trkpt>
      <trkpt lat="31.116217348051947" lon="121.36226711238399">
        <ele>8.695402700453997</ele>
        <time>2024-07-05T12:21:40Z</time>
      </trkpt>
      <trkpt lat="31.116118370886195" lon="121.36225351452967">
        <ele>13.864420998841524</ele>
        <time>2024-07-05T12:21:44Z</time>
      </trkpt>
      <trkpt lat="31.115973288637182" lon="121.36230560274242">
        <ele>13.079019796103239</ele>
        <time>2024-07-05T12:21:47Z</time>
      </trkpt>
      <trkpt lat="31.11575117855962" lon="121.36247614618065">
        <ele>14.512384451925755</ele>
        <time>2024-07-05T12:21:56Z</time>
      </trkpt>
      <trkpt lat="31.115665432822407" lon="121.36251423488467">
        <ele>15.470712944865227</ele>
        <time>2024-07-05T12:21:59Z</time>
      </trkpt>
      <trkpt lat="31.115506330960127" lon="121.3624744342607">
        <ele>13.878594069741666</ele>
        <time>2024-07-05T12:22:05Z</time>
      </trkpt>
      <trkpt lat="31.11539201167793" lon="121.36247127708789">
        <ele>11.003504518419504</ele>
        <time>2024-07-05T12:22:11Z</time>
      </trkpt>
      <trkpt lat="31.11543536558953" lon="121.36252146865263">
        <ele>10.777870137244463</ele>
        <time>2024-07-05T12:22:14Z</time>
      </trkpt>
      <trkpt lat="31.115400467914753" lon="121.36259396107104">
        <ele>7.9608756583184</ele>
        <time>2024-07-05T12:22:20Z</time>
      </trkpt>
      <trkpt lat="31.115319646603414" lon="121.36260531701637">
        <ele>7.17024140432477</ele>
        <time>2024-07-05T12:22:23Z</time>
      </trkpt>
      <trkpt lat="31.115225560408387" lon="121.36258761161406">
        <ele>7.802699428983033</ele>
        <time>2024-07-05T12:22:29Z</time>
      </trkpt>
      <trkpt lat="31.11516423715641" lon="121.3626088772783">
        <ele>7.982034812681377</ele>
        <time>2024-07-05T12:22:32Z</time>
      </trkpt>
      <trkpt lat="31.115143790348554" lon="121.36266069684588">
        <ele>6.979469514451921</ele>
        <time>2024-07-05T12:22:35Z</time>
      </trkpt>
      <trkpt lat="31.114923731495512" lon="121.36277643718081">
        <ele>5.600030881352723</ele>
        <time>2024-07-05T12:22:53Z</time>
      </trkpt>
      <trkpt lat="31.114819722587026" lon="121.36277833075484">
        <ele>6.1493165493011475</ele>
        <time>2024-07-05T12:22:59Z</time>
      </trkpt>
      <trkpt lat="31.114759318931384" lon="121.36279877017455">
        <ele>6.7778546418994665</ele>
        <time>2024-07-05T12:23:05Z</time>
      </trkpt>
      <trkpt lat="31.11464812600564" lon="121.36287217833001">
        <ele>5.342925305478275</ele>
        <time>2024-07-05T12:23:11Z</time>
      </trkpt>
      <trkpt lat="31.114583612036526" lon="121.36283922721162">
        <ele>6.21973961032927</ele>
        <time>2024-07-05T12:23:14Z</time>
      </trkpt>
      <trkpt lat="31.114268423823088" lon="121.36301244228594">
        <ele>8.725221863947809</ele>
        <time>2024-07-05T12:23:23Z</time>
      </trkpt>
      <trkpt lat="31.114075650216552" lon="121.36304190929822">
        <ele>10.242233448661864</ele>
        <time>2024-07-05T12:23:29Z</time>
      </trkpt>
      <trkpt lat="31.11395521347894" lon="121.36311931395454">
        <ele>11.699326748028398</ele>
        <time>2024-07-05T12:23:35Z</time>
      </trkpt>
      <trkpt lat="31.113947872925706" lon="121.36305308836369">
        <ele>10.31618995219469</ele>
        <time>2024-07-05T12:23:41Z</time>
      </trkpt>
      <trkpt lat="31.113882752793188" lon="121.3629759588998">
        <ele>8.391093475744128</ele>
        <time>2024-07-05T12:23:48Z</time>
      </trkpt>
      <trkpt lat="31.1138278818557" lon="121.36308893467132">
        <ele>7.61834485642612</ele>
        <time>2024-07-05T12:23:51Z</time>
      </trkpt>
      <trkpt lat="31.113743442261853" lon="121.36312519493421">
        <ele>7.233435666188598</ele>
        <time>2024-07-05T12:23:57Z</time>
      </trkpt>
      <trkpt lat="31.11357611817887" lon="121.36313206850917">
        <ele>6.252080446109176</ele>
        <time>2024-07-05T12:24:03Z</time>
      </trkpt>
      <trkpt lat="31.113608603565822" lon="121.36319133142607">
        <ele>5.513393317349255</ele>
        <time>2024-07-05T12:24:09Z</time>
      </trkpt>
      <trkpt lat="31.113582827034964" lon="121.3632605681321">
        <ele>1.8155898889526725</ele>
        <time>2024-07-05T12:24:15Z</time>
      </trkpt>
      <trkpt lat="31.11361883908171" lon="121.36334427896315">
        <ele>4.475198024883866</ele>
        <time>2024-07-05T12:24:18Z</time>
      </trkpt>
      <trkpt lat="31.11354216150081" lon="121.36331630254753">
        <ele>5.12565116584301</ele>
        <time>2024-07-05T12:24:21Z</time>
      </trkpt>
      <trkpt lat="31.113424888460436" lon="121.36335290508629">
        <ele>5.180183053947985</ele>
        <time>2024-07-05T12:24:36Z</time>
      </trkpt>
      <trkpt lat="31.113364095623698" lon="121.3633903449077">
        <ele>5.170240524224937</ele>
        <time>2024-07-05T12:24:39Z</time>
      </trkpt>
      <trkpt lat="31.11330319845178" lon="121.36345883577256">
        <ele>3.831879355944693</ele>
        <time>2024-07-05T12:24:42Z</time>
      </trkpt>
      <trkpt lat="31.113035946828443" lon="121.36356450587628">
        <ele>3.7658047899603844</ele>
        <time>2024-07-05T12:25:00Z</time>
      </trkpt>
      <trkpt lat="31.112942626325736" lon="121.36355626871014">
        <ele>3.0410709073767066</ele>
        <time>2024-07-05T12:25:03Z</time>
      </trkpt>
      <trkpt lat="31.11295363714263" lon="121.36364430255456">
        <ele>4.033491765148938</ele>
        <time>2024-07-05T12:25:06Z</time>
      </trkpt>
      <trkpt lat="31.112744969660255" lon="121.36372122420296">
        <ele>5.905372956767678</ele>
        <time>2024-07-05T12:25:15Z</time>
      </trkpt>
      <trkpt lat="31.112668410410258" lon="121.36373399120365">
        <ele>6.965679534710944</ele>
        <time>2024-07-05T12:25:21Z</time>
      </trkpt>
      <trkpt lat="31.11260531056766" lon="121.36372233246406">
        <ele>7.182124005630612</ele>
        <time>2024-07-05T12:25:24Z</time>
      </trkpt>
      <trkpt lat="31.11255214392994" lon="121.3636607852445">
        <ele>7.200615904293954</ele>
        <time>2024-07-05T12:25:27Z</time>
      </trkpt>
      <trkpt lat="31.1124332782614" lon="121.36377429857241">
        <ele>6.27377363294363</ele>
        <time>2024-07-05T12:25:42Z</time>
      </trkpt>
      <trkpt lat="31.112310539077956" lon="121.36371900710446">
        <ele>6.007928957231343</ele>
        <time>2024-07-05T12:25:55Z</time>
      </trkpt>
      <trkpt lat="31.112198261926103" lon="121.36374389342215">
        <ele>5.497833517380059</ele>
        <time>2024-07-05T12:26:03Z</time>
      </trkpt>
      <trkpt lat="31.112115965458774" lon="121.36380938050917">
        <ele>7.3463473636657</ele>
        <time>2024-07-05T12:26:10Z</time>
      </trkpt>
      <trkpt lat="31.112104957854367" lon="121.36388914429953">
        <ele>7.026601640507579</ele>
        <time>2024-07-05T12:26:16Z</time>
      </trkpt>
      <trkpt lat="31.111982572260445" lon="121.3639765049917">
        <ele>6.984878684394062</ele>
        <time>2024-07-05T12:26:25Z</time>
      </trkpt>
      <trkpt lat="31.111852104587285" lon="121.36398676941822">
        <ele>7.062481690198183</ele>
        <time>2024-07-05T12:26:34Z</time>
      </trkpt>
      <trkpt lat="31.11174392492554" lon="121.36407067544634">
        <ele>7.381685755215585</ele>
        <time>2024-07-05T12:26:43Z</time>
      </trkpt>
      <trkpt lat="31.11169163301214" lon="121.36408609668489">
        <ele>7.714007172733545</ele>
        <time>2024-07-05T12:26:46Z</time>
      </trkpt>
      <trkpt lat="31.11165341471642" lon="121.36412588021683">
        <ele>7.0108989011496305</ele>
        <time>2024-07-05T12:26:52Z</time>
      </trkpt>
      <trkpt lat="31.111546836158986" lon="121.3641832442792">
        <ele>5.692040018737316</ele>
        <time>2024-07-05T12:27:01Z</time>
      </trkpt>
      <trkpt lat="31.111500312117283" lon="121.36423034337855">
        <ele>6.6464344169944525</ele>
        <time>2024-07-05T12:27:07Z</time>
      </trkpt>
      <trkpt lat="31.11133070565652" lon="121.36427221151794">
        <ele>6.677487665787339</ele>
        <time>2024-07-05T12:27:16Z</time>
      </trkpt>
      <trkpt lat="31.111251643857855" lon="121.36424582966087">
        <ele>6.865088677965105</ele>
        <time>2024-07-05T12:27:19Z</time>
      </trkpt>
      <trkpt lat="31.111154301520294" lon="121.36432580738152">
        <ele>4.609300699084997</ele>
        <time>2024-07-05T12:27:28Z</time>
      </trkpt>
      <trkpt lat="31.111094722803262" lon="121.36424733831258">
        <ele>4.028380494564772</ele>
        <time>2024-07-05T12:27:34Z</time>
      </trkpt>
      <trkpt lat="31.111050947611723" lon="121.36429636487712">
        <ele>5.874126764945686</ele>
        <time>2024-07-05T12:27:40Z</time>
      </trkpt>
      <trkpt lat="31.111080440690525" lon="121.36446148567732">
        <ele>7.832882285118103</ele>
        <time>2024-07-05T12:27:49Z</time>
      </trkpt>
      <trkpt lat="31.11123155984698" lon="121.36465243115246">
        <ele>8.539243809878826</ele>
        <time>2024-07-05T12:28:06Z</time>
      </trkpt>
      <trkpt lat="31.111397848827508" lon="121.3644802790999">
        <ele>8.059043226763606</ele>
        <time>2024-07-05T12:28:21Z</time>
      </trkpt>
      <trkpt lat="31.111659646559485" lon="121.36438239314971">
        <ele>7.121366582810879</ele>
        <time>2024-07-05T12:28:39Z</time>
      </trkpt>
      <trkpt lat="31.111790985589185" lon="121.36434053830082">
        <ele>7.744390474632382</ele>
        <time>2024-07-05T12:28:51Z</time>
      </trkpt>
      <trkpt lat="31.11192778990309" lon="121.36422014763622">
        <ele>6.410015814937651</ele>
        <time>2024-07-05T12:29:00Z</time>
      </trkpt>
      <trkpt lat="31.112037508482604" lon="121.3641834846308">
        <ele>5.730576063506305</ele>
        <time>2024-07-05T12:29:12Z</time>
      </trkpt>
      <trkpt lat="31.11218282037108" lon="121.36418715754513">
        <ele>6.923819768242538</ele>
        <time>2024-07-05T12:29:24Z</time>
      </trkpt>
      <trkpt lat="31.112226669086848" lon="121.36421916516898">
        <ele>5.24716975633055</ele>
        <time>2024-07-05T12:29:33Z</time>
      </trkpt>
      <trkpt lat="31.11214568385925" lon="121.36421883116802">
        <ele>5.499470613896847</ele>
        <time>2024-07-05T12:29:39Z</time>
      </trkpt>
      <trkpt lat="31.11202089429726" lon="121.36412604580394">
        <ele>5.071671258658171</ele>
        <time>2024-07-05T12:29:54Z</time>
      </trkpt>
      <trkpt lat="31.111947704128717" lon="121.36410401996817">
        <ele>0.6835439773276448</ele>
        <time>2024-07-05T12:29:57Z</time>
      </trkpt>
      <trkpt lat="31.111746974562955" lon="121.36431446808824">
        <ele>9.992482841014862</ele>
        <time>2024-07-05T12:30:03Z</time>
      </trkpt>
      <trkpt lat="31.111584972849514" lon="121.36438775229645">
        <ele>13.614600944332778</ele>
        <time>2024-07-05T12:30:07Z</time>
      </trkpt>
      <trkpt lat="31.111445292886142" lon="121.3644197700172">
        <ele>13.457849581725895</ele>
        <time>2024-07-05T12:30:11Z</time>
      </trkpt>
      <trkpt lat="31.111409668925592" lon="121.36449103589013">
        <ele>11.057441984303296</ele>
        <time>2024-07-05T12:30:15Z</time>
      </trkpt>
      <trkpt lat="31.11156701169018" lon="121.36453470627056">
        <ele>10.552929217927158</ele>
        <time>2024-07-05T12:30:19Z</time>
      </trkpt>
      <trkpt lat="31.111647236901117" lon="121.36446066516014">
        <ele>9.40777388215065</ele>
        <time>2024-07-05T12:30:22Z</time>
      </trkpt>
      <trkpt lat="31.111798686195133" lon="121.36441052119505">
        <ele>9.882180158048868</ele>
        <time>2024-07-05T12:30:28Z</time>
      </trkpt>
      <trkpt lat="31.111850418331187" lon="121.3643059906587">
        <ele>9.614980229176581</ele>
        <time>2024-07-05T12:30:31Z</time>
      </trkpt>
      <trkpt lat="31.11194087086506" lon="121.36427839411652">
        <ele>10.675345851108432</ele>
        <time>2024-07-05T12:30:34Z</time>
      </trkpt>
      <trkpt lat="31.11198375501324" lon="121.36418361807226">
        <ele>9.617189562879503</ele>
        <time>2024-07-05T12:30:37Z</time>
      </trkpt>
      <trkpt lat="31.11206499389394" lon="121.36418016137358">
        <ele>9.282339152880013</ele>
        <time>2024-07-05T12:30:40Z</time>
      </trkpt>
      <trkpt lat="31.112137218340163" lon="121.36423089704935">
        <ele>10.01747059635818</ele>
        <time>2024-07-05T12:30:43Z</time>
      </trkpt>
      <trkpt lat="31.11219768018278" lon="121.3642060967859">
        <ele>11.104764841496944</ele>
        <time>2024-07-05T12:30:46Z</time>
      </trkpt>
      <trkpt lat="31.11226079712299" lon="121.36427997471597">
        <ele>8.244031375274062</ele>
        <time>2024-07-05T12:30:49Z</time>
      </trkpt>
      <trkpt lat="31.112332395509597" lon="121.36432195917322">
        <ele>7.6767202485352755</ele>
        <time>2024-07-05T12:30:52Z</time>
      </trkpt>
      <trkpt lat="31.11232926908657" lon="121.3642682383263">
        <ele>8.38015316054225</ele>
        <time>2024-07-05T12:30:55Z</time>
      </trkpt>
      <trkpt lat="31.112270015849848" lon="121.36416409937003">
        <ele>7.765715004876256</ele>
        <time>2024-07-05T12:31:01Z</time>
      </trkpt>
      <trkpt lat="31.11219825797642" lon="121.36416507548593">
        <ele>8.485536197200418</ele>
        <time>2024-07-05T12:31:04Z</time>
      </trkpt>
      <trkpt lat="31.11219825797642" lon="121.36416507548593">
        <ele>8.485536197200418</ele>
        <time>2024-07-05T12:31:07Z</time>
      </trkpt>
    </trkseg>
  </trk>
</gpx>