<?xml version="1.0" encoding="UTF-8"?>
<gpx xmlns="http://www.topografix.com/GPX/1/1" xmlns:gpxtpx="http://www.garmin.com/xmlschemas/TrackPointExtension/v1" xmlns:xsi="http://www.w3.org/2001/XMLSchema-instance" xsi:schemaLocation="http://www.topografix.com/GPX/1/1 http://www.topografix.com/GPX/1/1/gpx.xsd" version="1.1" creator="gpx.py -- https://github.com/tkrajina/gpxpy">
  <trk>
    <name>gpx from keep</name>
    <type>Run</type>
    <trkseg>
      <trkpt lat="36.03049574731585" lon="119.41534357499748">
        <ele>0.0</ele>
        <time>2024-04-10T10:30:31Z</time>
      </trkpt>
      <trkpt lat="36.030313116187784" lon="119.41573012929233">
        <ele>0.0</ele>
        <time>2024-04-10T10:30:45Z</time>
      </trkpt>
      <trkpt lat="36.03031061705608" lon="119.41630694184194">
        <ele>0.0</ele>
        <time>2024-04-10T10:31:17Z</time>
      </trkpt>
      <trkpt lat="36.030259472475336" lon="119.41724330608007">
        <ele>0.0</ele>
        <time>2024-04-10T10:31:56Z</time>
      </trkpt>
      <trkpt lat="36.030755237225534" lon="119.41711105570468">
        <ele>0.0</ele>
        <time>2024-04-10T10:32:29Z</time>
      </trkpt>
      <trkpt lat="36.030730160602545" lon="119.41702092627264">
        <ele>0.0</ele>
        <time>2024-04-10T10:32:35Z</time>
      </trkpt>
      <trkpt lat="36.030822847567904" lon="119.41669844648833">
        <ele>0.0</ele>
        <time>2024-04-10T10:33:26Z</time>
      </trkpt>
      <trkpt lat="36.03089783395842" lon="119.41670244387431">
        <ele>0.0</ele>
        <time>2024-04-10T10:33:29Z</time>
      </trkpt>
      <trkpt lat="36.03093201528743" lon="119.41577812685091">
        <ele>0.0</ele>
        <time>2024-04-10T10:33:54Z</time>
      </trkpt>
      <trkpt lat="36.03096514463851" lon="119.4147427093675">
        <ele>0.0</ele>
        <time>2024-04-10T10:34:21Z</time>
      </trkpt>
      <trkpt lat="36.03077505014526" lon="119.41457150273477">
        <ele>0.0</ele>
        <time>2024-04-10T10:34:29Z</time>
      </trkpt>
      <trkpt lat="36.03098885951472" lon="119.41439424454514">
        <ele>0.0</ele>
        <time>2024-04-10T10:34:35Z</time>
      </trkpt>
      <trkpt lat="36.031013808498635" lon="119.41433716670323">
        <ele>0.0</ele>
        <time>2024-04-10T10:34:53Z</time>
      </trkpt>
      <trkpt lat="36.03119691963504" lon="119.41452939967574">
        <ele>68.2232666015625</ele>
        <time>2024-04-10T10:36:13Z</time>
      </trkpt>
      <trkpt lat="36.03128890414887" lon="119.4145363986394">
        <ele>65.4627685546875</ele>
        <time>2024-04-10T10:36:19Z</time>
      </trkpt>
      <trkpt lat="36.031537607762914" lon="119.4144694799305">
        <ele>62.6021728515625</ele>
        <time>2024-04-10T10:36:28Z</time>
      </trkpt>
      <trkpt lat="36.03159387814596" lon="119.41437734545715">
        <ele>65.5845947265625</ele>
        <time>2024-04-10T10:36:31Z</time>
      </trkpt>
      <trkpt lat="36.03162393197091" lon="119.4141311188423">
        <ele>68.3477783203125</ele>
        <time>2024-04-10T10:36:40Z</time>
      </trkpt>
      <trkpt lat="36.031645613440936" lon="119.4140125953641">
        <ele>67.531982421875</ele>
        <time>2024-04-10T10:36:43Z</time>
      </trkpt>
      <trkpt lat="36.03163949706176" lon="119.4138061748493">
        <ele>67.73052978515625</ele>
        <time>2024-04-10T10:36:49Z</time>
      </trkpt>
      <trkpt lat="36.03164781082523" lon="119.41346073236733">
        <ele>65.8167724609375</ele>
        <time>2024-04-10T10:37:01Z</time>
      </trkpt>
      <trkpt lat="36.03161861674118" lon="119.41317398379223">
        <ele>72.84521484375</ele>
        <time>2024-04-10T10:37:10Z</time>
      </trkpt>
      <trkpt lat="36.031635938841" lon="119.41309597150097">
        <ele>72.078857421875</ele>
        <time>2024-04-10T10:37:13Z</time>
      </trkpt>
      <trkpt lat="36.03163676953834" lon="119.41295669468677">
        <ele>73.40374755859375</ele>
        <time>2024-04-10T10:37:19Z</time>
      </trkpt>
      <trkpt lat="36.031722437042454" lon="119.41273906101652">
        <ele>70.11456298828125</ele>
        <time>2024-04-10T10:37:34Z</time>
      </trkpt>
      <trkpt lat="36.03174217072788" lon="119.412371613389">
        <ele>71.88348388671875</ele>
        <time>2024-04-10T10:37:46Z</time>
      </trkpt>
      <trkpt lat="36.03165211759674" lon="119.41226649747196">
        <ele>73.09857177734375</ele>
        <time>2024-04-10T10:37:52Z</time>
      </trkpt>
      <trkpt lat="36.031673017974356" lon="119.41213033283212">
        <ele>68.39056396484375</ele>
        <time>2024-04-10T10:37:58Z</time>
      </trkpt>
      <trkpt lat="36.031673749136054" lon="119.41173787085975">
        <ele>69.5970458984375</ele>
        <time>2024-04-10T10:38:10Z</time>
      </trkpt>
      <trkpt lat="36.03169947753452" lon="119.41133940797727">
        <ele>74.42352294921875</ele>
        <time>2024-04-10T10:38:25Z</time>
      </trkpt>
      <trkpt lat="36.031704330668774" lon="119.41111615364618">
        <ele>76.51788330078125</ele>
        <time>2024-04-10T10:38:31Z</time>
      </trkpt>
      <trkpt lat="36.03171828347007" lon="119.41104807525691">
        <ele>75.17822265625</ele>
        <time>2024-04-10T10:38:34Z</time>
      </trkpt>
      <trkpt lat="36.031713162811" lon="119.41085786257656">
        <ele>76.6854248046875</ele>
        <time>2024-04-10T10:38:40Z</time>
      </trkpt>
      <trkpt lat="36.03174689338846" lon="119.41044039797391">
        <ele>75.93133544921875</ele>
        <time>2024-04-10T10:38:55Z</time>
      </trkpt>
      <trkpt lat="36.03174082215323" lon="119.4103222700577">
        <ele>77.13916015625</ele>
        <time>2024-04-10T10:38:58Z</time>
      </trkpt>
      <trkpt lat="36.0317715753617" lon="119.40992483978592">
        <ele>72.9580078125</ele>
        <time>2024-04-10T10:39:13Z</time>
      </trkpt>
      <trkpt lat="36.03178847511237" lon="119.40976166525068">
        <ele>71.56982421875</ele>
        <time>2024-04-10T10:39:19Z</time>
      </trkpt>
      <trkpt lat="36.031779363482016" lon="119.40956646173544">
        <ele>72.9552001953125</ele>
        <time>2024-04-10T10:39:25Z</time>
      </trkpt>
      <trkpt lat="36.031789175093245" lon="119.40922102864964">
        <ele>74.5621337890625</ele>
        <time>2024-04-10T10:39:37Z</time>
      </trkpt>
      <trkpt lat="36.031809662758015" lon="119.40915608938398">
        <ele>69.523193359375</ele>
        <time>2024-04-10T10:39:40Z</time>
      </trkpt>
      <trkpt lat="36.03177239496429" lon="119.40889677528546">
        <ele>76.3377685546875</ele>
        <time>2024-04-10T10:39:49Z</time>
      </trkpt>
      <trkpt lat="36.031798862294835" lon="119.40867655456977">
        <ele>79.57672119140625</ele>
        <time>2024-04-10T10:39:55Z</time>
      </trkpt>
      <trkpt lat="36.03184664207423" lon="119.40828116158342">
        <ele>77.4931640625</ele>
        <time>2024-04-10T10:40:10Z</time>
      </trkpt>
      <trkpt lat="36.03186951873014" lon="119.40805193837048">
        <ele>75.3138427734375</ele>
        <time>2024-04-10T10:40:19Z</time>
      </trkpt>
      <trkpt lat="36.03186345261677" lon="119.40791881227815">
        <ele>77.67291259765625</ele>
        <time>2024-04-10T10:40:25Z</time>
      </trkpt>
      <trkpt lat="36.03188437164868" lon="119.40776666628196">
        <ele>80.29742431640625</ele>
        <time>2024-04-10T10:40:34Z</time>
      </trkpt>
      <trkpt lat="36.0319073321498" lon="119.40769759893082">
        <ele>80.29412841796875</ele>
        <time>2024-04-10T10:40:37Z</time>
      </trkpt>
      <trkpt lat="36.03193818691136" lon="119.40741433264432">
        <ele>81.584228515625</ele>
        <time>2024-04-10T10:40:52Z</time>
      </trkpt>
      <trkpt lat="36.031985147793925" lon="119.40735527315412">
        <ele>82.810302734375</ele>
        <time>2024-04-10T10:40:55Z</time>
      </trkpt>
      <trkpt lat="36.03198902851968" lon="119.40710504518613">
        <ele>79.24151611328125</ele>
        <time>2024-04-10T10:41:13Z</time>
      </trkpt>
      <trkpt lat="36.03202593059239" lon="119.40691186782666">
        <ele>73.39349365234375</ele>
        <time>2024-04-10T10:41:25Z</time>
      </trkpt>
      <trkpt lat="36.03195991780067" lon="119.40685082093341">
        <ele>74.4132080078125</ele>
        <time>2024-04-10T10:41:37Z</time>
      </trkpt>
      <trkpt lat="36.031943988113326" lon="119.40699595215534">
        <ele>67.6246337890625</ele>
        <time>2024-04-10T10:41:58Z</time>
      </trkpt>
      <trkpt lat="36.03188996314672" lon="119.40691488576923">
        <ele>68.9510498046875</ele>
        <time>2024-04-10T10:42:04Z</time>
      </trkpt>
      <trkpt lat="36.03175596685085" lon="119.4068558482762">
        <ele>65.69281005859375</ele>
        <time>2024-04-10T10:42:10Z</time>
      </trkpt>
      <trkpt lat="36.03168598518335" lon="119.40686086057832">
        <ele>67.10479736328125</ele>
        <time>2024-04-10T10:42:13Z</time>
      </trkpt>
      <trkpt lat="36.03160004159008" lon="119.40694094153648">
        <ele>67.3270263671875</ele>
        <time>2024-04-10T10:42:19Z</time>
      </trkpt>
      <trkpt lat="36.03145115561205" lon="119.40711311280229">
        <ele>71.48529052734375</ele>
        <time>2024-04-10T10:42:31Z</time>
      </trkpt>
      <trkpt lat="36.03139124295161" lon="119.40726926116105">
        <ele>71.40185546875</ele>
        <time>2024-04-10T10:42:37Z</time>
      </trkpt>
      <trkpt lat="36.03138227934573" lon="119.40734132800435">
        <ele>70.99072265625</ele>
        <time>2024-04-10T10:42:40Z</time>
      </trkpt>
      <trkpt lat="36.031402316071194" lon="119.40742740478098">
        <ele>68.81768798828125</ele>
        <time>2024-04-10T10:42:43Z</time>
      </trkpt>
      <trkpt lat="36.0313883457156" lon="119.40749586179743">
        <ele>68.1259765625</ele>
        <time>2024-04-10T10:42:46Z</time>
      </trkpt>
      <trkpt lat="36.03126739739659" lon="119.4076369145558">
        <ele>65.13287353515625</ele>
        <time>2024-04-10T10:42:52Z</time>
      </trkpt>
      <trkpt lat="36.031134500011" lon="119.40767866790779">
        <ele>64.092041015625</ele>
        <time>2024-04-10T10:42:58Z</time>
      </trkpt>
      <trkpt lat="36.030907525486995" lon="119.40762464294602">
        <ele>63.885986328125</ele>
        <time>2024-04-10T10:43:10Z</time>
      </trkpt>
      <trkpt lat="36.03083954305023" lon="119.40762865430905">
        <ele>62.691650390625</ele>
        <time>2024-04-10T10:43:13Z</time>
      </trkpt>
      <trkpt lat="36.03077854624402" lon="119.4076066406486">
        <ele>62.14959716796875</ele>
        <time>2024-04-10T10:43:16Z</time>
      </trkpt>
      <trkpt lat="36.030567607906285" lon="119.407633689503">
        <ele>63.13134765625</ele>
        <time>2024-04-10T10:43:25Z</time>
      </trkpt>
      <trkpt lat="36.03046366233258" lon="119.40769575913482">
        <ele>65.0072021484375</ele>
        <time>2024-04-10T10:43:31Z</time>
      </trkpt>
      <trkpt lat="36.03031271579866" lon="119.40773381171438">
        <ele>63.8580322265625</ele>
        <time>2024-04-10T10:43:37Z</time>
      </trkpt>
      <trkpt lat="36.030220784742816" lon="119.40782991242374">
        <ele>63.405517578125</ele>
        <time>2024-04-10T10:43:46Z</time>
      </trkpt>
      <trkpt lat="36.02998491396605" lon="119.40797908023526">
        <ele>70.01129150390625</ele>
        <time>2024-04-10T10:44:01Z</time>
      </trkpt>
      <trkpt lat="36.02983696825598" lon="119.40801913500071">
        <ele>69.47515869140625</ele>
        <time>2024-04-10T10:44:10Z</time>
      </trkpt>
      <trkpt lat="36.02978797848503" lon="119.40801713859017">
        <ele>68.6395263671875</ele>
        <time>2024-04-10T10:44:13Z</time>
      </trkpt>
      <trkpt lat="36.02973100736476" lon="119.40804817461671">
        <ele>66.2608642578125</ele>
        <time>2024-04-10T10:44:16Z</time>
      </trkpt>
      <trkpt lat="36.02946308933237" lon="119.40808824300686">
        <ele>60.1209716796875</ele>
        <time>2024-04-10T10:44:31Z</time>
      </trkpt>
      <trkpt lat="36.02921813637282" lon="119.40807025325121">
        <ele>62.94769287109375</ele>
        <time>2024-04-10T10:44:43Z</time>
      </trkpt>
      <trkpt lat="36.02892415957616" lon="119.40798320312354">
        <ele>65.32281494140625</ele>
        <time>2024-04-10T10:44:58Z</time>
      </trkpt>
      <trkpt lat="36.02864115348803" lon="119.40784210108555">
        <ele>66.18951416015625</ele>
        <time>2024-04-10T10:45:16Z</time>
      </trkpt>
      <trkpt lat="36.028398125286664" lon="119.40767296948387">
        <ele>66.306640625</ele>
        <time>2024-04-10T10:45:31Z</time>
      </trkpt>
      <trkpt lat="36.02821309916042" lon="119.40753285986983">
        <ele>69.9271240234375</ele>
        <time>2024-04-10T10:45:43Z</time>
      </trkpt>
      <trkpt lat="36.02801002687788" lon="119.40728565535865">
        <ele>72.74578857421875</ele>
        <time>2024-04-10T10:45:58Z</time>
      </trkpt>
      <trkpt lat="36.02783192611039" lon="119.40698340215967">
        <ele>68.02581787109375</ele>
        <time>2024-04-10T10:46:16Z</time>
      </trkpt>
      <trkpt lat="36.02772289098467" lon="119.40685229751402">
        <ele>67.18768310546875</ele>
        <time>2024-04-10T10:46:22Z</time>
      </trkpt>
      <trkpt lat="36.02751583611777" lon="119.4066251205332">
        <ele>69.95263671875</ele>
        <time>2024-04-10T10:46:34Z</time>
      </trkpt>
      <trkpt lat="36.02740978616049" lon="119.40645698614682">
        <ele>71.0108642578125</ele>
        <time>2024-04-10T10:46:49Z</time>
      </trkpt>
      <trkpt lat="36.02723675762238" lon="119.40629987031325">
        <ele>70.8897705078125</ele>
        <time>2024-04-10T10:47:01Z</time>
      </trkpt>
      <trkpt lat="36.0270936844402" lon="119.40605067473915">
        <ele>64.78094482421875</ele>
        <time>2024-04-10T10:47:13Z</time>
      </trkpt>
      <trkpt lat="36.02699767219653" lon="119.40596861659617">
        <ele>63.857666015625</ele>
        <time>2024-04-10T10:47:22Z</time>
      </trkpt>
      <trkpt lat="36.026828574810395" lon="119.4056353596281">
        <ele>62.48602294921875</ele>
        <time>2024-04-10T10:47:46Z</time>
      </trkpt>
      <trkpt lat="36.02676852965576" lon="119.40548724575191">
        <ele>63.70318603515625</ele>
        <time>2024-04-10T10:47:55Z</time>
      </trkpt>
      <trkpt lat="36.026656490075254" lon="119.40532012372674">
        <ele>64.38531494140625</ele>
        <time>2024-04-10T10:48:07Z</time>
      </trkpt>
      <trkpt lat="36.02652241566109" lon="119.40504391980186">
        <ele>64.959228515625</ele>
        <time>2024-04-10T10:48:22Z</time>
      </trkpt>
      <trkpt lat="36.026484377129655" lon="119.40491682476804">
        <ele>63.36834716796875</ele>
        <time>2024-04-10T10:48:28Z</time>
      </trkpt>
      <trkpt lat="36.026493300645505" lon="119.40471266617496">
        <ele>62.4974365234375</ele>
        <time>2024-04-10T10:48:34Z</time>
      </trkpt>
      <trkpt lat="36.026450242910386" lon="119.40452252636288">
        <ele>67.98095703125</ele>
        <time>2024-04-10T10:48:40Z</time>
      </trkpt>
      <trkpt lat="36.02647114612981" lon="119.40425632496063">
        <ele>66.73077392578125</ele>
        <time>2024-04-10T10:48:55Z</time>
      </trkpt>
      <trkpt lat="36.026417076669986" lon="119.40401115125036">
        <ele>73.37847900390625</ele>
        <time>2024-04-10T10:49:04Z</time>
      </trkpt>
      <trkpt lat="36.026445952699994" lon="119.40364488579152">
        <ele>70.54107666015625</ele>
        <time>2024-04-10T10:49:19Z</time>
      </trkpt>
      <trkpt lat="36.02643892515389" lon="119.40355082046354">
        <ele>65.35382080078125</ele>
        <time>2024-04-10T10:49:28Z</time>
      </trkpt>
      <trkpt lat="36.02641191021447" lon="119.40348177528351">
        <ele>65.6988525390625</ele>
        <time>2024-04-10T10:49:31Z</time>
      </trkpt>
      <trkpt lat="36.02641388580186" lon="119.4034027201928">
        <ele>65.14013671875</ele>
        <time>2024-04-10T10:49:34Z</time>
      </trkpt>
      <trkpt lat="36.02644885616521" lon="119.40333066656767">
        <ele>63.10284423828125</ele>
        <time>2024-04-10T10:49:37Z</time>
      </trkpt>
      <trkpt lat="36.02649883781856" lon="119.40330764514155">
        <ele>62.9281005859375</ele>
        <time>2024-04-10T10:49:40Z</time>
      </trkpt>
      <trkpt lat="36.02656882916241" lon="119.40333265447292">
        <ele>63.8739013671875</ele>
        <time>2024-04-10T10:49:43Z</time>
      </trkpt>
      <trkpt lat="36.02661683429617" lon="119.40338668633507">
        <ele>63.34368896484375</ele>
        <time>2024-04-10T10:49:46Z</time>
      </trkpt>
      <trkpt lat="36.02661085865939" lon="119.40346273971589">
        <ele>61.63818359375</ele>
        <time>2024-04-10T10:49:49Z</time>
      </trkpt>
      <trkpt lat="36.02655491703888" lon="119.40361084958398">
        <ele>64.92608642578125</ele>
        <time>2024-04-10T10:49:55Z</time>
      </trkpt>
      <trkpt lat="36.026522039734594" lon="119.4039721111616">
        <ele>66.74713134765625</ele>
        <time>2024-04-10T10:50:16Z</time>
      </trkpt>
      <trkpt lat="36.026545096370064" lon="119.4041592450708">
        <ele>66.05224609375</ele>
        <time>2024-04-10T10:50:28Z</time>
      </trkpt>
      <trkpt lat="36.02662416378857" lon="119.40441042253228">
        <ele>63.98126220703125</ele>
        <time>2024-04-10T10:50:46Z</time>
      </trkpt>
      <trkpt lat="36.02668517343431" lon="119.40447846678137">
        <ele>61.956298828125</ele>
        <time>2024-04-10T10:50:52Z</time>
      </trkpt>
      <trkpt lat="36.02676621133058" lon="119.40463857895347">
        <ele>62.08917236328125</ele>
        <time>2024-04-10T10:51:04Z</time>
      </trkpt>
      <trkpt lat="36.02687623607455" lon="119.40477767313665">
        <ele>62.36981201171875</ele>
        <time>2024-04-10T10:51:13Z</time>
      </trkpt>
      <trkpt lat="36.0269442768911" lon="119.40493178481437">
        <ele>61.034912109375</ele>
        <time>2024-04-10T10:51:19Z</time>
      </trkpt>
      <trkpt lat="36.02698832617798" lon="119.40509090447605">
        <ele>60.32061767578125</ele>
        <time>2024-04-10T10:51:25Z</time>
      </trkpt>
      <trkpt lat="36.027093381076924" lon="119.40529805706252">
        <ele>57.7314453125</ele>
        <time>2024-04-10T10:51:34Z</time>
      </trkpt>
      <trkpt lat="36.02714739465791" lon="119.40536510472656">
        <ele>59.08349609375</ele>
        <time>2024-04-10T10:51:37Z</time>
      </trkpt>
      <trkpt lat="36.02717942135832" lon="119.40545217127894">
        <ele>58.62664794921875</ele>
        <time>2024-04-10T10:51:40Z</time>
      </trkpt>
      <trkpt lat="36.027377469133235" lon="119.40568633985751">
        <ele>61.44873046875</ele>
        <time>2024-04-10T10:52:01Z</time>
      </trkpt>
      <trkpt lat="36.02754347486573" lon="119.4057944103401">
        <ele>60.891357421875</ele>
        <time>2024-04-10T10:52:16Z</time>
      </trkpt>
      <trkpt lat="36.027584454013265" lon="119.40576638257032">
        <ele>60.876708984375</ele>
        <time>2024-04-10T10:52:19Z</time>
      </trkpt>
      <trkpt lat="36.027679294253446" lon="119.40542109011204">
        <ele>62.03778076171875</ele>
        <time>2024-04-10T10:52:31Z</time>
      </trkpt>
      <trkpt lat="36.027711231685245" lon="119.40527897250412">
        <ele>62.99560546875</ele>
        <time>2024-04-10T10:52:37Z</time>
      </trkpt>
      <trkpt lat="36.02783108858044" lon="119.40497371802138">
        <ele>62.75347900390625</ele>
        <time>2024-04-10T10:52:49Z</time>
      </trkpt>
      <trkpt lat="36.02786606162792" lon="119.40492267430875">
        <ele>62.174560546875</ele>
        <time>2024-04-10T10:52:52Z</time>
      </trkpt>
      <trkpt lat="36.02792398719877" lon="119.4047555385615">
        <ele>64.475830078125</ele>
        <time>2024-04-10T10:53:04Z</time>
      </trkpt>
      <trkpt lat="36.02801592864115" lon="119.4046514485531">
        <ele>63.00091552734375</ele>
        <time>2024-04-10T10:53:16Z</time>
      </trkpt>
      <trkpt lat="36.028038895612106" lon="119.40457338661433">
        <ele>64.215087890625</ele>
        <time>2024-04-10T10:53:22Z</time>
      </trkpt>
      <trkpt lat="36.02817879148637" lon="119.40436721579877">
        <ele>65.335205078125</ele>
        <time>2024-04-10T10:53:40Z</time>
      </trkpt>
      <trkpt lat="36.028406663692486" lon="119.40414502575847">
        <ele>66.030029296875</ele>
        <time>2024-04-10T10:54:04Z</time>
      </trkpt>
      <trkpt lat="36.028696536251616" lon="119.40396085902825">
        <ele>66.51165771484375</ele>
        <time>2024-04-10T10:54:34Z</time>
      </trkpt>
      <trkpt lat="36.02874850998784" lon="119.40391682139042">
        <ele>66.8638916015625</ele>
        <time>2024-04-10T10:54:40Z</time>
      </trkpt>
      <trkpt lat="36.02878137283622" lon="119.40350552595642">
        <ele>67.2723388671875</ele>
        <time>2024-04-10T10:55:10Z</time>
      </trkpt>
      <trkpt lat="36.02878027014961" lon="119.40316028859151">
        <ele>67.936279296875</ele>
        <time>2024-04-10T10:55:34Z</time>
      </trkpt>
      <trkpt lat="36.028743207403934" lon="119.4029101248812">
        <ele>69.82470703125</ele>
        <time>2024-04-10T10:55:52Z</time>
      </trkpt>
      <trkpt lat="36.02868921729382" lon="119.40290112496699">
        <ele>66.49505615234375</ele>
        <time>2024-04-10T10:55:58Z</time>
      </trkpt>
      <trkpt lat="36.028434214500656" lon="119.40267700631581">
        <ele>63.60693359375</ele>
        <time>2024-04-10T10:56:19Z</time>
      </trkpt>
      <trkpt lat="36.02826818396685" lon="119.40241585693283">
        <ele>65.2156982421875</ele>
        <time>2024-04-10T10:56:31Z</time>
      </trkpt>
      <trkpt lat="36.02820816267602" lon="119.40227777639089">
        <ele>67.79534912109375</ele>
        <time>2024-04-10T10:56:37Z</time>
      </trkpt>
      <trkpt lat="36.028137151147675" lon="119.40216571432076">
        <ele>66.62939453125</ele>
        <time>2024-04-10T10:56:46Z</time>
      </trkpt>
      <trkpt lat="36.028053082690576" lon="119.4017964980136">
        <ele>68.93780517578125</ele>
        <time>2024-04-10T10:57:10Z</time>
      </trkpt>
      <trkpt lat="36.02802501065239" lon="119.40144229183507">
        <ele>68.18841552734375</ele>
        <time>2024-04-10T10:57:34Z</time>
      </trkpt>
      <trkpt lat="36.02800299790839" lon="119.40135824567555">
        <ele>63.89593505859375</ele>
        <time>2024-04-10T10:57:40Z</time>
      </trkpt>
      <trkpt lat="36.02778500187795" lon="119.40113314185905">
        <ele>62.37164306640625</ele>
        <time>2024-04-10T10:57:55Z</time>
      </trkpt>
      <trkpt lat="36.027732998955" lon="119.4010581055686">
        <ele>64.63018798828125</ele>
        <time>2024-04-10T10:57:58Z</time>
      </trkpt>
      <trkpt lat="36.02745503423494" lon="119.40091005457988">
        <ele>67.99884033203125</ele>
        <time>2024-04-10T10:58:10Z</time>
      </trkpt>
      <trkpt lat="36.02733504806447" lon="119.400837027963">
        <ele>69.06060791015625</ele>
        <time>2024-04-10T10:58:16Z</time>
      </trkpt>
      <trkpt lat="36.02705209503288" lon="119.40073900639102">
        <ele>66.84130859375</ele>
        <time>2024-04-10T10:58:28Z</time>
      </trkpt>
      <trkpt lat="36.02675015163361" lon="119.40066800198844">
        <ele>64.921142578125</ele>
        <time>2024-04-10T10:58:43Z</time>
      </trkpt>
      <trkpt lat="36.026557192441665" lon="119.40064801291774">
        <ele>62.96905517578125</ele>
        <time>2024-04-10T10:58:52Z</time>
      </trkpt>
      <trkpt lat="36.02648720409581" lon="119.40062300738336">
        <ele>63.6669921875</ele>
        <time>2024-04-10T10:58:55Z</time>
      </trkpt>
      <trkpt lat="36.02642022484327" lon="119.4006530309828">
        <ele>65.15625</ele>
        <time>2024-04-10T10:58:58Z</time>
      </trkpt>
      <trkpt lat="36.02628026026712" lon="119.40067105637206">
        <ele>63.2655029296875</ele>
        <time>2024-04-10T10:59:04Z</time>
      </trkpt>
      <trkpt lat="36.02622227810743" lon="119.4006960763456">
        <ele>63.6793212890625</ele>
        <time>2024-04-10T10:59:07Z</time>
      </trkpt>
      <trkpt lat="36.02608231049421" lon="119.40069709260342">
        <ele>64.059814453125</ele>
        <time>2024-04-10T10:59:13Z</time>
      </trkpt>
      <trkpt lat="36.026038323873806" lon="119.40071510725865">
        <ele>63.6407470703125</ele>
        <time>2024-04-10T10:59:16Z</time>
      </trkpt>
      <trkpt lat="36.02595734033635" lon="119.40070310987419">
        <ele>63.13580322265625</ele>
        <time>2024-04-10T10:59:22Z</time>
      </trkpt>
      <trkpt lat="36.02562841694345" lon="119.40070814951095">
        <ele>68.19122314453125</ele>
        <time>2024-04-10T10:59:40Z</time>
      </trkpt>
      <trkpt lat="36.02533547448661" lon="119.40065315280121">
        <ele>68.16070556640625</ele>
        <time>2024-04-10T10:59:55Z</time>
      </trkpt>
      <trkpt lat="36.02528448497638" lon="119.40064615477135">
        <ele>67.2061767578125</ele>
        <time>2024-04-10T10:59:58Z</time>
      </trkpt>
      <trkpt lat="36.025215494116644" lon="119.40060814217799">
        <ele>67.649169921875</ele>
        <time>2024-04-10T11:00:04Z</time>
      </trkpt>
      <trkpt lat="36.0250325307907" lon="119.4005771461908">
        <ele>63.4984130859375</ele>
        <time>2024-04-10T11:00:19Z</time>
      </trkpt>
      <trkpt lat="36.024744574868436" lon="119.40044811030856">
        <ele>63.5919189453125</ele>
        <time>2024-04-10T11:00:43Z</time>
      </trkpt>
      <trkpt lat="36.02467458491532" lon="119.40041209929787">
        <ele>64.7176513671875</ele>
        <time>2024-04-10T11:00:49Z</time>
      </trkpt>
      <trkpt lat="36.024622587559485" lon="119.40035607592834">
        <ele>63.06982421875</ele>
        <time>2024-04-10T11:00:55Z</time>
      </trkpt>
      <trkpt lat="36.02458158375265" lon="119.40027503859741">
        <ele>65.48248291015625</ele>
        <time>2024-04-10T11:01:02Z</time>
      </trkpt>
      <trkpt lat="36.024556574186086" lon="119.40017899218326">
        <ele>63.60687255859375</ele>
        <time>2024-04-10T11:01:07Z</time>
      </trkpt>
      <trkpt lat="36.02451757178942" lon="119.40010595948088">
        <ele>64.70751953125</ele>
        <time>2024-04-10T11:01:13Z</time>
      </trkpt>
      <trkpt lat="36.02453055614687" lon="119.40002291622535">
        <ele>65.315673828125</ele>
        <time>2024-04-10T11:01:19Z</time>
      </trkpt>
      <trkpt lat="36.02459153314646" lon="119.39996287940424">
        <ele>63.441162109375</ele>
        <time>2024-04-10T11:01:25Z</time>
      </trkpt>
      <trkpt lat="36.02474249793219" lon="119.39995986095768">
        <ele>63.44915771484375</ele>
        <time>2024-04-10T11:01:37Z</time>
      </trkpt>
      <trkpt lat="36.02481648370871" lon="119.3999788621156">
        <ele>63.17474365234375</ele>
        <time>2024-04-10T11:01:43Z</time>
      </trkpt>
      <trkpt lat="36.02512141126659" lon="119.39996382039688">
        <ele>62.0343017578125</ele>
        <time>2024-04-10T11:02:07Z</time>
      </trkpt>
      <trkpt lat="36.02533836726932" lon="119.40000381599458">
        <ele>60.5999755859375</ele>
        <time>2024-04-10T11:02:25Z</time>
      </trkpt>
      <trkpt lat="36.02561330233509" lon="119.39999277962006">
        <ele>58.8074951171875</ele>
        <time>2024-04-10T11:02:49Z</time>
      </trkpt>
      <trkpt lat="36.02583225418451" lon="119.40000776253075">
        <ele>59.39361572265625</ele>
        <time>2024-04-10T11:03:07Z</time>
      </trkpt>
      <trkpt lat="36.02613817105802" lon="119.39992168534765">
        <ele>61.83831787109375</ele>
        <time>2024-04-10T11:03:31Z</time>
      </trkpt>
      <trkpt lat="36.02631711734336" lon="119.39983462234919">
        <ele>59.0322265625</ele>
        <time>2024-04-10T11:03:46Z</time>
      </trkpt>
      <trkpt lat="36.026521071418976" lon="119.39984160287966">
        <ele>62.57574462890625</ele>
        <time>2024-04-10T11:04:01Z</time>
      </trkpt>
      <trkpt lat="36.02664605406785" lon="119.39992062781317">
        <ele>60.12957763671875</ele>
        <time>2024-04-10T11:04:13Z</time>
      </trkpt>
      <trkpt lat="36.026862018319264" lon="119.40001465038577">
        <ele>58.5965576171875</ele>
        <time>2024-04-10T11:04:31Z</time>
      </trkpt>
      <trkpt lat="36.02693200402941" lon="119.4000266485395">
        <ele>60.05877685546875</ele>
        <time>2024-04-10T11:04:37Z</time>
      </trkpt>
      <trkpt lat="36.02717694981588" lon="119.40004062805603">
        <ele>63.24688720703125</ele>
        <time>2024-04-10T11:06:40Z</time>
      </trkpt>
      <trkpt lat="36.0272449395079" lon="119.40007563803418">
        <ele>61.439697265625</ele>
        <time>2024-04-10T11:06:46Z</time>
      </trkpt>
      <trkpt lat="36.027402933204044" lon="119.40026671762816">
        <ele>60.16046142578125</ele>
        <time>2024-04-10T11:07:04Z</time>
      </trkpt>
      <trkpt lat="36.02748193440046" lon="119.40038476991845">
        <ele>58.71087646484375</ele>
        <time>2024-04-10T11:07:13Z</time>
      </trkpt>
      <trkpt lat="36.02759491901581" lon="119.4004477902053">
        <ele>60.4796142578125</ele>
        <time>2024-04-10T11:07:22Z</time>
      </trkpt>
      <trkpt lat="36.02771091880392" lon="119.40060085819401">
        <ele>62.12713623046875</ele>
        <time>2024-04-10T11:07:34Z</time>
      </trkpt>
      <trkpt lat="36.027783937616796" lon="119.40079795625337">
        <ele>62.6192626953125</ele>
        <time>2024-04-10T11:07:46Z</time>
      </trkpt>
      <trkpt lat="36.027875914258026" lon="119.40078593938824">
        <ele>58.97332763671875</ele>
        <time>2024-04-10T11:07:52Z</time>
      </trkpt>
      <trkpt lat="36.02805185199666" lon="119.40066585472219">
        <ele>59.4461669921875</ele>
        <time>2024-04-10T11:08:01Z</time>
      </trkpt>
      <trkpt lat="36.028308769690035" lon="119.4005337554082">
        <ele>61.765869140625</ele>
        <time>2024-04-10T11:08:13Z</time>
      </trkpt>
      <trkpt lat="36.02850171095617" lon="119.40044968941218">
        <ele>63.98883056640625</ele>
        <time>2024-04-10T11:08:22Z</time>
      </trkpt>
      <trkpt lat="36.02868765797471" lon="119.40038863658765">
        <ele>63.46124267578125</ele>
        <time>2024-04-10T11:08:34Z</time>
      </trkpt>
      <trkpt lat="36.02883262267443" lon="119.40037661404723">
        <ele>66.889892578125</ele>
        <time>2024-04-10T11:08:46Z</time>
      </trkpt>
      <trkpt lat="36.02889759784965" lon="119.40031657557822">
        <ele>61.85198974609375</ele>
        <time>2024-04-10T11:08:53Z</time>
      </trkpt>
      <trkpt lat="36.028978576636476" lon="119.40030055820486">
        <ele>61.323486328125</ele>
        <time>2024-04-10T11:08:59Z</time>
      </trkpt>
      <trkpt lat="36.02911055139745" lon="119.40033155943368">
        <ele>61.02783203125</ele>
        <time>2024-04-10T11:09:08Z</time>
      </trkpt>
      <trkpt lat="36.02914754950891" lon="119.40037157607033">
        <ele>63.0885009765625</ele>
        <time>2024-04-10T11:09:11Z</time>
      </trkpt>
      <trkpt lat="36.029228534074186" lon="119.40039057688219">
        <ele>63.97076416015625</ele>
        <time>2024-04-10T11:09:17Z</time>
      </trkpt>
      <trkpt lat="36.02938949627629" lon="119.4003855561939">
        <ele>60.783935546875</ele>
        <time>2024-04-10T11:09:29Z</time>
      </trkpt>
      <trkpt lat="36.02946648127195" lon="119.40040155590181">
        <ele>60.5164794921875</ele>
        <time>2024-04-10T11:09:35Z</time>
      </trkpt>
      <trkpt lat="36.029698467341504" lon="119.4006296504693">
        <ele>60.55078125</ele>
        <time>2024-04-10T11:09:59Z</time>
      </trkpt>
      <trkpt lat="36.02988747390525" lon="119.40090177697859">
        <ele>61.71661376953125</ele>
        <time>2024-04-10T11:10:23Z</time>
      </trkpt>
      <trkpt lat="36.030018459737306" lon="119.40098480817991">
        <ele>60.86590576171875</ele>
        <time>2024-04-10T11:10:35Z</time>
      </trkpt>
      <trkpt lat="36.03020845267402" lon="119.40116989057739">
        <ele>59.2620849609375</ele>
        <time>2024-04-10T11:10:53Z</time>
      </trkpt>
      <trkpt lat="36.0304534131421" lon="119.40125190966309">
        <ele>60.75628662109375</ele>
        <time>2024-04-10T11:11:11Z</time>
      </trkpt>
      <trkpt lat="36.03048139711886" lon="119.40120487976417">
        <ele>59.85406494140625</ele>
        <time>2024-04-10T11:11:14Z</time>
      </trkpt>
      <trkpt lat="36.03050140336194" lon="119.40125790769751">
        <ele>60.77569580078125</ele>
        <time>2024-04-10T11:11:20Z</time>
      </trkpt>
      <trkpt lat="36.03050742402472" lon="119.4013639678583">
        <ele>63.517578125</ele>
        <time>2024-04-10T11:11:26Z</time>
      </trkpt>
      <trkpt lat="36.03049544695622" lon="119.40145902426687">
        <ele>63.903076171875</ele>
        <time>2024-04-10T11:11:32Z</time>
      </trkpt>
      <trkpt lat="36.0305254823082" lon="119.40165213433016">
        <ele>64.0108642578125</ele>
        <time>2024-04-10T11:11:44Z</time>
      </trkpt>
      <trkpt lat="36.03052356934714" lon="119.40202636036325">
        <ele>62.98095703125</ele>
        <time>2024-04-10T11:12:08Z</time>
      </trkpt>
      <trkpt lat="36.030517593955814" lon="119.40212242027523">
        <ele>63.33135986328125</ele>
        <time>2024-04-10T11:12:14Z</time>
      </trkpt>
      <trkpt lat="36.03048262538163" lon="119.40221748334012">
        <ele>63.2911376953125</ele>
        <time>2024-04-10T11:12:20Z</time>
      </trkpt>
      <trkpt lat="36.03047167411092" lon="119.40240059992823">
        <ele>61.1636962890625</ele>
        <time>2024-04-10T11:12:32Z</time>
      </trkpt>
      <trkpt lat="36.030447701848956" lon="119.40248665748788">
        <ele>59.661865234375</ele>
        <time>2024-04-10T11:12:38Z</time>
      </trkpt>
      <trkpt lat="36.03039980509921" lon="119.40283088652839">
        <ele>60.05169677734375</ele>
        <time>2024-04-10T11:13:02Z</time>
      </trkpt>
      <trkpt lat="36.03035385922871" lon="119.4029869953276">
        <ele>60.85479736328125</ele>
        <time>2024-04-10T11:13:14Z</time>
      </trkpt>
      <trkpt lat="36.03037096783569" lon="119.4033732557818">
        <ele>61.8037109375</ele>
        <time>2024-04-10T11:13:38Z</time>
      </trkpt>
      <trkpt lat="36.03039004708065" lon="119.40364644431183">
        <ele>63.21923828125</ele>
        <time>2024-04-10T11:13:56Z</time>
      </trkpt>
      <trkpt lat="36.0304570902636" lon="119.40383156839958">
        <ele>64.651611328125</ele>
        <time>2024-04-10T11:14:08Z</time>
      </trkpt>
      <trkpt lat="36.03046912077709" lon="119.40393464116981">
        <ele>66.04559326171875</ele>
        <time>2024-04-10T11:14:14Z</time>
      </trkpt>
      <trkpt lat="36.03053916866783" lon="119.40412877454793">
        <ele>67.86810302734375</ele>
        <time>2024-04-10T11:14:26Z</time>
      </trkpt>
      <trkpt lat="36.030574173698106" lon="119.40416779926971">
        <ele>69.07867431640625</ele>
        <time>2024-04-10T11:14:29Z</time>
      </trkpt>
      <trkpt lat="36.03075724040534" lon="119.40448501481627">
        <ele>67.771240234375</ele>
        <time>2024-04-10T11:14:53Z</time>
      </trkpt>
      <trkpt lat="36.03083328848802" lon="119.40467014670737">
        <ele>64.8436279296875</ele>
        <time>2024-04-10T11:15:05Z</time>
      </trkpt>
      <trkpt lat="36.030964325127336" lon="119.40485427359627">
        <ele>61.7725830078125</ele>
        <time>2024-04-10T11:15:20Z</time>
      </trkpt>
      <trkpt lat="36.03102533210351" lon="119.40491131100283">
        <ele>62.314453125</ele>
        <time>2024-04-10T11:15:26Z</time>
      </trkpt>
      <trkpt lat="36.031050381117524" lon="119.40505842318068">
        <ele>62.95318603515625</ele>
        <time>2024-04-10T11:15:32Z</time>
      </trkpt>
      <trkpt lat="36.03110742835538" lon="119.40521754253737">
        <ele>68.15008544921875</ele>
        <time>2024-04-10T11:15:44Z</time>
      </trkpt>
      <trkpt lat="36.031209548512" lon="119.40558482684939">
        <ele>66.77362060546875</ele>
        <time>2024-04-10T11:16:05Z</time>
      </trkpt>
      <trkpt lat="36.03125059708921" lon="119.40572894039099">
        <ele>64.1494140625</ele>
        <time>2024-04-10T11:16:17Z</time>
      </trkpt>
      <trkpt lat="36.031273746338144" lon="119.40610224932949">
        <ele>64.668212890625</ele>
        <time>2024-04-10T11:16:41Z</time>
      </trkpt>
      <trkpt lat="36.031305901105284" lon="119.40647856778888">
        <ele>63.0948486328125</ele>
        <time>2024-04-10T11:17:05Z</time>
      </trkpt>
      <trkpt lat="36.031310936600384" lon="119.40656163940474">
        <ele>62.6845703125</ele>
        <time>2024-04-10T11:17:11Z</time>
      </trkpt>
      <trkpt lat="36.03137799274613" lon="119.40672177212892">
        <ele>61.64569091796875</ele>
        <time>2024-04-10T11:17:23Z</time>
      </trkpt>
      <trkpt lat="36.03155403192312" lon="119.40689690743747">
        <ele>65.11474609375</ele>
        <time>2024-04-10T11:17:41Z</time>
      </trkpt>
      <trkpt lat="36.031641071022605" lon="119.4070250121967">
        <ele>65.7081298828125</ele>
        <time>2024-04-10T11:17:53Z</time>
      </trkpt>
      <trkpt lat="36.03164710973408" lon="119.40711108899467">
        <ele>65.52197265625</ele>
        <time>2024-04-10T11:17:59Z</time>
      </trkpt>
      <trkpt lat="36.03162020424117" lon="119.40729826193687">
        <ele>64.40960693359375</ele>
        <time>2024-04-10T11:18:11Z</time>
      </trkpt>
      <trkpt lat="36.03162136223477" lon="119.40762556373706">
        <ele>64.318359375</ele>
        <time>2024-04-10T11:18:32Z</time>
      </trkpt>
      <trkpt lat="36.03160054123442" lon="119.40797489504966">
        <ele>67.35760498046875</ele>
        <time>2024-04-10T11:18:53Z</time>
      </trkpt>
      <trkpt lat="36.03163860342476" lon="119.40811402373673">
        <ele>67.8070068359375</ele>
        <time>2024-04-10T11:19:02Z</time>
      </trkpt>
      <trkpt lat="36.03159975783809" lon="119.40839429927925">
        <ele>62.90777587890625</ele>
        <time>2024-04-10T11:19:20Z</time>
      </trkpt>
      <trkpt lat="36.03161186597427" lon="119.40860350325453">
        <ele>64.1650390625</ele>
        <time>2024-04-10T11:19:32Z</time>
      </trkpt>
      <trkpt lat="36.03163599679215" lon="119.40885575144193">
        <ele>67.3985595703125</ele>
        <time>2024-04-10T11:19:47Z</time>
      </trkpt>
      <trkpt lat="36.03162805572046" lon="119.40895985693466">
        <ele>63.52960205078125</ele>
        <time>2024-04-10T11:19:53Z</time>
      </trkpt>
      <trkpt lat="36.031639111336055" lon="119.40906496192709">
        <ele>65.01812744140625</ele>
        <time>2024-04-10T11:19:59Z</time>
      </trkpt>
      <trkpt lat="36.03162616902716" lon="119.40916306309899">
        <ele>64.436279296875</ele>
        <time>2024-04-10T11:20:05Z</time>
      </trkpt>
      <trkpt lat="36.03163122754478" lon="119.40926917100781">
        <ele>64.77081298828125</ele>
        <time>2024-04-10T11:20:11Z</time>
      </trkpt>
      <trkpt lat="36.03157828790694" lon="119.40935426439971">
        <ele>65.01800537109375</ele>
        <time>2024-04-10T11:20:17Z</time>
      </trkpt>
      <trkpt lat="36.031524519212525" lon="119.40973366537577">
        <ele>63.19305419921875</ele>
        <time>2024-04-10T11:20:41Z</time>
      </trkpt>
      <trkpt lat="36.03148376910939" lon="119.41013809997034">
        <ele>61.15167236328125</ele>
        <time>2024-04-10T11:21:05Z</time>
      </trkpt>
      <trkpt lat="36.03144900943751" lon="119.41051751575124">
        <ele>61.764892578125</ele>
        <time>2024-04-10T11:21:26Z</time>
      </trkpt>
      <trkpt lat="36.03141724661687" lon="119.4108829237299">
        <ele>61.0042724609375</ele>
        <time>2024-04-10T11:21:47Z</time>
      </trkpt>
      <trkpt lat="36.03142750703601" lon="119.41128938134997">
        <ele>58.82745361328125</ele>
        <time>2024-04-10T11:22:11Z</time>
      </trkpt>
      <trkpt lat="36.03141478960323" lon="119.41170986726343">
        <ele>60.88641357421875</ele>
        <time>2024-04-10T11:22:35Z</time>
      </trkpt>
      <trkpt lat="36.0313860678329" lon="119.41210733768958">
        <ele>62.95318603515625</ele>
        <time>2024-04-10T11:22:59Z</time>
      </trkpt>
      <trkpt lat="36.03139513878394" lon="119.41221246174177">
        <ele>63.42901611328125</ele>
        <time>2024-04-10T11:23:05Z</time>
      </trkpt>
      <trkpt lat="36.03137920543233" lon="119.4123025712328">
        <ele>64.39385986328125</ele>
        <time>2024-04-10T11:23:11Z</time>
      </trkpt>
      <trkpt lat="36.03133626311945" lon="119.41237065773325">
        <ele>64.32080078125</ele>
        <time>2024-04-10T11:23:17Z</time>
      </trkpt>
      <trkpt lat="36.03134230411584" lon="119.41243072934641">
        <ele>66.01220703125</ele>
        <time>2024-04-10T11:23:20Z</time>
      </trkpt>
      <trkpt lat="36.03125544500265" lon="119.41260094503129">
        <ele>60.2261962890625</ele>
        <time>2024-04-10T11:23:32Z</time>
      </trkpt>
      <trkpt lat="36.031214490222226" lon="119.41265101051017">
        <ele>62.1685791015625</ele>
        <time>2024-04-10T11:23:38Z</time>
      </trkpt>
      <trkpt lat="36.03120353587338" lon="119.41271108498752">
        <ele>61.36151123046875</ele>
        <time>2024-04-10T11:23:41Z</time>
      </trkpt>
      <trkpt lat="36.031243555541856" lon="119.4127511294432">
        <ele>62.83624267578125</ele>
        <time>2024-04-10T11:23:44Z</time>
      </trkpt>
      <trkpt lat="36.03135369316166" lon="119.41297539286798">
        <ele>63.33319091796875</ele>
        <time>2024-04-10T11:23:59Z</time>
      </trkpt>
      <trkpt lat="36.03134195861815" lon="119.41333083710366">
        <ele>63.817626953125</ele>
        <time>2024-04-10T11:24:20Z</time>
      </trkpt>
      <trkpt lat="36.031311262394034" lon="119.41372333796421">
        <ele>64.582275390625</ele>
        <time>2024-04-10T11:24:44Z</time>
      </trkpt>
      <trkpt lat="36.03132140870012" lon="119.41391658493947">
        <ele>69.22540283203125</ele>
        <time>2024-04-10T11:24:56Z</time>
      </trkpt>
      <trkpt lat="36.03121856616244" lon="119.41408881937895">
        <ele>71.5555419921875</ele>
        <time>2024-04-10T11:25:08Z</time>
      </trkpt>
      <trkpt lat="36.03119662448814" lon="119.41415691042843">
        <ele>72.25537109375</ele>
        <time>2024-04-10T11:25:11Z</time>
      </trkpt>
      <trkpt lat="36.0311887414197" lon="119.41430310240447">
        <ele>67.10430908203125</ele>
        <time>2024-04-10T11:25:20Z</time>
      </trkpt>
      <trkpt lat="36.03116482551355" lon="119.41440223535257">
        <ele>69.24383544921875</ele>
        <time>2024-04-10T11:25:26Z</time>
      </trkpt>
      <trkpt lat="36.031186896295424" lon="119.41449735840234">
        <ele>70.12078857421875</ele>
        <time>2024-04-10T11:25:32Z</time>
      </trkpt>
      <trkpt lat="36.03104394270573" lon="119.4145143969551">
        <ele>66.05810546875</ele>
        <time>2024-04-10T11:25:47Z</time>
      </trkpt>
      <trkpt lat="36.030874975063796" lon="119.4145064053113">
        <ele>66.906982421875</ele>
        <time>2024-04-10T11:25:59Z</time>
      </trkpt>
      <trkpt lat="36.03081802823146" lon="119.41455647799678">
        <ele>65.9766845703125</ele>
        <time>2024-04-10T11:26:05Z</time>
      </trkpt>
      <trkpt lat="36.03077624326626" lon="119.41481082166787">
        <ele>61.26422119140625</ele>
        <time>2024-04-10T11:26:23Z</time>
      </trkpt>
      <trkpt lat="36.03083130903407" lon="119.41490694456517">
        <ele>62.2095947265625</ele>
        <time>2024-04-10T11:26:29Z</time>
      </trkpt>
    </trkseg>
  </trk>
</gpx>