<?xml version="1.0" encoding="UTF-8"?>
<gpx xmlns="http://www.topografix.com/GPX/1/1" xmlns:gpxtpx="http://www.garmin.com/xmlschemas/TrackPointExtension/v1" xmlns:xsi="http://www.w3.org/2001/XMLSchema-instance" xsi:schemaLocation="http://www.topografix.com/GPX/1/1 http://www.topografix.com/GPX/1/1/gpx.xsd" version="1.1" creator="gpx.py -- https://github.com/tkrajina/gpxpy">
  <trk>
    <name>gpx from keep</name>
    <type>Run</type>
    <trkseg>
      <trkpt lat="31.144501432917895" lon="121.36474710673127">
        <ele>11.369412492029369</ele>
        <time>2024-06-29T11:50:13Z</time>
      </trkpt>
      <trkpt lat="31.144499026609207" lon="121.36484636717437">
        <ele>12.227440051734447</ele>
        <time>2024-06-29T11:50:19Z</time>
      </trkpt>
      <trkpt lat="31.144530206085175" lon="121.3649340722017">
        <ele>11.681143012829125</ele>
        <time>2024-06-29T11:50:25Z</time>
      </trkpt>
      <trkpt lat="31.144531866902156" lon="121.3649882205676">
        <ele>9.72556277550757</ele>
        <time>2024-06-29T11:50:28Z</time>
      </trkpt>
      <trkpt lat="31.14469689094221" lon="121.36531176992648">
        <ele>10.693525939248502</ele>
        <time>2024-06-29T11:50:43Z</time>
      </trkpt>
      <trkpt lat="31.14471496778764" lon="121.3654000785417">
        <ele>9.799002399668097</ele>
        <time>2024-06-29T11:50:46Z</time>
      </trkpt>
      <trkpt lat="31.14480967258233" lon="121.3655461954984">
        <ele>10.830596367828548</ele>
        <time>2024-06-29T11:50:52Z</time>
      </trkpt>
      <trkpt lat="31.1449157821109" lon="121.36588887689639">
        <ele>10.619452171958983</ele>
        <time>2024-06-29T11:51:04Z</time>
      </trkpt>
      <trkpt lat="31.14496281671772" lon="121.36595257759848">
        <ele>11.087774786166847</ele>
        <time>2024-06-29T11:51:07Z</time>
      </trkpt>
      <trkpt lat="31.144982131600532" lon="121.3660246034076">
        <ele>10.229285802692175</ele>
        <time>2024-06-29T11:51:10Z</time>
      </trkpt>
      <trkpt lat="31.14505562987115" lon="121.3660682413836">
        <ele>9.701439251191914</ele>
        <time>2024-06-29T11:51:13Z</time>
      </trkpt>
      <trkpt lat="31.145088691829244" lon="121.36614103770333">
        <ele>10.067170794121921</ele>
        <time>2024-06-29T11:51:16Z</time>
      </trkpt>
      <trkpt lat="31.145128494688322" lon="121.36617960168698">
        <ele>8.639442360959947</ele>
        <time>2024-06-29T11:51:19Z</time>
      </trkpt>
      <trkpt lat="31.145144268783852" lon="121.36630664639034">
        <ele>8.976758820004761</ele>
        <time>2024-06-29T11:51:22Z</time>
      </trkpt>
      <trkpt lat="31.145226027123016" lon="121.36645352519551">
        <ele>7.846965995617211</ele>
        <time>2024-06-29T11:51:28Z</time>
      </trkpt>
      <trkpt lat="31.14530151267407" lon="121.3665011184088">
        <ele>9.86952108796686</ele>
        <time>2024-06-29T11:51:31Z</time>
      </trkpt>
      <trkpt lat="31.145382305315046" lon="121.36662253064937">
        <ele>10.186982559971511</ele>
        <time>2024-06-29T11:51:37Z</time>
      </trkpt>
      <trkpt lat="31.145445221299973" lon="121.36663663210541">
        <ele>9.773018748499453</ele>
        <time>2024-06-29T11:51:40Z</time>
      </trkpt>
      <trkpt lat="31.14558692290503" lon="121.3665877004647">
        <ele>11.114039034582675</ele>
        <time>2024-06-29T11:51:46Z</time>
      </trkpt>
      <trkpt lat="31.14567648056294" lon="121.36658069430791">
        <ele>11.436295974068344</ele>
        <time>2024-06-29T11:51:49Z</time>
      </trkpt>
      <trkpt lat="31.145738374280032" lon="121.36654164454792">
        <ele>12.090754078701138</ele>
        <time>2024-06-29T11:51:52Z</time>
      </trkpt>
      <trkpt lat="31.145829509689943" lon="121.3666595105678">
        <ele>14.058481322601438</ele>
        <time>2024-06-29T11:51:58Z</time>
      </trkpt>
      <trkpt lat="31.14584575789805" lon="121.36673667009948">
        <ele>13.049671417102218</ele>
        <time>2024-06-29T11:52:01Z</time>
      </trkpt>
      <trkpt lat="31.145967298973925" lon="121.36686352620035">
        <ele>14.977351553738117</ele>
        <time>2024-06-29T11:52:08Z</time>
      </trkpt>
      <trkpt lat="31.145968765674013" lon="121.3669196637371">
        <ele>16.117290811613202</ele>
        <time>2024-06-29T11:52:11Z</time>
      </trkpt>
      <trkpt lat="31.14606081434017" lon="121.36702176538296">
        <ele>15.316218064166605</ele>
        <time>2024-06-29T11:52:17Z</time>
      </trkpt>
      <trkpt lat="31.1461793293485" lon="121.36708071931606">
        <ele>16.609060341492295</ele>
        <time>2024-06-29T11:52:23Z</time>
      </trkpt>
      <trkpt lat="31.146229799817426" lon="121.36703528458368">
        <ele>15.716496656648815</ele>
        <time>2024-06-29T11:52:26Z</time>
      </trkpt>
      <trkpt lat="31.14632801155488" lon="121.36698444701359">
        <ele>16.301970339380205</ele>
        <time>2024-06-29T11:52:32Z</time>
      </trkpt>
      <trkpt lat="31.14638887137772" lon="121.36691660274127">
        <ele>16.004020543769002</ele>
        <time>2024-06-29T11:52:35Z</time>
      </trkpt>
      <trkpt lat="31.146499833946418" lon="121.36694224222607">
        <ele>15.955720789730549</ele>
        <time>2024-06-29T11:52:41Z</time>
      </trkpt>
      <trkpt lat="31.146642707062075" lon="121.36689856847023">
        <ele>16.626651282422245</ele>
        <time>2024-06-29T11:52:47Z</time>
      </trkpt>
      <trkpt lat="31.146715087766427" lon="121.36690886126718">
        <ele>14.6301652751863</ele>
        <time>2024-06-29T11:52:53Z</time>
      </trkpt>
      <trkpt lat="31.146775905845956" lon="121.36689691074606">
        <ele>14.720591244287789</ele>
        <time>2024-06-29T11:52:56Z</time>
      </trkpt>
      <trkpt lat="31.146961158929756" lon="121.36692984985919">
        <ele>13.31170123256743</ele>
        <time>2024-06-29T11:53:05Z</time>
      </trkpt>
      <trkpt lat="31.147088233212408" lon="121.36698917306614">
        <ele>13.735746443271637</ele>
        <time>2024-06-29T11:53:11Z</time>
      </trkpt>
      <trkpt lat="31.147209447767686" lon="121.36701261302422">
        <ele>12.77248715981841</ele>
        <time>2024-06-29T11:53:17Z</time>
      </trkpt>
      <trkpt lat="31.14727238305591" lon="121.36699408506755">
        <ele>12.555697488598526</ele>
        <time>2024-06-29T11:53:20Z</time>
      </trkpt>
      <trkpt lat="31.147376456125006" lon="121.36701627993571">
        <ele>12.904219957999885</ele>
        <time>2024-06-29T11:53:26Z</time>
      </trkpt>
      <trkpt lat="31.14767576050368" lon="121.36690837314794">
        <ele>14.24968327023089</ele>
        <time>2024-06-29T11:53:41Z</time>
      </trkpt>
      <trkpt lat="31.147779938503714" lon="121.3668842891369">
        <ele>16.942337714135647</ele>
        <time>2024-06-29T11:53:47Z</time>
      </trkpt>
      <trkpt lat="31.148075488134868" lon="121.36690253378325">
        <ele>16.638992492109537</ele>
        <time>2024-06-29T11:53:59Z</time>
      </trkpt>
      <trkpt lat="31.148150131775214" lon="121.36690106455812">
        <ele>15.73149891383946</ele>
        <time>2024-06-29T11:54:02Z</time>
      </trkpt>
      <trkpt lat="31.148290884040957" lon="121.36681814283284">
        <ele>16.915178633295</ele>
        <time>2024-06-29T11:54:08Z</time>
      </trkpt>
      <trkpt lat="31.14831337696529" lon="121.36671743947726">
        <ele>16.268066841177642</ele>
        <time>2024-06-29T11:54:12Z</time>
      </trkpt>
      <trkpt lat="31.14838229458966" lon="121.36660822856358">
        <ele>14.964165413752198</ele>
        <time>2024-06-29T11:54:16Z</time>
      </trkpt>
      <trkpt lat="31.148411917961315" lon="121.36648771574752">
        <ele>13.813826698809862</ele>
        <time>2024-06-29T11:54:20Z</time>
      </trkpt>
      <trkpt lat="31.148380429658893" lon="121.36635982778355">
        <ele>16.270319228060544</ele>
        <time>2024-06-29T11:54:24Z</time>
      </trkpt>
      <trkpt lat="31.148382851669215" lon="121.36620665923208">
        <ele>16.948773527517915</ele>
        <time>2024-06-29T11:54:28Z</time>
      </trkpt>
      <trkpt lat="31.148339481610293" lon="121.36599256860728">
        <ele>14.449625508859754</ele>
        <time>2024-06-29T11:54:35Z</time>
      </trkpt>
      <trkpt lat="31.148271186169715" lon="121.365822197131">
        <ele>13.924091404303908</ele>
        <time>2024-06-29T11:54:41Z</time>
      </trkpt>
      <trkpt lat="31.14829807050785" lon="121.36560266104004">
        <ele>15.697502723895013</ele>
        <time>2024-06-29T11:54:47Z</time>
      </trkpt>
      <trkpt lat="31.14823566287098" lon="121.36540434784519">
        <ele>15.296870356425643</ele>
        <time>2024-06-29T11:54:56Z</time>
      </trkpt>
      <trkpt lat="31.14826537377097" lon="121.36516469042328">
        <ele>13.049855967052281</ele>
        <time>2024-06-29T11:55:05Z</time>
      </trkpt>
      <trkpt lat="31.148318786043884" lon="121.36508924148548">
        <ele>12.534690916538239</ele>
        <time>2024-06-29T11:55:08Z</time>
      </trkpt>
      <trkpt lat="31.14840159886582" lon="121.36505760776424">
        <ele>11.261126594617963</ele>
        <time>2024-06-29T11:55:11Z</time>
      </trkpt>
      <trkpt lat="31.14868620460579" lon="121.36507822316769">
        <ele>11.390609822236001</ele>
        <time>2024-06-29T11:55:23Z</time>
      </trkpt>
      <trkpt lat="31.14883408909338" lon="121.36506478438783">
        <ele>12.764666948467493</ele>
        <time>2024-06-29T11:55:29Z</time>
      </trkpt>
      <trkpt lat="31.148836193431336" lon="121.36492899231308">
        <ele>12.249451164156199</ele>
        <time>2024-06-29T11:55:35Z</time>
      </trkpt>
      <trkpt lat="31.148867156996317" lon="121.364886420034">
        <ele>11.532493921928108</ele>
        <time>2024-06-29T11:55:38Z</time>
      </trkpt>
      <trkpt lat="31.14897076273252" lon="121.36490884473724">
        <ele>12.53277679067105</ele>
        <time>2024-06-29T11:55:41Z</time>
      </trkpt>
      <trkpt lat="31.14907099583364" lon="121.36487108332126">
        <ele>14.24567604996264</ele>
        <time>2024-06-29T11:55:44Z</time>
      </trkpt>
      <trkpt lat="31.1491871694856" lon="121.36487020547546">
        <ele>13.416556065902114</ele>
        <time>2024-06-29T11:55:47Z</time>
      </trkpt>
      <trkpt lat="31.149268234039244" lon="121.36491146451888">
        <ele>12.095008339732885</ele>
        <time>2024-06-29T11:55:50Z</time>
      </trkpt>
      <trkpt lat="31.14932175093036" lon="121.36487728844305">
        <ele>12.397035422734916</ele>
        <time>2024-06-29T11:55:53Z</time>
      </trkpt>
      <trkpt lat="31.149493370823897" lon="121.36486803975778">
        <ele>13.346022468991578</ele>
        <time>2024-06-29T11:55:59Z</time>
      </trkpt>
      <trkpt lat="31.1496850205076" lon="121.36479306349383">
        <ele>14.935580068267882</ele>
        <time>2024-06-29T11:56:08Z</time>
      </trkpt>
      <trkpt lat="31.14977139666367" lon="121.36471441109462">
        <ele>14.857231843285263</ele>
        <time>2024-06-29T11:56:14Z</time>
      </trkpt>
      <trkpt lat="31.149992592879677" lon="121.36455755223938">
        <ele>15.577048196457326</ele>
        <time>2024-06-29T11:56:26Z</time>
      </trkpt>
      <trkpt lat="31.150066337802453" lon="121.36453342953446">
        <ele>16.139031019993126</ele>
        <time>2024-06-29T11:56:30Z</time>
      </trkpt>
      <trkpt lat="31.15017082296434" lon="121.3644350859148">
        <ele>14.159906632266939</ele>
        <time>2024-06-29T11:56:39Z</time>
      </trkpt>
      <trkpt lat="31.15035250795657" lon="121.36414290739847">
        <ele>13.108874391764402</ele>
        <time>2024-06-29T11:56:48Z</time>
      </trkpt>
      <trkpt lat="31.150382469427143" lon="121.3640447507031">
        <ele>13.693528106436133</ele>
        <time>2024-06-29T11:56:51Z</time>
      </trkpt>
      <trkpt lat="31.150364285293406" lon="121.36392569904316">
        <ele>13.99331959336996</ele>
        <time>2024-06-29T11:56:54Z</time>
      </trkpt>
      <trkpt lat="31.1503988178727" lon="121.36376456074984">
        <ele>15.379119005054235</ele>
        <time>2024-06-29T11:57:00Z</time>
      </trkpt>
      <trkpt lat="31.150423739126673" lon="121.36352111974715">
        <ele>14.00154735147953</ele>
        <time>2024-06-29T11:57:09Z</time>
      </trkpt>
      <trkpt lat="31.150409761244397" lon="121.36342113611097">
        <ele>15.143636045977473</ele>
        <time>2024-06-29T11:57:12Z</time>
      </trkpt>
      <trkpt lat="31.150415115365444" lon="121.36331342899138">
        <ele>13.526189907453954</ele>
        <time>2024-06-29T11:57:15Z</time>
      </trkpt>
      <trkpt lat="31.150370040206724" lon="121.36321271035094">
        <ele>14.026919363997877</ele>
        <time>2024-06-29T11:57:18Z</time>
      </trkpt>
      <trkpt lat="31.150294684988367" lon="121.36310570525305">
        <ele>13.459298830479383</ele>
        <time>2024-06-29T11:57:21Z</time>
      </trkpt>
      <trkpt lat="31.150293551335892" lon="121.3630154391911">
        <ele>11.65447866357863</ele>
        <time>2024-06-29T11:57:27Z</time>
      </trkpt>
      <trkpt lat="31.150253438608487" lon="121.36284500133824">
        <ele>11.408489742316306</ele>
        <time>2024-06-29T11:57:39Z</time>
      </trkpt>
      <trkpt lat="31.150110751008203" lon="121.36254934142143">
        <ele>5.380917691625655</ele>
        <time>2024-06-29T11:57:57Z</time>
      </trkpt>
      <trkpt lat="31.15008524034749" lon="121.36248438442465">
        <ele>5.353830339387059</ele>
        <time>2024-06-29T11:58:00Z</time>
      </trkpt>
      <trkpt lat="31.14996832420346" lon="121.36237607455642">
        <ele>3.242119437083602</ele>
        <time>2024-06-29T11:58:06Z</time>
      </trkpt>
      <trkpt lat="31.149857935418908" lon="121.36232283636387">
        <ele>5.0916008576750755</ele>
        <time>2024-06-29T11:58:09Z</time>
      </trkpt>
      <trkpt lat="31.149788124592504" lon="121.36224091445479">
        <ele>4.274797635152936</ele>
        <time>2024-06-29T11:58:12Z</time>
      </trkpt>
      <trkpt lat="31.149727562900864" lon="121.36222064315898">
        <ele>4.452943526208401</ele>
        <time>2024-06-29T11:58:15Z</time>
      </trkpt>
      <trkpt lat="31.14965153869579" lon="121.36216842046458">
        <ele>7.2497371304780245</ele>
        <time>2024-06-29T11:58:18Z</time>
      </trkpt>
      <trkpt lat="31.149547249761124" lon="121.3621563040454">
        <ele>9.547768903896213</ele>
        <time>2024-06-29T11:58:21Z</time>
      </trkpt>
      <trkpt lat="31.149449803174022" lon="121.36209637355195">
        <ele>13.417094231583178</ele>
        <time>2024-06-29T11:58:25Z</time>
      </trkpt>
      <trkpt lat="31.149407677834393" lon="121.36200372840024">
        <ele>13.97179961297661</ele>
        <time>2024-06-29T11:58:29Z</time>
      </trkpt>
      <trkpt lat="31.14940280050808" lon="121.36193788667866">
        <ele>13.244158865883946</ele>
        <time>2024-06-29T11:58:37Z</time>
      </trkpt>
      <trkpt lat="31.14933965339872" lon="121.3618675191511">
        <ele>11.581065740436316</ele>
        <time>2024-06-29T11:58:49Z</time>
      </trkpt>
      <trkpt lat="31.149224493953515" lon="121.36181185752734">
        <ele>12.706405042670667</ele>
        <time>2024-06-29T11:58:55Z</time>
      </trkpt>
      <trkpt lat="31.149198253965338" lon="121.36170904759382">
        <ele>13.324958108365536</ele>
        <time>2024-06-29T11:58:58Z</time>
      </trkpt>
      <trkpt lat="31.14926191813417" lon="121.36158530905975">
        <ele>11.204954129643738</ele>
        <time>2024-06-29T11:59:01Z</time>
      </trkpt>
      <trkpt lat="31.149273626063213" lon="121.36150249866796">
        <ele>11.129397928714752</ele>
        <time>2024-06-29T11:59:04Z</time>
      </trkpt>
      <trkpt lat="31.14918039233498" lon="121.36111728001175">
        <ele>9.088266598060727</ele>
        <time>2024-06-29T11:59:25Z</time>
      </trkpt>
      <trkpt lat="31.149095678519387" lon="121.36095154025006">
        <ele>7.897825972177088</ele>
        <time>2024-06-29T11:59:40Z</time>
      </trkpt>
      <trkpt lat="31.14894373269793" lon="121.36083480276965">
        <ele>3.9787882743403316</ele>
        <time>2024-06-29T11:59:58Z</time>
      </trkpt>
      <trkpt lat="31.148835548613345" lon="121.36080053003712">
        <ele>4.532536312006414</ele>
        <time>2024-06-29T12:00:07Z</time>
      </trkpt>
      <trkpt lat="31.148605722377255" lon="121.36069681540718">
        <ele>7.927555010654032</ele>
        <time>2024-06-29T12:00:22Z</time>
      </trkpt>
      <trkpt lat="31.148265908965808" lon="121.360729295827">
        <ele>10.228910323232412</ele>
        <time>2024-06-29T12:00:45Z</time>
      </trkpt>
      <trkpt lat="31.148181495431405" lon="121.36079347610816">
        <ele>10.614993914961815</ele>
        <time>2024-06-29T12:00:51Z</time>
      </trkpt>
      <trkpt lat="31.147965912507626" lon="121.36092205422514">
        <ele>9.157255564816296</ele>
        <time>2024-06-29T12:01:09Z</time>
      </trkpt>
      <trkpt lat="31.147839097736615" lon="121.36106462639883">
        <ele>9.004988057538867</ele>
        <time>2024-06-29T12:01:18Z</time>
      </trkpt>
      <trkpt lat="31.147795608805733" lon="121.36124303290488">
        <ele>8.755912630818784</ele>
        <time>2024-06-29T12:01:30Z</time>
      </trkpt>
      <trkpt lat="31.147724622650284" lon="121.36128411112094">
        <ele>8.530930963344872</ele>
        <time>2024-06-29T12:01:36Z</time>
      </trkpt>
      <trkpt lat="31.14752258836802" lon="121.36126462329277">
        <ele>7.864013787358999</ele>
        <time>2024-06-29T12:01:51Z</time>
      </trkpt>
      <trkpt lat="31.147311750614502" lon="121.36134184829938">
        <ele>4.44328345078975</ele>
        <time>2024-06-29T12:02:06Z</time>
      </trkpt>
      <trkpt lat="31.146979233818076" lon="121.36149192115599">
        <ele>7.065059072338045</ele>
        <time>2024-06-29T12:02:30Z</time>
      </trkpt>
      <trkpt lat="31.146835291971698" lon="121.36157949201794">
        <ele>7.36998001113534</ele>
        <time>2024-06-29T12:02:41Z</time>
      </trkpt>
      <trkpt lat="31.146701937101426" lon="121.36171602173201">
        <ele>5.967476544901729</ele>
        <time>2024-06-29T12:02:54Z</time>
      </trkpt>
      <trkpt lat="31.146656966441896" lon="121.36173450802038">
        <ele>5.326724317856133</ele>
        <time>2024-06-29T12:02:57Z</time>
      </trkpt>
      <trkpt lat="31.146479980192947" lon="121.36202208533987">
        <ele>4.714792394079268</ele>
        <time>2024-06-29T12:03:21Z</time>
      </trkpt>
      <trkpt lat="31.1464231887579" lon="121.36212357033806">
        <ele>4.776642001233995</ele>
        <time>2024-06-29T12:03:27Z</time>
      </trkpt>
      <trkpt lat="31.14639700358211" lon="121.36224055940133">
        <ele>5.759005236439407</ele>
        <time>2024-06-29T12:03:33Z</time>
      </trkpt>
      <trkpt lat="31.1463581981474" lon="121.36231927036029">
        <ele>5.7994250589981675</ele>
        <time>2024-06-29T12:03:39Z</time>
      </trkpt>
      <trkpt lat="31.146348562749065" lon="121.36237765787382">
        <ele>5.921690994873643</ele>
        <time>2024-06-29T12:03:42Z</time>
      </trkpt>
      <trkpt lat="31.14632026085225" lon="121.36242186146127">
        <ele>6.11867996212095</ele>
        <time>2024-06-29T12:03:45Z</time>
      </trkpt>
      <trkpt lat="31.146315746145188" lon="121.36247706183795">
        <ele>5.547932499088347</ele>
        <time>2024-06-29T12:03:48Z</time>
      </trkpt>
      <trkpt lat="31.14635558316579" lon="121.36267865080218">
        <ele>4.399885720573366</ele>
        <time>2024-06-29T12:04:00Z</time>
      </trkpt>
      <trkpt lat="31.14634931980947" lon="121.36278039657903">
        <ele>5.433967314660549</ele>
        <time>2024-06-29T12:04:06Z</time>
      </trkpt>
      <trkpt lat="31.146247944559153" lon="121.36295470351371">
        <ele>6.442982056178153</ele>
        <time>2024-06-29T12:04:18Z</time>
      </trkpt>
      <trkpt lat="31.14620890332242" lon="121.36298911797375">
        <ele>6.60956659540534</ele>
        <time>2024-06-29T12:04:21Z</time>
      </trkpt>
      <trkpt lat="31.145922582550973" lon="121.36312551238757">
        <ele>7.839117139577866</ele>
        <time>2024-06-29T12:04:46Z</time>
      </trkpt>
      <trkpt lat="31.145751583310183" lon="121.36325969051529">
        <ele>6.019112552516162</ele>
        <time>2024-06-29T12:05:01Z</time>
      </trkpt>
      <trkpt lat="31.145552415690283" lon="121.36334199614994">
        <ele>4.681710005737841</ele>
        <time>2024-06-29T12:05:16Z</time>
      </trkpt>
      <trkpt lat="31.14545468152589" lon="121.363460927582">
        <ele>2.4630218520760536</ele>
        <time>2024-06-29T12:05:28Z</time>
      </trkpt>
      <trkpt lat="31.145165372630427" lon="121.36365716893411">
        <ele>2.037327059544623</ele>
        <time>2024-06-29T12:05:58Z</time>
      </trkpt>
      <trkpt lat="31.144906377460185" lon="121.3637615625641">
        <ele>5.532512856647372</ele>
        <time>2024-06-29T12:06:16Z</time>
      </trkpt>
      <trkpt lat="31.14482244656131" lon="121.36377901372828">
        <ele>5.88017450645566</ele>
        <time>2024-06-29T12:06:22Z</time>
      </trkpt>
      <trkpt lat="31.144696936622516" lon="121.36385494933555">
        <ele>9.52369840722531</ele>
        <time>2024-06-29T12:06:31Z</time>
      </trkpt>
      <trkpt lat="31.144621472889455" lon="121.36396202282768">
        <ele>7.020848525688052</ele>
        <time>2024-06-29T12:06:40Z</time>
      </trkpt>
      <trkpt lat="31.144494513533413" lon="121.3642440587608">
        <ele>8.803012602031231</ele>
        <time>2024-06-29T12:06:59Z</time>
      </trkpt>
      <trkpt lat="31.144408632618365" lon="121.3644660987553">
        <ele>9.321105063892901</ele>
        <time>2024-06-29T12:07:14Z</time>
      </trkpt>
      <trkpt lat="31.144434501359797" lon="121.36472923565118">
        <ele>7.506819221191108</ele>
        <time>2024-06-29T12:07:32Z</time>
      </trkpt>
      <trkpt lat="31.144521980380244" lon="121.36498919813977">
        <ele>7.586486014537513</ele>
        <time>2024-06-29T12:07:50Z</time>
      </trkpt>
      <trkpt lat="31.14467571791813" lon="121.36527734725108">
        <ele>6.3946552919223905</ele>
        <time>2024-06-29T12:08:11Z</time>
      </trkpt>
      <trkpt lat="31.14479320033366" lon="121.36554139753055">
        <ele>8.432883150875568</ele>
        <time>2024-06-29T12:08:29Z</time>
      </trkpt>
      <trkpt lat="31.144845449181062" lon="121.36570520609654">
        <ele>9.615398429334164</ele>
        <time>2024-06-29T12:08:41Z</time>
      </trkpt>
      <trkpt lat="31.144897533155454" lon="121.36577736711409">
        <ele>10.21503449883312</ele>
        <time>2024-06-29T12:08:47Z</time>
      </trkpt>
      <trkpt lat="31.14494732085338" lon="121.36599046129056">
        <ele>10.768772738054395</ele>
        <time>2024-06-29T12:09:01Z</time>
      </trkpt>
      <trkpt lat="31.145002514332063" lon="121.36611764661065">
        <ele>8.844340271316469</ele>
        <time>2024-06-29T12:09:08Z</time>
      </trkpt>
      <trkpt lat="31.145056144605505" lon="121.36617638586625">
        <ele>9.135692031122744</ele>
        <time>2024-06-29T12:09:11Z</time>
      </trkpt>
      <trkpt lat="31.145098464900084" lon="121.3663182933246">
        <ele>9.055621834471822</ele>
        <time>2024-06-29T12:09:17Z</time>
      </trkpt>
      <trkpt lat="31.145227586818184" lon="121.36652079150232">
        <ele>9.89397112838924</ele>
        <time>2024-06-29T12:09:23Z</time>
      </trkpt>
      <trkpt lat="31.14527958253685" lon="121.36657084716367">
        <ele>9.97918263450265</ele>
        <time>2024-06-29T12:09:26Z</time>
      </trkpt>
      <trkpt lat="31.14535439420227" lon="121.36660654433668">
        <ele>9.92308072000742</ele>
        <time>2024-06-29T12:09:29Z</time>
      </trkpt>
      <trkpt lat="31.14552836802307" lon="121.36661959621657">
        <ele>11.41385462321341</ele>
        <time>2024-06-29T12:09:35Z</time>
      </trkpt>
      <trkpt lat="31.14561469862948" lon="121.36657043872296">
        <ele>10.043462473899126</ele>
        <time>2024-06-29T12:09:38Z</time>
      </trkpt>
      <trkpt lat="31.145742538871637" lon="121.36657536041065">
        <ele>12.282804678194225</ele>
        <time>2024-06-29T12:09:41Z</time>
      </trkpt>
      <trkpt lat="31.14576195587853" lon="121.36642955906227">
        <ele>13.9776391685009</ele>
        <time>2024-06-29T12:09:47Z</time>
      </trkpt>
      <trkpt lat="31.145719203307948" lon="121.36635196215192">
        <ele>12.300599658861756</ele>
        <time>2024-06-29T12:09:53Z</time>
      </trkpt>
      <trkpt lat="31.145779966835796" lon="121.36624213211834">
        <ele>12.277771780267358</ele>
        <time>2024-06-29T12:09:59Z</time>
      </trkpt>
      <trkpt lat="31.145775987369614" lon="121.36617454977396">
        <ele>10.368995178490877</ele>
        <time>2024-06-29T12:10:05Z</time>
      </trkpt>
      <trkpt lat="31.145652708851223" lon="121.36592915305653">
        <ele>14.840074950829148</ele>
        <time>2024-06-29T12:10:20Z</time>
      </trkpt>
      <trkpt lat="31.145640466042" lon="121.3657908361326">
        <ele>11.439737688750029</ele>
        <time>2024-06-29T12:10:35Z</time>
      </trkpt>
      <trkpt lat="31.145681175169134" lon="121.36575107774884">
        <ele>10.557478265836835</ele>
        <time>2024-06-29T12:10:41Z</time>
      </trkpt>
      <trkpt lat="31.145745616640767" lon="121.365730322023">
        <ele>12.71980156749487</ele>
        <time>2024-06-29T12:10:44Z</time>
      </trkpt>
      <trkpt lat="31.145890001529995" lon="121.36575491027371">
        <ele>9.201069025322795</ele>
        <time>2024-06-29T12:11:00Z</time>
      </trkpt>
      <trkpt lat="31.145936790347392" lon="121.36568145298244">
        <ele>17.641505223698914</ele>
        <time>2024-06-29T12:16:48Z</time>
      </trkpt>
      <trkpt lat="31.146016031543777" lon="121.36564704904089">
        <ele>13.574011207558215</ele>
        <time>2024-06-29T12:17:00Z</time>
      </trkpt>
      <trkpt lat="31.146062135435162" lon="121.36568449255505">
        <ele>13.767171029932797</ele>
        <time>2024-06-29T12:17:03Z</time>
      </trkpt>
      <trkpt lat="31.14612411409885" lon="121.36564298310216">
        <ele>12.530664660036564</ele>
        <time>2024-06-29T12:17:09Z</time>
      </trkpt>
      <trkpt lat="31.146266446750328" lon="121.36560724958149">
        <ele>13.432116188108921</ele>
        <time>2024-06-29T12:17:15Z</time>
      </trkpt>
      <trkpt lat="31.146281229936676" lon="121.36554058406554">
        <ele>14.605484754778445</ele>
        <time>2024-06-29T12:17:22Z</time>
      </trkpt>
      <trkpt lat="31.146393923189006" lon="121.36552236880291">
        <ele>12.527939265593886</ele>
        <time>2024-06-29T12:17:28Z</time>
      </trkpt>
      <trkpt lat="31.146531230660482" lon="121.36541761275403">
        <ele>11.705882913433015</ele>
        <time>2024-06-29T12:17:40Z</time>
      </trkpt>
      <trkpt lat="31.14658440027271" lon="121.36542695642086">
        <ele>13.210523385554552</ele>
        <time>2024-06-29T12:17:43Z</time>
      </trkpt>
      <trkpt lat="31.146644255996026" lon="121.36535628374521">
        <ele>10.58880679961294</ele>
        <time>2024-06-29T12:17:49Z</time>
      </trkpt>
      <trkpt lat="31.146660794575393" lon="121.36530169732279">
        <ele>10.90627153776586</ele>
        <time>2024-06-29T12:17:52Z</time>
      </trkpt>
      <trkpt lat="31.14691061717217" lon="121.36509021111115">
        <ele>8.57581842970103</ele>
        <time>2024-06-29T12:18:16Z</time>
      </trkpt>
      <trkpt lat="31.14702652946866" lon="121.36485327093915">
        <ele>9.376662407070398</ele>
        <time>2024-06-29T12:18:31Z</time>
      </trkpt>
      <trkpt lat="31.147042544341087" lon="121.36478089748496">
        <ele>8.760113303549588</ele>
        <time>2024-06-29T12:18:34Z</time>
      </trkpt>
      <trkpt lat="31.147169217696014" lon="121.36466653484821">
        <ele>7.675314665772021</ele>
        <time>2024-06-29T12:18:46Z</time>
      </trkpt>
      <trkpt lat="31.147301802298458" lon="121.36459643170089">
        <ele>6.028132417239249</ele>
        <time>2024-06-29T12:18:55Z</time>
      </trkpt>
      <trkpt lat="31.147513390589904" lon="121.36459878153515">
        <ele>10.272498367354274</ele>
        <time>2024-06-29T12:19:10Z</time>
      </trkpt>
      <trkpt lat="31.147560040999164" lon="121.36461699072817">
        <ele>10.748545204289258</ele>
        <time>2024-06-29T12:19:13Z</time>
      </trkpt>
      <trkpt lat="31.14761445676299" lon="121.36467021836206">
        <ele>9.840073097497225</ele>
        <time>2024-06-29T12:19:19Z</time>
      </trkpt>
      <trkpt lat="31.147741506393942" lon="121.36483398170164">
        <ele>10.961051280610263</ele>
        <time>2024-06-29T12:19:32Z</time>
      </trkpt>
      <trkpt lat="31.147802736693286" lon="121.36487920528018">
        <ele>11.455605430528522</ele>
        <time>2024-06-29T12:19:38Z</time>
      </trkpt>
      <trkpt lat="31.14789703984908" lon="121.36489651824817">
        <ele>10.664662837982178</ele>
        <time>2024-06-29T12:19:44Z</time>
      </trkpt>
      <trkpt lat="31.148018068666367" lon="121.3649948817167">
        <ele>7.7350432416424155</ele>
        <time>2024-06-29T12:19:56Z</time>
      </trkpt>
      <trkpt lat="31.148321539231357" lon="121.36512983172786">
        <ele>9.015522818081081</ele>
        <time>2024-06-29T12:20:17Z</time>
      </trkpt>
      <trkpt lat="31.14865640936921" lon="121.3651085985288">
        <ele>8.357256948947906</ele>
        <time>2024-06-29T12:20:44Z</time>
      </trkpt>
      <trkpt lat="31.14890274954302" lon="121.36507604343299">
        <ele>7.4325514100492</ele>
        <time>2024-06-29T12:21:08Z</time>
      </trkpt>
      <trkpt lat="31.149157408574855" lon="121.36501634155914">
        <ele>5.093582837842405</ele>
        <time>2024-06-29T12:21:26Z</time>
      </trkpt>
      <trkpt lat="31.14921688340723" lon="121.36502787242988">
        <ele>3.956683598458767</ele>
        <time>2024-06-29T12:21:30Z</time>
      </trkpt>
      <trkpt lat="31.149365409483337" lon="121.36491048595583">
        <ele>4.799006246961653</ele>
        <time>2024-06-29T12:21:41Z</time>
      </trkpt>
      <trkpt lat="31.14944093053504" lon="121.36492080589744">
        <ele>6.357843259349465</ele>
        <time>2024-06-29T12:21:45Z</time>
      </trkpt>
      <trkpt lat="31.149578157544905" lon="121.36487512803899">
        <ele>6.578242444433272</ele>
        <time>2024-06-29T12:21:54Z</time>
      </trkpt>
      <trkpt lat="31.149626537746542" lon="121.36483361386287">
        <ele>7.073801933787763</ele>
        <time>2024-06-29T12:21:57Z</time>
      </trkpt>
      <trkpt lat="31.149710289697975" lon="121.36480293223815">
        <ele>9.066896912641823</ele>
        <time>2024-06-29T12:22:03Z</time>
      </trkpt>
      <trkpt lat="31.149758220311032" lon="121.36473409137716">
        <ele>7.278895815834403</ele>
        <time>2024-06-29T12:22:06Z</time>
      </trkpt>
      <trkpt lat="31.149919386881425" lon="121.36461802348441">
        <ele>8.896191886626184</ele>
        <time>2024-06-29T12:22:12Z</time>
      </trkpt>
      <trkpt lat="31.150030807385725" lon="121.36445555661267">
        <ele>10.375564908608794</ele>
        <time>2024-06-29T12:22:18Z</time>
      </trkpt>
      <trkpt lat="31.15022483881043" lon="121.36440996340036">
        <ele>12.172830828465521</ele>
        <time>2024-06-29T12:22:24Z</time>
      </trkpt>
      <trkpt lat="31.150280889116424" lon="121.36431279284315">
        <ele>4.317078897729516</ele>
        <time>2024-06-29T12:22:27Z</time>
      </trkpt>
      <trkpt lat="31.150438675933557" lon="121.36416014613265">
        <ele>-0.9480319796130061</ele>
        <time>2024-06-29T12:22:33Z</time>
      </trkpt>
      <trkpt lat="31.150556225288582" lon="121.36395122519455">
        <ele>-0.24088208191096783</ele>
        <time>2024-06-29T12:22:39Z</time>
      </trkpt>
      <trkpt lat="31.15054400548549" lon="121.36380371700687">
        <ele>-0.7490900605916977</ele>
        <time>2024-06-29T12:22:42Z</time>
      </trkpt>
      <trkpt lat="31.150412761621237" lon="121.36358141572664">
        <ele>4.208204222843051</ele>
        <time>2024-06-29T12:22:48Z</time>
      </trkpt>
      <trkpt lat="31.150462896650264" lon="121.36336486795278">
        <ele>6.05064092669636</ele>
        <time>2024-06-29T12:22:51Z</time>
      </trkpt>
      <trkpt lat="31.150459542599982" lon="121.36329502577198">
        <ele>7.338381981477141</ele>
        <time>2024-06-29T12:22:54Z</time>
      </trkpt>
      <trkpt lat="31.15042557360188" lon="121.36320308457753">
        <ele>6.844478524290025</ele>
        <time>2024-06-29T12:22:57Z</time>
      </trkpt>
      <trkpt lat="31.150294527997193" lon="121.363125517332">
        <ele>8.03855992294848</ele>
        <time>2024-06-29T12:23:09Z</time>
      </trkpt>
      <trkpt lat="31.150236713073326" lon="121.3630727454579">
        <ele>9.101695803925395</ele>
        <time>2024-06-29T12:23:15Z</time>
      </trkpt>
      <trkpt lat="31.15024917700897" lon="121.36294729486264">
        <ele>5.7070032535120845</ele>
        <time>2024-06-29T12:23:21Z</time>
      </trkpt>
      <trkpt lat="31.15020679522225" lon="121.3627158094835">
        <ele>5.2050854954868555</ele>
        <time>2024-06-29T12:23:30Z</time>
      </trkpt>
      <trkpt lat="31.150140882972096" lon="121.36264811542159">
        <ele>6.78135253675282</ele>
        <time>2024-06-29T12:23:33Z</time>
      </trkpt>
      <trkpt lat="31.150092065142307" lon="121.36251272064152">
        <ele>6.635052228346467</ele>
        <time>2024-06-29T12:23:37Z</time>
      </trkpt>
      <trkpt lat="31.149972340829553" lon="121.36242741773894">
        <ele>8.76262553781271</ele>
        <time>2024-06-29T12:23:41Z</time>
      </trkpt>
      <trkpt lat="31.14987776207755" lon="121.36232429242085">
        <ele>11.00796054303646</ele>
        <time>2024-06-29T12:23:45Z</time>
      </trkpt>
      <trkpt lat="31.149657166439063" lon="121.36231492510346">
        <ele>13.25779102742672</ele>
        <time>2024-06-29T12:23:49Z</time>
      </trkpt>
      <trkpt lat="31.14959864666002" lon="121.36218185514856">
        <ele>13.499212701804936</ele>
        <time>2024-06-29T12:23:53Z</time>
      </trkpt>
      <trkpt lat="31.149450929898244" lon="121.36205467959071">
        <ele>13.989188469946384</ele>
        <time>2024-06-29T12:24:05Z</time>
      </trkpt>
      <trkpt lat="31.149414835173047" lon="121.3619790945795">
        <ele>12.576193882152438</ele>
        <time>2024-06-29T12:24:08Z</time>
      </trkpt>
      <trkpt lat="31.149425355617968" lon="121.36192341994581">
        <ele>11.085196691565216</ele>
        <time>2024-06-29T12:24:11Z</time>
      </trkpt>
      <trkpt lat="31.149294600761138" lon="121.36166947309772">
        <ele>13.07260073069483</ele>
        <time>2024-06-29T12:24:23Z</time>
      </trkpt>
      <trkpt lat="31.149337370449803" lon="121.36151428169157">
        <ele>13.710907386615872</ele>
        <time>2024-06-29T12:24:26Z</time>
      </trkpt>
      <trkpt lat="31.149334852287268" lon="121.36144525810086">
        <ele>15.444131657481194</ele>
        <time>2024-06-29T12:24:29Z</time>
      </trkpt>
      <trkpt lat="31.149250925019302" lon="121.36139374743652">
        <ele>14.489512932486832</ele>
        <time>2024-06-29T12:24:32Z</time>
      </trkpt>
      <trkpt lat="31.14918426969164" lon="121.36120321176833">
        <ele>14.204288778826594</ele>
        <time>2024-06-29T12:24:38Z</time>
      </trkpt>
      <trkpt lat="31.149136026023815" lon="121.36115562565942">
        <ele>14.539944626390934</ele>
        <time>2024-06-29T12:24:41Z</time>
      </trkpt>
      <trkpt lat="31.149064529300297" lon="121.36114166518304">
        <ele>13.520521087571979</ele>
        <time>2024-06-29T12:24:44Z</time>
      </trkpt>
      <trkpt lat="31.14902460113603" lon="121.36120448078046">
        <ele>12.138158398680389</ele>
        <time>2024-06-29T12:24:47Z</time>
      </trkpt>
      <trkpt lat="31.148970946642184" lon="121.36125339280417">
        <ele>10.879471828229725</ele>
        <time>2024-06-29T12:24:50Z</time>
      </trkpt>
      <trkpt lat="31.148897190428404" lon="121.36136750297973">
        <ele>8.685681874863803</ele>
        <time>2024-06-29T12:24:56Z</time>
      </trkpt>
      <trkpt lat="31.148804018759385" lon="121.36143848406165">
        <ele>9.040895729325712</ele>
        <time>2024-06-29T12:25:05Z</time>
      </trkpt>
      <trkpt lat="31.148703698651833" lon="121.36157548886571">
        <ele>9.152844516560435</ele>
        <time>2024-06-29T12:25:14Z</time>
      </trkpt>
      <trkpt lat="31.148578610503645" lon="121.3616600970544">
        <ele>8.008867599070072</ele>
        <time>2024-06-29T12:25:26Z</time>
      </trkpt>
      <trkpt lat="31.14838172074141" lon="121.36172648496525">
        <ele>6.843723999336362</ele>
        <time>2024-06-29T12:25:42Z</time>
      </trkpt>
      <trkpt lat="31.14830467497893" lon="121.36181831739482">
        <ele>6.100165966898203</ele>
        <time>2024-06-29T12:25:51Z</time>
      </trkpt>
      <trkpt lat="31.14825755084435" lon="121.36176254763762">
        <ele>6.10051105171442</ele>
        <time>2024-06-29T12:25:57Z</time>
      </trkpt>
      <trkpt lat="31.148201737708142" lon="121.3617719764456">
        <ele>5.6021862756460905</ele>
        <time>2024-06-29T12:26:03Z</time>
      </trkpt>
      <trkpt lat="31.14808972985495" lon="121.3617356975885">
        <ele>5.546116692945361</ele>
        <time>2024-06-29T12:26:12Z</time>
      </trkpt>
      <trkpt lat="31.148025815644296" lon="121.36178142130791">
        <ele>6.326919076964259</ele>
        <time>2024-06-29T12:26:18Z</time>
      </trkpt>
      <trkpt lat="31.147959777874185" lon="121.3617748583221">
        <ele>5.377653064206243</ele>
        <time>2024-06-29T12:26:24Z</time>
      </trkpt>
      <trkpt lat="31.147857541630145" lon="121.36169334196543">
        <ele>3.371276387013495</ele>
        <time>2024-06-29T12:26:33Z</time>
      </trkpt>
      <trkpt lat="31.14785671206343" lon="121.36161208725046">
        <ele>4.145305280573666</ele>
        <time>2024-06-29T12:26:39Z</time>
      </trkpt>
      <trkpt lat="31.147833474822196" lon="121.36154330842642">
        <ele>5.117383245378733</ele>
        <time>2024-06-29T12:26:45Z</time>
      </trkpt>
      <trkpt lat="31.1477702472689" lon="121.36150910181678">
        <ele>5.381627539172769</ele>
        <time>2024-06-29T12:26:51Z</time>
      </trkpt>
      <trkpt lat="31.147751063174105" lon="121.36144427092584">
        <ele>4.930881320498884</ele>
        <time>2024-06-29T12:26:54Z</time>
      </trkpt>
      <trkpt lat="31.147792585208105" lon="121.36140987145997">
        <ele>5.367607320658863</ele>
        <time>2024-06-29T12:27:00Z</time>
      </trkpt>
      <trkpt lat="31.147835724465168" lon="121.36131991282869">
        <ele>4.2190893748775125</ele>
        <time>2024-06-29T12:27:06Z</time>
      </trkpt>
      <trkpt lat="31.147807647373938" lon="121.36126485061233">
        <ele>4.417170180939138</ele>
        <time>2024-06-29T12:27:09Z</time>
      </trkpt>
      <trkpt lat="31.14770707128512" lon="121.3612242087413">
        <ele>4.7137633468955755</ele>
        <time>2024-06-29T12:27:15Z</time>
      </trkpt>
      <trkpt lat="31.147452795716173" lon="121.36125537572286">
        <ele>2.3792317137122154</ele>
        <time>2024-06-29T12:27:33Z</time>
      </trkpt>
      <trkpt lat="31.147191723638095" lon="121.36137897424071">
        <ele>3.4475780399516225</ele>
        <time>2024-06-29T12:27:52Z</time>
      </trkpt>
      <trkpt lat="31.146913108193054" lon="121.36154121624948">
        <ele>5.141659869812429</ele>
        <time>2024-06-29T12:28:15Z</time>
      </trkpt>
      <trkpt lat="31.146704401453466" lon="121.36169265365825">
        <ele>6.688127848319709</ele>
        <time>2024-06-29T12:28:33Z</time>
      </trkpt>
      <trkpt lat="31.14655865989689" lon="121.3618773604062">
        <ele>7.504679462872446</ele>
        <time>2024-06-29T12:28:48Z</time>
      </trkpt>
      <trkpt lat="31.146553135477237" lon="121.36193122969976">
        <ele>7.780845386907458</ele>
        <time>2024-06-29T12:28:51Z</time>
      </trkpt>
      <trkpt lat="31.146408605361852" lon="121.36212639667785">
        <ele>6.521301832981408</ele>
        <time>2024-06-29T12:29:06Z</time>
      </trkpt>
      <trkpt lat="31.146315289121755" lon="121.36246427947152">
        <ele>7.193697943352163</ele>
        <time>2024-06-29T12:29:24Z</time>
      </trkpt>
      <trkpt lat="31.14631167531222" lon="121.36255673007147">
        <ele>8.330343626439571</ele>
        <time>2024-06-29T12:29:30Z</time>
      </trkpt>
      <trkpt lat="31.1463404021488" lon="121.3626372389408">
        <ele>8.766902700997889</ele>
        <time>2024-06-29T12:29:36Z</time>
      </trkpt>
      <trkpt lat="31.146346732662593" lon="121.36276417981581">
        <ele>9.117357468232512</ele>
        <time>2024-06-29T12:29:42Z</time>
      </trkpt>
      <trkpt lat="31.146322420611167" lon="121.36284343067759">
        <ele>7.3272666754201055</ele>
        <time>2024-06-29T12:29:48Z</time>
      </trkpt>
      <trkpt lat="31.14620782087661" lon="121.36298856134003">
        <ele>5.568318374454975</ele>
        <time>2024-06-29T12:30:03Z</time>
      </trkpt>
      <trkpt lat="31.145944656084858" lon="121.3631332004373">
        <ele>5.341642556712031</ele>
        <time>2024-06-29T12:30:28Z</time>
      </trkpt>
      <trkpt lat="31.145742811356612" lon="121.36324765557865">
        <ele>6.142481599934399</ele>
        <time>2024-06-29T12:30:43Z</time>
      </trkpt>
      <trkpt lat="31.145485361641185" lon="121.36347267520422">
        <ele>7.701500296592712</ele>
        <time>2024-06-29T12:31:07Z</time>
      </trkpt>
      <trkpt lat="31.145219770788767" lon="121.3636606531623">
        <ele>7.277096432633698</ele>
        <time>2024-06-29T12:31:34Z</time>
      </trkpt>
      <trkpt lat="31.145148360333796" lon="121.36371357395909">
        <ele>6.998047487810254</ele>
        <time>2024-06-29T12:31:40Z</time>
      </trkpt>
      <trkpt lat="31.14507620773024" lon="121.36374269165076">
        <ele>7.745012730360031</ele>
        <time>2024-06-29T12:31:46Z</time>
      </trkpt>
      <trkpt lat="31.144856455999637" lon="121.36375729005839">
        <ele>8.719655279070139</ele>
        <time>2024-06-29T12:32:02Z</time>
      </trkpt>
      <trkpt lat="31.14481016374545" lon="121.36379590401468">
        <ele>9.010541939176619</ele>
        <time>2024-06-29T12:32:05Z</time>
      </trkpt>
      <trkpt lat="31.144661022141015" lon="121.36387112663846">
        <ele>11.027766829356551</ele>
        <time>2024-06-29T12:32:15Z</time>
      </trkpt>
      <trkpt lat="31.144568899368053" lon="121.36399046902609">
        <ele>8.136265289969742</ele>
        <time>2024-06-29T12:32:27Z</time>
      </trkpt>
      <trkpt lat="31.144443722480922" lon="121.36436870886034">
        <ele>7.594928996637464</ele>
        <time>2024-06-29T12:32:51Z</time>
      </trkpt>
      <trkpt lat="31.14436726829672" lon="121.36474543645735">
        <ele>8.70584362372756</ele>
        <time>2024-06-29T12:33:09Z</time>
      </trkpt>
      <trkpt lat="31.14439636983072" lon="121.3648404204965">
        <ele>7.206384325399995</ele>
        <time>2024-06-29T12:33:12Z</time>
      </trkpt>
      <trkpt lat="31.144440642983326" lon="121.36491504447477">
        <ele>5.678789895027876</ele>
        <time>2024-06-29T12:33:15Z</time>
      </trkpt>
      <trkpt lat="31.144522387805136" lon="121.36498079392994">
        <ele>6.144609251059592</ele>
        <time>2024-06-29T12:33:18Z</time>
      </trkpt>
      <trkpt lat="31.144574269161527" lon="121.36508352538874">
        <ele>7.30785396322608</ele>
        <time>2024-06-29T12:33:21Z</time>
      </trkpt>
      <trkpt lat="31.144514087047472" lon="121.36522081832894">
        <ele>6.985013511963189</ele>
        <time>2024-06-29T12:33:24Z</time>
      </trkpt>
      <trkpt lat="31.14456265066918" lon="121.36531346646136">
        <ele>5.329476241953671</ele>
        <time>2024-06-29T12:33:27Z</time>
      </trkpt>
      <trkpt lat="31.144668524068095" lon="121.36535031703303">
        <ele>6.296112192794681</ele>
        <time>2024-06-29T12:33:30Z</time>
      </trkpt>
      <trkpt lat="31.1447313820064" lon="121.36547586998614">
        <ele>7.119075826369226</ele>
        <time>2024-06-29T12:33:33Z</time>
      </trkpt>
      <trkpt lat="31.14482927758281" lon="121.36555522736572">
        <ele>6.72434067633003</ele>
        <time>2024-06-29T12:33:36Z</time>
      </trkpt>
      <trkpt lat="31.144853793718077" lon="121.36561867382592">
        <ele>8.743023295886815</ele>
        <time>2024-06-29T12:33:39Z</time>
      </trkpt>
      <trkpt lat="31.144870545814587" lon="121.36573344964282">
        <ele>12.621809111908078</ele>
        <time>2024-06-29T12:33:42Z</time>
      </trkpt>
      <trkpt lat="31.144945901545174" lon="121.36585746592968">
        <ele>10.400051495991647</ele>
        <time>2024-06-29T12:33:45Z</time>
      </trkpt>
      <trkpt lat="31.14500632140845" lon="121.36592137661846">
        <ele>17.156771308742464</ele>
        <time>2024-06-29T12:33:48Z</time>
      </trkpt>
      <trkpt lat="31.145051426916925" lon="121.36612467089313">
        <ele>17.247639132663608</ele>
        <time>2024-06-29T12:33:54Z</time>
      </trkpt>
      <trkpt lat="31.145120542418294" lon="121.36624632531385">
        <ele>14.691947347484529</ele>
        <time>2024-06-29T12:33:57Z</time>
      </trkpt>
      <trkpt lat="31.14519653759859" lon="121.36629914432555">
        <ele>15.591562990099192</ele>
        <time>2024-06-29T12:34:00Z</time>
      </trkpt>
      <trkpt lat="31.145319091764055" lon="121.366320153124">
        <ele>13.761236330494285</ele>
        <time>2024-06-29T12:34:03Z</time>
      </trkpt>
      <trkpt lat="31.145370380348357" lon="121.36647796278861">
        <ele>12.494721865281463</ele>
        <time>2024-06-29T12:34:07Z</time>
      </trkpt>
      <trkpt lat="31.145443659088805" lon="121.36659930821979">
        <ele>14.857789715752006</ele>
        <time>2024-06-29T12:34:10Z</time>
      </trkpt>
      <trkpt lat="31.14549821941434" lon="121.3666009113784">
        <ele>14.119979554787278</ele>
        <time>2024-06-29T12:34:13Z</time>
      </trkpt>
      <trkpt lat="31.14545967095022" lon="121.36646467964695">
        <ele>14.706244304776192</ele>
        <time>2024-06-29T12:34:16Z</time>
      </trkpt>
      <trkpt lat="31.145552321733252" lon="121.3664356324988">
        <ele>14.09597732592374</ele>
        <time>2024-06-29T12:34:19Z</time>
      </trkpt>
      <trkpt lat="31.145706502252544" lon="121.36652276658438">
        <ele>13.68475079536438</ele>
        <time>2024-06-29T12:34:25Z</time>
      </trkpt>
      <trkpt lat="31.145780611570082" lon="121.36658642613885">
        <ele>13.062580635771155</ele>
        <time>2024-06-29T12:34:31Z</time>
      </trkpt>
      <trkpt lat="31.145846380061503" lon="121.36676018886315">
        <ele>12.182102016173303</ele>
        <time>2024-06-29T12:34:40Z</time>
      </trkpt>
      <trkpt lat="31.145899891692075" lon="121.36680545101257">
        <ele>12.127095332369208</ele>
        <time>2024-06-29T12:34:43Z</time>
      </trkpt>
      <trkpt lat="31.14593296281372" lon="121.36687788881639">
        <ele>12.211276982910931</ele>
        <time>2024-06-29T12:34:46Z</time>
      </trkpt>
      <trkpt lat="31.146008974089956" lon="121.36695429343871">
        <ele>10.485054882243276</ele>
        <time>2024-06-29T12:34:49Z</time>
      </trkpt>
      <trkpt lat="31.14616384091293" lon="121.36705015216444">
        <ele>10.339502521790564</ele>
        <time>2024-06-29T12:34:58Z</time>
      </trkpt>
      <trkpt lat="31.14634546127885" lon="121.3669257944365">
        <ele>10.114400594495237</ele>
        <time>2024-06-29T12:35:04Z</time>
      </trkpt>
      <trkpt lat="31.14641778406135" lon="121.36692221446421">
        <ele>11.128248029388487</ele>
        <time>2024-06-29T12:35:07Z</time>
      </trkpt>
      <trkpt lat="31.146503249681754" lon="121.36687502371434">
        <ele>11.770768887363374</ele>
        <time>2024-06-29T12:35:10Z</time>
      </trkpt>
      <trkpt lat="31.146585957342683" lon="121.36690323937867">
        <ele>15.830799225717783</ele>
        <time>2024-06-29T12:35:13Z</time>
      </trkpt>
      <trkpt lat="31.146679494696652" lon="121.36690533539871">
        <ele>14.603795300237834</ele>
        <time>2024-06-29T12:35:19Z</time>
      </trkpt>
      <trkpt lat="31.146784438091675" lon="121.36688642502762">
        <ele>13.335459125228226</ele>
        <time>2024-06-29T12:35:28Z</time>
      </trkpt>
      <trkpt lat="31.14683189589757" lon="121.36692576907618">
        <ele>14.09946751780808</ele>
        <time>2024-06-29T12:35:31Z</time>
      </trkpt>
      <trkpt lat="31.14690925840217" lon="121.36690443796743">
        <ele>15.30999210383743</ele>
        <time>2024-06-29T12:35:37Z</time>
      </trkpt>
      <trkpt lat="31.147042018901203" lon="121.36694107657101">
        <ele>15.169387135654688</ele>
        <time>2024-06-29T12:35:49Z</time>
      </trkpt>
      <trkpt lat="31.147137052062615" lon="121.36704570153977">
        <ele>15.238822549581528</ele>
        <time>2024-06-29T12:35:55Z</time>
      </trkpt>
      <trkpt lat="31.147194246233617" lon="121.36705805162083">
        <ele>15.046817367896438</ele>
        <time>2024-06-29T12:36:01Z</time>
      </trkpt>
      <trkpt lat="31.147229043163573" lon="121.3671219295758">
        <ele>16.425572702661157</ele>
        <time>2024-06-29T12:36:04Z</time>
      </trkpt>
      <trkpt lat="31.147180176903056" lon="121.3672136509196">
        <ele>9.761194040067494</ele>
        <time>2024-06-29T12:36:14Z</time>
      </trkpt>
      <trkpt lat="31.147065409876813" lon="121.36725157836817">
        <ele>8.088517846539617</ele>
        <time>2024-06-29T12:36:18Z</time>
      </trkpt>
      <trkpt lat="31.147040149606187" lon="121.3676348074209">
        <ele>9.006168220192194</ele>
        <time>2024-06-29T12:36:48Z</time>
      </trkpt>
      <trkpt lat="31.147003403963357" lon="121.36777198967226">
        <ele>6.786078017205</ele>
        <time>2024-06-29T12:37:00Z</time>
      </trkpt>
      <trkpt lat="31.146953803549007" lon="121.36784499195763">
        <ele>6.015676100738347</ele>
        <time>2024-06-29T12:37:06Z</time>
      </trkpt>
      <trkpt lat="31.14684478429436" lon="121.36788109055236">
        <ele>8.03992913570255</ele>
        <time>2024-06-29T12:37:12Z</time>
      </trkpt>
      <trkpt lat="31.146789769453346" lon="121.36792698778308">
        <ele>7.253712342120707</ele>
        <time>2024-06-29T12:37:15Z</time>
      </trkpt>
      <trkpt lat="31.146787198395494" lon="121.36805504738919">
        <ele>9.122465274296701</ele>
        <time>2024-06-29T12:37:21Z</time>
      </trkpt>
      <trkpt lat="31.146758808058618" lon="121.36812486628986">
        <ele>8.040235138498247</ele>
        <time>2024-06-29T12:37:24Z</time>
      </trkpt>
      <trkpt lat="31.146651616336143" lon="121.3682220009209">
        <ele>8.338413004763424</ele>
        <time>2024-06-29T12:37:33Z</time>
      </trkpt>
      <trkpt lat="31.146510158590097" lon="121.36827836466566">
        <ele>9.968453197740018</ele>
        <time>2024-06-29T12:37:42Z</time>
      </trkpt>
      <trkpt lat="31.146477848307747" lon="121.36819927903662">
        <ele>8.72598500456661</ele>
        <time>2024-06-29T12:37:45Z</time>
      </trkpt>
      <trkpt lat="31.146374592018894" lon="121.3682153786844">
        <ele>10.945479542016983</ele>
        <time>2024-06-29T12:37:51Z</time>
      </trkpt>
      <trkpt lat="31.146280484456085" lon="121.36806247471743">
        <ele>8.77441714797169</ele>
        <time>2024-06-29T12:38:03Z</time>
      </trkpt>
      <trkpt lat="31.146130435994657" lon="121.3681265459424">
        <ele>12.149863194674253</ele>
        <time>2024-06-29T12:38:15Z</time>
      </trkpt>
      <trkpt lat="31.145883414923894" lon="121.36827453204842">
        <ele>7.439693380147219</ele>
        <time>2024-06-29T12:38:31Z</time>
      </trkpt>
      <trkpt lat="31.14584058283949" lon="121.36829199463496">
        <ele>8.30160506349057</ele>
        <time>2024-06-29T12:38:34Z</time>
      </trkpt>
      <trkpt lat="31.145757430425455" lon="121.36827515434018">
        <ele>8.374598909169436</ele>
        <time>2024-06-29T12:38:40Z</time>
      </trkpt>
      <trkpt lat="31.145735931366726" lon="121.36822545561745">
        <ele>8.812974629923701</ele>
        <time>2024-06-29T12:38:43Z</time>
      </trkpt>
      <trkpt lat="31.145600608461876" lon="121.36819086079406">
        <ele>9.936143507249653</ele>
        <time>2024-06-29T12:38:55Z</time>
      </trkpt>
      <trkpt lat="31.145465331234554" lon="121.36824629073712">
        <ele>7.356705326586962</ele>
        <time>2024-06-29T12:39:07Z</time>
      </trkpt>
      <trkpt lat="31.145264854084107" lon="121.36848556707547">
        <ele>6.934232344850898</ele>
        <time>2024-06-29T12:39:31Z</time>
      </trkpt>
      <trkpt lat="31.145194289899234" lon="121.36859375735021">
        <ele>7.622573140077293</ele>
        <time>2024-06-29T12:39:40Z</time>
      </trkpt>
      <trkpt lat="31.144978075607078" lon="121.36878298576369">
        <ele>9.889832279644907</ele>
        <time>2024-06-29T12:39:58Z</time>
      </trkpt>
      <trkpt lat="31.144686521475233" lon="121.36875354166074">
        <ele>9.695903948508203</ele>
        <time>2024-06-29T12:40:19Z</time>
      </trkpt>
      <trkpt lat="31.14448147664971" lon="121.36874141439613">
        <ele>10.960468189790845</ele>
        <time>2024-06-29T12:40:35Z</time>
      </trkpt>
      <trkpt lat="31.144229542857776" lon="121.36888467352067">
        <ele>6.748585673980415</ele>
        <time>2024-06-29T12:40:53Z</time>
      </trkpt>
      <trkpt lat="31.144097713388266" lon="121.36904567013184">
        <ele>4.850356648676097</ele>
        <time>2024-06-29T12:41:08Z</time>
      </trkpt>
      <trkpt lat="31.143999980540343" lon="121.36931063680358">
        <ele>7.213379027321935</ele>
        <time>2024-06-29T12:41:26Z</time>
      </trkpt>
      <trkpt lat="31.14395432116235" lon="121.36938352949589">
        <ele>7.798839510418475</ele>
        <time>2024-06-29T12:41:32Z</time>
      </trkpt>
      <trkpt lat="31.143702968805634" lon="121.36951961926337">
        <ele>8.126361482776701</ele>
        <time>2024-06-29T12:41:56Z</time>
      </trkpt>
      <trkpt lat="31.143633469663385" lon="121.36955327140805">
        <ele>6.828347973525524</ele>
        <time>2024-06-29T12:42:02Z</time>
      </trkpt>
      <trkpt lat="31.14351675886188" lon="121.36967174679337">
        <ele>6.801814188249409</ele>
        <time>2024-06-29T12:42:11Z</time>
      </trkpt>
      <trkpt lat="31.143365774811663" lon="121.36970934796713">
        <ele>7.322353480383754</ele>
        <time>2024-06-29T12:42:23Z</time>
      </trkpt>
      <trkpt lat="31.143139155858062" lon="121.36984333895833">
        <ele>10.229156731627882</ele>
        <time>2024-06-29T12:42:39Z</time>
      </trkpt>
      <trkpt lat="31.143085981847534" lon="121.36984946329255">
        <ele>9.756992418318987</ele>
        <time>2024-06-29T12:42:45Z</time>
      </trkpt>
      <trkpt lat="31.14295578469731" lon="121.36995501881681">
        <ele>10.606688243336976</ele>
        <time>2024-06-29T12:42:54Z</time>
      </trkpt>
      <trkpt lat="31.14286099280052" lon="121.36997970992671">
        <ele>9.187353869900107</ele>
        <time>2024-06-29T12:43:00Z</time>
      </trkpt>
      <trkpt lat="31.14285482815476" lon="121.36990081584796">
        <ele>9.704062177799642</ele>
        <time>2024-06-29T12:43:06Z</time>
      </trkpt>
      <trkpt lat="31.142786185187315" lon="121.36992751152403">
        <ele>9.09682580921799</ele>
        <time>2024-06-29T12:43:09Z</time>
      </trkpt>
      <trkpt lat="31.14273919300302" lon="121.36996590196783">
        <ele>9.905225936323404</ele>
        <time>2024-06-29T12:43:12Z</time>
      </trkpt>
      <trkpt lat="31.14270667615894" lon="121.37002610593672">
        <ele>9.505470355041325</ele>
        <time>2024-06-29T12:43:15Z</time>
      </trkpt>
      <trkpt lat="31.14254208316776" lon="121.3700640844229">
        <ele>9.819422353059053</ele>
        <time>2024-06-29T12:43:27Z</time>
      </trkpt>
      <trkpt lat="31.142458613564546" lon="121.37012490873965">
        <ele>7.912067176774144</ele>
        <time>2024-06-29T12:43:33Z</time>
      </trkpt>
      <trkpt lat="31.142322193841363" lon="121.37015800370473">
        <ele>7.244266617111862</ele>
        <time>2024-06-29T12:43:45Z</time>
      </trkpt>
      <trkpt lat="31.142256539728965" lon="121.37019237403278">
        <ele>6.981912035495043</ele>
        <time>2024-06-29T12:43:51Z</time>
      </trkpt>
      <trkpt lat="31.142082918422545" lon="121.37021692500501">
        <ele>7.02303920686245</ele>
        <time>2024-06-29T12:44:03Z</time>
      </trkpt>
      <trkpt lat="31.14202866224274" lon="121.37024042388154">
        <ele>8.247565427795053</ele>
        <time>2024-06-29T12:44:06Z</time>
      </trkpt>
      <trkpt lat="31.141947959961357" lon="121.37023013307127">
        <ele>9.088848574087024</ele>
        <time>2024-06-29T12:44:12Z</time>
      </trkpt>
      <trkpt lat="31.141903003742378" lon="121.37015734752744">
        <ele>8.09064731001854</ele>
        <time>2024-06-29T12:44:18Z</time>
      </trkpt>
      <trkpt lat="31.141862264042988" lon="121.37012292545569">
        <ele>8.558079113252461</ele>
        <time>2024-06-29T12:44:21Z</time>
      </trkpt>
      <trkpt lat="31.14165376225608" lon="121.37018024504651">
        <ele>11.323713867925107</ele>
        <time>2024-06-29T12:44:37Z</time>
      </trkpt>
      <trkpt lat="31.14157606773453" lon="121.37030299005382">
        <ele>11.159677635878325</ele>
        <time>2024-06-29T12:44:47Z</time>
      </trkpt>
      <trkpt lat="31.14153632009481" lon="121.37032960749703">
        <ele>10.457965472713113</ele>
        <time>2024-06-29T12:44:51Z</time>
      </trkpt>
      <trkpt lat="31.14147833082149" lon="121.37031301373828">
        <ele>11.049455685541034</ele>
        <time>2024-06-29T12:44:57Z</time>
      </trkpt>
      <trkpt lat="31.14137032164203" lon="121.37042032960122">
        <ele>11.824032813310623</ele>
        <time>2024-06-29T12:45:06Z</time>
      </trkpt>
      <trkpt lat="31.14128804445564" lon="121.37061592556036">
        <ele>12.699362799525261</ele>
        <time>2024-06-29T12:45:18Z</time>
      </trkpt>
      <trkpt lat="31.1413049234766" lon="121.37070359568156">
        <ele>10.973437283188105</ele>
        <time>2024-06-29T12:45:24Z</time>
      </trkpt>
      <trkpt lat="31.141257828805713" lon="121.37071022929645">
        <ele>11.469131583347917</ele>
        <time>2024-06-29T12:45:30Z</time>
      </trkpt>
      <trkpt lat="31.14136115314425" lon="121.37084339025124">
        <ele>9.331145603209734</ele>
        <time>2024-06-29T12:45:36Z</time>
      </trkpt>
      <trkpt lat="31.141382379405556" lon="121.3708916374278">
        <ele>9.676708552986383</ele>
        <time>2024-06-29T12:45:39Z</time>
      </trkpt>
      <trkpt lat="31.1413401164224" lon="121.37102851026127">
        <ele>8.37415630929172</ele>
        <time>2024-06-29T12:45:51Z</time>
      </trkpt>
      <trkpt lat="31.141295317467588" lon="121.37108031818921">
        <ele>6.641146858222783</ele>
        <time>2024-06-29T12:45:57Z</time>
      </trkpt>
      <trkpt lat="31.14126543727374" lon="121.37117967019444">
        <ele>6.711217376403511</ele>
        <time>2024-06-29T12:46:03Z</time>
      </trkpt>
      <trkpt lat="31.14121076012118" lon="121.37125761051965">
        <ele>6.144566777162254</ele>
        <time>2024-06-29T12:46:09Z</time>
      </trkpt>
      <trkpt lat="31.141127874554577" lon="121.37148442529625">
        <ele>9.69036591053009</ele>
        <time>2024-06-29T12:46:21Z</time>
      </trkpt>
      <trkpt lat="31.141035488032287" lon="121.37154755153844">
        <ele>9.201092466711998</ele>
        <time>2024-06-29T12:46:27Z</time>
      </trkpt>
      <trkpt lat="31.14094818721651" lon="121.37157455188665">
        <ele>11.514641983434558</ele>
        <time>2024-06-29T12:46:33Z</time>
      </trkpt>
      <trkpt lat="31.140886969043084" lon="121.37157109851437">
        <ele>11.528124627657235</ele>
        <time>2024-06-29T12:46:39Z</time>
      </trkpt>
      <trkpt lat="31.140856065616155" lon="121.37143494534311">
        <ele>11.334357278421521</ele>
        <time>2024-06-29T12:46:46Z</time>
      </trkpt>
      <trkpt lat="31.14078624260361" lon="121.37136265858308">
        <ele>10.502732864581048</ele>
        <time>2024-06-29T12:46:52Z</time>
      </trkpt>
      <trkpt lat="31.140718750784597" lon="121.37137012020253">
        <ele>11.738860258832574</ele>
        <time>2024-06-29T12:47:01Z</time>
      </trkpt>
      <trkpt lat="31.140601305641407" lon="121.37156180437184">
        <ele>9.078623421490192</ele>
        <time>2024-06-29T12:47:18Z</time>
      </trkpt>
      <trkpt lat="31.140452037631626" lon="121.37171972470084">
        <ele>10.341913137584925</ele>
        <time>2024-06-29T12:47:30Z</time>
      </trkpt>
      <trkpt lat="31.140401430725444" lon="121.37173870409855">
        <ele>10.823981737717986</ele>
        <time>2024-06-29T12:47:33Z</time>
      </trkpt>
      <trkpt lat="31.140357093559345" lon="121.37172861603435">
        <ele>11.478873462416232</ele>
        <time>2024-06-29T12:47:36Z</time>
      </trkpt>
      <trkpt lat="31.14026087548686" lon="121.37178006256278">
        <ele>12.019481658004224</ele>
        <time>2024-06-29T12:47:42Z</time>
      </trkpt>
      <trkpt lat="31.140195377294457" lon="121.37177290389793">
        <ele>10.69197326991707</ele>
        <time>2024-06-29T12:47:45Z</time>
      </trkpt>
      <trkpt lat="31.140125402823436" lon="121.37179647110841">
        <ele>11.031502122990787</ele>
        <time>2024-06-29T12:47:51Z</time>
      </trkpt>
      <trkpt lat="31.14008557663254" lon="121.37175767042383">
        <ele>11.260936204344034</ele>
        <time>2024-06-29T12:47:54Z</time>
      </trkpt>
      <trkpt lat="31.14001931182621" lon="121.37175435699884">
        <ele>11.44272837229073</ele>
        <time>2024-06-29T12:47:57Z</time>
      </trkpt>
      <trkpt lat="31.139880836972257" lon="121.37158299731435">
        <ele>11.562864108942449</ele>
        <time>2024-06-29T12:48:15Z</time>
      </trkpt>
      <trkpt lat="31.13981469871433" lon="121.3714431289566">
        <ele>10.35196234844625</ele>
        <time>2024-06-29T12:48:30Z</time>
      </trkpt>
      <trkpt lat="31.13982861574513" lon="121.3713895669304">
        <ele>10.186117637902498</ele>
        <time>2024-06-29T12:48:36Z</time>
      </trkpt>
      <trkpt lat="31.139814025547814" lon="121.37131677773448">
        <ele>9.895993983373046</ele>
        <time>2024-06-29T12:48:42Z</time>
      </trkpt>
      <trkpt lat="31.139840447384035" lon="121.37117068490328">
        <ele>10.724884384311736</ele>
        <time>2024-06-29T12:48:49Z</time>
      </trkpt>
      <trkpt lat="31.13976238166172" lon="121.37099077790003">
        <ele>9.2332345508039</ele>
        <time>2024-06-29T12:49:02Z</time>
      </trkpt>
      <trkpt lat="31.13981336406233" lon="121.37086846554195">
        <ele>7.945619287900627</ele>
        <time>2024-06-29T12:49:11Z</time>
      </trkpt>
      <trkpt lat="31.13983961810563" lon="121.37055485937209">
        <ele>8.371951522305608</ele>
        <time>2024-06-29T12:49:35Z</time>
      </trkpt>
      <trkpt lat="31.13980047087756" lon="121.37048901206853">
        <ele>6.49602469895035</ele>
        <time>2024-06-29T12:49:38Z</time>
      </trkpt>
      <trkpt lat="31.139694726881853" lon="121.37050527651668">
        <ele>6.244101051241159</ele>
        <time>2024-06-29T12:49:41Z</time>
      </trkpt>
      <trkpt lat="31.139632255709344" lon="121.37053831895179">
        <ele>6.764246609061956</ele>
        <time>2024-06-29T12:49:44Z</time>
      </trkpt>
      <trkpt lat="31.13955147631909" lon="121.37054813541656">
        <ele>6.645107894204557</ele>
        <time>2024-06-29T12:49:47Z</time>
      </trkpt>
      <trkpt lat="31.139490624163958" lon="121.3705302021717">
        <ele>6.9855855740606785</ele>
        <time>2024-06-29T12:49:50Z</time>
      </trkpt>
      <trkpt lat="31.139339456217485" lon="121.3704046886134">
        <ele>8.649983015842736</ele>
        <time>2024-06-29T12:50:02Z</time>
      </trkpt>
      <trkpt lat="31.13925822170972" lon="121.37036835503874">
        <ele>11.052390175871551</ele>
        <time>2024-06-29T12:50:08Z</time>
      </trkpt>
      <trkpt lat="31.139196175569808" lon="121.37027005332077">
        <ele>9.538084544241428</ele>
        <time>2024-06-29T12:50:17Z</time>
      </trkpt>
      <trkpt lat="31.13912275551172" lon="121.37024074940824">
        <ele>8.611236747354269</ele>
        <time>2024-06-29T12:50:23Z</time>
      </trkpt>
      <trkpt lat="31.139074458423202" lon="121.3701366575648">
        <ele>7.563821814022958</ele>
        <time>2024-06-29T12:50:32Z</time>
      </trkpt>
      <trkpt lat="31.13895464696344" lon="121.37004242029619">
        <ele>11.287354005500674</ele>
        <time>2024-06-29T12:50:41Z</time>
      </trkpt>
      <trkpt lat="31.138813041142836" lon="121.36999193557114">
        <ele>10.225221697241068</ele>
        <time>2024-06-29T12:50:54Z</time>
      </trkpt>
      <trkpt lat="31.138662330878986" lon="121.3697450425288">
        <ele>7.420155945234001</ele>
        <time>2024-06-29T12:51:15Z</time>
      </trkpt>
      <trkpt lat="31.13859629422717" lon="121.36970630927175">
        <ele>8.525491619482636</ele>
        <time>2024-06-29T12:51:21Z</time>
      </trkpt>
      <trkpt lat="31.138511216100586" lon="121.36969700293453">
        <ele>7.915130402892828</ele>
        <time>2024-06-29T12:51:27Z</time>
      </trkpt>
      <trkpt lat="31.1384230584672" lon="121.36931132277222">
        <ele>6.380176519043744</ele>
        <time>2024-06-29T12:51:54Z</time>
      </trkpt>
      <trkpt lat="31.13839733184907" lon="121.3692016176613">
        <ele>7.430688043124974</ele>
        <time>2024-06-29T12:52:00Z</time>
      </trkpt>
    </trkseg>
  </trk>
</gpx>