<?xml version="1.0" encoding="UTF-8"?>
<gpx xmlns="http://www.topografix.com/GPX/1/1" xmlns:gpxtpx="http://www.garmin.com/xmlschemas/TrackPointExtension/v1" xmlns:xsi="http://www.w3.org/2001/XMLSchema-instance" xsi:schemaLocation="http://www.topografix.com/GPX/1/1 http://www.topografix.com/GPX/1/1/gpx.xsd" version="1.1" creator="gpx.py -- https://github.com/tkrajina/gpxpy">
  <trk>
    <name>gpx from keep</name>
    <type>Run</type>
    <trkseg>
      <trkpt lat="36.02916450532974" lon="119.4146778244995">
        <ele>69.53631591796875</ele>
        <time>2023-02-07T00:48:03Z</time>
      </trkpt>
      <trkpt lat="36.02911352027469" lon="119.41468183555561">
        <ele>75.828125</ele>
        <time>2023-02-07T00:48:06Z</time>
      </trkpt>
      <trkpt lat="36.02905551097108" lon="119.41465380472016">
        <ele>75.6134033203125</ele>
        <time>2023-02-07T00:48:12Z</time>
      </trkpt>
      <trkpt lat="36.028799585110505" lon="119.41467285876048">
        <ele>69.9466552734375</ele>
        <time>2023-02-07T00:48:30Z</time>
      </trkpt>
      <trkpt lat="36.02867258763522" lon="119.41463982901645">
        <ele>69.4681396484375</ele>
        <time>2023-02-07T00:48:36Z</time>
      </trkpt>
      <trkpt lat="36.02854962880132" lon="119.41465586412805">
        <ele>69.3857421875</ele>
        <time>2023-02-07T00:48:42Z</time>
      </trkpt>
      <trkpt lat="36.028395653685905" lon="119.41464286407478">
        <ele>62.95184326171875</ele>
        <time>2023-02-07T00:48:54Z</time>
      </trkpt>
      <trkpt lat="36.028334635462734" lon="119.4146028176756">
        <ele>60.4718017578125</ele>
        <time>2023-02-07T00:49:00Z</time>
      </trkpt>
      <trkpt lat="36.02828052761909" lon="119.41445262489236">
        <ele>66.63037109375</ele>
        <time>2023-02-07T00:49:09Z</time>
      </trkpt>
      <trkpt lat="36.028268437282044" lon="119.41433547203137">
        <ele>66.66162109375</ele>
        <time>2023-02-07T00:49:12Z</time>
      </trkpt>
      <trkpt lat="36.02827636267339" lon="119.41424335042406">
        <ele>67.70654296875</ele>
        <time>2023-02-07T00:49:15Z</time>
      </trkpt>
      <trkpt lat="36.02819730764849" lon="119.41415023775014">
        <ele>70.1744384765625</ele>
        <time>2023-02-07T00:49:21Z</time>
      </trkpt>
      <trkpt lat="36.02814029722287" lon="119.41412020504299">
        <ele>69.1903076171875</ele>
        <time>2023-02-07T00:49:24Z</time>
      </trkpt>
      <trkpt lat="36.02781940471345" lon="119.4141632970991">
        <ele>69.7249755859375</ele>
        <time>2023-02-07T00:49:45Z</time>
      </trkpt>
      <trkpt lat="36.02762846039556" lon="119.41417833809795">
        <ele>67.896240234375</ele>
        <time>2023-02-07T00:49:57Z</time>
      </trkpt>
      <trkpt lat="36.02748647104402" lon="119.4141503174833">
        <ele>71.16351318359375</ele>
        <time>2023-02-07T00:50:06Z</time>
      </trkpt>
      <trkpt lat="36.0273605196405" lon="119.41417536423457">
        <ele>66.2059326171875</ele>
        <time>2023-02-07T00:50:18Z</time>
      </trkpt>
      <trkpt lat="36.02731447844558" lon="119.41410928334899">
        <ele>64.75848388671875</ele>
        <time>2023-02-07T00:50:24Z</time>
      </trkpt>
      <trkpt lat="36.02701752404309" lon="119.41408027892575">
        <ele>62.35540771484375</ele>
        <time>2023-02-07T00:50:48Z</time>
      </trkpt>
      <trkpt lat="36.02673254743807" lon="119.4140262407594">
        <ele>63.7164306640625</ele>
        <time>2023-02-07T00:51:03Z</time>
      </trkpt>
      <trkpt lat="36.026667556154585" lon="119.41401823767352">
        <ele>65.77734375</ele>
        <time>2023-02-07T00:51:06Z</time>
      </trkpt>
      <trkpt lat="36.02644964841596" lon="119.4140723322208">
        <ele>66.52581787109375</ele>
        <time>2023-02-07T00:51:15Z</time>
      </trkpt>
      <trkpt lat="36.026193704179896" lon="119.4140683557294">
        <ele>63.576171875</ele>
        <time>2023-02-07T00:51:27Z</time>
      </trkpt>
      <trkpt lat="36.026001781980106" lon="119.41411143318916">
        <ele>63.30419921875</ele>
        <time>2023-02-07T00:51:33Z</time>
      </trkpt>
      <trkpt lat="36.025746839872774" lon="119.4141104604814">
        <ele>63.90753173828125</ele>
        <time>2023-02-07T00:51:45Z</time>
      </trkpt>
      <trkpt lat="36.02547985832568" lon="119.41405541890506">
        <ele>59.894287109375</ele>
        <time>2023-02-07T00:52:06Z</time>
      </trkpt>
      <trkpt lat="36.025274910976215" lon="119.41406245098463">
        <ele>61.56146240234375</ele>
        <time>2023-02-07T00:52:18Z</time>
      </trkpt>
      <trkpt lat="36.025226939214" lon="119.41408448496128">
        <ele>63.49591064453125</ele>
        <time>2023-02-07T00:52:21Z</time>
      </trkpt>
      <trkpt lat="36.02495600629506" lon="119.41409052315187">
        <ele>63.6912841796875</ele>
        <time>2023-02-07T00:52:39Z</time>
      </trkpt>
      <trkpt lat="36.0248990601466" lon="119.41414259725671">
        <ele>65.90301513671875</ele>
        <time>2023-02-07T00:52:45Z</time>
      </trkpt>
      <trkpt lat="36.02464914205144" lon="119.41417366572941">
        <ele>68.7109375</ele>
        <time>2023-02-07T00:53:03Z</time>
      </trkpt>
      <trkpt lat="36.02435220259826" lon="119.41416368597969">
        <ele>66.92401123046875</ele>
        <time>2023-02-07T00:53:24Z</time>
      </trkpt>
      <trkpt lat="36.024217236051015" lon="119.41416670503142">
        <ele>68.70172119140625</ele>
        <time>2023-02-07T00:53:33Z</time>
      </trkpt>
      <trkpt lat="36.024171199600254" lon="119.41410663199073">
        <ele>68.41339111328125</ele>
        <time>2023-02-07T00:53:39Z</time>
      </trkpt>
      <trkpt lat="36.024148996497374" lon="119.41383828767009">
        <ele>66.4144287109375</ele>
        <time>2023-02-07T00:53:57Z</time>
      </trkpt>
      <trkpt lat="36.02410487320512" lon="119.41366406963776">
        <ele>65.5975341796875</ele>
        <time>2023-02-07T00:54:06Z</time>
      </trkpt>
      <trkpt lat="36.02403458477865" lon="119.41325956643884">
        <ele>72.10498046875</ele>
        <time>2023-02-07T00:54:30Z</time>
      </trkpt>
      <trkpt lat="36.024011449383885" lon="119.41306933188532">
        <ele>69.84259033203125</ele>
        <time>2023-02-07T00:54:42Z</time>
      </trkpt>
      <trkpt lat="36.02411031008576" lon="119.41291012392017">
        <ele>69.49920654296875</ele>
        <time>2023-02-07T00:54:54Z</time>
      </trkpt>
      <trkpt lat="36.02411826312692" lon="119.41284804664886">
        <ele>71.62432861328125</ele>
        <time>2023-02-07T00:54:57Z</time>
      </trkpt>
      <trkpt lat="36.02408012967663" lon="119.4126508096907">
        <ele>73.60003662109375</ele>
        <time>2023-02-07T00:55:06Z</time>
      </trkpt>
      <trkpt lat="36.02409502551231" lon="119.41250963671622">
        <ele>70.21551513671875</ele>
        <time>2023-02-07T00:55:12Z</time>
      </trkpt>
      <trkpt lat="36.023988835148536" lon="119.41220428195382">
        <ele>75.23248291015625</ele>
        <time>2023-02-07T00:55:30Z</time>
      </trkpt>
      <trkpt lat="36.02397970347269" lon="119.41201105369049">
        <ele>76.1536865234375</ele>
        <time>2023-02-07T00:55:42Z</time>
      </trkpt>
      <trkpt lat="36.023996660375765" lon="119.41195398447726">
        <ele>76.8212890625</ele>
        <time>2023-02-07T00:55:45Z</time>
      </trkpt>
      <trkpt lat="36.02398954329036" lon="119.41177978094589">
        <ele>72.09307861328125</ele>
        <time>2023-02-07T00:55:54Z</time>
      </trkpt>
      <trkpt lat="36.02393651961689" lon="119.41172672499896">
        <ele>73.71282958984375</ele>
        <time>2023-02-07T00:56:00Z</time>
      </trkpt>
      <trkpt lat="36.02344694432873" lon="119.41067058119549">
        <ele>60.59307861328125</ele>
        <time>2023-02-07T00:57:28Z</time>
      </trkpt>
      <trkpt lat="36.023404935805964" lon="119.41064155385466">
        <ele>64.30718994140625</ele>
        <time>2023-02-07T00:57:34Z</time>
      </trkpt>
      <trkpt lat="36.023136982544585" lon="119.41061755742695">
        <ele>66.3846435546875</ele>
        <time>2023-02-07T00:57:55Z</time>
      </trkpt>
      <trkpt lat="36.02282698729598" lon="119.41051047450114">
        <ele>70.1326904296875</ele>
        <time>2023-02-07T00:58:19Z</time>
      </trkpt>
      <trkpt lat="36.02255800348601" lon="119.41043642365827">
        <ele>68.07415771484375</ele>
        <time>2023-02-07T00:58:40Z</time>
      </trkpt>
      <trkpt lat="36.02231196928327" lon="119.41028829015679">
        <ele>64.33624267578125</ele>
        <time>2023-02-07T00:58:58Z</time>
      </trkpt>
      <trkpt lat="36.02218084093477" lon="119.41002602273454">
        <ele>56.90185546875</ele>
        <time>2023-02-07T00:59:19Z</time>
      </trkpt>
      <trkpt lat="36.02209187046038" lon="119.41004104876393">
        <ele>57.37139892578125</ele>
        <time>2023-02-07T00:59:22Z</time>
      </trkpt>
      <trkpt lat="36.02191288002101" lon="119.40998801220458">
        <ele>64.1650390625</ele>
        <time>2023-02-07T00:59:31Z</time>
      </trkpt>
      <trkpt lat="36.02185890144919" lon="119.41000303427529">
        <ele>65.581298828125</ele>
        <time>2023-02-07T00:59:34Z</time>
      </trkpt>
      <trkpt lat="36.02174880631041" lon="119.40979983098873">
        <ele>64.78143310546875</ele>
        <time>2023-02-07T00:59:46Z</time>
      </trkpt>
      <trkpt lat="36.021718764491354" lon="119.40971674686922">
        <ele>63.92462158203125</ele>
        <time>2023-02-07T00:59:52Z</time>
      </trkpt>
      <trkpt lat="36.02149167940841" lon="119.4094795246919">
        <ele>58.63079833984375</ele>
        <time>2023-02-07T01:00:13Z</time>
      </trkpt>
      <trkpt lat="36.02125959294638" lon="119.40923329706321">
        <ele>60.238037109375</ele>
        <time>2023-02-07T01:00:34Z</time>
      </trkpt>
      <trkpt lat="36.02102851009606" lon="119.40898907479759">
        <ele>62.89605712890625</ele>
        <time>2023-02-07T01:00:55Z</time>
      </trkpt>
      <trkpt lat="36.020809427168125" lon="119.40874485458484">
        <ele>65.7520751953125</ele>
        <time>2023-02-07T01:01:16Z</time>
      </trkpt>
      <trkpt lat="36.020559345607985" lon="119.40848462553912">
        <ele>66.20281982421875</ele>
        <time>2023-02-07T01:01:40Z</time>
      </trkpt>
      <trkpt lat="36.020334273260914" lon="119.40824741979367">
        <ele>64.73822021484375</ele>
        <time>2023-02-07T01:02:04Z</time>
      </trkpt>
      <trkpt lat="36.0202482193429" lon="119.4081042916205">
        <ele>65.473876953125</ele>
        <time>2023-02-07T01:02:16Z</time>
      </trkpt>
      <trkpt lat="36.02025017647847" lon="119.40802121193727">
        <ele>64.43328857421875</ele>
        <time>2023-02-07T01:02:22Z</time>
      </trkpt>
      <trkpt lat="36.020181129648066" lon="119.40789710170101">
        <ele>63.80377197265625</ele>
        <time>2023-02-07T01:02:31Z</time>
      </trkpt>
      <trkpt lat="36.02012901574013" lon="119.40764386954453">
        <ele>64.1505126953125</ele>
        <time>2023-02-07T01:02:49Z</time>
      </trkpt>
      <trkpt lat="36.0200269090652" lon="119.40737563287098">
        <ele>65.092529296875</ele>
        <time>2023-02-07T01:03:07Z</time>
      </trkpt>
      <trkpt lat="36.01994373156768" lon="119.40695726337326">
        <ele>63.14892578125</ele>
        <time>2023-02-07T01:03:31Z</time>
      </trkpt>
      <trkpt lat="36.01999090284582" lon="119.40499461380692">
        <ele>65.79461669921875</ele>
        <time>2023-02-07T01:05:26Z</time>
      </trkpt>
      <trkpt lat="36.02003588314257" lon="119.4049695892101">
        <ele>69.8695068359375</ele>
        <time>2023-02-07T01:05:29Z</time>
      </trkpt>
      <trkpt lat="36.020042859673055" lon="119.40491054243446">
        <ele>68.59600830078125</ele>
        <time>2023-02-07T01:05:35Z</time>
      </trkpt>
      <trkpt lat="36.02005568504984" lon="119.40443117492897">
        <ele>0.0</ele>
        <time>2023-02-07T01:06:14Z</time>
      </trkpt>
      <trkpt lat="36.02005563478973" lon="119.4042850659522">
        <ele>0.0</ele>
        <time>2023-02-07T01:06:20Z</time>
      </trkpt>
      <trkpt lat="36.01986196374034" lon="119.40408689597089">
        <ele>0.0</ele>
        <time>2023-02-07T01:06:32Z</time>
      </trkpt>
      <trkpt lat="36.02017396207731" lon="119.40206854775451">
        <ele>0.0</ele>
        <time>2023-02-07T01:08:18Z</time>
      </trkpt>
      <trkpt lat="36.020221980562056" lon="119.40218961739">
        <ele>0.0</ele>
        <time>2023-02-07T01:08:24Z</time>
      </trkpt>
      <trkpt lat="36.0197087219809" lon="119.40036062976411">
        <ele>0.0</ele>
        <time>2023-02-07T01:10:07Z</time>
      </trkpt>
      <trkpt lat="36.019843673166925" lon="119.40025255875912">
        <ele>65.55474853515625</ele>
        <time>2023-02-07T01:10:28Z</time>
      </trkpt>
      <trkpt lat="36.01981166205901" lon="119.40013550258682">
        <ele>64.84210205078125</ele>
        <time>2023-02-07T01:10:37Z</time>
      </trkpt>
      <trkpt lat="36.01967368195132" lon="119.40005747866275">
        <ele>0.0</ele>
        <time>2023-02-07T01:11:46Z</time>
      </trkpt>
      <trkpt lat="36.01968766402719" lon="119.39995942805594">
        <ele>0.0</ele>
        <time>2023-02-07T01:12:04Z</time>
      </trkpt>
      <trkpt lat="36.019655662059755" lon="119.39989539991666">
        <ele>0.0</ele>
        <time>2023-02-07T01:12:22Z</time>
      </trkpt>
      <trkpt lat="36.019507418116284" lon="119.39970902410322">
        <ele>0.0</ele>
        <time>2023-02-07T01:12:28Z</time>
      </trkpt>
      <trkpt lat="36.01969281376623" lon="119.3996729773001">
        <ele>0.0</ele>
        <time>2023-02-07T01:12:40Z</time>
      </trkpt>
      <trkpt lat="36.019713645048995" lon="119.3998703810737">
        <ele>0.0</ele>
        <time>2023-02-07T01:12:58Z</time>
      </trkpt>
      <trkpt lat="36.017479991605136" lon="119.39491587824791">
        <ele>0.0</ele>
        <time>2023-02-07T01:16:35Z</time>
      </trkpt>
      <trkpt lat="36.01784387449651" lon="119.39543795787168">
        <ele>0.0</ele>
        <time>2023-02-07T01:16:44Z</time>
      </trkpt>
      <trkpt lat="36.01806565541089" lon="119.39603770725358">
        <ele>0.0</ele>
        <time>2023-02-07T01:17:02Z</time>
      </trkpt>
      <trkpt lat="36.01777488115259" lon="119.39563501500375">
        <ele>0.0</ele>
        <time>2023-02-07T01:17:29Z</time>
      </trkpt>
      <trkpt lat="36.01784388466483" lon="119.39525491391848">
        <ele>0.0</ele>
        <time>2023-02-07T01:17:38Z</time>
      </trkpt>
      <trkpt lat="36.01784388466483" lon="119.39525491391848">
        <ele>0.0</ele>
        <time>2023-02-07T01:17:53Z</time>
      </trkpt>
      <trkpt lat="36.01784320313219" lon="119.39525684413628">
        <ele>0.0</ele>
        <time>2023-02-07T01:17:56Z</time>
      </trkpt>
      <trkpt lat="36.01775156910632" lon="119.39509554356331">
        <ele>0.0</ele>
        <time>2023-02-07T01:18:02Z</time>
      </trkpt>
      <trkpt lat="36.01759847078223" lon="119.39473095782725">
        <ele>0.0</ele>
        <time>2023-02-07T01:18:14Z</time>
      </trkpt>
      <trkpt lat="36.01671120223802" lon="119.39452288378604">
        <ele>0.0</ele>
        <time>2023-02-07T01:18:36Z</time>
      </trkpt>
      <trkpt lat="36.01754899013192" lon="119.39473083141209">
        <ele>0.0</ele>
        <time>2023-02-07T01:18:51Z</time>
      </trkpt>
      <trkpt lat="36.016677423113606" lon="119.39285363908667">
        <ele>0.0</ele>
        <time>2023-02-07T01:20:33Z</time>
      </trkpt>
      <trkpt lat="36.01639561221089" lon="119.39216061231774">
        <ele>0.0</ele>
        <time>2023-02-07T01:21:51Z</time>
      </trkpt>
      <trkpt lat="36.01629065947012" lon="119.3920436168204">
        <ele>0.0</ele>
        <time>2023-02-07T01:22:15Z</time>
      </trkpt>
      <trkpt lat="36.01640039421767" lon="119.39347274453489">
        <ele>0.0</ele>
        <time>2023-02-07T01:24:18Z</time>
      </trkpt>
      <trkpt lat="36.0150326905825" lon="119.38919280933527">
        <ele>73.28033447265625</ele>
        <time>2023-02-07T01:25:09Z</time>
      </trkpt>
      <trkpt lat="36.01495278938978" lon="119.38894584329039">
        <ele>70.05145263671875</ele>
        <time>2023-02-07T01:25:27Z</time>
      </trkpt>
      <trkpt lat="36.0145261377166" lon="119.38822398284327">
        <ele>83.349853515625</ele>
        <time>2023-02-07T01:26:31Z</time>
      </trkpt>
      <trkpt lat="36.01455515740702" lon="119.3881509903933">
        <ele>74.1239013671875</ele>
        <time>2023-02-07T01:26:34Z</time>
      </trkpt>
      <trkpt lat="36.01454518417055" lon="119.38808400168111">
        <ele>72.70367431640625</ele>
        <time>2023-02-07T01:26:37Z</time>
      </trkpt>
      <trkpt lat="36.014596195493326" lon="119.38802100573234">
        <ele>69.5548095703125</ele>
        <time>2023-02-07T01:26:43Z</time>
      </trkpt>
      <trkpt lat="36.01472118461863" lon="119.3879719994509">
        <ele>66.7935791015625</ele>
        <time>2023-02-07T01:26:55Z</time>
      </trkpt>
      <trkpt lat="36.014962206388034" lon="119.38776500653609">
        <ele>68.921142578125</ele>
        <time>2023-02-07T01:27:19Z</time>
      </trkpt>
      <trkpt lat="36.01521522600725" lon="119.38756101399501">
        <ele>69.40313720703125</ele>
        <time>2023-02-07T01:27:43Z</time>
      </trkpt>
      <trkpt lat="36.015460255574396" lon="119.38734102762491">
        <ele>67.893798828125</ele>
        <time>2023-02-07T01:28:07Z</time>
      </trkpt>
      <trkpt lat="36.01571529257276" lon="119.38710204657374">
        <ele>68.691650390625</ele>
        <time>2023-02-07T01:28:31Z</time>
      </trkpt>
      <trkpt lat="36.01596531480258" lon="119.3869070595514">
        <ele>70.2022705078125</ele>
        <time>2023-02-07T01:28:55Z</time>
      </trkpt>
      <trkpt lat="36.01621235202916" lon="119.38668208166001">
        <ele>69.405029296875</ele>
        <time>2023-02-07T01:29:19Z</time>
      </trkpt>
      <trkpt lat="36.01627135963501" lon="119.38663208647213">
        <ele>67.61102294921875</ele>
        <time>2023-02-07T01:29:25Z</time>
      </trkpt>
      <trkpt lat="36.01747352608751" lon="119.3856372062736">
        <ele>0.0</ele>
        <time>2023-02-07T01:30:31Z</time>
      </trkpt>
      <trkpt lat="36.01751757371323" lon="119.38551423640504">
        <ele>0.0</ele>
        <time>2023-02-07T01:31:40Z</time>
      </trkpt>
      <trkpt lat="36.01736407309332" lon="119.38457154859991">
        <ele>53.5694580078125</ele>
        <time>2023-02-07T01:32:28Z</time>
      </trkpt>
      <trkpt lat="36.01710908224909" lon="119.38466954443291">
        <ele>73.9825439453125</ele>
        <time>2023-02-07T01:32:34Z</time>
      </trkpt>
      <trkpt lat="36.0171041159365" lon="119.38460556635007">
        <ele>72.94744873046875</ele>
        <time>2023-02-07T01:32:40Z</time>
      </trkpt>
      <trkpt lat="36.0169573004998" lon="119.38431368296175">
        <ele>76.27398681640625</ele>
        <time>2023-02-07T01:33:04Z</time>
      </trkpt>
      <trkpt lat="36.016865449703694" lon="119.3840707799419">
        <ele>73.037353515625</ele>
        <time>2023-02-07T01:33:19Z</time>
      </trkpt>
      <trkpt lat="36.0167726667445" lon="119.38370792546579">
        <ele>72.2705078125</ele>
        <time>2023-02-07T01:33:43Z</time>
      </trkpt>
      <trkpt lat="36.01672685638041" lon="119.38338405689176">
        <ele>73.70947265625</ele>
        <time>2023-02-07T01:34:07Z</time>
      </trkpt>
      <trkpt lat="36.01662405886039" lon="119.3830681967516">
        <ele>68.220703125</ele>
        <time>2023-02-07T01:34:31Z</time>
      </trkpt>
      <trkpt lat="36.01649828411618" lon="119.38272935417316">
        <ele>67.9156494140625</ele>
        <time>2023-02-07T01:34:55Z</time>
      </trkpt>
      <trkpt lat="36.016390451908855" lon="119.38248747213953">
        <ele>71.87255859375</ele>
        <time>2023-02-07T01:35:13Z</time>
      </trkpt>
      <trkpt lat="36.016388496496226" lon="119.38241350532164">
        <ele>71.00567626953125</ele>
        <time>2023-02-07T01:35:19Z</time>
      </trkpt>
      <trkpt lat="36.016581449995854" lon="119.38241648232176">
        <ele>70.2916259765625</ele>
        <time>2023-02-07T01:35:37Z</time>
      </trkpt>
      <trkpt lat="36.01703536879317" lon="119.38237644929765">
        <ele>65.4989013671875</ele>
        <time>2023-02-07T01:36:13Z</time>
      </trkpt>
      <trkpt lat="36.01714932743044" lon="119.38240142529219">
        <ele>65.16986083984375</ele>
        <time>2023-02-07T01:36:25Z</time>
      </trkpt>
      <trkpt lat="36.01740725873481" lon="119.38241638962644">
        <ele>71.8253173828125</ele>
        <time>2023-02-07T01:36:49Z</time>
      </trkpt>
      <trkpt lat="36.017476222467174" lon="119.38245036671081">
        <ele>71.301513671875</ele>
        <time>2023-02-07T01:36:55Z</time>
      </trkpt>
      <trkpt lat="36.01781510177649" lon="119.38252129717165">
        <ele>70.2445068359375</ele>
        <time>2023-02-07T01:37:22Z</time>
      </trkpt>
      <trkpt lat="36.01811998799176" lon="119.38259423082603">
        <ele>69.89892578125</ele>
        <time>2023-02-07T01:37:46Z</time>
      </trkpt>
      <trkpt lat="36.01824093170014" lon="119.3826421962757">
        <ele>70.7843017578125</ele>
        <time>2023-02-07T01:37:55Z</time>
      </trkpt>
    </trkseg>
  </trk>
</gpx>