<?xml version="1.0" encoding="UTF-8"?>
<gpx xmlns="http://www.topografix.com/GPX/1/1" xmlns:gpxtpx="http://www.garmin.com/xmlschemas/TrackPointExtension/v1" xmlns:xsi="http://www.w3.org/2001/XMLSchema-instance" xsi:schemaLocation="http://www.topografix.com/GPX/1/1 http://www.topografix.com/GPX/1/1/gpx.xsd" version="1.1" creator="gpx.py -- https://github.com/tkrajina/gpxpy">
  <trk>
    <name>gpx from keep</name>
    <type>Run</type>
    <trkseg>
      <trkpt lat="36.0300805557843" lon="119.40152210766283">
        <ele>63.02685546875</ele>
        <time>2023-07-09T11:45:53Z</time>
      </trkpt>
      <trkpt lat="36.02998550042728" lon="119.40115290600555">
        <ele>63.11224365234375</ele>
        <time>2023-07-09T11:46:08Z</time>
      </trkpt>
      <trkpt lat="36.02992247983766" lon="119.40097481340784">
        <ele>62.6478271484375</ele>
        <time>2023-07-09T11:46:14Z</time>
      </trkpt>
      <trkpt lat="36.029708467714514" lon="119.40064465738465">
        <ele>65.612548828125</ele>
        <time>2023-07-09T11:46:26Z</time>
      </trkpt>
      <trkpt lat="36.02963946162254" lon="119.40051959853503">
        <ele>64.3900146484375</ele>
        <time>2023-07-09T11:46:32Z</time>
      </trkpt>
      <trkpt lat="36.02950847196514" lon="119.40040355223081">
        <ele>63.4061279296875</ele>
        <time>2023-07-09T11:46:38Z</time>
      </trkpt>
      <trkpt lat="36.029283501252415" lon="119.40026750692834">
        <ele>59.62286376953125</ele>
        <time>2023-07-09T11:46:50Z</time>
      </trkpt>
      <trkpt lat="36.029138525414915" lon="119.40021049394431">
        <ele>58.38629150390625</ele>
        <time>2023-07-09T11:46:56Z</time>
      </trkpt>
      <trkpt lat="36.02890558274504" lon="119.40023453240873">
        <ele>55.7471923828125</ele>
        <time>2023-07-09T11:47:08Z</time>
      </trkpt>
      <trkpt lat="36.02868962979781" lon="119.40021854845972">
        <ele>58.51214599609375</ele>
        <time>2023-07-09T11:47:20Z</time>
      </trkpt>
      <trkpt lat="36.02838571462954" lon="119.40031163048221">
        <ele>57.3995361328125</ele>
        <time>2023-07-09T11:47:35Z</time>
      </trkpt>
      <trkpt lat="36.028314733888344" lon="119.40032964777929">
        <ele>57.2626953125</ele>
        <time>2023-07-09T11:47:41Z</time>
      </trkpt>
      <trkpt lat="36.02821477232516" lon="119.40042270747608">
        <ele>56.86199951171875</ele>
        <time>2023-07-09T11:47:47Z</time>
      </trkpt>
      <trkpt lat="36.02808781271114" lon="119.40048875642884">
        <ele>57.37017822265625</ele>
        <time>2023-07-09T11:47:53Z</time>
      </trkpt>
      <trkpt lat="36.027993854830314" lon="119.40060682962141">
        <ele>56.31439208984375</ele>
        <time>2023-07-09T11:47:59Z</time>
      </trkpt>
      <trkpt lat="36.02783091451822" lon="119.40073091459251">
        <ele>61.28277587890625</ele>
        <time>2023-07-09T11:48:08Z</time>
      </trkpt>
      <trkpt lat="36.027666931034354" lon="119.40061286954433">
        <ele>59.01153564453125</ele>
        <time>2023-07-09T11:48:17Z</time>
      </trkpt>
      <trkpt lat="36.027574929570655" lon="119.40048281086708">
        <ele>57.2677001953125</ele>
        <time>2023-07-09T11:48:23Z</time>
      </trkpt>
      <trkpt lat="36.02752193545511" lon="119.40044579735178">
        <ele>55.720947265625</ele>
        <time>2023-07-09T11:48:26Z</time>
      </trkpt>
      <trkpt lat="36.02743793214034" lon="119.40030973589472">
        <ele>54.8489990234375</ele>
        <time>2023-07-09T11:48:32Z</time>
      </trkpt>
      <trkpt lat="36.02719695376321" lon="119.40009665402503">
        <ele>54.23638916015625</ele>
        <time>2023-07-09T11:48:44Z</time>
      </trkpt>
      <trkpt lat="36.02714095884939" lon="119.40004563461027">
        <ele>54.29547119140625</ele>
        <time>2023-07-09T11:48:47Z</time>
      </trkpt>
      <trkpt lat="36.026853021892855" lon="119.40002465640706">
        <ele>57.83660888671875</ele>
        <time>2023-07-09T11:48:59Z</time>
      </trkpt>
      <trkpt lat="36.02680303098555" lon="119.40000865400673">
        <ele>60.1776123046875</ele>
        <time>2023-07-09T11:49:02Z</time>
      </trkpt>
      <trkpt lat="36.0265750594275" lon="119.39984459828983">
        <ele>54.85845947265625</ele>
        <time>2023-07-09T11:49:14Z</time>
      </trkpt>
      <trkpt lat="36.02627212316701" lon="119.39980261172958">
        <ele>56.91436767578125</ele>
        <time>2023-07-09T11:49:29Z</time>
      </trkpt>
      <trkpt lat="36.02600117138212" lon="119.39970059258697">
        <ele>59.6591796875</ele>
        <time>2023-07-09T11:49:41Z</time>
      </trkpt>
      <trkpt lat="36.02573420632827" lon="119.399499526595">
        <ele>59.0653076171875</ele>
        <time>2023-07-09T11:49:56Z</time>
      </trkpt>
      <trkpt lat="36.025676212614705" lon="119.39944350677365">
        <ele>60.170166015625</ele>
        <time>2023-07-09T11:49:59Z</time>
      </trkpt>
      <trkpt lat="36.02534025482447" lon="119.399146407783">
        <ele>62.87078857421875</ele>
        <time>2023-07-09T11:50:26Z</time>
      </trkpt>
      <trkpt lat="36.025067304161055" lon="119.3990223828208">
        <ele>59.8482666015625</ele>
        <time>2023-07-09T11:50:38Z</time>
      </trkpt>
      <trkpt lat="36.02475735941194" lon="119.39886534845009">
        <ele>59.11541748046875</ele>
        <time>2023-07-09T11:50:53Z</time>
      </trkpt>
      <trkpt lat="36.024489424625195" lon="119.3989003938425">
        <ele>61.16357421875</ele>
        <time>2023-07-09T11:51:05Z</time>
      </trkpt>
      <trkpt lat="36.02434545809202" lon="119.3989034113252">
        <ele>63.739990234375</ele>
        <time>2023-07-09T11:51:11Z</time>
      </trkpt>
      <trkpt lat="36.02431847367485" lon="119.39899445447831">
        <ele>64.35772705078125</ele>
        <time>2023-07-09T11:51:17Z</time>
      </trkpt>
      <trkpt lat="36.02435348919552" lon="119.39920954718761">
        <ele>65.03009033203125</ele>
        <time>2023-07-09T11:51:26Z</time>
      </trkpt>
      <trkpt lat="36.02431054161386" lon="119.39955771393714">
        <ele>66.764404296875</ele>
        <time>2023-07-09T11:51:38Z</time>
      </trkpt>
      <trkpt lat="36.0243155934676" lon="119.39994089945226">
        <ele>64.7103271484375</ele>
        <time>2023-07-09T11:51:53Z</time>
      </trkpt>
      <trkpt lat="36.02429961616813" lon="119.4000679647724">
        <ele>64.19146728515625</ele>
        <time>2023-07-09T11:52:02Z</time>
      </trkpt>
      <trkpt lat="36.024363632504226" lon="119.4002660584359">
        <ele>63.57855224609375</ele>
        <time>2023-07-09T11:52:56Z</time>
      </trkpt>
      <trkpt lat="36.02462659596844" lon="119.40041210468686">
        <ele>59.2218017578125</ele>
        <time>2023-07-09T11:53:11Z</time>
      </trkpt>
      <trkpt lat="36.02492055482591" lon="119.40056715344355">
        <ele>59.77911376953125</ele>
        <time>2023-07-09T11:53:26Z</time>
      </trkpt>
      <trkpt lat="36.02520250706747" lon="119.4006641736409">
        <ele>64.1787109375</ele>
        <time>2023-07-09T11:53:38Z</time>
      </trkpt>
      <trkpt lat="36.0252645036208" lon="119.4007241990228">
        <ele>66.95684814453125</ele>
        <time>2023-07-09T11:53:41Z</time>
      </trkpt>
      <trkpt lat="36.02555044290225" lon="119.40075218207572">
        <ele>71.05810546875</ele>
        <time>2023-07-09T11:53:53Z</time>
      </trkpt>
      <trkpt lat="36.0258393856049" lon="119.40080217681523">
        <ele>67.90753173828125</ele>
        <time>2023-07-09T11:54:05Z</time>
      </trkpt>
      <trkpt lat="36.02590637037433" lon="119.40080316983804">
        <ele>67.6275634765625</ele>
        <time>2023-07-09T11:54:08Z</time>
      </trkpt>
      <trkpt lat="36.02597934767301" lon="119.40077114422449">
        <ele>68.263671875</ele>
        <time>2023-07-09T11:54:11Z</time>
      </trkpt>
      <trkpt lat="36.02604433437511" lon="119.40078014181947">
        <ele>68.27679443359375</ele>
        <time>2023-07-09T11:54:14Z</time>
      </trkpt>
      <trkpt lat="36.026231278025335" lon="119.40070708126933">
        <ele>67.4193115234375</ele>
        <time>2023-07-09T11:54:26Z</time>
      </trkpt>
      <trkpt lat="36.02640823532366" lon="119.4006960554621">
        <ele>67.0552978515625</ele>
        <time>2023-07-09T11:54:35Z</time>
      </trkpt>
      <trkpt lat="36.02918477722149" lon="119.40159425059835">
        <ele>60.3760986328125</ele>
        <time>2023-07-09T11:57:17Z</time>
      </trkpt>
      <trkpt lat="36.02945374451135" lon="119.40172429755854">
        <ele>59.79345703125</ele>
        <time>2023-07-09T11:57:32Z</time>
      </trkpt>
      <trkpt lat="36.02958371738787" lon="119.40173629013256">
        <ele>59.55621337890625</ele>
        <time>2023-07-09T11:57:38Z</time>
      </trkpt>
      <trkpt lat="36.02985563985289" lon="119.40166921965607">
        <ele>59.1610107421875</ele>
        <time>2023-07-09T11:57:59Z</time>
      </trkpt>
    </trkseg>
  </trk>
</gpx>